<?xml version='1.0' encoding='UTF-8'?>
<kml xmlns="http://www.opengis.net/kml/2.2">
	<Document>
		<name>AFANTEIA (ORNITHI)</name>
		<Style id="PolyStyle70">
			<LabelStyle>
				<color>00000000</color>
				<scale>0.000000</scale>
			</LabelStyle>
			<LineStyle>
				<color>ff0055ff</color>
				<width>2.000000</width>
			</LineStyle>
			<PolyStyle>
				<color>00828282</color>
				<outline>1</outline>
			</PolyStyle>
		</Style>
		<Placemark id="ID_70287">
			<name>AFANTEIA (ORNITHI)</name>
			<snippet />
			<description>&lt;html xmlns:fo="http://www.w3.org/1999/XSL/Format" xmlns:msxsl="urn:schemas-microsoft-com:xslt"&gt;

&lt;head&gt;

&lt;META http-equiv="Content-Type" content="text/html"&gt;

&lt;meta http-equiv="content-type" content="text/html; charset=UTF-8"&gt;

&lt;/head&gt;

&lt;body style="margin:0px 0px 0px 0px;overflow:auto;background:#FFFFFF;"&gt;

&lt;table style="font-family:Arial,Verdana,Times;font-size:12px;text-align:left;width:100%;border-collapse:collapse;padding:3px 3px 3px 3px"&gt;

&lt;tr style="text-align:center;font-weight:bold;background:#9CBCE2"&gt;

&lt;td&gt;3&lt;/td&gt;

&lt;/tr&gt;

&lt;tr&gt;

&lt;td&gt;

&lt;table style="font-family:Arial,Verdana,Times;font-size:12px;text-align:left;width:100%;border-spacing:0px; padding:3px 3px 3px 3px"&gt;

&lt;tr&gt;

&lt;td&gt;DIST_CODE&lt;/td&gt;

&lt;td&gt;3&lt;/td&gt;

&lt;/tr&gt;

&lt;tr bgcolor="#D4E4F3"&gt;

&lt;td&gt;VIL_CODE&lt;/td&gt;

&lt;td&gt;232&lt;/td&gt;

&lt;/tr&gt;

&lt;tr&gt;

&lt;td&gt;VIL_CCD&lt;/td&gt;

&lt;td&gt;3232&lt;/td&gt;

&lt;/tr&gt;

&lt;tr bgcolor="#D4E4F3"&gt;

&lt;td&gt;VIL_NM_E&lt;/td&gt;

&lt;td&gt;AFANTEIA (ORNITHI)&lt;/td&gt;

&lt;/tr&gt;

&lt;tr&gt;

&lt;td&gt;VIL_NM_G&lt;/td&gt;

&lt;td&gt;ΑΦΑΝΤΕΙΑ (ΟΡΝΙΘΙ)&lt;/td&gt;

&lt;/tr&gt;

&lt;/table&gt;

&lt;/td&gt;

&lt;/tr&gt;

&lt;/table&gt;

&lt;/body&gt;&lt;script type="text/javascript"&gt;

				function changeImage(attElement, nameElement) {

				document.getElementById('imageAttachment').src = attElement;

				document.getElementById('imageName').innerHTML = nameElement;}

			&lt;/script&gt;&lt;/html&gt;

</description>
			<styleUrl>#PolyStyle70</styleUrl>
			<MultiGeometry>
				<Polygon>
					<extrude>0</extrude>
					<altitudeMode>clampToGround</altitudeMode>
					<outerBoundaryIs>
						<LinearRing>
							<coordinates> 33.57629783544741,35.1819643819461,0 33.57617109387151,35.18339251348448,0 33.57626661811419,35.18387070450137,0 33.5755548707561,35.18409551237956,0 33.5748168234372,35.18433569054427,0 33.57341683169819,35.18481120946817,0 33.57264692034592,35.18516316366156,0 33.57237596436052,35.18530734198732,0 33.57218137566772,35.18548241808305,0 33.57197081306698,35.18570668938855,0 33.57167406588388,35.18605193734178,0 33.57138775684982,35.18633461704729,0 33.57104255240851,35.18675154123473,0 33.57060981141446,35.18725778139047,0 33.57051419475034,35.18720758572884,0 33.5703692417737,35.186999936753,0 33.57026700973626,35.18684248108158,0 33.57022084637911,35.18668746460023,0 33.57007849921704,35.18664941121578,0 33.57012696246063,35.18654362818327,0 33.57014442476516,35.18648393197099,0 33.57016205457587,35.18647792867804,0 33.57020669230795,35.18647698209532,0 33.57023509991218,35.18593317156072,0 33.57026194717494,35.18522231908563,0 33.57027173125664,35.18469900168413,0 33.57029663745381,35.18403161850288,0 33.57031351701364,35.18312135412399,0 33.57030993939481,35.18297306598938,0 33.57032693419224,35.18276422323879,0 33.57032677723525,35.18271393927559,0 33.57030594416408,35.18269097181555,0 33.57027890025557,35.18267398364264,0 33.57006589155104,35.18261136389491,0 33.57008847062989,35.18252779290622,0 33.57013761169215,35.1823078028465,0 33.57022255799524,35.18191813408688,0 33.57029109182968,35.18192480796863,0 33.5707634839969,35.18194341469656,0 33.57077260051031,35.18187095169642,0 33.57079665595441,35.18167471841311,0 33.57087976078643,35.18099680094741,0 33.57033698302955,35.18096738136467,0 33.57042470838824,35.18018475898923,0 33.5708284374633,35.18019341667444,0 33.57082277010581,35.17970440538037,0 33.57047694302866,35.1796929087162,0 33.57054143358735,35.1788879212739,0 33.56951180581494,35.17881339171116,0 33.56895716624218,35.17877324015242,0 33.56901779919126,35.17831957690233,0 33.56951049031215,35.17839105242189,0 33.56978390599125,35.17843071652521,0 33.57058823446915,35.1785112061871,0 33.57062717125662,35.17800036666424,0 33.57011330382054,35.17795118838652,0 33.57012970097476,35.17763872221705,0 33.57009083983937,35.17684957357464,0 33.57010580631558,35.17660910603249,0 33.57025953684486,35.17603689602738,0 33.57031450154883,35.17589007357071,0 33.57043876146331,35.17541776752705,0 33.57051161288921,35.17517174424115,0 33.57052511964243,35.17499376489477,0 33.57049773238828,35.17496529648896,0 33.56978946704209,35.17490769648361,0 33.56979601886241,35.17488662729396,0 33.57015617819167,35.17472625781613,0 33.57016765087002,35.17469159506403,0 33.57017082262256,35.17464744011944,0 33.57014180884825,35.17462780386439,0 33.57009131337163,35.17461636406287,0 33.56950484795216,35.1746659084103,0 33.56949865070884,35.17458954230035,0 33.5694853145061,35.17442518390791,0 33.56939551100287,35.17331848013876,0 33.56942085926197,35.17295656220491,0 33.56949358049392,35.17296108421782,0 33.56966261359731,35.17297159550097,0 33.56973698296085,35.1729435920746,0 33.56977737326422,35.17289664263476,0 33.56977001613738,35.17212848439365,0 33.56982301848902,35.17108512438011,0 33.56980860367511,35.17070684020516,0 33.56962765262261,35.17051296990869,0 33.56948564798059,35.17041335642029,0 33.56947240031943,35.17040406319828,0 33.56934721654767,35.17029511682122,0 33.56881218788988,35.17024138913404,0 33.56869800856239,35.16930529597771,0 33.56838065955609,35.16834670278398,0 33.5683646152639,35.16824179431156,0 33.56892648236246,35.16828408920178,0 33.56908155716854,35.16717374408584,0 33.56921670764053,35.16620604224828,0 33.56919611156381,35.16604518804579,0 33.56915350825859,35.16580874405498,0 33.56900287027346,35.16583518812821,0 33.56897083062832,35.16576374585016,0 33.56894778440278,35.16576874592338,0 33.56853570851798,35.16585816928887,0 33.56793832466182,35.16601206391685,0 33.56725057914053,35.16618814638598,0 33.56691917329127,35.16624659337915,0 33.56663620046104,35.16626230796735,0 33.56643850980686,35.16623659016064,0 33.56626577713074,35.16615856227991,0 33.56613482301812,35.16605156749778,0 33.5660053427054,35.16587856151857,0 33.56597823129579,35.16577547831064,0 33.56598790742105,35.16565444063495,0 33.56597426217403,35.16557333345423,0 33.56575543034067,35.16520660895246,0 33.56533021622585,35.16470829269857,0 33.56521602762257,35.16460676488632,0 33.56512050269563,35.16458358243273,0 33.56494632095965,35.164577066549,0 33.56460643195465,35.16459839422999,0 33.56404210527186,35.16460780596926,0 33.56331191330391,35.16459280075101,0 33.56302215245145,35.16457689248367,0 33.56247273861333,35.16453400924894,0 33.5620504765254,35.16445098342796,0 33.56176056980669,35.16438693955232,0 33.56129452618283,35.16422286380447,0 33.56097089294678,35.16408049936744,0 33.56069247797702,35.16393942018811,0 33.56025142696555,35.16373128380586,0 33.56009878135687,35.16364632973285,0 33.55999797376872,35.16353651711622,0 33.55981146981051,35.16332924023214,0 33.55924168119974,35.16262904067375,0 33.55866855575552,35.16192884468246,0 33.55844167588194,35.16165701219379,0 33.55830579909118,35.1615775238555,0 33.55782628455112,35.1613818326484,0 33.55751777212559,35.16125043123571,0 33.55741554393335,35.16122313072557,0 33.55688613216272,35.16114030117579,0 33.55621074114354,35.16138998888837,0 33.555856833878,35.16152082379323,0 33.55570464374932,35.16180333511666,0 33.55563732406219,35.16184180602016,0 33.55534204893809,35.16197657367884,0 33.55518536028146,35.16205249476468,0 33.55487065473324,35.16219475523392,0 33.55463880481824,35.1622899931854,0 33.55440686946611,35.16235541311931,0 33.55427457919283,35.162350348704,0 33.55406049603152,35.16231243302573,0 33.55398387988942,35.16227637717578,0 33.55376702572461,35.16217776505894,0 33.5536578996668,35.16211088855598,0 33.55359806960708,35.16205030464928,0 33.55353026701513,35.16192371051714,0 33.55348702461216,35.16177044379094,0 33.55339264328317,35.16142345952795,0 33.55332804360179,35.16106044223962,0 33.55327409318211,35.16079218354101,0 33.55325702459109,35.1607198014648,0 33.55316755659988,35.16027802779283,0 33.55311739843027,35.15995383484555,0 33.55308213943552,35.15972594054544,0 33.55315263594179,35.15860876664811,0 33.55318927123037,35.15818479365438,0 33.55316506010452,35.15808418465881,0 33.55311893300905,35.15798689277539,0 33.55304594069424,35.15790438372075,0 33.55293304232085,35.15780722167112,0 33.55276817825556,35.15766106267871,0 33.55263333885108,35.15755821532316,0 33.55237366045693,35.15736395917305,0 33.55211680661036,35.15711241253089,0 33.55172192584619,35.15668846393366,0 33.55164491747109,35.1565945057046,0 33.55148963398483,35.1563132991317,0 33.55145155041863,35.15623972250153,0 33.55138514093132,35.15601971767174,0 33.55131960706196,35.15575797712778,0 33.55126099501634,35.15547739932714,0 33.55123753553354,35.15529086319764,0 33.55119022420489,35.15478194588488,0 33.55117797190739,35.15468049600226,0 33.55110859486922,35.15446786250893,0 33.55102417660133,35.15422252370156,0 33.55087986296017,35.15394211362426,0 33.55077067901614,35.15374756071023,0 33.55049868279448,35.15342320718666,0 33.55024372506483,35.15313155383446,0 33.54998810573799,35.15295610576807,0 33.54984333444738,35.15286063938539,0 33.54960808268643,35.15283654531317,0 33.54950344376685,35.15283592924045,0 33.54930316226822,35.152843680767,0 33.54886490283811,35.15292063287723,0 33.54874541821814,35.15295523405241,0 33.54849542963109,35.15300481577543,0 33.54791477293633,35.15311968242633,0 33.54769861287297,35.15315119437444,0 33.54704914823154,35.15325064042857,0 33.54686782799626,35.1532681725565,0 33.54678312139786,35.15326833401237,0 33.5463614812618,35.15323231363896,0 33.54608137767651,35.15320584239382,0 33.54593078784583,35.15316603051652,0 33.54566547730022,35.15308388301726,0 33.54520844276822,35.15286461732088,0 33.54482357893939,35.15271750536352,0 33.54424345192558,35.15249575264338,0 33.54408048757158,35.15243333846023,0 33.5435914521131,35.15219492502604,0 33.54354112219659,35.15216365889921,0 33.54341609492246,35.15201204046663,0 33.5432808166282,35.1517878147942,0 33.54325855643874,35.15173338761837,0 33.5431833423474,35.15142651881875,0 33.54307092061597,35.15074998828966,0 33.54304253165874,35.15065925883533,0 33.54293334778107,35.15045347271203,0 33.54285716725119,35.15030989150578,0 33.54280415933739,35.15025624016966,0 33.54273610532933,35.15022328996852,0 33.54259884304735,35.15019460497999,0 33.54181332399203,35.15012991987142,0 33.54148601845596,35.15010055541629,0 33.54120028430604,35.15008558351552,0 33.54088561309558,35.15007376609146,0 33.54042998726651,35.15006324274923,0 33.54011526571063,35.15003281701254,0 33.53981814026388,35.14999408866451,0 33.53939877149314,35.14989563225373,0 33.53920985175815,35.14984533173526,0 33.53906749991333,35.1497959775329,0 33.53888481263901,35.1497239576749,0 33.53878263070617,35.14963628386622,0 33.53868165296564,35.14952896688431,0 33.53859683349319,35.14934719510256,0 33.53857375634537,35.14919218609632,0 33.53857087843473,35.14905987990701,0 33.53867680455237,35.14867618929913,0 33.53878626245987,35.14820359566707,0 33.53887198030134,35.14779409949629,0 33.53889044134529,35.14764108083444,0 33.53888777809734,35.14712837970045,0 33.53887882942092,35.14707774500964,0 33.53890274229238,35.14707770175814,0 33.53890282582995,35.14707755536102,0 33.5390355143132,35.14684797989462,0 33.53913593918982,35.14675476268293,0 33.53919990162787,35.14667401706443,0 33.53932524156181,35.14648772279178,0 33.53951696321099,35.14618553373747,0 33.5395834387588,35.1461037491355,0 33.5396739215677,35.14605706597521,0 33.53984855339476,35.14594820568839,0 33.53995898388623,35.14583326201378,0 33.54030367849766,35.14547366169181,0 33.54065218906392,35.14511007632637,0 33.54093312140374,35.14488030775134,0 33.54099469482785,35.14481730223678,0 33.54136892427709,35.14438651380786,0 33.54174052952856,35.14390095378884,0 33.5419990748481,35.1436164483766,0 33.54214417965456,35.14339504542527,0 33.54232100991474,35.1430356295509,0 33.54284363381376,35.14193102454819,0 33.54290918548946,35.14178003507026,0 33.54304417911634,35.14146909584467,0 33.54331872587392,35.1410070369293,0 33.54342780690665,35.14087256471409,0 33.54351063382634,35.14074293796312,0 33.54358026421161,35.1405917567417,0 33.54366418988669,35.14033385397838,0 33.54370182944826,35.14022469222944,0 33.54386576546707,35.13987433043867,0 33.5440880749132,35.13942466843923,0 33.54413568822281,35.13932836340778,0 33.54443200148003,35.13882789851281,0 33.54457554181329,35.13849196129754,0 33.54472826668434,35.13821302821035,0 33.5447840612575,35.13811112543926,0 33.54491744176742,35.13777051196485,0 33.54492336453805,35.13775544918494,0 33.54495946226443,35.13766365388619,0 33.54498493694598,35.13759887424536,0 33.54520099995547,35.13730862712875,0 33.54572811951344,35.13655245229828,0 33.5458844857699,35.13633012235522,0 33.54603768523003,35.13613305992484,0 33.54617464050252,35.13591475614972,0 33.5463421000882,35.13560997378352,0 33.54648512898796,35.13525072825251,0 33.54655894477854,35.13502722554638,0 33.54667407386248,35.13453242054958,0 33.5468100412178,35.13396710988965,0 33.5469046537461,35.13365847737769,0 33.54703235746752,35.13342725588115,0 33.54703990839719,35.13341358460494,0 33.54706882847285,35.13333907551877,0 33.54716550722286,35.13318865337841,0 33.54741374702829,35.13283718204981,0 33.5476231497134,35.13248844295386,0 33.54775689199555,35.1322821088219,0 33.54788270291157,35.13213295969688,0 33.54800506069498,35.13190803411214,0 33.54818532405828,35.13155802049653,0 33.54826266559705,35.13143821424821,0 33.54849988103847,35.13119711217892,0 33.54852243139849,35.13115984111918,0 33.54860816123809,35.13114372284517,0 33.5496981146265,35.13141683180842,0 33.549746913539,35.13150315693903,0 33.54979397967535,35.13154959960469,0 33.55029460972641,35.13174008163244,0 33.55064781377634,35.13187633749288,0 33.55135538294646,35.13199063081755,0 33.55145901244568,35.13200904172871,0 33.5522570765605,35.13207528920411,0 33.55276379595261,35.13213013741511,0 33.553487358845,35.13217790896775,0 33.55405066544969,35.13221269783013,0 33.55401419978865,35.13247202792365,0 33.55436230346989,35.13252186425226,0 33.55442016922134,35.13238613806466,0 33.55459841022308,35.1319071546591,0 33.55504224660839,35.13204188859796,0 33.55561083287497,35.13222157845669,0 33.55567884917647,35.13223606840609,0 33.55612479716484,35.13223496393918,0 33.55700753015837,35.13223277146394,0 33.55761332023492,35.13220108703374,0 33.55858504508412,35.13221606969019,0 33.55868063261096,35.13386570676807,0 33.55874055392432,35.13391806919723,0 33.55981755443768,35.13398362039556,0 33.55992766278548,35.13290072379045,0 33.56001951573423,35.13260511009697,0 33.55999417857345,35.13171379657465,0 33.56002512307739,35.13138021269906,0 33.56005748659319,35.13117698722898,0 33.55997013814688,35.13093086052492,0 33.55981903701487,35.13050509378848,0 33.55961639765214,35.13003480158415,0 33.55922586370896,35.12935134909397,0 33.55903785459527,35.12909915544456,0 33.55893120387282,35.12895012406166,0 33.55890573429502,35.12884455484522,0 33.55888033606958,35.12876194560704,0 33.55888511850755,35.12849099598064,0 33.55894934539271,35.12847249793834,0 33.5592764861338,35.12852005797675,0 33.55935744859676,35.12849004469838,0 33.55937394192957,35.12839816787885,0 33.55944362349329,35.12833373638841,0 33.55956353864203,35.12824624333141,0 33.56000761370647,35.1281443177827,0 33.56046844939873,35.12803776557028,0 33.56123917055407,35.12781807263408,0 33.56181735120537,35.12770209222302,0 33.5620576991393,35.12769930757774,0 33.56239049967461,35.12776980771104,0 33.56259209733844,35.12789109032892,0 33.56281575987617,35.12791589037569,0 33.56325731246252,35.12790580319961,0 33.56361201464617,35.12782471348613,0 33.56392206039463,35.12776437870483,0 33.56407582531133,35.12778013524155,0 33.56433032004239,35.12783471978435,0 33.56440846207136,35.1277978206077,0 33.56459247205725,35.12765049152458,0 33.56493578971599,35.1275028343458,0 33.56530159644224,35.12739875376661,0 33.56548605466763,35.12739837372049,0 33.56563419857878,35.12740495668314,0 33.56570957355349,35.12737724757819,0 33.56587140006933,35.12728736499023,0 33.5660106398519,35.12712405283808,0 33.56616350001563,35.12684590779091,0 33.56636373520216,35.12652174223555,0 33.56649172381912,35.12633549293797,0 33.56658410934335,35.12626332724366,0 33.5666394640532,35.12621119683151,0 33.56700487357846,35.12598082675002,0 33.56755435370027,35.1256260847213,0 33.56774712772744,35.12560501767955,0 33.56783660722156,35.12562090472271,0 33.56799071433534,35.12574916493619,0 33.56806377269816,35.1258752980656,0 33.56814214551475,35.1259141684045,0 33.56830431461184,35.1259367902862,0 33.56843562503528,35.1259227401368,0 33.56859206787986,35.12590174748994,0 33.56877116877398,35.12597714436313,0 33.56894789217706,35.12618801634257,0 33.56902653685442,35.1263141370723,0 33.56904913568514,35.12639215659974,0 33.56887647576819,35.12658998212311,0 33.56886835689121,35.12667725083652,0 33.56895235398032,35.1267252947716,0 33.56907008147119,35.12677242491135,0 33.56924138058858,35.12674706562346,0 33.56934320864877,35.12672978354133,0 33.56934980154452,35.12673420455601,0 33.56963563127335,35.12692585087026,0 33.56978415549046,35.12702775839983,0 33.56991608277067,35.12692565197536,0 33.57000083261045,35.12688193964935,0 33.57008458275853,35.12688371630528,0 33.57018870342245,35.12689061073472,0 33.57024438727466,35.12692532013846,0 33.5702396514863,35.12696020202758,0 33.57026396460162,35.12699513382992,0 33.57030200143802,35.12703625312003,0 33.570402083872,35.12709731039421,0 33.57043737709236,35.12711596990152,0 33.570528281165,35.1272351281462,0 33.5705647127314,35.12728956759354,0 33.57061191122403,35.12739376195474,0 33.57063755029832,35.12744351987122,0 33.57071056044406,35.12747323668395,0 33.5708517895747,35.12745295995239,0 33.57093438520129,35.12744596187991,0 33.57108070735866,35.12746388539635,0 33.57115371257613,35.12747841347877,0 33.57126916701245,35.12751330854486,0 33.5713678950389,35.12754410439383,0 33.57165351399941,35.12762710369461,0 33.5719274626302,35.12771085146295,0 33.57212369482878,35.12776845730796,0 33.57219502831487,35.127791913745,0 33.57229132014415,35.12784199303699,0 33.57240119407904,35.12790399303699,0 33.57243806538033,35.1279321505999,0 33.57252380870759,35.12801554455729,0 33.57266148545374,35.12814225382816,0 33.57271701354848,35.12820647354098,0 33.57276241251766,35.12829106121193,0 33.57279282622175,35.1283588798515,0 33.572872712208,35.12851430184814,0 33.5729055436586,35.12856009789895,0 33.57300521953935,35.1286225628881,0 33.5730295079923,35.12863697491218,0 33.57321074011455,35.12856851879906,0 33.57324553032723,35.12856218781975,0 33.57351305476791,35.12854726967841,0 33.57361708986498,35.1285373965356,0 33.57364705214514,35.12848847040553,0 33.57372121812153,35.12835042337235,0 33.5738428101164,35.1281147047987,0 33.57388953111793,35.12803788135077,0 33.57394543481489,35.1279930300968,0 33.57404978756471,35.12792674677221,0 33.57423799599388,35.12785307487356,0 33.57434364913081,35.12784657998009,0 33.57442902422294,35.12786914648589,0 33.57449458643626,35.12789466787056,0 33.57453741932156,35.12793749645893,0 33.57460214911553,35.12805443114846,0 33.57467962916304,35.12820474884617,0 33.57475033658881,35.12833304871923,0 33.57489475398586,35.12847286667912,0 33.57495614011164,35.12850748014244,0 33.5750004479419,35.12849845251075,0 33.5751241611872,35.12846725329367,0 33.57519617614251,35.12849535591067,0 33.57526521257568,35.12854003752909,0 33.57533730594644,35.12859705729135,0 33.57541318833354,35.12872400174005,0 33.57555143901515,35.12880438686214,0 33.57575236873165,35.12880208853264,0 33.57585901615656,35.12873531051468,0 33.57590548356139,35.12869842734879,0 33.57607275801524,35.12867885816313,0 33.57612671540216,35.1286793083762,0 33.57618956699916,35.12871844644977,0 33.57621995280115,35.128769573242,0 33.57625855401732,35.12881426017048,0 33.57633487698443,35.1288583674944,0 33.57648812420501,35.12891043146148,0 33.57667619890975,35.1289751347173,0 33.57681044623046,35.129018449614,0 33.57692857801911,35.12907746222093,0 33.57701266526495,35.12913618069472,0 33.57708984549914,35.129215231373,0 33.57715636024687,35.12929182331251,0 33.57721492459503,35.12928690583821,0 33.57727427937178,35.12926339603994,0 33.57732104252857,35.12922338309293,0 33.57735769505697,35.12915446554272,0 33.57741470430168,35.12905484959945,0 33.57744568411825,35.12906099282354,0 33.57750348221574,35.12908292956283,0 33.57763424518414,35.12916877886371,0 33.57769089479891,35.12919633035624,0 33.57771935492085,35.12919834812524,0 33.57778625668591,35.12917757749161,0 33.5779016795921,35.12914639513443,0 33.57796275140107,35.12913596143625,0 33.57809332077925,35.12913642849512,0 33.57840188622492,35.12915030972253,0 33.57850177691538,35.12915914525649,0 33.57871868735422,35.12920560500794,0 33.57896106733556,35.12926107021065,0 33.57926393861579,35.12933161367334,0 33.57946223841862,35.1293770225772,0 33.57973018447758,35.1293896559938,0 33.57999873002329,35.12939614746195,0 33.58025585035955,35.12942257325916,0 33.58038688547004,35.12943897765165,0 33.58075667613807,35.12952596820855,0 33.58101273029627,35.12958632954181,0 33.58110153881482,35.12960271113763,0 33.58113712852231,35.1296068572614,0 33.58144699402065,35.12959462826214,0 33.58154627800409,35.12959517047597,0 33.58179503636925,35.12958855380725,0 33.58202666438675,35.12958613916181,0 33.58214256283497,35.12960527705737,0 33.58218768703455,35.12954664824174,0 33.58224201375149,35.12928922436932,0 33.5822972269312,35.12902073971814,0 33.58235425906799,35.12875212460371,0 33.58238376956111,35.12861365052262,0 33.58244074050815,35.12833020051929,0 33.58246736531049,35.12821301675984,0 33.58259596018325,35.12822129993626,0 33.58310075493648,35.12825381576704,0 33.58322849083446,35.12826009770606,0 33.58323681359644,35.12812661272433,0 33.58323306936428,35.12779150361116,0 33.58323434046116,35.12739454559078,0 33.58323219023923,35.12727992847224,0 33.58327101506892,35.12708932683021,0 33.58328665833097,35.127028833864,0 33.58328211368829,35.12698048967935,0 33.58324147912143,35.12689108223346,0 33.58344221447697,35.12686900275642,0 33.58365467079091,35.12683647704615,0 33.58381974463241,35.12681437036454,0 33.58404672958604,35.12676913374641,0 33.58413310003942,35.12674711652424,0 33.58422422104699,35.1267209362427,0 33.58440116631133,35.1266555930089,0 33.58475637508977,35.126494252039,0 33.58511597223607,35.12633491247314,0 33.58555540069973,35.12613502551129,0 33.58560232849275,35.12610917217344,0 33.58547212763381,35.12598383057841,0 33.58517335152096,35.12570207101394,0 33.58480005811261,35.12540692040139,0 33.58499199892746,35.12535305801364,0 33.58528167475062,35.12527108308033,0 33.58569299680687,35.12514362939332,0 33.58583371317386,35.12510049189574,0 33.58588214934215,35.12516249267239,0 33.58616198488181,35.12540276624955,0 33.58622744260042,35.12545864612851,0 33.58643173424445,35.12567799802373,0 33.58656124623577,35.12580674378093,0 33.58673757491651,35.12606457122236,0 33.58683823366314,35.12621147699677,0 33.58692303481929,35.12610732143165,0 33.58695102233001,35.12599786313304,0 33.58696935839536,35.12596245234197,0 33.5870856610462,35.12610559364821,0 33.5872452370276,35.12642344231175,0 33.58728617642476,35.12668250532347,0 33.58743367838937,35.12716361120639,0 33.58781487365163,35.12787347491717,0 33.58816736229115,35.12864728081029,0 33.58831492802588,35.12893998323342,0 33.58881925958604,35.12946145859764,0 33.58909397556587,35.12977098955513,0 33.58914091201523,35.12993419377576,0 33.58918613923417,35.13009146069775,0 33.58939561480783,35.13032584800395,0 33.58947178445619,35.13042911514253,0 33.58938809500493,35.13056635172265,0 33.58922490689935,35.13067301194823,0 33.58895323474845,35.13075928688468,0 33.58888696935686,35.13080208519892,0 33.58883063439516,35.13086662278435,0 33.58870302515733,35.13113360414774,0 33.58862175585136,35.13153712856062,0 33.5885662258089,35.13169608835562,0 33.58853969192431,35.13181904452337,0 33.58841870283296,35.13211861479208,0 33.58840540869056,35.13227417669854,0 33.58841776405581,35.13252620274197,0 33.58838127409602,35.13272659441581,0 33.58839779200509,35.13288827083328,0 33.58846312595099,35.13321366531835,0 33.58845564916771,35.13329721829719,0 33.58838768831115,35.13350167299383,0 33.58837441000645,35.13360288445635,0 33.588416602701,35.13375844914919,0 33.58845299074569,35.13394050417034,0 33.58844380973061,35.13420338380942,0 33.588370831392,35.13459055242325,0 33.58838571242679,35.13468021913875,0 33.58841715990514,35.13475766366833,0 33.58850657012645,35.13485957624259,0 33.58852477697904,35.13490712908589,0 33.58853221303556,35.1349696243235,0 33.58853630108763,35.13516321530445,0 33.58852549060037,35.1353303110127,0 33.58853535050507,35.13561967656293,0 33.5885187436886,35.13577725827575,0 33.58851705390926,35.13590427706941,0 33.58848139027153,35.13610056692997,0 33.58846473249621,35.13645512365868,0 33.5884232501334,35.13673902724992,0 33.58831719410308,35.13694886780264,0 33.58829058038999,35.13720117658557,0 33.58828896140158,35.13721651711333,0 33.58809720886817,35.13789837420462,0 33.58796362265899,35.13813299746594,0 33.58794613754447,35.13810820209618,0 33.58783945439053,35.13831486513284,0 33.58780138281313,35.13843589392791,0 33.58778499622033,35.13856392590215,0 33.58779024251823,35.13869185294473,0 33.58781325509418,35.13888367005008,0 33.58793168424396,35.13910701192542,0 33.58791063666984,35.13921998804414,0 33.58787336027386,35.13942006769517,0 33.58788298452195,35.13955508184691,0 33.58799179038522,35.13964340948278,0 33.58807346747329,35.1396300250009,0 33.58812994000673,35.13982094139228,0 33.58826942758819,35.1404236717047,0 33.58834579758465,35.14081366451238,0 33.5883091223967,35.1411872275177,0 33.58825588101271,35.1413371709497,0 33.58820590928694,35.14169162676121,0 33.58827221665685,35.14240881731191,0 33.58825223820867,35.14251242008746,0 33.5905085808178,35.14257115655141,0 33.59053893256132,35.14288618794237,0 33.59096039499418,35.14293025741492,0 33.59141906899562,35.14294339467671,0 33.59163906632995,35.14377416072064,0 33.59166252345686,35.14408734871256,0 33.59170727112828,35.14408906459742,0 33.59170320622736,35.14417804715554,0 33.59172075009889,35.14432494217469,0 33.59181585152993,35.14445211999565,0 33.59197304468535,35.14446949263831,0 33.59223043540677,35.14449239939981,0 33.59302937584407,35.14464216008139,0 33.59275812866913,35.14589635447878,0 33.59256554904881,35.14698968714627,0 33.59244824415205,35.14749690758212,0 33.59214160157899,35.1482920620572,0 33.59181995428999,35.1490625287033,0 33.59163360335055,35.14945387470944,0 33.59128501716605,35.14995584021089,0 33.59090038925015,35.15051190968657,0 33.59145303924629,35.15065534287973,0 33.59204176115844,35.15082590938124,0 33.59258545819153,35.15101120738725,0 33.59347166213892,35.1513101801591,0 33.59427983673355,35.15158445971245,0 33.59437160260703,35.15165206986296,0 33.59434486116576,35.15173765992667,0 33.59428013685399,35.15194482002734,0 33.59419513898121,35.1523113666502,0 33.59412465227892,35.15261172426668,0 33.59409145640619,35.15284762185291,0 33.59396915206407,35.15333631359784,0 33.59387797938879,35.15357891860507,0 33.59387998045285,35.15383012582735,0 33.59390683692951,35.15404232439672,0 33.59406827490945,35.15428185486963,0 33.5942566141723,35.15459440716266,0 33.59439941656478,35.15485258905476,0 33.59451531995293,35.15504284342187,0 33.59458776013683,35.15516854260967,0 33.59463534098924,35.15532815410875,0 33.59466219700902,35.15555563098167,0 33.59468491017077,35.15578479934822,0 33.59462676097976,35.15638046344773,0 33.59462671788376,35.15653321741948,0 33.59465153092956,35.15665545458143,0 33.59469913048763,35.15675566083188,0 33.59496410060441,35.15705815477687,0 33.59509451220082,35.15723655791167,0 33.59517522224378,35.15741998062221,0 33.59518555341175,35.15750146402647,0 33.59503844700087,35.15777280584295,0 33.59491206790926,35.15799325698899,0 33.59485197050373,35.15815270294382,0 33.5948560893,35.15822908346506,0 33.59491404691265,35.15831572873874,0 33.59500926214719,35.15845843851739,0 33.59513139410759,35.15862664786449,0 33.5954026024613,35.15888673853663,0 33.59547760691283,35.1590042804481,0 33.59553701996451,35.15909738841467,0 33.5955445278673,35.15916731092043,0 33.59549932011219,35.15929472346353,0 33.59542644312396,35.15966060520917,0 33.59549665284383,35.15985810751976,0 33.5955718446483,35.16017076190116,0 33.59575250193291,35.16026358101917,0 33.59586577449329,35.16044888557096,0 33.59487487787116,35.16042039118805,0 33.59400351938502,35.16037194355207,0 33.59387391713165,35.16127700335167,0 33.5931601051371,35.16092526890095,0 33.59257830193029,35.16059217337002,0 33.59245580922979,35.16056690352639,0 33.59240206521657,35.16111197950286,0 33.5919091442931,35.1611067297199,0 33.5919228959617,35.16238671137576,0 33.59216837136704,35.16238374141517,0 33.59228879654538,35.16357678706499,0 33.59240221587196,35.16359127665156,0 33.59248510624093,35.16358428845729,0 33.59280360806974,35.16347062029838,0 33.59284962958494,35.1639590569675,0 33.59320419950998,35.16397784947501,0 33.59334155605276,35.16414132843386,0 33.59337194069458,35.16428281187557,0 33.59332946057224,35.16429075383991,0 33.59343707526211,35.16505302466549,0 33.59345315604234,35.16514018663555,0 33.59320086311004,35.16518859819294,0 33.59323803032242,35.16559623882904,0 33.59341132599394,35.16630630852707,0 33.59296237330888,35.16639613972283,0 33.59276193677093,35.16642670326985,0 33.5923410598209,35.16642544484733,0 33.59218442767847,35.16644875791812,0 33.59202404840847,35.16650349071525,0 33.59185803524383,35.16659469299775,0 33.5918016715322,35.16662464922871,0 33.59164176686065,35.16666406103341,0 33.59132984262418,35.16669887045909,0 33.59106378669421,35.16670093595666,0 33.59069490835405,35.16669329047289,0 33.59041448466269,35.16665997124939,0 33.59024086817612,35.16662042524114,0 33.59003048905101,35.16651448610662,0 33.58989236670695,35.16642321638765,0 33.58975613276353,35.16628451804539,0 33.58974291379717,35.16626954005137,0 33.58968825750308,35.16627485839211,0 33.58965010144629,35.16621718408382,0 33.58949337348589,35.16599789211254,0 33.58933748190606,35.1658944141925,0 33.5891674035261,35.16577942314169,0 33.58899782774765,35.16573392004729,0 33.58888499960477,35.16573446856857,0 33.58867403008654,35.16581656739802,0 33.58844920783157,35.16593347802262,0 33.58854189486365,35.16625425870901,0 33.58865809791443,35.1666442543217,0 33.58892286849489,35.16747183966028,0 33.58906193313738,35.16769291461283,0 33.5892870699217,35.16812771860283,0 33.58939079333846,35.16839396589238,0 33.58947461064235,35.16877237304804,0 33.58959802863004,35.16971729185074,0 33.58959359721357,35.16976795241553,0 33.58969275182856,35.17060422685874,0 33.58979854490765,35.17139707333253,0 33.58981175404909,35.17155634797501,0 33.58974755895965,35.17210087789005,0 33.58979823740256,35.17253347678993,0 33.58893252812209,35.17260199917454,0 33.58819497155339,35.17267443163891,0 33.58775554463726,35.17277470574944,0 33.58769150572648,35.17279988300373,0 33.58736908618445,35.17302707824204,0 33.5872918060691,35.17304317583,0 33.58709532451983,35.17297395086406,0 33.58697392755165,35.17285606007526,0 33.58687900403135,35.17281060069313,0 33.5867023671888,35.17287711784613,0 33.58574194705491,35.17328727609626,0 33.58535415080004,35.17347689504122,0 33.58530831765132,35.17350577969869,0 33.58490824256865,35.17375790999751,0 33.58471279694312,35.1738543374417,0 33.58443146964974,35.17396278882023,0 33.58413519657631,35.17414158459381,0 33.58355266974817,35.1743767733404,0 33.5834008163953,35.17445391261855,0 33.58323900057276,35.17456876409929,0 33.58303236207504,35.17478141879273,0 33.58261219434951,35.17515274108877,0 33.58176689342972,35.17589975974177,0 33.58157126780009,35.17604984250411,0 33.58086586479006,35.17660054444288,0 33.58061393871964,35.17684153450783,0 33.58072504425174,35.17688433510592,0 33.58080799985521,35.17693556243549,0 33.58088354510947,35.17699526942924,0 33.58110127814172,35.17724844833539,0 33.58124640403403,35.17754151006194,0 33.58150546679217,35.17845057972986,0 33.58050386484499,35.17860324212469,0 33.57988607437493,35.17867923710045,0 33.57908465035703,35.17873528139587,0 33.57849346242948,35.17945361742959,0 33.57820063691938,35.17981971180575,0 33.5774634477383,35.18073967653127,0 33.57629783544741,35.1819643819461,0</coordinates>
						</LinearRing>
					</outerBoundaryIs>
				</Polygon>
			</MultiGeometry>
		</Placemark>
	</Document>
</kml>