<?xml version='1.0' encoding='UTF-8'?>
<kml xmlns="http://www.opengis.net/kml/2.2">
	<Document>
		<name>AG GEORGIOS AMMOCHOS</name>
		<Style id="PolyStyle70">
			<LabelStyle>
				<color>00000000</color>
				<scale>0.000000</scale>
			</LabelStyle>
			<LineStyle>
				<color>ff0055ff</color>
				<width>2.000000</width>
			</LineStyle>
			<PolyStyle>
				<color>00828282</color>
				<outline>1</outline>
			</PolyStyle>
		</Style>
		<Placemark id="ID_70284">
			<name>AG GEORGIOS AMMOCHOS</name>
			<snippet />
			<description>&lt;html xmlns:fo="http://www.w3.org/1999/XSL/Format" xmlns:msxsl="urn:schemas-microsoft-com:xslt"&gt;

&lt;head&gt;

&lt;META http-equiv="Content-Type" content="text/html"&gt;

&lt;meta http-equiv="content-type" content="text/html; charset=UTF-8"&gt;

&lt;/head&gt;

&lt;body style="margin:0px 0px 0px 0px;overflow:auto;background:#FFFFFF;"&gt;

&lt;table style="font-family:Arial,Verdana,Times;font-size:12px;text-align:left;width:100%;border-collapse:collapse;padding:3px 3px 3px 3px"&gt;

&lt;tr style="text-align:center;font-weight:bold;background:#9CBCE2"&gt;

&lt;td&gt;3&lt;/td&gt;

&lt;/tr&gt;

&lt;tr&gt;

&lt;td&gt;

&lt;table style="font-family:Arial,Verdana,Times;font-size:12px;text-align:left;width:100%;border-spacing:0px; padding:3px 3px 3px 3px"&gt;

&lt;tr&gt;

&lt;td&gt;DIST_CODE&lt;/td&gt;

&lt;td&gt;3&lt;/td&gt;

&lt;/tr&gt;

&lt;tr bgcolor="#D4E4F3"&gt;

&lt;td&gt;VIL_CODE&lt;/td&gt;

&lt;td&gt;132&lt;/td&gt;

&lt;/tr&gt;

&lt;tr&gt;

&lt;td&gt;VIL_CCD&lt;/td&gt;

&lt;td&gt;3132&lt;/td&gt;

&lt;/tr&gt;

&lt;tr bgcolor="#D4E4F3"&gt;

&lt;td&gt;VIL_NM_E&lt;/td&gt;

&lt;td&gt;AG GEORGIOS AMMOCHOS&lt;/td&gt;

&lt;/tr&gt;

&lt;tr&gt;

&lt;td&gt;VIL_NM_G&lt;/td&gt;

&lt;td&gt;ΑΓ ΓΕΩΡΓΙΟΣ ΑΜΜΟΧΩΣ&lt;/td&gt;

&lt;/tr&gt;

&lt;/table&gt;

&lt;/td&gt;

&lt;/tr&gt;

&lt;/table&gt;

&lt;/body&gt;&lt;script type="text/javascript"&gt;

				function changeImage(attElement, nameElement) {

				document.getElementById('imageAttachment').src = attElement;

				document.getElementById('imageName').innerHTML = nameElement;}

			&lt;/script&gt;&lt;/html&gt;

</description>
			<styleUrl>#PolyStyle70</styleUrl>
			<MultiGeometry>
				<Polygon>
					<extrude>0</extrude>
					<altitudeMode>clampToGround</altitudeMode>
					<outerBoundaryIs>
						<LinearRing>
							<coordinates> 33.90308241904541,35.24744597289623,0 33.90333245357124,35.24757038093948,0 33.90371132412454,35.24756755220064,0 33.90391594573082,35.24750989577645,0 33.90390423330251,35.24757179717558,0 33.90383656214202,35.24770389660738,0 33.90367211892116,35.24787348488844,0 33.90351418794231,35.24795874418105,0 33.9033776561966,35.24799140729176,0 33.90152186156892,35.24802834481526,0 33.90117761617027,35.24803066099651,0 33.90088305052824,35.24798650754194,0 33.89917473400568,35.24904669498284,0 33.89838261844098,35.249321558303,0 33.8969505795502,35.25021797024278,0 33.89580028851489,35.25031132092681,0 33.89549634947557,35.25025701777298,0 33.89370607479904,35.24982913836714,0 33.89339054333942,35.24980557956868,0 33.89308532319918,35.249893335872,0 33.89249582809202,35.2501969462594,0 33.89234119000435,35.25035306186285,0 33.89230479912656,35.25059915195507,0 33.89221565185797,35.25078684742148,0 33.89202210194092,35.25095928098915,0 33.89172379989284,35.25108439087629,0 33.89134005250569,35.25114065759138,0 33.89044110522408,35.2511472757915,0 33.89023023662387,35.25107668380152,0 33.89003795359167,35.25106740996198,0 33.8899643558028,35.25118819008311,0 33.8899332161194,35.25131934617355,0 33.89006874206764,35.25150004433645,0 33.89012795314439,35.25155304827328,0 33.89025359097153,35.25172313069735,0 33.89027796817813,35.25186723828192,0 33.89026328945425,35.25201430481358,0 33.89027929794732,35.25228672849771,0 33.89035047198033,35.25254004228849,0 33.89033884656315,35.25266838325691,0 33.89014761129618,35.25275529348629,0 33.88976394244786,35.25281957041486,0 33.88965046883247,35.25286850097238,0 33.8895900426869,35.25300254387297,0 33.88958213976365,35.25317360861081,0 33.88956785730494,35.25328778082584,0 33.88952197599743,35.25333169766212,0 33.88941519112557,35.25339660940792,0 33.88927938318027,35.25348845498722,0 33.88905888841899,35.25358092265963,0 33.88889673107251,35.25364624167459,0 33.88862350902878,35.25368298390123,0 33.88825670325881,35.25380057170606,0 33.8880752343279,35.25388740698823,0 33.88784246659419,35.25404943437036,0 33.88763369281549,35.25418972401804,0 33.8874832501381,35.2542658273447,0 33.8873287694484,35.25443796689073,0 33.88709396345573,35.25471222993374,0 33.88653875764422,35.2551785509904,0 33.88602801316775,35.25554033665313,0 33.88581783399515,35.25568349076673,0 33.88552607774064,35.25581388078022,0 33.88527605331464,35.25588785371244,0 33.88496725408439,35.25594889613755,0 33.88486389315737,35.25602981122789,0 33.88484879751163,35.25613947305035,0 33.88482369795803,35.25622783151885,0 33.88476270975337,35.2563111091791,0 33.88463308704376,35.25637351210496,0 33.88425623044697,35.25646711412597,0 33.88415603793649,35.25653998972199,0 33.88407245186497,35.25664213524649,0 33.88396937927475,35.25674976719874,0 33.88378905933612,35.2569434675145,0 33.88341454751701,35.25725347924526,0 33.88305559487682,35.25749657785461,0 33.88288914114003,35.25776766230565,0 33.88277901728587,35.25812651048429,0 33.88261720875916,35.2585258151577,0 33.88248821808938,35.25864699566588,0 33.88236545236601,35.258741410017,0 33.88219324569798,35.25878274527817,0 33.8819268364682,35.25884881506509,0 33.88174249766767,35.25897306890127,0 33.88161393901216,35.25913432402014,0 33.88156640825647,35.2592575816013,0 33.88151861805651,35.25935679294091,0 33.88135751337265,35.25952095740628,0 33.88113192523415,35.25974704644311,0 33.88115101764408,35.26000608889046,0 33.88119169758576,35.26015275110012,0 33.88123990403587,35.26039287839556,0 33.88126397899561,35.26051027017559,0 33.88128750441236,35.26057689812477,0 33.88129158520385,35.2606348948262,0 33.88125041085582,35.26076153471315,0 33.88114130705293,35.26091463187772,0 33.88095298140371,35.26097211515351,0 33.88058918720984,35.26107095398444,0 33.87990909950172,35.26114270098861,0 33.87969131154911,35.26118703670336,0 33.87935060480217,35.26131242368496,0 33.87906420769801,35.26133855290117,0 33.87879421201724,35.26137524966425,0 33.87861545498287,35.26141395583296,0 33.87832888315936,35.26142405220674,0 33.87816577898695,35.26140386051384,0 33.87770526489567,35.26129497898393,0 33.8775097592766,35.26129105291596,0 33.87738623385973,35.26131599683072,0 33.87725740370885,35.26145320120501,0 33.87706391297535,35.26163629878528,0 33.87685698801693,35.26178208544287,0 33.87645887673089,35.26202277585849,0 33.87621237048702,35.2621234244229,0 33.87608979349776,35.26223653506418,0 33.87590318619657,35.26245431641598,0 33.87573851947686,35.26259177950678,0 33.87555695990336,35.26267325266013,0 33.87530384906947,35.26276593054055,0 33.87514471814114,35.26281250535882,0 33.87501141837441,35.26283751756257,0 33.87490732076682,35.26285163020951,0 33.87465908733781,35.26279196976802,0 33.87440159855709,35.26278047102822,0 33.87437912637675,35.26283464434027,0 33.8742489786036,35.26280536873664,0 33.87380663392561,35.26274795623701,0 33.87366010136174,35.26277462546781,0 33.87351681540876,35.26284249178784,0 33.87278600348667,35.26332349301212,0 33.87250697964235,35.26346348647806,0 33.87239734357364,35.26355249523347,0 33.87225438868192,35.26371433821807,0 33.87214059046759,35.2639360848427,0 33.8720835285593,35.26417809226228,0 33.8720037959245,35.26445257566645,0 33.8717564528673,35.26495657603228,0 33.87175635314497,35.26499056318523,0 33.87172106407952,35.2651197200066,0 33.87170789232943,35.26519429194158,0 33.87170072608775,35.26534043403809,0 33.87175539729855,35.26555344636706,0 33.87164465916081,35.26563368049119,0 33.87160078817751,35.26554597037259,0 33.87156514085244,35.2653622825685,0 33.87141405986475,35.26531528631224,0 33.87112759589029,35.2656353097579,0 33.87086118337436,35.26593684926112,0 33.87100111541654,35.26597457401699,0 33.87091881384283,35.26615532990216,0 33.87067049297575,35.2665720083175,0 33.87048317015888,35.26692017805483,0 33.87038456005707,35.2669926108895,0 33.87010616646567,35.26713297469262,0 33.87002748439694,35.26715184431336,0 33.86974704652823,35.26712161023381,0 33.86952235168609,35.26707904908626,0 33.86943561023577,35.26709224904566,0 33.86856099012515,35.26749517528414,0 33.86841035225205,35.26754110256265,0 33.86822048457815,35.26753669388092,0 33.8677649026308,35.26734904220638,0 33.8676116194899,35.26727129653131,0 33.86746204462825,35.26712600638356,0 33.86736357735523,35.26700826187395,0 33.86690657926707,35.26702147650362,0 33.8662843795621,35.26741450309748,0 33.86556541527398,35.26738312515217,0 33.86553957144208,35.2668350472517,0 33.86549743727672,35.26626082128215,0 33.86551502934082,35.26565662070946,0 33.86535555204036,35.26571685602175,0 33.86510443289765,35.26581714190295,0 33.86498856590379,35.26583766852222,0 33.86427330828879,35.26558013902002,0 33.86362216549822,35.2653287139731,0 33.86342322156239,35.26581930323371,0 33.86305264618907,35.26560198530914,0 33.86293051478356,35.26578670474417,0 33.8614516013786,35.2652358488733,0 33.8614346877816,35.26515061104824,0 33.86113313812363,35.26502471940299,0 33.86095312536732,35.26503584959551,0 33.86112474101617,35.26472800554546,0 33.86075409513359,35.26473064298722,0 33.86008452443478,35.26476104456815,0 33.86012397957185,35.26469117050856,0 33.86023492243268,35.26462445218748,0 33.86060359271543,35.26443502738871,0 33.86082633008866,35.26438216389781,0 33.86092341133581,35.26427158902159,0 33.86096220686753,35.26413945201438,0 33.86097789876358,35.26393422361816,0 33.86098862207496,35.26368141381371,0 33.86098987220033,35.26337739334932,0 33.86096211035871,35.26328602048704,0 33.86071623535013,35.26326212991633,0 33.86060364364731,35.26401746735088,0 33.86060958017611,35.26415661228692,0 33.86064608019933,35.26422960843902,0 33.86030358510209,35.26436024208274,0 33.85947590261753,35.26421961201684,0 33.85950064620454,35.26402530790158,0 33.85910266973291,35.26397685544348,0 33.85912814871888,35.26385213976259,0 33.8589715050924,35.26382028670414,0 33.85901353254999,35.26357091788538,0 33.85973248553632,35.26356581134209,0 33.86014356312852,35.26316364451515,0 33.86089019650183,35.26324257853892,0 33.86088934422532,35.26316200259955,0 33.86101046625028,35.26279119864446,0 33.86109787742938,35.2626110988345,0 33.86109240411924,35.26251590515798,0 33.86114090531226,35.26245695569195,0 33.8613677528359,35.26237109582893,0 33.86150529169514,35.26228587237838,0 33.86157161486504,35.26222313273666,0 33.86092698780215,35.26249876856659,0 33.86051279381268,35.26218305099337,0 33.8604030159747,35.26235964634813,0 33.86022403334317,35.262749175749,0 33.86010916898019,35.26286720181223,0 33.86001282464872,35.26304736441504,0 33.85982867741894,35.26337099943343,0 33.85971777349568,35.26344138021432,0 33.85960621289131,35.26344949907746,0 33.85936429981179,35.26337796084562,0 33.85931914239846,35.26333066570957,0 33.85932679702411,35.26320973877406,0 33.85926855135892,35.26319183871477,0 33.85910543498074,35.26296956650904,0 33.85879377655474,35.26305968546394,0 33.85880091262395,35.26246626120334,0 33.85888051748765,35.26239244033238,0 33.85891100330925,35.26231896810652,0 33.85902382000702,35.26200682928724,0 33.8586377035237,35.26181177845942,0 33.85801059743373,35.26120820180714,0 33.85824067497409,35.26100511627121,0 33.85861233040462,35.26067648997953,0 33.85873069373023,35.26046686999479,0 33.85836888265626,35.26045844886755,0 33.85838100427068,35.26033749113914,0 33.85837360323988,35.26005917089156,0 33.85777178355618,35.26015867060816,0 33.85775665071106,35.25999395244887,0 33.8585280364336,35.25988226046201,0 33.85881882506905,35.25993147583959,0 33.85895321089178,35.25997081249333,0 33.85896983484104,35.25985348494756,0 33.85907514794143,35.25967692252318,0 33.85913126499026,35.25949338401249,0 33.85913368196194,35.25929923835348,0 33.85908759822512,35.25916404227662,0 33.85900155986483,35.25905110577921,0 33.85892052735152,35.25898941359297,0 33.85890139050847,35.25886867677707,0 33.85890954785469,35.25879536301446,0 33.85899326802249,35.25868854756767,0 33.85911821804778,35.25868033424276,0 33.85915359318633,35.25864711779491,0 33.85919269837577,35.25854428209973,0 33.85924589404526,35.25850727597467,0 33.85928123040298,35.25847039755776,0 33.85895681070119,35.25861921272692,0 33.85851321853571,35.25890073373477,0 33.85801634833305,35.25921193400447,0 33.85754176313777,35.25951931119881,0 33.85741280775827,35.25957150408174,0 33.85704703631864,35.25961072383947,0 33.85710824840797,35.25991063989837,0 33.85650558031261,35.2599295581557,0 33.85599487626727,35.26020055750812,0 33.85600492360189,35.26030670755929,0 33.85609550200328,35.26042693937816,0 33.85625764291042,35.26055765223906,0 33.85657199266882,35.26072391671011,0 33.85663678208733,35.26093956336561,0 33.85671742938366,35.26096463141432,0 33.85736298499626,35.26077691872877,0 33.85735736301633,35.26066707524789,0 33.85756242334404,35.26063265678469,0 33.85755926950655,35.26075721398303,0 33.85797389572127,35.26069200718356,0 33.85805577864792,35.26083427600417,0 33.85759392344015,35.26107929479203,0 33.8575871538979,35.26128445966186,0 33.85780559771919,35.26209605333966,0 33.85783985741863,35.26255074142957,0 33.85656257328031,35.26246543767085,0 33.85653858236569,35.26226791510383,0 33.85690964129798,35.26213049729152,0 33.85640451888448,35.2620217485729,0 33.85525582582635,35.2621826362418,0 33.85505013322587,35.26189653697129,0 33.85406192236079,35.26182039620828,0 33.8542053512809,35.2606107625157,0 33.85389423981622,35.26071854418195,0 33.85402531948182,35.26094227019442,0 33.85368676580563,35.26130634715646,0 33.853360639108,35.26128842851403,0 33.85331668376283,35.26101466514967,0 33.8529330713664,35.2612501269966,0 33.85253753574537,35.26141554258079,0 33.85244186613401,35.2614341887649,0 33.85222009544879,35.2614424904317,0 33.85217653069381,35.26152593109467,0 33.85209992393235,35.26196191186395,0 33.85218859352077,35.26204945526514,0 33.85219120131554,35.26208902262703,0 33.85216742891165,35.2621233775711,0 33.85215380614918,35.26228901285223,0 33.85222252528301,35.26235690386612,0 33.85222290206187,35.26239288872865,0 33.85214920282312,35.26247797658034,0 33.85211924573133,35.26255016169311,0 33.8521333762443,35.2631521531303,0 33.8519603958781,35.26307409798483,0 33.85186889480571,35.26270067255955,0 33.85180812816715,35.26266641892866,0 33.85183628193558,35.26247051482496,0 33.85179481636302,35.26226023749769,0 33.85173350574172,35.26217396502099,0 33.85154008620306,35.26216294001197,0 33.85154142142357,35.26200190705784,0 33.85120269701846,35.26195969952367,0 33.85088158666403,35.26215766315742,0 33.85061880611453,35.26215703393429,0 33.85051989149501,35.26222957003328,0 33.85052332647327,35.26226918209699,0 33.8516465684507,35.26223650821716,0 33.85169082090269,35.26227783033586,0 33.85172366188561,35.26234352970614,0 33.85173245907873,35.26241599083863,0 33.85162408546116,35.26242993961424,0 33.85157137254957,35.26276985122011,0 33.85145661634364,35.26294207771164,0 33.85108597598519,35.26285897644883,0 33.85110531198208,35.26278631647429,0 33.85040360490135,35.2625604953608,0 33.85045687364805,35.26227332403447,0 33.85022154711457,35.26244639680269,0 33.85028199778021,35.26284455231712,0 33.85026953586043,35.26297503809079,0 33.85021229474336,35.2631200114451,0 33.85018825062243,35.26313435421514,0 33.85014317536599,35.26312049712629,0 33.85010882236229,35.26314058093922,0 33.8500642503972,35.26317491125507,0 33.84982397206349,35.26399583569686,0 33.84975252047219,35.26410405761962,0 33.84974747279101,35.26428268040811,0 33.8495555383714,35.26476876723008,0 33.84953528090952,35.26514592834454,0 33.84955652058135,35.26519396926233,0 33.84954996342647,35.26522803245056,0 33.84949487381381,35.26524826259534,0 33.84943251692034,35.2652345265911,0 33.84937394047581,35.26525194639888,0 33.84930048051883,35.26549908278291,0 33.84927684965937,35.26555310914033,0 33.84912894814104,35.26562218062749,0 33.84892503860324,35.2656236115429,0 33.84893076815443,35.26551018175702,0 33.84816963142667,35.26543898227061,0 33.84814132416661,35.26555676250613,0 33.84787480453091,35.26553079397984,0 33.84782383782459,35.26552813700508,0 33.84780192102856,35.26523703203245,0 33.84783215549268,35.26477304127931,0 33.84777892028703,35.26471229610384,0 33.8477844589923,35.26455813452812,0 33.84737297119287,35.264440030897,0 33.8474037086656,35.26424948629165,0 33.84747313459662,35.2641586607632,0 33.84745595047565,35.26390468989911,0 33.84641975231219,35.26406750553726,0 33.84617662434761,35.26415102760679,0 33.84565009089174,35.26417727702896,0 33.84501100207489,35.26446627401985,0 33.84404830953067,35.26481638502985,0 33.84406665731674,35.26476785242713,0 33.84441220677316,35.2634858685007,0 33.8459792737801,35.25817305837464,0 33.84666598811769,35.25576139592101,0 33.84639304819189,35.25578571401748,0 33.84616563675092,35.2558097131312,0 33.84591884849042,35.25572180321307,0 33.84563618206938,35.25568643124159,0 33.84557890909165,35.25543286515224,0 33.84505972629239,35.25542155301157,0 33.84504969029355,35.25533198855437,0 33.84514028299165,35.25528653767888,0 33.84481352176685,35.25451198215467,0 33.84505898616824,35.25447292043307,0 33.84587756301487,35.25437756555663,0 33.84570059931838,35.25399785290077,0 33.84556145549377,35.25375232933392,0 33.84571120205058,35.25312349024315,0 33.84550933511802,35.25311777748072,0 33.84529119133637,35.25315664925038,0 33.84522675545515,35.25308987341453,0 33.84518878199339,35.25294074678408,0 33.84529564426418,35.25270844254479,0 33.84556443643893,35.25249031816251,0 33.84581419827092,35.25226008847405,0 33.84593493540329,35.25202835458757,0 33.84581155019741,35.25200516615071,0 33.84611007645142,35.25167117594343,0 33.8461833451988,35.25166825879744,0 33.84636004099274,35.25117878838913,0 33.84666795066947,35.25118384980675,0 33.8466819348121,35.25111881456454,0 33.84651976287545,35.2510309599119,0 33.8464169511554,35.25101243870236,0 33.84621735302633,35.25095513283024,0 33.84611736267569,35.25096162143325,0 33.84609542728004,35.251021492448,0 33.84602412106435,35.25101759056673,0 33.84603556508807,35.25127245142561,0 33.84587983207526,35.2512398681109,0 33.84586187508524,35.25092252107588,0 33.84563941191339,35.25095774699929,0 33.84571359631529,35.25132520869332,0 33.84560836699267,35.25163860697165,0 33.84548813974325,35.25163704133035,0 33.84543040324978,35.25172402821987,0 33.8453159888442,35.25171761305458,0 33.84517767063608,35.25229956719489,0 33.84511664367889,35.25264446788792,0 33.84504931567216,35.25290108672773,0 33.84491092530165,35.25357333715282,0 33.84484682622409,35.25362236424968,0 33.84494877211447,35.25410745063497,0 33.84503287241721,35.2544292562816,0 33.84465164150458,35.2545290779727,0 33.84453492012398,35.25417658498316,0 33.84456619278487,35.25355807800234,0 33.84483347039932,35.25285401341768,0 33.84502113566545,35.25226091324367,0 33.84502003574904,35.25215492849745,0 33.84500260315068,35.25203139299707,0 33.84518018641937,35.25150460729333,0 33.84517890297536,35.25138095811172,0 33.84516156089658,35.25126625439013,0 33.8453945656771,35.25087146633992,0 33.84564663610276,35.25056822979943,0 33.84573876923272,35.25059270856256,0 33.84596592645035,35.25034826616915,0 33.84571339549521,35.25011555030223,0 33.84524202808394,35.2504370679689,0 33.84513449653534,35.25040432185239,0 33.84505374519043,35.2504928159364,0 33.84495659567298,35.25047674528903,0 33.8447869255414,35.25085058721638,0 33.84463784319711,35.25124103242031,0 33.84471470825689,35.25126980623347,0 33.84459473007896,35.25151349917224,0 33.84430898856973,35.2515238676981,0 33.84424418917228,35.25179519037861,0 33.8443137638785,35.25185129939735,0 33.84406565040508,35.25263727084121,0 33.84365096363436,35.25256739789816,0 33.84387995597825,35.25183815595835,0 33.84394458689725,35.25083971569693,0 33.84439395847528,35.25085751672346,0 33.84510869280854,35.24962238850787,0 33.84523355356038,35.24962063132696,0 33.84569342574651,35.24922214054168,0 33.84602483317626,35.24934109815437,0 33.84632260025437,35.24906817064046,0 33.84625105232314,35.24882208022373,0 33.84609336649817,35.24836685054935,0 33.8459039141073,35.24813728583612,0 33.84571616548295,35.24809008788353,0 33.84522661770369,35.24898628156617,0 33.84549037737321,35.24905947978093,0 33.8450097393635,35.24957405647253,0 33.84382820012848,35.24921178446942,0 33.84357572988044,35.2491244328283,0 33.8435916175635,35.24900238005063,0 33.84406642724347,35.24792503974255,0 33.84418293350038,35.24758185067027,0 33.84403381764825,35.24742673948398,0 33.84386747242608,35.24801810170185,0 33.8432934541511,35.24778763910633,0 33.84330673013685,35.24764201779497,0 33.84324718130817,35.24760200773405,0 33.84350687003215,35.24709999093981,0 33.8434359363381,35.24706190720352,0 33.84328506500188,35.24702438138623,0 33.84304985152297,35.24792487274183,0 33.84267813008013,35.24790431578318,0 33.84274375500865,35.24742935764031,0 33.84262348387792,35.24716786920644,0 33.84248277560349,35.24720356828572,0 33.84240737934227,35.24718866189523,0 33.84237936579549,35.24720814596722,0 33.84229516327864,35.24725116711399,0 33.84182613312642,35.24737016246182,0 33.84176902797417,35.24730497865355,0 33.84170291686276,35.24727843379524,0 33.8415853200891,35.24727539474573,0 33.84126273710744,35.24654852514094,0 33.84124779337879,35.24646761671527,0 33.84126552679357,35.24636333424316,0 33.84128716552991,35.2461818701221,0 33.8412019275466,35.24612459632291,0 33.84111159011024,35.24602878155683,0 33.84090493508248,35.24559815049177,0 33.84077088446226,35.24536761834995,0 33.84073298877421,35.24534087691201,0 33.84082328218556,35.24588804858043,0 33.84080829318442,35.24671370801634,0 33.84049802540159,35.2467235789439,0 33.84050312584263,35.24676212076714,0 33.84037372200392,35.24789333658083,0 33.84029394147741,35.24790932093505,0 33.84026686202341,35.24815986848279,0 33.84004441631276,35.24816445401426,0 33.83994706290291,35.24843282240772,0 33.83988493808483,35.24852147044184,0 33.83979647988038,35.24857379707736,0 33.83966321270069,35.24859601552281,0 33.83936274289995,35.24858593253743,0 33.83933555577276,35.24882643587974,0 33.8391909453339,35.24882743879152,0 33.83918032246368,35.2488761831072,0 33.83902461887696,35.24888030483133,0 33.83900774028381,35.24904164603013,0 33.83833534821724,35.24964557140234,0 33.83780001710883,35.24951543249748,0 33.83789412500735,35.24893072498755,0 33.83779372701154,35.24890404223416,0 33.83784961245703,35.24856904038663,0 33.83765632975199,35.24852474896167,0 33.83766606116447,35.24802884332725,0 33.83750713706051,35.24771966318765,0 33.83751696322538,35.24723288219536,0 33.83725198215729,35.24706740824121,0 33.83723122280958,35.24685157276497,0 33.83738296440958,35.24682314500183,0 33.83738953603861,35.24674096680901,0 33.83797534906903,35.2467338697115,0 33.8379816697096,35.24662735744057,0 33.83728455837331,35.24662914138604,0 33.83728723442395,35.24652873763034,0 33.83696804474,35.24650052653866,0 33.83699913381369,35.24627824822456,0 33.83666075001521,35.24618628795056,0 33.83663280561164,35.24635378869253,0 33.8365438789339,35.24636048670983,0 33.83651319584501,35.24662230742759,0 33.83692910290599,35.24668027083967,0 33.83678068538293,35.24739311558919,0 33.8367758432329,35.24800458218349,0 33.83627626003094,35.24793087206812,0 33.83631527550013,35.24772204785308,0 33.8361873281325,35.24767066941855,0 33.83606259202234,35.24756700336943,0 33.83614470931282,35.24716984983571,0 33.8358782691072,35.24713479875234,0 33.83583755352475,35.24718426893277,0 33.83546562037539,35.24709460748261,0 33.83553146331074,35.24693736241279,0 33.83513371045125,35.2468878444503,0 33.83512549501204,35.24718303582251,0 33.83474376921188,35.24723485844604,0 33.83473296859896,35.24727797373878,0 33.83449697979457,35.2472888239923,0 33.83450554604411,35.24739329191827,0 33.83407519747338,35.24745467133152,0 33.83405438253175,35.24725190896038,0 33.83400510127235,35.24719691146478,0 33.83381386032111,35.24718593204153,0 33.83381329378344,35.24713059790611,0 33.83370458932334,35.24712827230385,0 33.83364828702864,35.24675359382253,0 33.83392439291516,35.24663486724553,0 33.83397367487147,35.24668986477693,0 33.83404090670761,35.24666788148979,0 33.83408067863334,35.24652618863691,0 33.83445087647036,35.24644677858788,0 33.83448976562038,35.24621901098786,0 33.83456096389819,35.24621852001253,0 33.83456710338842,35.24572043796339,0 33.83433108757026,35.24572821351467,0 33.83412479799703,35.24571119013294,0 33.83341911370594,35.24559922774809,0 33.83317932020037,35.24560395343144,0 33.83300354376142,35.24563898067432,0 33.83285805968392,35.2457045427576,0 33.8328949291806,35.24601172104971,0 33.8316443588653,35.24605125976743,0 33.83161159803446,35.24585181035097,0 33.83175789761401,35.24585080492459,0 33.83197272393478,35.24582304549683,0 33.83232757527493,35.24576628143054,0 33.83263058547438,35.24570588359758,0 33.83276280400975,35.24565616342477,0 33.83289956103169,35.24560265861221,0 33.83302735580384,35.24556798704756,0 33.83315080608045,35.24555587383393,0 33.83334906321121,35.24553960209509,0 33.83351213113121,35.24555201479484,0 33.83396442036039,35.24560981178627,0 33.8344195624207,35.24565226069923,0 33.83460063010352,35.2456412810341,0 33.83479204521685,35.24562146670735,0 33.83507350106508,35.24558870200674,0 33.83548641840405,35.24555194739669,0 33.8356477453643,35.24552925768992,0 33.83586889969109,35.24547841433044,0 33.83606047226632,35.24547400835243,0 33.8363838872508,35.24550259648052,0 33.83644778626005,35.24550523749382,0 33.83684220256869,35.24549634546178,0 33.83721347559613,35.24542905005365,0 33.83762267736227,35.24538791613821,0 33.83776050152049,35.24536620021771,0 33.83791205146803,35.24533683842222,0 33.83810955593239,35.24530149675549,0 33.83871228014165,35.24529354623799,0 33.83916092091288,35.24529232358667,0 33.83985830088808,35.24531579754343,0 33.84076560385178,35.24528118588389,0 33.8409106198152,35.24551045024635,0 33.84117366962214,35.2460295641996,0 33.84134052440662,35.24614542770063,0 33.84171950760163,35.24630511440246,0 33.84184019527943,35.24640619874129,0 33.8419287124869,35.2465112816629,0 33.84219142079253,35.24699642162427,0 33.84244633019022,35.24717206985123,0 33.84254288003108,35.24716384700831,0 33.84277672820034,35.24708294510943,0 33.84301529548251,35.24701333455367,0 33.84314401487929,35.24700111314381,0 33.84332799072847,35.2469922814329,0 33.84345717915598,35.24702535508698,0 33.84408211503821,35.2473833925095,0 33.84433242836142,35.24755906877186,0 33.84455249326008,35.24703659138196,0 33.84657657333279,35.24763776443188,0 33.84667584194713,35.24744832287413,0 33.8467762864496,35.2473721214316,0 33.84689340983507,35.24712970543084,0 33.8500824023096,35.24669210242087,0 33.85076244965645,35.24659672443698,0 33.8506218871667,35.2463561170705,0 33.85146544598037,35.2460557391519,0 33.85171825773381,35.24646920396047,0 33.85487998482694,35.24606941556459,0 33.85492235148164,35.24572182228707,0 33.85553733252201,35.24556647811389,0 33.85605044967954,35.24535145325662,0 33.85636698438311,35.24569650863522,0 33.85676237355644,35.24566351009315,0 33.85714871894626,35.2456456747585,0 33.85722194154398,35.24560740636264,0 33.85731261514929,35.24547841615455,0 33.85761581946802,35.24543096830828,0 33.85762224054867,35.24516667723931,0 33.85770561882043,35.24521893562913,0 33.85830181353704,35.24590174764477,0 33.85844881503171,35.24587805566082,0 33.8586935841147,35.24609566262115,0 33.85875164653724,35.24574599179002,0 33.85878438461952,35.24546048708505,0 33.85876837867651,35.24517532736326,0 33.8587882308749,35.24490057893352,0 33.85885190222652,35.24477482037322,0 33.85915111054427,35.24448742325296,0 33.85936556095569,35.24386736566757,0 33.85939954713925,35.24400842744512,0 33.85941454339002,35.24419761414197,0 33.85942343399304,35.24442416940287,0 33.85941217895152,35.24458954747109,0 33.85935579469117,35.2447899059008,0 33.85928456858462,35.24512367413151,0 33.85926701155315,35.24530775952085,0 33.86092593083171,35.24513866989219,0 33.86090955005476,35.24481885416834,0 33.86146928644899,35.24458292023934,0 33.8619785207581,35.2444886465267,0 33.862580550052,35.24456434073478,0 33.86270127133316,35.24399560083145,0 33.86321813011651,35.24400791165861,0 33.86322282084992,35.24414384973889,0 33.86380153587621,35.24416638079388,0 33.86381139546178,35.24387037412697,0 33.86450082805553,35.24379650728103,0 33.86452442789874,35.24341884399937,0 33.86492940618403,35.24342350099976,0 33.86492884501322,35.24337065573502,0 33.86592228183459,35.24332580191807,0 33.86590762229297,35.24281251540965,0 33.86657897714502,35.24276996029977,0 33.86669041085353,35.24199907519906,0 33.86759365893614,35.24212850097454,0 33.86763621187783,35.24180355139695,0 33.86910456870641,35.24228375766282,0 33.86976017346794,35.24249044392153,0 33.86977018155976,35.24256587055196,0 33.86892262156267,35.24248136077431,0 33.8688444722909,35.24291981458192,0 33.86990521958848,35.24314624090002,0 33.87028323342457,35.24321147192122,0 33.87014035472028,35.24362019197279,0 33.87065664667474,35.24370707769733,0 33.87080880677881,35.24330584003954,0 33.8715650823856,35.24345894272905,0 33.87197885872738,35.24342576305184,0 33.87212609393189,35.24342470210653,0 33.87215038583999,35.24311498225671,0 33.87245381454384,35.24309014590789,0 33.87297048603502,35.24302832314419,0 33.87299734097099,35.24336346831869,0 33.87394148047242,35.24339482284194,0 33.8748294233126,35.24345383956243,0 33.875299050909,35.24355131732712,0 33.8752931366466,35.24361951886453,0 33.87688891307834,35.24367612460466,0 33.87679744593922,35.24413208484455,0 33.87841070026658,35.24426760713799,0 33.87851744916235,35.24399692572419,0 33.87991107329979,35.24421492156266,0 33.87984841788531,35.2443846751639,0 33.880259154988,35.24449808035798,0 33.88047225625344,35.24392779445244,0 33.88168078165842,35.24416500742069,0 33.88153068414466,35.24459728237431,0 33.88203118942754,35.24466241258681,0 33.88302678456615,35.24488793720805,0 33.88320018957666,35.24452426741049,0 33.88390157479891,35.24467786363986,0 33.88379410229382,35.24487704499909,0 33.88424601686332,35.2449213588447,0 33.8841444972789,35.24537179848507,0 33.88526090496778,35.24543770494572,0 33.88526954240571,35.24534241177761,0 33.88589513973304,35.24534576932945,0 33.88591929575577,35.24489854013389,0 33.88652833634341,35.24486233708197,0 33.88665932604294,35.24623163279146,0 33.88695098142725,35.24606813317931,0 33.88755199172025,35.24559022158103,0 33.88819154265023,35.24509879767291,0 33.88896253615101,35.24660623746792,0 33.88971560127488,35.24617481313144,0 33.8896171329522,35.24660671809721,0 33.89047098014351,35.24669302269846,0 33.89053055021408,35.24624288679624,0 33.89178890106307,35.2463129783256,0 33.89185107050073,35.2461008983422,0 33.89252910215995,35.24618054849469,0 33.89442197529429,35.24647871587299,0 33.89433709697816,35.24697136544474,0 33.89541513195296,35.24706391358535,0 33.89550070185929,35.24663474598094,0 33.89661144067421,35.24676936636661,0 33.89653059488387,35.24762703495395,0 33.89827983303179,35.2477621988424,0 33.89832684249693,35.24676193474885,0 33.89879283911268,35.24691190131162,0 33.89900570277229,35.24691561021151,0 33.8991814530314,35.24706244016473,0 33.89947187674405,35.24708144385969,0 33.89960231090215,35.24721273806389,0 33.89957914605026,35.24745098573923,0 33.89940682760362,35.24745048098869,0 33.89919944395707,35.24794151040071,0 33.89873673174968,35.24825611846682,0 33.89871849545667,35.24835677466997,0 33.8984043939009,35.24849509510933,0 33.89838413625874,35.24855001355467,0 33.89821671214519,35.24850333500156,0 33.89819060146451,35.24878421395269,0 33.89781025047905,35.24910537562423,0 33.89761246443226,35.24933276085853,0 33.89748732895743,35.2493371114336,0 33.89711964093244,35.24967186949238,0 33.89689470650718,35.24970776574384,0 33.89646337158499,35.24994714899455,0 33.89609224901032,35.24997043599062,0 33.89607841321317,35.24985073321595,0 33.89554415132879,35.24983757330258,0 33.89554471595727,35.24988891383866,0 33.89494376971662,35.24988309143917,0 33.8946472244951,35.24985790016152,0 33.89435030351478,35.2497984802175,0 33.89409924253339,35.24973529917095,0 33.89360520339394,35.24958491332254,0 33.89347555637892,35.24955848659212,0 33.89345939290124,35.24960652821807,0 33.89349743357998,35.2496507462909,0 33.89357261254607,35.24965703696088,0 33.89391610483084,35.2497777277545,0 33.89420501906235,35.24986801440505,0 33.89506608773207,35.25000199110578,0 33.89548769389683,35.25001598683414,0 33.89585130065299,35.25006806362864,0 33.89626494040208,35.25011634632786,0 33.89641965973908,35.2501460067655,0 33.89684878321572,35.25008463666719,0 33.89720129340657,35.24988691208451,0 33.8974992583932,35.249662207914,0 33.89803608868409,35.24915162124825,0 33.89833799384586,35.24890634753832,0 33.89876472933081,35.24862933956049,0 33.89943221006517,35.24822108677062,0 33.90039994511304,35.24782989374373,0 33.90051621062684,35.24773706981701,0 33.90073837287078,35.24748286883941,0 33.90131851827862,35.24747854929436,0 33.90193192458693,35.24726999915644,0 33.90232155697036,35.24716996110511,0 33.90265403672981,35.24725490116046,0 33.90308241904541,35.24744597289623,0</coordinates>
						</LinearRing>
					</outerBoundaryIs>
				</Polygon>
			</MultiGeometry>
		</Placemark>
	</Document>
</kml>