<?xml version='1.0' encoding='UTF-8'?>
<kml xmlns="http://www.opengis.net/kml/2.2">
	<Document>
		<name>AG. GEORGIOS SOLEAS</name>
		<Style id="PolyStyle70">
			<LabelStyle>
				<color>00000000</color>
				<scale>0.000000</scale>
			</LabelStyle>
			<LineStyle>
				<color>ff0055ff</color>
				<width>2.000000</width>
			</LineStyle>
			<PolyStyle>
				<color>00828282</color>
				<outline>1</outline>
			</PolyStyle>
		</Style>
		<Placemark id="ID_70405">
			<name>AG. GEORGIOS SOLEAS</name>
			<snippet />
			<description>&lt;html xmlns:fo="http://www.w3.org/1999/XSL/Format" xmlns:msxsl="urn:schemas-microsoft-com:xslt"&gt;

&lt;head&gt;

&lt;META http-equiv="Content-Type" content="text/html"&gt;

&lt;meta http-equiv="content-type" content="text/html; charset=UTF-8"&gt;

&lt;/head&gt;

&lt;body style="margin:0px 0px 0px 0px;overflow:auto;background:#FFFFFF;"&gt;

&lt;table style="font-family:Arial,Verdana,Times;font-size:12px;text-align:left;width:100%;border-collapse:collapse;padding:3px 3px 3px 3px"&gt;

&lt;tr style="text-align:center;font-weight:bold;background:#9CBCE2"&gt;

&lt;td&gt;1&lt;/td&gt;

&lt;/tr&gt;

&lt;tr&gt;

&lt;td&gt;

&lt;table style="font-family:Arial,Verdana,Times;font-size:12px;text-align:left;width:100%;border-spacing:0px; padding:3px 3px 3px 3px"&gt;

&lt;tr&gt;

&lt;td&gt;DIST_CODE&lt;/td&gt;

&lt;td&gt;1&lt;/td&gt;

&lt;/tr&gt;

&lt;tr bgcolor="#D4E4F3"&gt;

&lt;td&gt;VIL_CODE&lt;/td&gt;

&lt;td&gt;431&lt;/td&gt;

&lt;/tr&gt;

&lt;tr&gt;

&lt;td&gt;VIL_CCD&lt;/td&gt;

&lt;td&gt;1431&lt;/td&gt;

&lt;/tr&gt;

&lt;tr bgcolor="#D4E4F3"&gt;

&lt;td&gt;VIL_NM_E&lt;/td&gt;

&lt;td&gt;AG. GEORGIOS SOLEAS&lt;/td&gt;

&lt;/tr&gt;

&lt;tr&gt;

&lt;td&gt;VIL_NM_G&lt;/td&gt;

&lt;td&gt;ΑΓ. ΓΕΩΡΓΙΟΣ ΣΟΛΕΑΣ&lt;/td&gt;

&lt;/tr&gt;

&lt;/table&gt;

&lt;/td&gt;

&lt;/tr&gt;

&lt;/table&gt;

&lt;/body&gt;&lt;script type="text/javascript"&gt;

				function changeImage(attElement, nameElement) {

				document.getElementById('imageAttachment').src = attElement;

				document.getElementById('imageName').innerHTML = nameElement;}

			&lt;/script&gt;&lt;/html&gt;

</description>
			<styleUrl>#PolyStyle70</styleUrl>
			<MultiGeometry>
				<Polygon>
					<extrude>0</extrude>
					<altitudeMode>clampToGround</altitudeMode>
					<outerBoundaryIs>
						<LinearRing>
							<coordinates> 32.88212900582349,35.11374771175119,0 32.88205212757168,35.11374015706841,0 32.88198962245993,35.11373401441792,0 32.88188211912027,35.11372418619856,0 32.88169490683345,35.11372688994866,0 32.88145118022132,35.1137037578147,0 32.88104333438253,35.11366384854785,0 32.8808750933165,35.11371060535102,0 32.88073423159126,35.11376005883892,0 32.8807410179263,35.11374332001385,0 32.88087669561175,35.1134086551497,0 32.88100971417366,35.1131139740756,0 32.88108352849974,35.11290889628349,0 32.88110281030703,35.11285532453562,0 32.88111063713239,35.11283357847056,0 32.88114137825191,35.11274816841366,0 32.88124184374547,35.11253672113241,0 32.88127361168441,35.11245413796585,0 32.8812809717071,35.11243500462053,0 32.88139056661564,35.11205023208046,0 32.88145780097422,35.11191219181001,0 32.88153124507632,35.11184162726026,0 32.881609545586,35.1117845714425,0 32.88179153450176,35.11168201616041,0 32.88210194953665,35.11151381503791,0 32.88232438981925,35.11136890763883,0 32.88242667263317,35.111278883831,0 32.88255394106483,35.11112149557118,0 32.88269061811252,35.11089263800086,0 32.8827655050672,35.1107040325242,0 32.88281735838395,35.11052411416424,0 32.8827885796643,35.1103769598481,0 32.88272464067109,35.11020269943581,0 32.88258472028879,35.10995801569366,0 32.88244155359718,35.1097065734584,0 32.88241801972942,35.10965455003257,0 32.88238350146855,35.10950602619804,0 32.88226966266053,35.10914271462044,0 32.88223664396947,35.10902117953722,0 32.88214253894103,35.10864744503321,0 32.88211147363895,35.10852406932083,0 32.88206506723096,35.10836302131799,0 32.88224245429924,35.10826712494944,0 32.88262819143454,35.10809208709663,0 32.88294246736297,35.10797242483932,0 32.88299483799855,35.10795248389634,0 32.88308724264705,35.10784075026557,0 32.88318670845568,35.10767023782371,0 32.88321720257431,35.10752055899734,0 32.88321130628995,35.10735854715151,0 32.8831579222032,35.10698444421336,0 32.88305193446567,35.10608867426726,0 32.88275840472849,35.10567932023674,0 32.88271733617666,35.10553049620573,0 32.8826765463438,35.10507322375444,0 32.88225696217687,35.10450253609872,0 32.88216893800244,35.10404176601265,0 32.88212875040359,35.10372651491391,0 32.88220315910804,35.10344274071777,0 32.88223500366033,35.10329306785333,0 32.88225074103648,35.10312558455876,0 32.88214510290022,35.10267695549003,0 32.88214139750552,35.10235628804345,0 32.88228937984603,35.10194628926664,0 32.88251928294889,35.10147881271219,0 32.88254444879342,35.10109730441609,0 32.88248466913004,35.10094054946993,0 32.88240046696381,35.10081786312155,0 32.88228154886522,35.10071070589489,0 32.88198264149012,35.10058440505657,0 32.88187953513382,35.10043461069061,0 32.88181616532002,35.10030203679788,0 32.88182720264771,35.10017968982828,0 32.88188695082881,35.10001482291689,0 32.88188929961014,35.09989813735569,0 32.88178284472381,35.09972698516634,0 32.88166736258186,35.09962553210502,0 32.88170624869667,35.09947624565169,0 32.8819759114215,35.0992381280937,0 32.88204258382739,35.09907328674893,0 32.8821452895241,35.09864387791131,0 32.8820474690343,35.09847702593876,0 32.88192167484661,35.09836130452071,0 32.88172211558035,35.098114396037,0 32.88162416948364,35.09797173570414,0 32.8815851303471,35.09782294824257,0 32.88158584257864,35.09768840045294,0 32.88163696266675,35.09751781201383,0 32.88194558567179,35.09678744111191,0 32.88201546357522,35.09667099699438,0 32.88228892506226,35.09669474279827,0 32.88250831183543,35.09679371980733,0 32.88269528061821,35.09680150245926,0 32.88280747803297,35.09686878876087,0 32.882871536381,35.09687043985215,0 32.88307429878066,35.09683843168009,0 32.88316058285485,35.09689424021007,0 32.8833993407579,35.09693209142905,0 32.88350988971123,35.09698371704996,0 32.88358523757498,35.09714337286546,0 32.8836145689092,35.09716339977238,0 32.8838445422987,35.09722541216779,0 32.88425815628847,35.09726957582018,0 32.88457682829996,35.09725789983231,0 32.88469121644857,35.09723838311165,0 32.88511116509505,35.09739499032559,0 32.88518363728022,35.09744363341537,0 32.88566621691649,35.09787512075716,0 32.88577643994763,35.09798935974096,0 32.88593808050548,35.09820481977796,0 32.88601346408297,35.09835878166987,0 32.88605781463436,35.09848701687548,0 32.88605509116943,35.09867628034747,0 32.8860372150834,35.09878295025054,0 32.88598985073887,35.09889947641376,0 32.88591312492341,35.09900166770861,0 32.88529620936379,35.09941929693473,0 32.88522641493122,35.09952008904012,0 32.88520859741048,35.09961537401931,0 32.8852131872188,35.09973066092214,0 32.88525205856804,35.09991295522624,0 32.88532628517136,35.0999573343891,0 32.88540764756401,35.09996189223909,0 32.88553940593707,35.09993247470744,0 32.88583870478568,35.0999847656997,0 32.88595615702897,35.10004210601819,0 32.88604566276831,35.10014488630529,0 32.88619748701522,35.10058231583078,0 32.88625931877527,35.10067930543963,0 32.88633156966368,35.10077063850591,0 32.88632223138135,35.10090010772998,0 32.88626435239448,35.1010407909659,0 32.88624970855981,35.10119158712499,0 32.88628021435273,35.10131835071548,0 32.88633630887642,35.10141003548918,0 32.88639959566324,35.10151347418047,0 32.88671476456651,35.10180750510243,0 32.88672492533592,35.10185458183865,0 32.88683578258509,35.10191088301141,0 32.88688460469774,35.10185981939793,0 32.88692044707405,35.10157575201436,0 32.88706964210352,35.10161293011013,0 32.88712529972101,35.10159028978735,0 32.88699763419407,35.10137698233637,0 32.88690115404007,35.10118076306909,0 32.88688143976724,35.10108527879494,0 32.88688505660414,35.1010483431908,0 32.88692693522584,35.10099726405994,0 32.88703474998648,35.10096050130447,0 32.88708702627147,35.10091512332311,0 32.88710805441782,35.10086684973457,0 32.88709436300767,35.1008156773223,0 32.88700108735298,35.1006876448409,0 32.88691876352994,35.10042321625647,0 32.8868500954748,35.10021847926829,0 32.88677426928029,35.09999753356062,0 32.88675045434042,35.09986959366326,0 32.88674423817201,35.09968199488271,0 32.88680040371014,35.09953144923191,0 32.88683883671147,35.09947466907158,0 32.88688808014435,35.09931842268997,0 32.88702741572732,35.09921918357448,0 32.88715323923243,35.09910412635105,0 32.88720556722911,35.09904736891763,0 32.88724439226647,35.0988910973624,0 32.88724131013814,35.09879160016411,0 32.88726587248132,35.09872910552429,0 32.88724194893168,35.09862956730876,0 32.88731844744393,35.09860980734899,0 32.88741609245152,35.09851333151198,0 32.88747959792364,35.09835001480448,0 32.8876778199352,35.09829352137177,0 32.88776900264182,35.0980747896478,0 32.88778695899509,35.09792698988232,0 32.88780115902379,35.09785025492833,0 32.88786052759683,35.09777076106702,0 32.88792746457623,35.09769799420488,0 32.88805977912316,35.09761863705866,0 32.88813642459047,35.09756191878393,0 32.88816798355512,35.09748805727563,0 32.8881892121965,35.09739143006194,0 32.88820735478679,35.09719812615949,0 32.88826023447407,35.09700488311211,0 32.88830204356348,35.09697368587235,0 32.88841000030362,35.09690565377943,0 32.888486625056,35.09685461956735,0 32.88856341136055,35.09676377905433,0 32.888647895375,35.09673695850852,0 32.88874172677817,35.0967257661671,0 32.88884629834514,35.09663497981118,0 32.88894394798306,35.09653849279702,0 32.88905542211432,35.09645909201885,0 32.88911119367933,35.09641086245154,0 32.88915661392193,35.09634555063079,0 32.8891603546771,35.09628015652795,0 32.88913283424397,35.09621470139226,0 32.88930290179859,35.09624631519978,0 32.88941731229672,35.0962977217281,0 32.88941947946281,35.09661618574565,0 32.88941903635235,35.09672423051608,0 32.88949414980472,35.097039966638,0 32.88954590639595,35.09712251382319,0 32.88954127566305,35.09740395958605,0 32.88957662435076,35.09746796866901,0 32.88969444450692,35.09753073132871,0 32.88976737309173,35.09753086796606,0 32.88982303047494,35.09750822999172,0 32.8898857646546,35.09745433381179,0 32.88988948405365,35.09739464111561,0 32.88987606316145,35.09728090215712,0 32.88987977106147,35.09722405070288,0 32.88994336517737,35.09696261754192,0 32.88998540353228,35.09687456239934,0 32.89003775552094,35.09681211492342,0 32.89010733037904,35.09678381774585,0 32.89018373178549,35.09678396358966,0 32.89026342779609,35.09682676272658,0 32.89040200316517,35.0969066315757,0 32.8905961361279,35.09698660359347,0 32.89071745930274,35.09703800521228,0 32.89096014209133,35.09712943498944,0 32.89100909095065,35.09704992930089,0 32.89111688879707,35.09701317729225,0 32.8912628556638,35.09698218339781,0 32.89129786655385,35.09691402289413,0 32.89149949451557,35.09685755058607,0 32.89158471991368,35.09677956895754,0 32.89167860032032,35.09674847659434,0 32.89192867163948,35.09672905525663,0 32.8920328780814,35.09671788223491,0 32.89214423549677,35.09665839703833,0 32.8922104594257,35.0965988256505,0 32.89222811184001,35.09653063231286,0 32.89224952004866,35.09639705920864,0 32.89226709950077,35.09634592053511,0 32.89230898333767,35.09629483049066,0 32.89243753000585,35.09627517750882,0 32.89262517905751,35.09623574024749,0 32.89257421094132,35.09604095559663,0 32.8925474714357,35.09580208714457,0 32.89245828438515,35.09555171084895,0 32.89222693512227,35.09530283254434,0 32.89315893909527,35.09451234264251,0 32.89420905497753,35.09528740446298,0 32.89473235759495,35.09567344217493,0 32.89470001837528,35.09664508975822,0 32.89464743743642,35.09753548064418,0 32.89467513391589,35.09806308098325,0 32.89490660726161,35.10004498285668,0 32.89495745234682,35.10011619434802,0 32.89499814195236,35.10029523932212,0 32.89532618335366,35.10123693659668,0 32.89533028283625,35.10137376012322,0 32.8951515466341,35.10189932922294,0 32.89507040868035,35.10211741613678,0 32.89491897347204,35.10231289685591,0 32.89464176552902,35.10269079060305,0 32.89462341871059,35.10283542788308,0 32.89462533573298,35.1030853740244,0 32.89468890482436,35.10348418244529,0 32.89474520672981,35.10373957885173,0 32.89479998273884,35.10460403184371,0 32.89487794370586,35.10469375390151,0 32.89510631449073,35.10478925979523,0 32.89508943264183,35.10496021237982,0 32.89513257699576,35.10528528260591,0 32.89536253575703,35.10538342420982,0 32.89534988250533,35.10566620600725,0 32.89543425979005,35.10575331913738,0 32.89545778737001,35.10584679870323,0 32.89550047867969,35.10594823802396,0 32.89557204626156,35.10603662181955,0 32.89571228965951,35.10615286871386,0 32.89580602664596,35.1062873705343,0 32.89586918155927,35.10645596985584,0 32.89588929100204,35.10659153149977,0 32.89585574315418,35.10665185129412,0 32.89588255638758,35.10679561973667,0 32.89593323971999,35.10683062630819,0 32.896129195718,35.10684523497794,0 32.89612902209824,35.10687919461091,0 32.89608008752219,35.10691646841031,0 32.89582381645729,35.1070923464283,0 32.89567611717464,35.10717281552691,0 32.8956328930329,35.10733636919792,0 32.89562840041113,35.10738598713453,0 32.89565769466004,35.1074592322085,0 32.89565938926793,35.10754196071017,0 32.8956918580712,35.10761608738257,0 32.89563197565358,35.10772211304786,0 32.89564159497181,35.10791284287187,0 32.89558136677842,35.1080859160939,0 32.89541597387078,35.10830999871147,0 32.89530101679975,35.10851379423202,0 32.89522118293063,35.1085840497659,0 32.89535580050492,35.10867899361712,0 32.89542996357306,35.1086814274231,0 32.89548717759702,35.10869437325446,0 32.8955111607109,35.10869979969241,0 32.89554507206683,35.10872425716435,0 32.89557575605347,35.10880992218368,0 32.89563597215668,35.10887047226007,0 32.89568943590174,35.10893076770654,0 32.89570658303676,35.10895851888592,0 32.8957044451404,35.10903166837708,0 32.89568415725279,35.10909445314748,0 32.89563630770097,35.10914331893412,0 32.8955988435469,35.10919079375422,0 32.89555781285729,35.10925743580305,0 32.89550445143814,35.10938328091405,0 32.89549932742712,35.10952089855642,0 32.89551794168469,35.10969612550454,0 32.89555528411768,35.10984915600779,0 32.89558514273451,35.10993637793657,0 32.89562252372733,35.11004816798503,0 32.89561778046275,35.11011786732048,0 32.89561069154183,35.11021794849994,0 32.89540196217658,35.11016906623686,0 32.89525626854595,35.11013824468516,0 32.89501909752341,35.1101143017658,0 32.89467614108244,35.11012230086782,0 32.89430991051295,35.11013873034092,0 32.89413267460557,35.11014078594793,0 32.89367058410922,35.11014614513982,0 32.89349162306937,35.11014282498478,0 32.89326025938441,35.1101116652269,0 32.89328972876161,35.11028782419699,0 32.89318696902149,35.11031377366074,0 32.89315739991001,35.11047556170804,0 32.89315212962005,35.11054232277707,0 32.89317326673859,35.1105828697478,0 32.89316390502621,35.11064691847044,0 32.89313984563559,35.11069540219192,0 32.89302465965793,35.11090208608876,0 32.89279740602777,35.11102878326731,0 32.89271642295321,35.11113035742878,0 32.89249002877258,35.11109044429556,0 32.892322770717,35.11104601583241,0 32.89211756958684,35.11103585657152,0 32.89202253322433,35.11099707528546,0 32.89188295175089,35.11099861127474,0 32.89168164740533,35.11102893801938,0 32.89128800718764,35.11110108703073,0 32.89093866646322,35.11133865378341,0 32.89085224307177,35.11138017340882,0 32.890406932819,35.11159986372593,0 32.8902752624683,35.11166055649696,0 32.89018062416842,35.1116841310302,0 32.88989675440999,35.11172105312309,0 32.88993778323888,35.11179883165786,0 32.88986774719838,35.11187988871382,0 32.88974836839243,35.11194738060021,0 32.88964949745428,35.11205883120902,0 32.88964512967425,35.11224810817195,0 32.889620367671,35.11230892634629,0 32.88952543992821,35.11254544125988,0 32.88947596573301,35.11262989620447,0 32.88941006507132,35.11269405710651,0 32.88934811242859,35.11287990119991,0 32.88931917686746,35.11298465565989,0 32.88935572760836,35.11333283093679,0 32.88934151488869,35.11344235557528,0 32.88932575765274,35.11363049712462,0 32.88933243423165,35.11376745362259,0 32.88929399657151,35.1138961561728,0 32.88929140592324,35.11407827478416,0 32.88931741240827,35.11412963115569,0 32.88937599015158,35.11423304215519,0 32.88939978249113,35.11439434242097,0 32.88939578222855,35.11453193546755,0 32.88939950748115,35.11476264223933,0 32.88946687784386,35.11491195381136,0 32.8895014289352,35.11505710156203,0 32.88951875154064,35.115357334763,0 32.88951089842469,35.11544634637847,0 32.88939965834619,35.11552285398895,0 32.88929408405343,35.11561489616675,0 32.88973058447115,35.11567309065482,0 32.89015062052692,35.11573999520445,0 32.89037940192495,35.11579678473842,0 32.89056295923557,35.11586854240121,0 32.89069711491573,35.11590024435349,0 32.89081463926378,35.1159601903882,0 32.89102234212654,35.11619827026871,0 32.89122174669868,35.11640774510133,0 32.89139277504494,35.1165643129527,0 32.8916103003371,35.11669670936836,0 32.8919703623903,35.11688811261521,0 32.89216640265243,35.11704798909614,0 32.89233071245464,35.1172337778543,0 32.89249908238866,35.11744440563443,0 32.89269085126588,35.11767760897197,0 32.89292167262317,35.11789040162378,0 32.89302513425582,35.11799953473508,0 32.89315477793872,35.11819327824321,0 32.89326112054946,35.11827092022865,0 32.89362711276529,35.11844828878453,0 32.89408884783511,35.11865883248505,0 32.89450809977797,35.11885505732096,0 32.89519059464619,35.11898146636333,0 32.89510496693173,35.1191524979009,0 32.89498349577932,35.11926054656962,0 32.89484191769939,35.11947903101391,0 32.89408285451929,35.11982342162329,0 32.89330277748054,35.12017733849142,0 32.89325886054591,35.11990510386045,0 32.89292589991074,35.12012793521482,0 32.89263944009408,35.11994682930506,0 32.89218053858391,35.12021835651954,0 32.89189444088277,35.12035541972226,0 32.89116893425946,35.12046115663814,0 32.89089938994544,35.1205779298993,0 32.8903608710442,35.12082178905735,0 32.89013060700425,35.12090196735031,0 32.88995009830465,35.12092832306092,0 32.88983401870566,35.12093862258185,0 32.88962836516585,35.12091060897953,0 32.8895975473292,35.12094656608055,0 32.88928918057409,35.12088559471702,0 32.88920330720081,35.12099168876442,0 32.88971739111224,35.12141897586395,0 32.88961176426714,35.12153401222603,0 32.88945413549379,35.12153508546808,0 32.88895247611413,35.12112457485993,0 32.88879570895488,35.12133582245809,0 32.88831843262248,35.1217228120836,0 32.88815128154238,35.12189168842752,0 32.88814427135223,35.12198370503139,0 32.88795501680611,35.1221101349675,0 32.88797392471938,35.12227266752089,0 32.88778858881794,35.12243701678837,0 32.88795856571643,35.12264232124711,0 32.88799475485656,35.12283753231773,0 32.88817301326738,35.12308930544715,0 32.88790877677066,35.12296528076689,0 32.88766443771183,35.12293618422327,0 32.88759076526241,35.12310085565104,0 32.88755320807025,35.1231712461053,0 32.88739933554942,35.12345963078307,0 32.88722957323355,35.1237527382735,0 32.88720645228589,35.12415290359177,0 32.88714069979337,35.12466233763812,0 32.88699238280308,35.12487489317348,0 32.88652831941239,35.1251468031506,0 32.88606926857501,35.12513078264527,0 32.88603338939026,35.12528902457929,0 32.88606431399359,35.12607523169485,0 32.88586098780733,35.12675118608554,0 32.88607047938874,35.12690454061707,0 32.88589089969,35.12706227591553,0 32.88575431479348,35.12704163659485,0 32.88543822635978,35.12716433181507,0 32.88553122379316,35.12747564448052,0 32.88529311211407,35.12743304865304,0 32.88523037150097,35.12736659872114,0 32.88504814627603,35.12736019278634,0 32.88487696890402,35.12725304484456,0 32.88456521625192,35.12721738426328,0 32.88445010052137,35.12711331422609,0 32.88424357197756,35.12706362892104,0 32.88390070247316,35.12694722929646,0 32.88377446683489,35.12695829839279,0 32.88363451497566,35.12691172894599,0 32.88364569766556,35.1267850719535,0 32.88344328327642,35.12662022076993,0 32.88330308872274,35.12661972169656,0 32.88318771683062,35.12656460029659,0 32.88304059127589,35.12654967891377,0 32.88278191678962,35.12641917998364,0 32.88257272071822,35.12621111085701,0 32.88228239873394,35.12610065546051,0 32.88206604594124,35.12592135506893,0 32.8820266570071,35.12541730669074,0 32.88179570554992,35.12534737212971,0 32.88167632937115,35.1253872592653,0 32.88163108675605,35.12532662780278,0 32.88175794610736,35.12519750494079,0 32.88169251344048,35.12497843120956,0 32.88050393375656,35.12440115950071,0 32.88066414074078,35.12393238010169,0 32.88055645830619,35.12375058694748,0 32.88052947477048,35.12355180598592,0 32.88074454802864,35.12331070158688,0 32.88070420817522,35.12325305734568,0 32.88059071732263,35.12319298566396,0 32.88060772373735,35.12314653207702,0 32.88070209088104,35.12288875439812,0 32.88072441075422,35.12274658719296,0 32.88071073632944,35.12262005645966,0 32.88062962276219,35.1225650528426,0 32.88055823907396,35.12248567023383,0 32.88053470079154,35.12241244810637,0 32.88054791991404,35.12218331210754,0 32.88062561467343,35.12200653397046,0 32.88057281145589,35.12177584198061,0 32.88062218673721,35.12165423462462,0 32.88065495643541,35.12160830674076,0 32.880751169033,35.12153882075284,0 32.88078401500535,35.12147359283379,0 32.8808341313638,35.12142811824236,0 32.88093930852344,35.12133268213042,0 32.88097133730819,35.12128905743273,0 32.88098016793887,35.12118797755488,0 32.88103293677837,35.1210134939737,0 32.88107208848451,35.12093013219715,0 32.8811532980034,35.12086680220812,0 32.88119655728862,35.12079083867791,0 32.8813350998533,35.12073509872673,0 32.88140776450246,35.12071888588321,0 32.88155303448438,35.12069781956889,0 32.88172153619185,35.12059731110294,0 32.88185340535262,35.12049610326203,0 32.88208097135313,35.12046737880329,0 32.88216201807157,35.12043472113528,0 32.88222346896818,35.12031707210806,0 32.88226871312975,35.12025758968397,0 32.88271761686151,35.1202012513986,0 32.88279392607915,35.12014926430493,0 32.88277988879121,35.12005889524317,0 32.88286400512681,35.11996830918477,0 32.88283065216207,35.1198704866322,0 32.88280699166687,35.11976985833849,0 32.88267388557356,35.11971314719102,0 32.88257786473241,35.11957136253813,0 32.88243501256402,35.11952768147648,0 32.88239180645468,35.11946333750813,0 32.88229663271264,35.11942266727092,0 32.88218603673397,35.11942284016352,0 32.88212180476165,35.11941295415281,0 32.88197527023996,35.11928178085352,0 32.88192868911441,35.11920208783385,0 32.88185371123789,35.11913308668367,0 32.88178181575592,35.11900445213057,0 32.8817812531882,35.11884937486279,0 32.8818064183593,35.11866598686619,0 32.8818025145483,35.11848931215982,0 32.88183514654734,35.11833151253502,0 32.88185618647065,35.11814356566684,0 32.88185292165765,35.11797711806405,0 32.88181802453904,35.11790996416732,0 32.88180604706653,35.11782244271999,0 32.88185254686501,35.11765617252463,0 32.88193430703308,35.117488324034,0 32.88199943621608,35.11732836916645,0 32.88201294150427,35.1172579794932,0 32.88200548140289,35.1172306865527,0 32.88192577687818,35.11714121972075,0 32.88178610575883,35.11701972766651,0 32.88175271416429,35.11692985697337,0 32.88177132777936,35.11680836235901,0 32.88181047972517,35.11672443149376,0 32.88195869689463,35.1166675896806,0 32.882034009686,35.11654232103154,0 32.8820364966673,35.11646394043976,0 32.88207996778169,35.11634764675414,0 32.88214902458441,35.11622860519125,0 32.88223052932931,35.11623912093197,0 32.88243104989238,35.11622506789735,0 32.88249818237023,35.11620883369404,0 32.88277659653883,35.11597295453931,0 32.88279029365364,35.11590204753889,0 32.8828019935793,35.11584149310356,0 32.88276409976285,35.11570982173109,0 32.88276316966358,35.11557490947359,0 32.88279473622165,35.11550554313258,0 32.8827885746673,35.11542862344722,0 32.88279632396666,35.11536052218672,0 32.88278923653861,35.11514801598204,0 32.88268127258571,35.115069383381,0 32.88263054547865,35.11503547460099,0 32.88253775477026,35.11503784196504,0 32.88247249340968,35.1149580129127,0 32.88241475929613,35.11485190329775,0 32.88244791723386,35.11479198806669,0 32.88244344379403,35.11470630377682,0 32.88257729702733,35.11454691453179,0 32.8826220222956,35.11447354969356,0 32.88275089731089,35.11432358598478,0 32.88272327176247,35.1142688499604,0 32.88273683594814,35.11418795248576,0 32.8827017659379,35.11414330685293,0 32.88268564122157,35.11408726228186,0 32.8826179526034,35.11400067938273,0 32.88266453533427,35.11373102788461,0 32.88216769723073,35.11375151365762,0 32.88212900582349,35.11374771175119,0</coordinates>
						</LinearRing>
					</outerBoundaryIs>
				</Polygon>
			</MultiGeometry>
		</Placemark>
	</Document>
</kml>