<?xml version='1.0' encoding='UTF-8'?>
<kml xmlns="http://www.opengis.net/kml/2.2">
	<Document>
		<name>AG THEODOROS LEMESOU</name>
		<Style id="PolyStyle70">
			<LabelStyle>
				<color>00000000</color>
				<scale>0.000000</scale>
			</LabelStyle>
			<LineStyle>
				<color>ff0055ff</color>
				<width>2.000000</width>
			</LineStyle>
			<PolyStyle>
				<color>00828282</color>
				<outline>1</outline>
			</PolyStyle>
		</Style>
		<Placemark id="ID_70581">
			<name>AG THEODOROS LEMESOU</name>
			<snippet />
			<description>&lt;html xmlns:fo="http://www.w3.org/1999/XSL/Format" xmlns:msxsl="urn:schemas-microsoft-com:xslt"&gt;

&lt;head&gt;

&lt;META http-equiv="Content-Type" content="text/html"&gt;

&lt;meta http-equiv="content-type" content="text/html; charset=UTF-8"&gt;

&lt;/head&gt;

&lt;body style="margin:0px 0px 0px 0px;overflow:auto;background:#FFFFFF;"&gt;

&lt;table style="font-family:Arial,Verdana,Times;font-size:12px;text-align:left;width:100%;border-collapse:collapse;padding:3px 3px 3px 3px"&gt;

&lt;tr style="text-align:center;font-weight:bold;background:#9CBCE2"&gt;

&lt;td&gt;5&lt;/td&gt;

&lt;/tr&gt;

&lt;tr&gt;

&lt;td&gt;

&lt;table style="font-family:Arial,Verdana,Times;font-size:12px;text-align:left;width:100%;border-spacing:0px; padding:3px 3px 3px 3px"&gt;

&lt;tr&gt;

&lt;td&gt;DIST_CODE&lt;/td&gt;

&lt;td&gt;5&lt;/td&gt;

&lt;/tr&gt;

&lt;tr bgcolor="#D4E4F3"&gt;

&lt;td&gt;VIL_CODE&lt;/td&gt;

&lt;td&gt;360&lt;/td&gt;

&lt;/tr&gt;

&lt;tr&gt;

&lt;td&gt;VIL_CCD&lt;/td&gt;

&lt;td&gt;5360&lt;/td&gt;

&lt;/tr&gt;

&lt;tr bgcolor="#D4E4F3"&gt;

&lt;td&gt;VIL_NM_E&lt;/td&gt;

&lt;td&gt;AG THEODOROS LEMESOU&lt;/td&gt;

&lt;/tr&gt;

&lt;tr&gt;

&lt;td&gt;VIL_NM_G&lt;/td&gt;

&lt;td&gt;ΑΓ ΘΕΟΔΩΡΟΣ ΛΕΜΕΣΟΥ&lt;/td&gt;

&lt;/tr&gt;

&lt;/table&gt;

&lt;/td&gt;

&lt;/tr&gt;

&lt;/table&gt;

&lt;/body&gt;&lt;script type="text/javascript"&gt;

				function changeImage(attElement, nameElement) {

				document.getElementById('imageAttachment').src = attElement;

				document.getElementById('imageName').innerHTML = nameElement;}

			&lt;/script&gt;&lt;/html&gt;

</description>
			<styleUrl>#PolyStyle70</styleUrl>
			<MultiGeometry>
				<Polygon>
					<extrude>0</extrude>
					<altitudeMode>clampToGround</altitudeMode>
					<outerBoundaryIs>
						<LinearRing>
							<coordinates> 33.04981688636418,34.91239151421038,0 33.04981515474697,34.91251585788115,0 33.04980888342671,34.91268477064864,0 33.04979360235095,34.91273746342678,0 33.04975975183849,34.91278324614906,0 33.04962217864917,34.91289244795655,0 33.04953831503109,34.91297657127658,0 33.04950853994745,34.91302117318136,0 33.04950288532826,34.91306091730775,0 33.04951067791476,34.91315000623702,0 33.04968558520046,34.91401151572981,0 33.04969890353596,34.91411532830912,0 33.04971471161654,34.9145024500466,0 33.04970041454467,34.91467412985294,0 33.04967103509426,34.91484228126918,0 33.0496301899496,34.91495223224022,0 33.04954740553843,34.91512025036779,0 33.04946459889771,34.91525724446631,0 33.04922003825762,34.91554540628166,0 33.04913580954338,34.91562259195042,0 33.04905320094539,34.91566585479973,0 33.04846592334874,34.91591355925569,0 33.04837702803163,34.91596610898684,0 33.04832109740019,34.91601154220006,0 33.04827722542699,34.91607355800289,0 33.04825312982162,34.9161487648294,0 33.04820882229124,34.91635887751818,0 33.04817835472671,34.91644470041258,0 33.04814334930967,34.91652590791837,0 33.04809564719653,34.91659830976041,0 33.04798393468311,34.91674003689984,0 33.04788988310784,34.91683877810493,0 33.04780880406813,34.91692046699598,0 33.04772457815344,34.9169863980887,0 33.04744654940627,34.91715209070899,0 33.04705827519585,34.91739409628451,0 33.04624877995352,34.91726771230839,0 33.04647062972923,34.91676326283013,0 33.04610964424138,34.91628352485888,0 33.04582733338967,34.91577569970237,0 33.04573291916794,34.91549158860344,0 33.04586829312735,34.91539759576744,0 33.0459163555708,34.91531361203928,0 33.04607203851874,34.91523009505295,0 33.04614736993985,34.91499762461437,0 33.04544139456304,34.91452908470748,0 33.04514795737101,34.91427031833195,0 33.0452300345565,34.9141947407741,0 33.04521979282653,34.91401756731302,0 33.04529792575026,34.913904250554,0 33.04545505292921,34.91374843374449,0 33.04548012682157,34.91339593216618,0 33.04570322753461,34.91303624028453,0 33.04553881226021,34.91291355910361,0 33.04552896130286,34.91290199911035,0 33.0455265426443,34.91289173621029,0 33.04553594404632,34.91284026311712,0 33.04553112567997,34.91281441520275,0 33.04550444487479,34.91278462175544,0 33.04534944596535,34.9126639253658,0 33.04512855244568,34.91240851848571,0 33.04501942296928,34.91236957884608,0 33.04475397841051,34.91234021327951,0 33.04462768561368,34.91234526001058,0 33.04449934246339,34.91236528029581,0 33.04441729846415,34.91239062096631,0 33.04394889827131,34.91261222660749,0 33.04376061046143,34.91277197399047,0 33.04366555657258,34.91285123491819,0 33.04361421697744,34.91286510489302,0 33.04355923406477,34.91286393470886,0 33.04340284598798,34.91282871817486,0 33.04323303142824,34.91283463355654,0 33.04307173975007,34.91285157390909,0 33.04295219271633,34.91289677750367,0 33.04288559530379,34.91293905786612,0 33.04279565023797,34.91304234962448,0 33.04266808182868,34.91336347959867,0 33.04263399007442,34.91346303947633,0 33.04262425455347,34.9135428916174,0 33.0426278419231,34.91360666639511,0 33.04264138836634,34.91366311797911,0 33.04280429236667,34.914008399971,0 33.04281524062008,34.91404931521429,0 33.04281739896303,34.9140836133725,0 33.04280197840345,34.91410649196121,0 33.0427485198555,34.91413423278244,0 33.04253408064299,34.91418253599734,0 33.04245500055568,34.91418575294392,0 33.04237587356084,34.91417436471284,0 33.04227931098443,34.91413210995471,0 33.04215112866894,34.91406227479163,0 33.04208523417601,34.91399852610265,0 33.04204718053056,34.91394257693003,0 33.04184093516002,34.91354952076474,0 33.04179460008755,34.9134679220578,0 33.04167056706484,34.91319297290347,0 33.04162224772691,34.91314485251755,0 33.04160030179999,34.91310755660455,0 33.04159758701784,34.9130581558688,0 33.04163988864865,34.9129633909309,0 33.04164442642256,34.91293657781929,0 33.0416369366544,34.91290153146127,0 33.04157431266472,34.91275612884274,0 33.04156484085104,34.91270317963861,0 33.04158001874989,34.91265898851622,0 33.04166072772977,34.91251235412642,0 33.04168877067929,34.91244707838138,0 33.04169907463637,34.91237746647518,0 33.04169995658418,34.91227775958658,0 33.04168863112638,34.91219264850987,0 33.0416939519183,34.91209566515194,0 33.04173795256386,34.91191036785719,0 33.04174396115213,34.91180816941979,0 33.04173307908578,34.91170826644149,0 33.04171629728325,34.91164448442771,0 33.04168045407808,34.91157709326884,0 33.0416298847681,34.91151395743824,0 33.04154782238612,34.91143553760374,0 33.04151714492711,34.91139934711195,0 33.04150247174982,34.91134577316602,0 33.04149978431884,34.91129177595591,0 33.04149848089393,34.91110235025828,0 33.04148979371224,34.9110054500991,0 33.04147449676687,34.91092120301931,0 33.04144468053559,34.9108519266152,0 33.04139108040534,34.910794863819,0 33.04132810212355,34.91074855838167,0 33.04122207258576,34.91070997303962,0 33.0411280731551,34.9106897179481,0 33.04105184234702,34.91068796427398,0 33.04098146664941,34.91070065237109,0 33.04069190073758,34.91081329369643,0 33.04047676723956,34.91086997513787,0 33.04040335248295,34.9108716149469,0 33.04033385305937,34.9108641542647,0 33.04025867451705,34.91085280390217,0 33.04017077438713,34.91081374559207,0 33.0401122079647,34.91076082779779,0 33.04010491842031,34.91072171576639,0 33.04012548183342,34.91068438119898,0 33.04030452691349,34.9104790358388,0 33.04034415806038,34.91042784606614,0 33.04035373117451,34.9103790902389,0 33.0403515666698,34.91034779562003,0 33.04033840518822,34.91032011402211,0 33.04029409132945,34.91028114408871,0 33.04019416092088,34.91020346482166,0 33.03994595260385,34.90999359014389,0 33.03981084698292,34.90988872562689,0 33.03968382024448,34.90978493193705,0 33.03944872849657,34.90956156548027,0 33.03934049581592,34.9094529615431,0 33.03930605907679,34.90944215538694,0 33.03927381346087,34.90944819645348,0 33.03925105668792,34.90948251807402,0 33.03924731854362,34.90955595250254,0 33.03921956253681,34.90961913267324,0 33.03911445569965,34.90976970274922,0 33.03906090443648,34.90983173463057,0 33.03904254002801,34.90987086579095,0 33.03903694404276,34.90990366292687,0 33.03905261855603,34.91003756249841,0 33.03906060748236,34.91011279242298,0 33.03904296603616,34.91016515650806,0 33.03901068392783,34.91019648114225,0 33.03892930329985,34.91023986475918,0 33.03872043196134,34.91028093263474,0 33.03853183626438,34.91029789369172,0 33.0384501488544,34.91030365993859,0 33.03837741897819,34.91029928389074,0 33.03812330551689,34.91026630800667,0 33.03806396228654,34.91026454175152,0 33.03805189285875,34.91026826577895,0 33.03785887277741,34.91005863727732,0 33.03776290819768,34.90994456178137,0 33.0377186289292,34.90987044820321,0 33.03767974461888,34.90977726925311,0 33.03805370354547,34.90958674218351,0 33.03840209282037,34.90971813488424,0 33.03839690750018,34.90957816791184,0 33.03840581602888,34.90941357992062,0 33.03857318297273,34.90927752644967,0 33.03856705423945,34.9090839807961,0 33.03864760593569,34.90887560052749,0 33.03871062123077,34.90878785128366,0 33.03871147818224,34.90863192055319,0 33.03876981043926,34.90851537801841,0 33.03884634411575,34.90825376965472,0 33.0389680887643,34.90817009312848,0 33.03926597015043,34.90864701491359,0 33.04011021979481,34.90785832128838,0 33.04006780940386,34.90779500629409,0 33.04041698648926,34.90774982761958,0 33.04056580290839,34.90767942953546,0 33.04061884070336,34.90764866725264,0 33.0406710996277,34.90759628052211,0 33.04070351575704,34.90755161134746,0 33.04070355829317,34.90751362908658,0 33.04068458653419,34.90747906334531,0 33.04043065684683,34.90727383119634,0 33.04040723293947,34.90723966713132,0 33.04039841977667,34.90720604898735,0 33.04040032668453,34.9071516634702,0 33.0404118003378,34.90708552177431,0 33.04041032889985,34.90704375395836,0 33.0403973971595,34.9070059914516,0 33.04036894493365,34.90696443902882,0 33.0403159540985,34.90691370093555,0 33.04024465289245,34.90685768372914,0 33.04016132034315,34.9068057630021,0 33.04000204947999,34.90671792854904,0 33.03993167312995,34.9066525313503,0 33.03992895670987,34.90664244781267,0 33.0399390876693,34.9066071954035,0 33.03993417586587,34.90655348370265,0 33.03990225696565,34.90647696177028,0 33.03987438589314,34.90642795321138,0 33.03983750103706,34.90637780547333,0 33.03977311990246,34.90632034701564,0 33.03975063179486,34.90628552085395,0 33.03973031421395,34.90623609963392,0 33.03972448956366,34.90619289813097,0 33.03969564623289,34.90610816660428,0 33.03966510714513,34.90605581631888,0 33.03964613896371,34.906038474257,0 33.03958915511789,34.90600123262843,0 33.03947868185136,34.9059504019925,0 33.03914659678476,34.90599685703368,0 33.03912033344428,34.90603718067725,0 33.03906726937966,34.9061339260693,0 33.03899807819929,34.90624205371027,0 33.03887710561246,34.9063998934729,0 33.03883810556315,34.90644134432252,0 33.03877467188124,34.90649158390138,0 33.03869314390175,34.90653523335782,0 33.03866050636859,34.90654790539531,0 33.03860520210661,34.90654069250743,0 33.03852457049794,34.90654754470876,0 33.03846772945225,34.906572158552,0 33.0384229783785,34.90661962190156,0 33.03816546059124,34.9070680252079,0 33.0381357448489,34.90709583590092,0 33.03809028124704,34.90712263109032,0 33.03772072602086,34.90733255149907,0 33.03763577373123,34.90739518476503,0 33.03740169713345,34.90749379631767,0 33.03730038645849,34.90754448847439,0 33.0372482713011,34.90759035719051,0 33.03720643276647,34.90754757766437,0 33.03717703888685,34.90699896919889,0 33.03688386036985,34.90619739544431,0 33.03648108803696,34.90609244221705,0 33.03609803793162,34.90615703581665,0 33.03587920247296,34.906321034132,0 33.03546151247263,34.90602891824381,0 33.03546136361305,34.90602881732572,0 33.03505780079664,34.90575440924829,0 33.03467040902881,34.90588102602439,0 33.03381492029104,34.90565794017378,0 33.03412108966594,34.90520557860304,0 33.03347880634364,34.90475237778435,0 33.0333345080214,34.90457569781707,0 33.03327539122215,34.90452808361213,0 33.03330049910797,34.90440876996025,0 33.03319375236708,34.90432577632886,0 33.03298149994357,34.90427916283388,0 33.0328682980181,34.90415817126978,0 33.03278607904625,34.90412542514626,0 33.03278949922281,34.90408880763945,0 33.03244953776863,34.90383028228946,0 33.03241509413189,34.90379086419599,0 33.03223656058269,34.90351507933725,0 33.03199100900499,34.90309670637674,0 33.03184653366731,34.90297292849271,0 33.03176141932319,34.90282487171407,0 33.03170723231523,34.90278133807676,0 33.03163000168975,34.90273503667466,0 33.03162183886275,34.90271467070595,0 33.0316820064733,34.90245571929243,0 33.03167719605388,34.902417725646,0 33.03164772720121,34.90236882285392,0 33.0310610010987,34.9015711893971,0 33.03076316126691,34.90151758873272,0 33.03065627669481,34.90147664426466,0 33.03022733108396,34.90124367827093,0 33.03019948925005,34.90120020500413,0 33.03016036699649,34.90108616689069,0 33.03007329542108,34.90055285887447,0 33.03015674548433,34.9002274948704,0 33.03017724388747,34.90001321591618,0 33.03024242331038,34.89973393000738,0 33.03036299309671,34.89962569254804,0 33.03024137105682,34.89956165280795,0 33.02997665567086,34.89945386883647,0 33.02971565043072,34.89922536393883,0 33.02967513631215,34.89856194060709,0 33.02967793874176,34.89822824912117,0 33.02979511460254,34.89814849051762,0 33.02981002051587,34.89812275156301,0 33.02983325888218,34.89806854659278,0 33.02983847521228,34.89798852510437,0 33.02982403284977,34.89787997145218,0 33.02963950320115,34.89744003206267,0 33.02966184507078,34.89716878593872,0 33.02919373030377,34.8968434818208,0 33.02884821823787,34.8967734869959,0 33.02816173949847,34.89579925792322,0 33.02812578721307,34.89572185298214,0 33.02812267334166,34.89567029834497,0 33.02815322494182,34.89540720948433,0 33.02749155713708,34.89487796742166,0 33.02727400850338,34.89473895070929,0 33.02715373304952,34.89465499192875,0 33.02708119233479,34.89428297688526,0 33.02726032379481,34.89417624647817,0 33.02713946282422,34.89400600882142,0 33.0272769025209,34.89389527716149,0 33.0274030883803,34.89380815759587,0 33.02783767712088,34.89382546394029,0 33.02820626276809,34.89388466333737,0 33.02824085170327,34.89388067633478,0 33.02868491596416,34.89353988520604,0 33.0290639056839,34.89344717905258,0 33.02905432436098,34.89336169652064,0 33.02906618298114,34.89326541317103,0 33.02911308593018,34.89303356229854,0 33.02890448687553,34.89289199523161,0 33.02885364271269,34.89283625931179,0 33.0288193326371,34.8927602135256,0 33.028795324377,34.89256210887424,0 33.02877416584577,34.8924915209039,0 33.0286972100132,34.89236925370724,0 33.0283086193698,34.89238325949875,0 33.02825432355327,34.8923736356926,0 33.028208291195,34.89235453576865,0 33.02817711352956,34.89232461956436,0 33.02808556924795,34.89213720619345,0 33.02816999073953,34.8920058255303,0 33.02817503288323,34.89197599377491,0 33.0281589193649,34.89187557483518,0 33.02803142412617,34.89161075641436,0 33.02801726018501,34.89150635982867,0 33.02800835536633,34.89144071961936,0 33.0280237282475,34.89106188326056,0 33.02812358406402,34.89064022949405,0 33.02827426556873,34.89061576811029,0 33.02830869811303,34.89052981730212,0 33.02822527029805,34.89026986917647,0 33.0284250763805,34.88997584630241,0 33.02847171114953,34.88984525215852,0 33.02840225773966,34.8896085004253,0 33.02839055968211,34.88950755039616,0 33.02844758544276,34.88927605875197,0 33.02841169037455,34.8892048322987,0 33.02827750610953,34.88910524765517,0 33.0279928711179,34.88896560044071,0 33.02764413122706,34.88878278525077,0 33.02756640243292,34.88861715434867,0 33.02755838423126,34.88803641850423,0 33.02736860193791,34.88775967368574,0 33.0273429438395,34.88763221878295,0 33.02733164005058,34.88741876552227,0 33.02739839519592,34.8872766395348,0 33.02732260871856,34.88712985089803,0 33.02730057607286,34.88712064308138,0 33.02717700646918,34.88706900085013,0 33.02682294772141,34.88696397281178,0 33.02669896014216,34.88680897232388,0 33.02647356081572,34.88661900244299,0 33.02629625925188,34.88637073521942,0 33.02628501739773,34.88629809200774,0 33.02651227827565,34.88595607051324,0 33.02647629349617,34.88583758791953,0 33.02624133236742,34.88564285912754,0 33.02614597987254,34.88551791955699,0 33.0260224703918,34.88522715880882,0 33.02583918251941,34.88504833766999,0 33.02533246142607,34.88477560660542,0 33.02509746281723,34.88459350392061,0 33.02499473737137,34.88384183153915,0 33.02466659803704,34.88345270584453,0 33.02474167771287,34.88334869534782,0 33.02453917323573,34.88318877039605,0 33.02453452021282,34.8828777681629,0 33.02436785331307,34.88287736988504,0 33.02422255587176,34.88279335535517,0 33.02409697729385,34.8825499467627,0 33.02382219137086,34.88224461280595,0 33.02368194553119,34.88181488955347,0 33.02374230717508,34.8815387731057,0 33.023453692526,34.88135338281667,0 33.02285975775979,34.88083258651245,0 33.0228390926783,34.88071729728767,0 33.02300478279383,34.88045090685765,0 33.02300749730588,34.88022516989028,0 33.02295249152716,34.88007033172215,0 33.02262261514616,34.88017846427597,0 33.02257513267116,34.88006310966721,0 33.0224374304441,34.87999963370166,0 33.0223977289365,34.87985114584226,0 33.02220824166343,34.87980491028029,0 33.02228320536473,34.87973405193355,0 33.02223554755437,34.8796676349115,0 33.02194277117758,34.87957852607897,0 33.02183386043293,34.87949933202309,0 33.02199115399247,34.87943972351113,0 33.02202072966507,34.87920300025209,0 33.02199410122327,34.87914926266455,0 33.02194048624045,34.87914281889817,0 33.02187126717396,34.87921526886235,0 33.02182023440114,34.87902097405084,0 33.02195625419563,34.87901814516916,0 33.02197760650025,34.87893926478579,0 33.02184775342911,34.87882371198689,0 33.02166684334734,34.87852175631956,0 33.02148773059682,34.87825295704154,0 33.0214753819852,34.87795456612601,0 33.02179125279278,34.87801215921812,0 33.02195185432599,34.87809937138972,0 33.02231644174316,34.87792344370062,0 33.02303840205494,34.87744527574961,0 33.02354893341866,34.8771670835881,0 33.02380596359573,34.87699110638243,0 33.02411340797023,34.87678061127655,0 33.02416429454777,34.87629705182032,0 33.02434516399705,34.8761461658987,0 33.02430695007945,34.87582452122258,0 33.02450646296227,34.87503327524578,0 33.02357332093113,34.87466085035705,0 33.02321762550025,34.8741817205451,0 33.02280970440653,34.87363761235805,0 33.02286604528086,34.87346751408764,0 33.02256815953743,34.8733316919464,0 33.02256261665271,34.87304525282256,0 33.02232416260554,34.87279338117916,0 33.02254719977444,34.87276959862425,0 33.02273437201976,34.87268898433749,0 33.02349837306736,34.87267190453153,0 33.02366606132622,34.87253720034631,0 33.02382355060493,34.87250515200294,0 33.02381938571617,34.8727564401712,0 33.02438497339504,34.87321985748057,0 33.0245686829407,34.87319057306125,0 33.02459215077884,34.87304471511437,0 33.02533638601253,34.87305459634201,0 33.02555909132709,34.87312538273074,0 33.02555540506935,34.87324156468188,0 33.02588917844277,34.8734288057229,0 33.02630575761899,34.87337845615602,0 33.02663775506844,34.87313605153519,0 33.02686212167127,34.87273126604551,0 33.02701303412043,34.87250504335207,0 33.02719655456143,34.87229111432079,0 33.02735251483944,34.87221873371318,0 33.02755978851186,34.87212253857818,0 33.02799291958999,34.8719902604709,0 33.02828209083277,34.87197594619329,0 33.02846407000121,34.87197137576669,0 33.02867278538979,34.87183689934578,0 33.02895444561548,34.87165593832532,0 33.02910643945878,34.87155298653156,0 33.02920378972489,34.87146490262765,0 33.02939181212541,34.87146701088714,0 33.02945064652035,34.87140882897523,0 33.02959633139361,34.87137584571469,0 33.02984090359196,34.87139474878855,0 33.02993186354892,34.87140162701223,0 33.03000677212457,34.87137180941434,0 33.03007774306195,34.87131198987934,0 33.03039342912417,34.87122941545611,0 33.03051481172053,34.87120803788898,0 33.03055734394591,34.87118647541078,0 33.03056160969183,34.87112150073229,0 33.03049146352114,34.87094304442054,0 33.03049359453441,34.87091138956821,0 33.03064131504958,34.87087341142683,0 33.03069975821251,34.87092853460613,0 33.03084056512755,34.87113714974384,0 33.03092704516123,34.87127065373849,0 33.03092073729566,34.87134062296445,0 33.03085367354705,34.87144044281402,0 33.03060429984565,34.87164147895032,0 33.03038535173651,34.8718125951543,0 33.0303022229466,34.87188071751698,0 33.03047951002407,34.87206442327339,0 33.03069586153639,34.87205993103161,0 33.03083134650823,34.87205358212119,0 33.0309585880398,34.87209220474455,0 33.03107222950786,34.87197083197729,0 33.03118162470955,34.87190776848954,0 33.03137165169249,34.87191487710565,0 33.03151692900335,34.87200019665919,0 33.03176918581065,34.87213741959797,0 33.03187567354767,34.87233262171244,0 33.03195866602333,34.87230448830618,0 33.03202586566773,34.87216467693261,0 33.0320725116228,34.87212312956717,0 33.03218946237855,34.87221504716187,0 33.03249227206136,34.87235071913767,0 33.03274744299496,34.87222800702622,0 33.03290746863443,34.8721400664357,0 33.0329575748779,34.87226848652644,0 33.03304975928172,34.87250864393821,0 33.03330072664733,34.87243257718423,0 33.03345647090222,34.87241460916273,0 33.03338533135175,34.8725244186423,0 33.03331830387269,34.87261424187333,0 33.03355875400604,34.87265812219484,0 33.03362984246593,34.87315650622848,0 33.03388471722702,34.87312043709746,0 33.03398988651555,34.87311068293841,0 33.0342413280006,34.87289631323695,0 33.0343265148035,34.87281652919962,0 33.03458889094447,34.8729537695532,0 33.03451770073228,34.87307857616953,0 33.03471795641546,34.87364724015334,0 33.03458619652882,34.87374691280729,0 33.03459534348719,34.87403020156082,0 33.03466198512708,34.87405368420072,0 33.03491658826616,34.87409926062301,0 33.03531496816925,34.87407851507227,0 33.03541394207554,34.87410706936085,0 33.03568640980496,34.87425099671596,0 33.03622321739028,34.87455049328654,0 33.03653599116717,34.87473450125535,0 33.03674603559374,34.87480329856894,0 33.03690415729023,34.87468035556775,0 33.03721029491311,34.87443278001896,0 33.03772939019429,34.87459059588532,0 33.03799196595099,34.87467117647669,0 33.03820434263073,34.87464833308683,0 33.03839645249816,34.87463877133134,0 33.03860902267076,34.87455760808456,0 33.03889438643546,34.87447494283142,0 33.03906173376129,34.87461529040282,0 33.03917060341713,34.8747088489772,0 33.03944929407685,34.87480779180713,0 33.03929035833028,34.87517567943282,0 33.0394257749539,34.87519098272994,0 33.03953694669378,34.87520123213932,0 33.03987489512973,34.87511368508198,0 33.04042528660283,34.87498329390716,0 33.04061796254326,34.87541196307377,0 33.04077289187035,34.87564059286872,0 33.04093675840178,34.87561263534079,0 33.0411828455517,34.87578981627985,0 33.04127562724267,34.87585834342764,0 33.04150189777798,34.87591383968143,0 33.04168264445479,34.87628416054109,0 33.04192710437957,34.87634302928498,0 33.04195901282724,34.87647640348983,0 33.04217897864804,34.87660520085776,0 33.04263887813599,34.8763262988344,0 33.04299090684356,34.87626210188047,0 33.0430061369913,34.87593554484087,0 33.04335792790435,34.87594299656946,0 33.04336768057096,34.87605132621433,0 33.04336481381659,34.8763079275496,0 33.04334597404562,34.87650283958344,0 33.04360859545206,34.87657341096018,0 33.04444712052121,34.87675023883745,0 33.04533407626258,34.87695716290197,0 33.04533700706473,34.87667890067362,0 33.04549493526964,34.87661259890758,0 33.04566434104783,34.87674627758258,0 33.04586200097221,34.8768966807147,0 33.04599321970867,34.87696028948307,0 33.04598937013573,34.87704222879552,0 33.04595708786719,34.87772928180681,0 33.04597029579502,34.8778935284082,0 33.04594911451522,34.87806902543054,0 33.04609642250364,34.87819109848899,0 33.04584160320241,34.87838306581082,0 33.04564211390493,34.87846190289899,0 33.04535334697402,34.87852921374944,0 33.04475873627333,34.87863548469481,0 33.04463485338406,34.87870316211981,0 33.0445210603158,34.87883598142117,0 33.04447271096259,34.87891515147826,0 33.04446551737873,34.87901423203282,0 33.04448246755545,34.87908222189971,0 33.04464331174849,34.87926661681407,0 33.04514008955575,34.8796669403946,0 33.0452324305834,34.87979172477505,0 33.04528359659873,34.87990226084735,0 33.04521106166661,34.88002384690315,0 33.04476071379532,34.88013043820967,0 33.04464009414883,34.88024908577172,0 33.04459156748261,34.88038205059887,0 33.04458038101608,34.88065100463512,0 33.04460764887789,34.88071618628518,0 33.0451160726129,34.88070882048553,0 33.04545263118411,34.88073504980539,0 33.04570996945742,34.88082622380779,0 33.04581324442066,34.88075850079275,0 33.04629137132326,34.880561364637,0 33.04642568993766,34.88045406933128,0 33.04644006656519,34.88025873858061,0 33.04634222697644,34.87971207428217,0 33.04638363994515,34.87965270729797,0 33.04652124555089,34.87959072179274,0 33.0465762079338,34.87959084318003,0 33.04689204158533,34.87965099876706,0 33.04697796393586,34.87963703195229,0 33.04724644088792,34.87947057511126,0 33.04734954850007,34.8794538122813,0 33.04755557853071,34.87947691796453,0 33.04762781721382,34.87944593133481,0 33.04780354622587,34.87927926886729,0 33.0478790996676,34.87928509763695,0 33.04801529328441,34.8796591349464,0 33.04823098724006,34.87988045368431,0 33.04834364240448,34.8800987147732,0 33.04810892001857,34.88044928546481,0 33.04798859063172,34.88048016516286,0 33.0476739969608,34.88109670647442,0 33.04764612115905,34.88121839362729,0 33.04782711928095,34.88154722760272,0 33.04764107150326,34.88171669938606,0 33.04787672188805,34.88214191872181,0 33.04815545743865,34.88199246978161,0 33.04830585514405,34.88222496952974,0 33.04833984780205,34.88233546692005,0 33.04875491358199,34.8825204148101,0 33.04886785325095,34.88265090326931,0 33.04900506116196,34.88271349399157,0 33.04912179299311,34.88273356804903,0 33.0493632416494,34.88242831116754,0 33.049559219981,34.88237494430135,0 33.04978860465772,34.88261610892535,0 33.05008378617698,34.88269319919295,0 33.05055640980949,34.88314158081587,0 33.05116342942868,34.88346001033455,0 33.05205409966526,34.88424339108411,0 33.05224649114378,34.88423814508472,0 33.05294659551826,34.88445766952668,0 33.0528081647023,34.88477731274033,0 33.05371261143,34.88501576070644,0 33.05392493821839,34.88507173749928,0 33.0542969281809,34.88530490736781,0 33.0543034547102,34.88556760263485,0 33.05467009914586,34.88594220321686,0 33.05597113305164,34.88628444782461,0 33.05649787595273,34.88643711536685,0 33.05709835047513,34.88653740182452,0 33.05737532471972,34.88657638061161,0 33.05756239212285,34.88635248869218,0 33.05769241909479,34.8863325583162,0 33.05779294014528,34.88633883240718,0 33.05798393848946,34.88642612391657,0 33.05829536569139,34.88642678178384,0 33.05854283554577,34.88649196353241,0 33.05890816688755,34.88650687905682,0 33.05977122269322,34.88654506579716,0 33.06037440186189,34.88656451661379,0 33.06086445914707,34.88668879964688,0 33.06142308509192,34.88684353383947,0 33.06212139024313,34.88703088686322,0 33.06263335547663,34.88720976467872,0 33.06270944804712,34.88718567491143,0 33.06353447368984,34.8870490761413,0 33.06365005967238,34.88701348524216,0 33.06385913864972,34.88694270324293,0 33.06415638655236,34.88688990508506,0 33.06423557942822,34.88690045434266,0 33.06489144462621,34.88733948097504,0 33.06458980879119,34.88824388330874,0 33.06458053996394,34.8883313986574,0 33.0646624886802,34.88862087921667,0 33.06540695002192,34.88953930245197,0 33.06582995324778,34.88958468000668,0 33.0668672404508,34.8901357508867,0 33.06691862321653,34.89041329709818,0 33.06712342883636,34.89056801352771,0 33.06729863183003,34.89038736642539,0 33.06753500786666,34.89022168062197,0 33.06780749535068,34.89062430229045,0 33.06860072595168,34.89090632206391,0 33.06882179733618,34.89159587658562,0 33.06885286591381,34.8916927813432,0 33.06919698563494,34.891891759088,0 33.06933872443399,34.89233364272886,0 33.06931203279019,34.89233887190102,0 33.06858974779222,34.89248403541174,0 33.06836190773621,34.89253361875694,0 33.06811517948054,34.89260296109006,0 33.06788447153794,34.89267679849162,0 33.06766023273723,34.89276977671719,0 33.06737256730187,34.89294039769224,0 33.06697703365682,34.89321636788841,0 33.06679016282239,34.89336253522836,0 33.06641839753832,34.89367833704253,0 33.06607268719233,34.89397382844543,0 33.06555967320715,34.89450918235769,0 33.06525990937696,34.89485622902365,0 33.06499642776665,34.89520774472681,0 33.06437737286565,34.89590539647825,0 33.06410194789491,34.8962194642464,0 33.06385902311304,34.89643396702827,0 33.06328404974271,34.89695289052825,0 33.06302066373625,34.89736770112192,0 33.06262720382841,34.89800986985128,0 33.06237472902817,34.89846743330159,0 33.06209072920717,34.89870837573922,0 33.06153037745706,34.89918200652478,0 33.06127150396733,34.89932094055285,0 33.06061321092089,34.89965729330658,0 33.06022546884807,34.89974911859026,0 33.0594533653762,34.89992384671902,0 33.05925804813392,34.89991843427539,0 33.05901335419561,34.89989053647327,0 33.05848126767647,34.89983045104378,0 33.05822479632046,34.89977398428712,0 33.05810185153788,34.89975349923263,0 33.05800462921489,34.89970337406197,0 33.05800459966137,34.89970335785011,0 33.05732277207307,34.89928955304264,0 33.05732274032967,34.89928953412733,0 33.05716010122833,34.89921591144828,0 33.05716007058163,34.89921589613815,0 33.05704322662239,34.89923478036346,0 33.05589142604035,34.89948815750427,0 33.05575196867938,34.8995784045905,0 33.05559298204118,34.89971656582384,0 33.05547126947225,34.89987918401438,0 33.05526802755431,34.90019708744779,0 33.05513799240503,34.90039716311929,0 33.05501031470672,34.90061224299339,0 33.05488561382941,34.90081454884114,0 33.05478743155457,34.9010478756686,0 33.05479278510326,34.90128148841472,0 33.05479623098364,34.90152415880486,0 33.05476773395596,34.90174460589612,0 33.05465069157167,34.90194424785861,0 33.05448596858463,34.90213090146629,0 33.05435867894504,34.90232215890505,0 33.05429529538803,34.90251750366239,0 33.05418148855257,34.90269559292061,0 33.05412635201212,34.90290045583737,0 33.05415429731097,34.90311147554645,0 33.0541447957678,34.90329892298619,0 33.05410758547761,34.90351776015866,0 33.05405785158435,34.9037396082905,0 33.05403767340491,34.9039585640519,0 33.05407288780108,34.90417476200059,0 33.05413049541951,34.90438084389337,0 33.05409924266127,34.90459973966934,0 33.05395525900897,34.90505157758029,0 33.05381916564706,34.90545855964825,0 33.0538731952335,34.90562920932383,0 33.05377264494307,34.90574125981075,0 33.05364681913331,34.90580019579315,0 33.0535920573653,34.90582584523953,0 33.05346767027181,34.9059101902457,0 33.05334639940261,34.90597268370596,0 33.05321264442864,34.90599651335815,0 33.0530294452458,34.90606807055182,0 33.05291839814431,34.90611144494939,0 33.05268619119217,34.90638067038617,0 33.05238829257868,34.90683873879325,0 33.05225975279272,34.90698440401378,0 33.05211875142848,34.90712174151185,0 33.0516507965614,34.90751584604801,0 33.05147089008494,34.90763896103869,0 33.05118678962722,34.90786928126211,0 33.05109877498386,34.90796300061523,0 33.05106518349036,34.90802867934458,0 33.05106589232984,34.90809722015813,0 33.05107284820929,34.90830341388186,0 33.05110840065898,34.90895639054504,0 33.05110578963721,34.90900924405682,0 33.05109816559095,34.90916785588337,0 33.0510560426566,34.90935205879865,0 33.05097237235822,34.90953187197786,0 33.05086995411369,34.90966509834036,0 33.05080715113468,34.9097223075411,0 33.05073279789372,34.90975819883712,0 33.05046659666939,34.90983918066511,0 33.05031188829023,34.9098944103083,0 33.04985000778752,34.91016757507707,0 33.04955055285089,34.91037548604962,0 33.04951344865966,34.91041020125004,0 33.04949755452893,34.91044385942705,0 33.04949997136724,34.91048867629843,0 33.04951737847111,34.91054905675619,0 33.04951739052406,34.91054908289305,0 33.04969278559253,34.91094519020927,0 33.04969279764616,34.91094521724757,0 33.04991253523617,34.91144719386136,0 33.04998672763067,34.91165739295171,0 33.05000763489193,34.91173392210566,0 33.05001954781601,34.91183535906848,0 33.05001538246952,34.91191231139468,0 33.04981688636418,34.91239151421038,0</coordinates>
						</LinearRing>
					</outerBoundaryIs>
				</Polygon>
			</MultiGeometry>
		</Placemark>
	</Document>
</kml>