<?xml version='1.0' encoding='UTF-8'?>
<kml xmlns="http://www.opengis.net/kml/2.2">
	<Document>
		<name>AGIA MARINA KELOKED.</name>
		<Style id="PolyStyle70">
			<LabelStyle>
				<color>00000000</color>
				<scale>0.000000</scale>
			</LabelStyle>
			<LineStyle>
				<color>ff0055ff</color>
				<width>2.000000</width>
			</LineStyle>
			<PolyStyle>
				<color>00828282</color>
				<outline>1</outline>
			</PolyStyle>
		</Style>
		<Placemark id="ID_70142">
			<name>AGIA MARINA KELOKED.</name>
			<snippet />
			<description>&lt;html xmlns:fo="http://www.w3.org/1999/XSL/Format" xmlns:msxsl="urn:schemas-microsoft-com:xslt"&gt;

&lt;head&gt;

&lt;META http-equiv="Content-Type" content="text/html"&gt;

&lt;meta http-equiv="content-type" content="text/html; charset=UTF-8"&gt;

&lt;/head&gt;

&lt;body style="margin:0px 0px 0px 0px;overflow:auto;background:#FFFFFF;"&gt;

&lt;table style="font-family:Arial,Verdana,Times;font-size:12px;text-align:left;width:100%;border-collapse:collapse;padding:3px 3px 3px 3px"&gt;

&lt;tr style="text-align:center;font-weight:bold;background:#9CBCE2"&gt;

&lt;td&gt;6&lt;/td&gt;

&lt;/tr&gt;

&lt;tr&gt;

&lt;td&gt;

&lt;table style="font-family:Arial,Verdana,Times;font-size:12px;text-align:left;width:100%;border-spacing:0px; padding:3px 3px 3px 3px"&gt;

&lt;tr&gt;

&lt;td&gt;DIST_CODE&lt;/td&gt;

&lt;td&gt;6&lt;/td&gt;

&lt;/tr&gt;

&lt;tr bgcolor="#D4E4F3"&gt;

&lt;td&gt;VIL_CODE&lt;/td&gt;

&lt;td&gt;221&lt;/td&gt;

&lt;/tr&gt;

&lt;tr&gt;

&lt;td&gt;VIL_CCD&lt;/td&gt;

&lt;td&gt;6221&lt;/td&gt;

&lt;/tr&gt;

&lt;tr bgcolor="#D4E4F3"&gt;

&lt;td&gt;VIL_NM_E&lt;/td&gt;

&lt;td&gt;AGIA MARINA KELOKED.&lt;/td&gt;

&lt;/tr&gt;

&lt;tr&gt;

&lt;td&gt;VIL_NM_G&lt;/td&gt;

&lt;td&gt;ΑΓΙΑ ΜΑΡΙΝΑ ΚΕΛΟΚΕΔΑΡΩΝ&lt;/td&gt;

&lt;/tr&gt;

&lt;/table&gt;

&lt;/td&gt;

&lt;/tr&gt;

&lt;/table&gt;

&lt;/body&gt;&lt;script type="text/javascript"&gt;

				function changeImage(attElement, nameElement) {

				document.getElementById('imageAttachment').src = attElement;

				document.getElementById('imageName').innerHTML = nameElement;}

			&lt;/script&gt;&lt;/html&gt;

</description>
			<styleUrl>#PolyStyle70</styleUrl>
			<MultiGeometry>
				<Polygon>
					<extrude>0</extrude>
					<altitudeMode>clampToGround</altitudeMode>
					<outerBoundaryIs>
						<LinearRing>
							<coordinates> 32.63094106754774,34.82351286577262,0 32.63136791526499,34.82440720416969,0 32.63151851608104,34.82458736936463,0 32.63173219329376,34.82484299257703,0 32.63235222783618,34.82558473353239,0 32.63268072319818,34.82600560013289,0 32.63363400412135,34.82724602468839,0 32.63420553718332,34.82798248161974,0 32.63448304694571,34.82836649833762,0 32.63501174735956,34.82906369268617,0 32.63595835238803,34.83009285246871,0 32.63674861014095,34.83095188666111,0 32.63685601530155,34.83109375790247,0 32.63544465281905,34.83178237425405,0 32.63518198395082,34.83192393247358,0 32.63476966169315,34.83214614046119,0 32.63433091435102,34.83233150842302,0 32.63413559510709,34.83240311982168,0 32.63390567396423,34.83243818490491,0 32.63371440349706,34.83246437851135,0 32.63347188625787,34.83269022393385,0 32.63306794932375,34.83288638423711,0 32.63281685653414,34.8328153011818,0 32.63260607683335,34.83275656027127,0 32.63252145027225,34.83277123171744,0 32.63193306249945,34.83305723517368,0 32.63180257009248,34.83328673523958,0 32.63166208038197,34.83332936031388,0 32.63160171610194,34.83334767520448,0 32.6311958749188,34.83346239223409,0 32.63049575024848,34.83359164986197,0 32.63025406947844,34.83369200190926,0 32.6300378567749,34.83390873911638,0 32.62952643627188,34.83465901757788,0 32.62979073441313,34.83466535075961,0 32.62992847740447,34.83470245241139,0 32.6300090923117,34.83489906682018,0 32.63013233168501,34.83491429110616,0 32.63022211895811,34.83506736547187,0 32.63051810690394,34.83514894875547,0 32.6307923130049,34.83537813468121,0 32.6308284502818,34.83562535412161,0 32.63094780467972,34.83611037324462,0 32.63077516399755,34.83638547904464,0 32.63072928336897,34.8366055981385,0 32.63072643698164,34.83694946760988,0 32.63017461486198,34.83725634345231,0 32.63013158931102,34.83748616601007,0 32.63038393770221,34.83787264086546,0 32.63001976214225,34.83794168877182,0 32.62968861145634,34.83825479161655,0 32.62936146510271,34.83838841352643,0 32.6287753207636,34.83844997615358,0 32.62759618263426,34.83860280973595,0 32.6265286120594,34.83875902765443,0 32.62541645241814,34.83897794764883,0 32.62498050632018,34.8391232001451,0 32.62476687986448,34.8393786906011,0 32.62450114901058,34.83954186059531,0 32.62441736942474,34.83972543544505,0 32.62393147906292,34.84012135700198,0 32.6238965888707,34.84007643288943,0 32.62415887034426,34.83985205177376,0 32.62427127443019,34.83938529181322,0 32.62425283075527,34.83932033259654,0 32.62417452019341,34.83928009715825,0 32.62396890310822,34.83921361204353,0 32.62382803023431,34.83927319560075,0 32.62375356455244,34.83931960967247,0 32.62361541293636,34.83937457337915,0 32.62349487392862,34.83944416871212,0 32.62338794804421,34.83963041790699,0 32.62309567093477,34.83918852030115,0 32.62277262386095,34.8388705284481,0 32.62280114970019,34.83881814108016,0 32.62268123714817,34.83875071609071,0 32.62238750704552,34.83880519662767,0 32.62230997122601,34.83874956390929,0 32.62202396655412,34.83866121644469,0 32.62203910912925,34.83844261436521,0 32.62182993950371,34.83809444542594,0 32.62168292249567,34.83823743436049,0 32.62148882882803,34.83833850006035,0 32.62147321384848,34.83847583892583,0 32.62122878695551,34.83857419828072,0 32.62111332567435,34.83880151849789,0 32.62121347099305,34.83915096186363,0 32.62118537346326,34.83936903397916,0 32.62150650677442,34.83946453480832,0 32.62134016662929,34.83963464443054,0 32.62110395073024,34.83976778607688,0 32.62091013650157,34.84029727689305,0 32.62096487459134,34.84080860004286,0 32.62151295604453,34.84115239954622,0 32.62186112619541,34.84128416574909,0 32.62216231841068,34.84115204574022,0 32.62277289420123,34.84108252112186,0 32.62186322433334,34.84162079066386,0 32.62175277282638,34.84129976730701,0 32.62148279773582,34.84122928367644,0 32.620994920184,34.84133194628485,0 32.62090838361909,34.84109216816502,0 32.62060130565766,34.84075380269039,0 32.62058340021351,34.84054280605336,0 32.62070842160781,34.84030018084738,0 32.62066134510827,34.84004846422026,0 32.62023566897754,34.83977430468428,0 32.61992204376475,34.8396305651116,0 32.61968773780365,34.83941427836424,0 32.61939932603082,34.83919768035774,0 32.6192833163061,34.8389536792807,0 32.61924119437959,34.83869793278823,0 32.61927193911946,34.83855210579882,0 32.61920908454053,34.83842196574837,0 32.6194467297472,34.8382408203531,0 32.61965372978875,34.83819333419812,0 32.61964997004451,34.83805541936477,0 32.61953812280652,34.83790066826522,0 32.61906236082779,34.83773572116045,0 32.61866454562617,34.8376604426381,0 32.61831171530086,34.83750025352411,0 32.6177688130999,34.83771209127116,0 32.61731546682724,34.8377408390913,0 32.61706500570224,34.83775672042287,0 32.61667026276082,34.83790045384241,0 32.61607224417086,34.83764963021214,0 32.61591637912093,34.8374662304638,0 32.6153036440775,34.83721125681624,0 32.61492502994988,34.83719285660253,0 32.61449278493077,34.83711736441127,0 32.61417863113906,34.83703849888603,0 32.61392962579782,34.83681806004451,0 32.61345965118115,34.83655173290325,0 32.61332804784663,34.83640902604213,0 32.61317818005966,34.83609993350476,0 32.61321918190188,34.83590549954879,0 32.61320019508402,34.83582427755626,0 32.61281443420693,34.83548948856006,0 32.61274773669857,34.83523359571969,0 32.61266972648659,34.83515203158241,0 32.61228558176762,34.83520659289367,0 32.61209911545807,34.83515279064095,0 32.61206083543213,34.83502684483493,0 32.61214600555403,34.8348448360545,0 32.61220272910296,34.83453693531717,0 32.61217934209812,34.83439484975631,0 32.61198300955779,34.83434504983909,0 32.611895229294,34.83425531488473,0 32.61176728462662,34.83368273485502,0 32.6116695674628,34.83360511139111,0 32.61105527973656,34.83353666822191,0 32.61067744786648,34.8334290331646,0 32.61045762939483,34.83324931231379,0 32.61011498392713,34.83305265684935,0 32.60983662415121,34.83281581644421,0 32.60960794338585,34.83252248258285,0 32.60926447253396,34.83242315655859,0 32.60887524534705,34.83249795623407,0 32.6086396689763,34.83243575337001,0 32.60851344740276,34.83224034924139,0 32.608500424919,34.83203749198694,0 32.60832450177074,34.83190263374922,0 32.60812252986403,34.83193796090865,0 32.60786998173433,34.83213521905993,0 32.60769835170043,34.83207338634583,0 32.60774414673003,34.83189520463677,0 32.607750077466,34.83176751866175,0 32.60758658566185,34.83158094473969,0 32.60732074136312,34.83137820186044,0 32.6070996205497,34.83127740310918,0 32.60683575305487,34.83121858406135,0 32.60630633623517,34.83113779531624,0 32.6061586303377,34.83109253340537,0 32.60610227144333,34.83099229948124,0 32.60606875364293,34.83077980673791,0 32.60600769138155,34.83063930618093,0 32.60590257873745,34.83053323875287,0 32.60577337317248,34.83048947140546,0 32.60560181267743,34.83047875694795,0 32.60529869640219,34.83038124076978,0 32.60437668454144,34.83008461436314,0 32.60412618503802,34.8298732506017,0 32.60394358864801,34.82962513279797,0 32.60388957152303,34.82961924447003,0 32.60355518264373,34.82973245587375,0 32.60346972419418,34.82971523829119,0 32.60327014605662,34.82960819177628,0 32.60286784448089,34.82923619114928,0 32.60272642082995,34.8291777799664,0 32.60233462849123,34.82915505183466,0 32.60187201922973,34.82898516405881,0 32.60171069235689,34.82888391205526,0 32.60121294771242,34.82834788366316,0 32.60081273723648,34.82799632065386,0 32.60046055731769,34.82756145008344,0 32.59988895344665,34.82671106114969,0 32.59969487211153,34.82649073308986,0 32.59916754982471,34.82599167266978,0 32.59895998771194,34.82576754899353,0 32.59885968003388,34.82557072106329,0 32.59858878060349,34.8246130982994,0 32.59849452393743,34.82448286902864,0 32.59844700860894,34.82441721853024,0 32.59814285151264,34.82416602866116,0 32.59808245195781,34.82397702480449,0 32.59771678653726,34.82366471901883,0 32.59765203797111,34.82353004515988,0 32.59765991107972,34.82262202336747,0 32.59759939797723,34.82244580497457,0 32.59737191264576,34.82229738370836,0 32.59734923318898,34.82223010220169,0 32.597435891278,34.82207393928398,0 32.59746015479302,34.82195897603481,0 32.59711017693368,34.82162757443663,0 32.59724051394561,34.82135336668337,0 32.59698295679278,34.82109605131637,0 32.59688719334145,34.82096119584257,0 32.59686659235813,34.8206541200335,0 32.59710997673866,34.82031023544117,0 32.59713105613081,34.82011531505522,0 32.59696024345993,34.819692247467,0 32.59672689971964,34.81932636300571,0 32.59669325409726,34.8191822813756,0 32.59672272640354,34.81891387042591,0 32.5967120117817,34.8188082925823,0 32.59626551288532,34.81843155742553,0 32.59592939677885,34.81829208215561,0 32.59582549406471,34.81820193849723,0 32.59579943749333,34.81807708353625,0 32.59595200591574,34.81792131447745,0 32.59608197834755,34.81768866961038,0 32.59618715911425,34.81763173716077,0 32.59666440186501,34.81759298933014,0 32.59677717041661,34.81755528595344,0 32.59680531041127,34.81744034551046,0 32.59672533525952,34.81727360658543,0 32.59673566597515,34.81719795620531,0 32.59674868758882,34.81710260098854,0 32.59680291543805,34.81705851872641,0 32.59697820685375,34.81702347786472,0 32.5970687728523,34.81705731345367,0 32.59730006961584,34.81716135800132,0 32.59744558212167,34.81706786180745,0 32.59759576109241,34.81682453506392,0 32.59784712273168,34.81694257229483,0 32.59820672255969,34.81660890138001,0 32.59844664690903,34.81649375823705,0 32.5985326912601,34.81627225361447,0 32.59865390470782,34.81626464142358,0 32.59876777833947,34.81554932614537,0 32.59889204567637,34.81557780873372,0 32.59891483171145,34.81566674765594,0 32.59940553643541,34.81573623866377,0 32.59951665188142,34.81572856622223,0 32.59977213767459,34.81498078152099,0 32.60024252315835,34.8146755055995,0 32.60089203317472,34.8142796989293,0 32.60131713641743,34.81415176176495,0 32.60124249210277,34.81383218281935,0 32.6006177181775,34.81331233932825,0 32.60073826584478,34.81299113159096,0 32.60090090278684,34.81286165466188,0 32.60105760099349,34.81264056188894,0 32.60133515603422,34.81206218556706,0 32.60144502923436,34.81180751854319,0 32.60162348071242,34.81179468844312,0 32.60158065524733,34.81129768700691,0 32.60160075689134,34.81091761020499,0 32.6014932782365,34.81089477885254,0 32.60151146660009,34.81073670271501,0 32.60163004515432,34.81064304284464,0 32.60185334565526,34.81011152417499,0 32.60215720283063,34.80960267844949,0 32.60212448729084,34.80949425701543,0 32.60184104497742,34.80919565533944,0 32.60175035120712,34.80878717804871,0 32.60202923977064,34.8084419196624,0 32.60272534976372,34.80770780867488,0 32.60319575223403,34.80778549064962,0 32.60336386510607,34.80780034921104,0 32.60360960279444,34.80778791123304,0 32.60382608193811,34.80765596886433,0 32.60395522495083,34.80750686587293,0 32.60391990867775,34.80730962474824,0 32.6039819477916,34.80713792842204,0 32.60458296259979,34.80650315497231,0 32.60506191361449,34.80597589758545,0 32.60524455163824,34.80586595805628,0 32.60527891282664,34.80578290359694,0 32.6053315186002,34.80553344755074,0 32.60539303513102,34.80542280031053,0 32.60551379697326,34.80529961302846,0 32.60590708536234,34.80489842072082,0 32.60600252122936,34.80470657314534,0 32.60567048602636,34.80416313154453,0 32.60554243282439,34.8041634602468,0 32.60552355733747,34.80416078305707,0 32.60542399880898,34.80414666090924,0 32.60535959327964,34.80408542933945,0 32.60534843433827,34.80400990125235,0 32.60537604054438,34.80388834735388,0 32.60537488430123,34.80367899002911,0 32.60532018723578,34.80351800844759,0 32.60532677747176,34.8034377151571,0 32.6054634738283,34.80332896939298,0 32.60553089878722,34.80330410692481,0 32.60581150997618,34.80320063459369,0 32.60597889686367,34.80310714732881,0 32.60608136000818,34.80299610760876,0 32.6061805771423,34.80296019043509,0 32.60629759117381,34.8029737527428,0 32.60639601639956,34.80303014309739,0 32.6064737146854,34.8030756805039,0 32.60653607076538,34.80308892429987,0 32.60688841546348,34.80297719242236,0 32.60717041328869,34.8028736357838,0 32.60722281685462,34.80283315133816,0 32.60725576787117,34.80275455659812,0 32.60730496657176,34.80263720775896,0 32.60740483794449,34.80236859951561,0 32.60757504878778,34.802136477032,0 32.60804304844851,34.80162104055898,0 32.60941674059329,34.80270010268281,0 32.609460636138,34.80276736101326,0 32.609942478444,34.80350563612478,0 32.61020445536165,34.80405458046921,0 32.6104514420451,34.80453600902533,0 32.61083226390846,34.80553032392653,0 32.61095385020016,34.80588099346883,0 32.61135965628433,34.80622688724992,0 32.61253042155671,34.80714549358126,0 32.61332908171963,34.8077617424887,0 32.61460057458035,34.80862793389041,0 32.61592151086651,34.80963566395631,0 32.61623650017646,34.80990717272439,0 32.61743767433985,34.81131594900589,0 32.61745658197088,34.81133812369617,0 32.61812430822859,34.81248656569353,0 32.61846632296974,34.81301829083212,0 32.61912282604953,34.81388412293033,0 32.61990519099994,34.81459976665531,0 32.62156325235166,34.81537555605623,0 32.62310546448223,34.81610134384991,0 32.62402811606125,34.81645564417377,0 32.62453426111649,34.81677594843129,0 32.62498793830113,34.81705280132837,0 32.62528652402497,34.81724368975568,0 32.62563109358049,34.81745371606302,0 32.62638908416785,34.81793096674382,0 32.62682142977122,34.81888913763402,0 32.62717579483431,34.81970483385903,0 32.63035936636142,34.82230255768322,0 32.63068552926472,34.82299248957797,0 32.63080536516047,34.82323981209989,0 32.63094106754774,34.82351286577262,0</coordinates>
						</LinearRing>
					</outerBoundaryIs>
				</Polygon>
			</MultiGeometry>
		</Placemark>
	</Document>
</kml>