<?xml version='1.0' encoding='UTF-8'?>
<kml xmlns="http://www.opengis.net/kml/2.2">
	<Document>
		<name>AGIA NAPA, ACHNA</name>
		<Style id="PolyStyle70">
			<LabelStyle>
				<color>00000000</color>
				<scale>0.000000</scale>
			</LabelStyle>
			<LineStyle>
				<color>ff0055ff</color>
				<width>2.000000</width>
			</LineStyle>
			<PolyStyle>
				<color>00828282</color>
				<outline>1</outline>
			</PolyStyle>
		</Style>
		<Placemark id="ID_70315">
			<name>AGIA NAPA, ACHNA</name>
			<snippet />
			<description>&lt;html xmlns:fo="http://www.w3.org/1999/XSL/Format" xmlns:msxsl="urn:schemas-microsoft-com:xslt"&gt;

&lt;head&gt;

&lt;META http-equiv="Content-Type" content="text/html"&gt;

&lt;meta http-equiv="content-type" content="text/html; charset=UTF-8"&gt;

&lt;/head&gt;

&lt;body style="margin:0px 0px 0px 0px;overflow:auto;background:#FFFFFF;"&gt;

&lt;table style="font-family:Arial,Verdana,Times;font-size:12px;text-align:left;width:100%;border-collapse:collapse;padding:3px 3px 3px 3px"&gt;

&lt;tr style="text-align:center;font-weight:bold;background:#9CBCE2"&gt;

&lt;td&gt;3&lt;/td&gt;

&lt;/tr&gt;

&lt;tr&gt;

&lt;td&gt;

&lt;table style="font-family:Arial,Verdana,Times;font-size:12px;text-align:left;width:100%;border-spacing:0px; padding:3px 3px 3px 3px"&gt;

&lt;tr&gt;

&lt;td&gt;DIST_CODE&lt;/td&gt;

&lt;td&gt;3&lt;/td&gt;

&lt;/tr&gt;

&lt;tr bgcolor="#D4E4F3"&gt;

&lt;td&gt;VIL_CODE&lt;/td&gt;

&lt;td&gt;111&lt;/td&gt;

&lt;/tr&gt;

&lt;tr&gt;

&lt;td&gt;VIL_CCD&lt;/td&gt;

&lt;td&gt;3111&lt;/td&gt;

&lt;/tr&gt;

&lt;tr bgcolor="#D4E4F3"&gt;

&lt;td&gt;VIL_NM_E&lt;/td&gt;

&lt;td&gt;AGIA NAPA, ACHNA&lt;/td&gt;

&lt;/tr&gt;

&lt;tr&gt;

&lt;td&gt;VIL_NM_G&lt;/td&gt;

&lt;td&gt;ΑΓΙΑ ΝΑΠΑ, ΑΧΝΑ&lt;/td&gt;

&lt;/tr&gt;

&lt;/table&gt;

&lt;/td&gt;

&lt;/tr&gt;

&lt;/table&gt;

&lt;/body&gt;&lt;script type="text/javascript"&gt;

				function changeImage(attElement, nameElement) {

				document.getElementById('imageAttachment').src = attElement;

				document.getElementById('imageName').innerHTML = nameElement;}

			&lt;/script&gt;&lt;/html&gt;

</description>
			<styleUrl>#PolyStyle70</styleUrl>
			<MultiGeometry>
				<Polygon>
					<extrude>0</extrude>
					<altitudeMode>clampToGround</altitudeMode>
					<outerBoundaryIs>
						<LinearRing>
							<coordinates> 33.81303355439456,35.01526608220751,0 33.81346632022169,35.01562497411282,0 33.81352110393816,35.01566931606858,0 33.8149617830008,35.01663766236378,0 33.8155910025022,35.01706562331387,0 33.81522284648995,35.01738851180253,0 33.81497590432449,35.01760440194299,0 33.81379268019545,35.01862574758175,0 33.81407244213236,35.0187505468883,0 33.81439561586549,35.01891417472582,0 33.81480796607654,35.0191647589797,0 33.81507132720135,35.01933302220133,0 33.81464515278292,35.02005961365381,0 33.81467895377484,35.02007699187256,0 33.81449236467926,35.02037501374901,0 33.81426624219972,35.02100276356469,0 33.81414659573434,35.02096081139409,0 33.81395578213628,35.02145000037363,0 33.81341781448146,35.02115180821688,0 33.81326171374792,35.02144207827346,0 33.81433373627862,35.02225980687791,0 33.81379269663704,35.02257780980526,0 33.81408365069369,35.02293801745775,0 33.8141506814169,35.02291493288701,0 33.81445978158236,35.02325489695648,0 33.81422404651527,35.02353061327101,0 33.81512730280046,35.02459090558776,0 33.81501772023605,35.02463942625862,0 33.81487177574029,35.0253370587233,0 33.81533952248455,35.02533391688576,0 33.81533781738777,35.02579410380745,0 33.8153377416061,35.02607836574165,0 33.81528574540519,35.02607620020395,0 33.81528043559472,35.02627898074109,0 33.81518967676618,35.0269060917454,0 33.81527175236349,35.02727753697246,0 33.81532780737045,35.02747604811847,0 33.81540594864629,35.02773180608789,0 33.8150604709363,35.02778664491537,0 33.81516653079122,35.02821511159347,0 33.81525968380306,35.02862534766196,0 33.81491034570431,35.02868788376794,0 33.81503502557015,35.02906912138874,0 33.81457754742326,35.02913499958465,0 33.81511026280947,35.03023839241391,0 33.81501542127609,35.03029921992925,0 33.81520675609778,35.03066430728555,0 33.81528588759543,35.0309437894779,0 33.81498780494507,35.03104261854062,0 33.81548112866848,35.0319949689095,0 33.81474384897323,35.03224659565871,0 33.81431221170984,35.03141221896099,0 33.81314641668521,35.03179797623083,0 33.81319813312239,35.03200065379252,0 33.81275194603923,35.03216156081331,0 33.81283405383414,35.03254000019773,0 33.81326897206237,35.0324623191081,0 33.81332172475907,35.03272493761796,0 33.81342507745254,35.0327165108702,0 33.8134944984155,35.03307956510947,0 33.81372003657644,35.03306516201118,0 33.81418041356552,35.03302598022859,0 33.81453340677471,35.03290501591564,0 33.81471431417993,35.03325345034371,0 33.81485349044049,35.03321041267058,0 33.81507118253415,35.03357639477377,0 33.81516255536383,35.03356174718682,0 33.8154522160464,35.03404627651657,0 33.8153015528685,35.03434930562037,0 33.81512728495714,35.03475122612598,0 33.8157495240952,35.03503013175986,0 33.81614307453574,35.03520688196301,0 33.81602488126232,35.03547380460027,0 33.81588345781,35.03575691456849,0 33.81577181503594,35.03589874468891,0 33.81562131972863,35.03605366178015,0 33.81537045964056,35.0363086495997,0 33.81556727621827,35.03649970804651,0 33.81509517759432,35.03685237235418,0 33.81473640613589,35.03717308666923,0 33.81545819734158,35.03774207954896,0 33.81513408662953,35.03802242942055,0 33.81564265523033,35.03859294890948,0 33.81563115105969,35.03861226373066,0 33.81567859937068,35.03867927865463,0 33.8160459546913,35.03876979231404,0 33.81565216119973,35.03915720256293,0 33.81593011489579,35.03927396841123,0 33.81582313165074,35.03949271982771,0 33.81565991251962,35.03979929043035,0 33.81550484359093,35.04007260960849,0 33.81534394484553,35.04043679458967,0 33.81537118518456,35.04045373885008,0 33.81532695502661,35.04061332173146,0 33.81527265375217,35.04080722781632,0 33.81529975918213,35.04081047095881,0 33.81543839361074,35.04072047647376,0 33.81579508701765,35.04098869318812,0 33.81550881795699,35.0413109016069,0 33.8156369850186,35.04142479427015,0 33.81559421624512,35.04184147460653,0 33.81539143872622,35.04185042098285,0 33.81519888073775,35.04188015112175,0 33.81495181323879,35.04192660284374,0 33.81494866079115,35.0424684597283,0 33.81495518120783,35.04298674333162,0 33.81501606738224,35.04336513999621,0 33.81504133969256,35.04375258514823,0 33.81503450777935,35.04414318267733,0 33.81621001228648,35.04420292841036,0 33.81576152308614,35.04486813212451,0 33.81569143234425,35.04485526823196,0 33.81548589699185,35.0450122839593,0 33.81508840558954,35.0452557461636,0 33.81472287962855,35.0454621435899,0 33.814039924139,35.04587186951301,0 33.81432406209953,35.0462818915259,0 33.81454156335591,35.04621842028368,0 33.81463367020599,35.04620728261676,0 33.81485776260281,35.0461206197607,0 33.81509217911265,35.04607298311235,0 33.81527825648856,35.04603557353632,0 33.81537721929372,35.04603120374074,0 33.81566067149765,35.04607117691391,0 33.81576052651934,35.04605875950829,0 33.81608795524514,35.04595084420753,0 33.81632053970104,35.04583882763716,0 33.81642420950237,35.04597322492211,0 33.8163816318897,35.04602444898001,0 33.81633638231496,35.04607790571686,0 33.81604724178778,35.04639714826803,0 33.81600037285351,35.04647583845954,0 33.81579037060393,35.04679487437834,0 33.8155770295982,35.04716820234193,0 33.81553992466463,35.04722824816885,0 33.81541361755984,35.0475258626042,0 33.81527821859791,35.0477216638488,0 33.8152171631206,35.04781066091074,0 33.8151349613911,35.04793966488344,0 33.81498918539826,35.04817539947953,0 33.81482469116197,35.04842454700476,0 33.81488446229539,35.04847729776833,0 33.81481550410255,35.04858406541961,0 33.81460174408645,35.04875381561977,0 33.81444898230713,35.04888933671347,0 33.81445810701697,35.04896924222329,0 33.81440060111836,35.04902842591864,0 33.81431617573445,35.04907676719363,0 33.81436800213693,35.04929777080719,0 33.81439281148236,35.04934470726877,0 33.81463780354117,35.04935719434633,0 33.81466986590413,35.04941350336653,0 33.81468203493527,35.04948525517038,0 33.81464535872866,35.04968412802379,0 33.81454537103546,35.04981810950144,0 33.8145324066648,35.0499001824176,0 33.81451709993318,35.04990961727468,0 33.81449404151706,35.050036416392,0 33.81443634767784,35.05010345967315,0 33.8143783956949,35.05014450769026,0 33.81431854584228,35.05015757397103,0 33.81429428015143,35.05024438921212,0 33.81423313848208,35.05045409679109,0 33.81422539041522,35.05049014217069,0 33.81421069211745,35.05056089531978,0 33.81419600812191,35.05063298152518,0 33.81418606602921,35.0506930384118,0 33.81417324008007,35.05078910712466,0 33.81415418892725,35.05091121458099,0 33.81414439890241,35.05098660036788,0 33.81413553959992,35.05123728297951,0 33.81412997172508,35.05141129025932,0 33.81412693713686,35.05151395992005,0 33.81415310434187,35.05170041872857,0 33.81434641925082,35.0519857385643,0 33.81454278541754,35.0520884017445,0 33.81453136241075,35.05216246625858,0 33.81448390588351,35.05219944528844,0 33.81446126751342,35.0522869157377,0 33.81445521722245,35.05241226745725,0 33.81445112817853,35.0524902812826,0 33.81444762524118,35.05254562935185,0 33.81444222798849,35.0526143198785,0 33.81443661708617,35.05270234212465,0 33.81443402339563,35.05276768229336,0 33.81447062624652,35.05286208689042,0 33.81454115106783,35.05294426531781,0 33.81453530309435,35.05300829328132,0 33.81438861512468,35.05325590264945,0 33.8143873448067,35.05345454302884,0 33.81438781472611,35.05366517010538,0 33.81456646216797,35.05396078173554,0 33.81526645449142,35.0536680711981,0 33.8154993240513,35.05401012882738,0 33.8157493586011,35.05437789172657,0 33.81558257696835,35.05460941981499,0 33.81617077768238,35.05514810228284,0 33.81687333313869,35.05499489206856,0 33.81697233916757,35.05500622369924,0 33.81701354385773,35.05507393430686,0 33.8170141148001,35.05513125335536,0 33.81711737145059,35.05524387138961,0 33.81711012887686,35.05533057244222,0 33.81707667007004,35.05538945386127,0 33.81681130509251,35.05558462486049,0 33.81707036630467,35.05573337326486,0 33.81714008809595,35.05566390324499,0 33.81748898571513,35.05596138575103,0 33.81774832283033,35.056184512474,0 33.8177059361142,35.05625125125133,0 33.81769786165553,35.05628095323961,0 33.81770457816766,35.05637739255328,0 33.81775384361218,35.05646359100295,0 33.81785725738918,35.05649231421057,0 33.81799120411232,35.05662812907296,0 33.8180609116239,35.05665361806375,0 33.81814062417948,35.05662712138314,0 33.8183603876633,35.05650449600967,0 33.81849530003428,35.05652608440511,0 33.81865203540183,35.05662540169472,0 33.81869712739383,35.05671508924569,0 33.81865362448462,35.05678460674528,0 33.81869238666419,35.05687260634902,0 33.8187080503949,35.05696595383464,0 33.8187636309838,35.05705210833141,0 33.81877710496669,35.05713681726044,0 33.81874034644206,35.0572495549838,0 33.81876699968205,35.05738955442737,0 33.81876201721816,35.05752284474158,0 33.81877883558432,35.05752100055467,0 33.81894862818223,35.05745236112063,0 33.81909140757707,35.05741851535323,0 33.81922678833143,35.05748682590227,0 33.8194233939615,35.05751288300201,0 33.81955329297351,35.05754565063204,0 33.81964574361321,35.05758427870438,0 33.81974174344741,35.05763690110371,0 33.81974895486126,35.05767610510465,0 33.81972188305976,35.05803797440953,0 33.81967758722442,35.05804107796024,0 33.81966295560719,35.0582001987577,0 33.81984352395424,35.0585019177499,0 33.81990523199415,35.05868034498786,0 33.8199163902211,35.0589083864387,0 33.82002218988072,35.05900069083979,0 33.82011565693549,35.05908223393436,0 33.82022027251968,35.05911255052878,0 33.82030013092936,35.05910836078335,0 33.8203434204413,35.05899857106829,0 33.82034342101454,35.05899851878394,0 33.82034268314693,35.05870293624653,0 33.82035582670003,35.05846378042675,0 33.82026433743884,35.05819248292521,0 33.82015204028346,35.0580199486644,0 33.8201955662571,35.05799675731223,0 33.82018320728309,35.05795431881395,0 33.820084112476,35.05759191161806,0 33.8200410417671,35.05739102024985,0 33.82003294243196,35.05724690432805,0 33.82001445232113,35.05695138942475,0 33.82000371381135,35.05676531820247,0 33.82001166091496,35.0566721925702,0 33.81990174600839,35.05633349717779,0 33.81965623599467,35.05575117497997,0 33.81959607579755,35.05550521496947,0 33.81989682639966,35.05539733616479,0 33.82013942397542,35.05591032930694,0 33.82037296458808,35.05640513365215,0 33.82051483727778,35.05661039180965,0 33.82059646310233,35.05678320899052,0 33.8207448488576,35.05697382392002,0 33.82079383611524,35.05698991664401,0 33.82085810212232,35.05698035702023,0 33.8208773442326,35.05690722971533,0 33.82089456863961,35.05685418996863,0 33.82103208757201,35.05684595891217,0 33.82114144943384,35.05690726658143,0 33.82120435550254,35.056983488439,0 33.82120959768458,35.0570637503774,0 33.82113320332936,35.05719201311878,0 33.82102832481932,35.05735696760247,0 33.8209737216168,35.057444934034,0 33.82094319949448,35.05749988909464,0 33.82101948257933,35.05755449897161,0 33.82115619777892,35.05764346623916,0 33.82136512389273,35.05799617358235,0 33.82154438508933,35.05803309642332,0 33.82159483749262,35.05810902652279,0 33.82165205266769,35.0581985316588,0 33.82165993309935,35.05832378377197,0 33.82164558062738,35.05854452624325,0 33.82170146932111,35.05863585031839,0 33.8217818089685,35.05876244947093,0 33.82182536254045,35.05898848738278,0 33.82183185440606,35.05902217692315,0 33.82185961377014,35.0591621356615,0 33.82196756794935,35.05941424694318,0 33.82210584238783,35.05971094165524,0 33.82217657233753,35.05975525129182,0 33.8222343659877,35.05973607733563,0 33.82224766894927,35.05966085652535,0 33.82224837315963,35.05938055814367,0 33.82226844283169,35.05927928462869,0 33.82228833973039,35.05916067499508,0 33.82233110626012,35.05904480016464,0 33.82235362311066,35.05898490715988,0 33.82236704690983,35.05894919872908,0 33.82253752410114,35.05877755531471,0 33.82258434051055,35.05871511061314,0 33.82263404689627,35.05859051906526,0 33.82266651730891,35.05849927584461,0 33.82269354234124,35.05839073135866,0 33.82275235288004,35.0582978645394,0 33.82284519770077,35.05826978300131,0 33.8228872216595,35.05825504958236,0 33.8230179062681,35.05832062496364,0 33.82311170799692,35.05838789450851,0 33.82344701547608,35.05870781244482,0 33.8235223897229,35.05878266213166,0 33.82357493869242,35.05880187357408,0 33.82360343575048,35.05879581025229,0 33.82367732366271,35.05857027358145,0 33.82368149551125,35.05827476505452,0 33.82426651223864,35.0582336115936,0 33.82452713183878,35.05859189589993,0 33.82465811200073,35.05883756466606,0 33.82469736658949,35.05896899496993,0 33.82470244087023,35.05898598226705,0 33.82486069803575,35.05910427238759,0 33.82478763699581,35.05917521441142,0 33.82476930835607,35.05924578425078,0 33.82476559175955,35.0593495213289,0 33.82477805234417,35.05940049748219,0 33.82471122142205,35.05943584368239,0 33.82437511806484,35.05959514012815,0 33.82413990557309,35.05976538080007,0 33.82405090757808,35.05988229053603,0 33.82403854575737,35.06005973956457,0 33.82387764368176,35.06041120082536,0 33.82393800315218,35.0604355059666,0 33.82375394101753,35.06076967892402,0 33.82375526987035,35.06090196737711,0 33.82375263894134,35.06099212124298,0 33.82375317924561,35.06104590874523,0 33.8237792600567,35.0611780281906,0 33.82387028989875,35.06126318501077,0 33.82398940374958,35.06132779766439,0 33.82420906023381,35.06136846585623,0 33.8244530732389,35.06136971540209,0 33.82449037773716,35.06138690727718,0 33.82449071390849,35.06142034284066,0 33.82444695170059,35.06146425480798,0 33.82435013550523,35.06150707340139,0 33.82429328108555,35.06165574784309,0 33.82434595635517,35.06179495609781,0 33.8245311312288,35.06192308703948,0 33.8245156865357,35.06196971350311,0 33.82446239735259,35.06194536150806,0 33.82426329857486,35.06183913233509,0 33.82411246232854,35.061784912156,0 33.82403269690711,35.061765100764,0 33.82407264116794,35.06199729075353,0 33.82408030155223,35.06220135415162,0 33.82410628179191,35.06241838481468,0 33.82411220175286,35.06253379781636,0 33.82405843054177,35.06263004726111,0 33.82400180852902,35.06267935199573,0 33.82389094198943,35.06277794613812,0 33.82381555599181,35.06285477408748,0 33.82374489030364,35.06292765701287,0 33.82353108453401,35.06296628835671,0 33.82344574730772,35.0630001334109,0 33.82337291739786,35.0630945550278,0 33.82327573670843,35.06337112645569,0 33.82309765957328,35.06388697905401,0 33.82303337889508,35.06435900901398,0 33.82291302213634,35.06493513110949,0 33.82287777946399,35.06508036364173,0 33.82285303795249,35.06525789641191,0 33.8228219362877,35.06568261985869,0 33.82287773869583,35.06578110083608,0 33.82297428187037,35.06588657413506,0 33.82296892465389,35.06598329048189,0 33.82297570333895,35.06602993720107,0 33.82303513113509,35.06608314300302,0 33.82318619478912,35.06625505239324,0 33.82293391059123,35.06647639167272,0 33.822761199955,35.06666260356959,0 33.82266462182862,35.06688980318325,0 33.82274356930275,35.06700167504304,0 33.8229623713174,35.06721635924563,0 33.82301825323289,35.06733530465711,0 33.82304057090478,35.06746312480624,0 33.82301934464601,35.06765349646984,0 33.82308899513076,35.06767723504738,0 33.82291793236133,35.06803274330925,0 33.82293999619898,35.0683339440823,0 33.82284703802522,35.06855765249751,0 33.822645741412,35.06889559103227,0 33.82249381259837,35.0691725329746,0 33.82234552411999,35.06933791074403,0 33.82227313994697,35.06947733572936,0 33.82225140105014,35.06968294951781,0 33.8222771437127,35.06987649993573,0 33.82233449776533,35.07008024881823,0 33.82239936148522,35.07019658984172,0 33.82235787534569,35.0703318915256,0 33.82230848440034,35.07039093096433,0 33.82225439316827,35.07045587297504,0 33.82220126890945,35.07054005840018,0 33.82223617486422,35.07063703530837,0 33.82238293914759,35.07074384234537,0 33.8225590409827,35.07087041321741,0 33.82273526356532,35.07100896062054,0 33.8228121120745,35.07107110721144,0 33.82290663113835,35.07114754160368,0 33.82299002707161,35.07123082170754,0 33.82306431212176,35.07137405344241,0 33.82308955565016,35.07146970662049,0 33.82313442332644,35.07158518868648,0 33.82313534539659,35.07167701378201,0 33.82311198702598,35.07176900366743,0 33.82312254020921,35.07185277802062,0 33.82312866743069,35.07186167186939,0 33.82317182390724,35.07192431188808,0 33.82315821802678,35.07202022782054,0 33.82312129264012,35.07221212650535,0 33.82309773367109,35.07228415475973,0 33.82306943814,35.07236819276359,0 33.82272790107373,35.07221080358363,0 33.82255669446062,35.0721283388502,0 33.82240093340647,35.0720533146334,0 33.82232897183533,35.07214164080278,0 33.82244714669874,35.07219489915757,0 33.82306388079868,35.07247283805814,0 33.82303190551099,35.07268091542769,0 33.82225487680527,35.07229044182585,0 33.82216808215482,35.07236298424953,0 33.82276935648934,35.07268269688325,0 33.8225657543245,35.0727440390379,0 33.82242109653016,35.07286494310722,0 33.82236551933948,35.07314114210196,0 33.82189852439692,35.07312032286443,0 33.82166490625478,35.07309792180723,0 33.82157726887747,35.07308652259226,0 33.82149131514508,35.07324300485931,0 33.82146538709585,35.07356697073469,0 33.82142475273314,35.07387904506917,0 33.82129491865252,35.07402383145458,0 33.82115049809237,35.07416871646557,0 33.82113747378952,35.07432470374419,0 33.82106538219197,35.0744091369522,0 33.82089110664165,35.07443765212463,0 33.82075954961473,35.07445917614802,0 33.82055394309671,35.07444805352966,0 33.82036547781687,35.07443785841621,0 33.82031850767251,35.0744741531277,0 33.81996972781768,35.07424865871026,0 33.81983749170776,35.07415361465865,0 33.81988220937317,35.07424925040772,0 33.82007507170094,35.07457173755201,0 33.82007639146362,35.07470364276289,0 33.82000489828863,35.07484803325109,0 33.8197574091061,35.0748976754266,0 33.81950932012901,35.07488736009902,0 33.8192174716389,35.07487733986862,0 33.81902928623784,35.07502251799527,0 33.81886967355695,35.07510754095058,0 33.81852043647018,35.07519384458241,0 33.81759025032405,35.07553590232643,0 33.81740062539546,35.07553718056833,0 33.81709538393167,35.07564716763198,0 33.81665790668245,35.07566210732526,0 33.8160757568261,35.07579794028152,0 33.81591554263132,35.07582300235502,0 33.81565572895213,35.07610057222307,0 33.81491680659739,35.07697497832552,0 33.81478127220706,35.07728169120094,0 33.81428284991397,35.07777072515649,0 33.81395241221278,35.07828261374442,0 33.81325836189496,35.07890487139686,0 33.81266498530461,35.07938254342889,0 33.81220845779995,35.07968540806137,0 33.81164198705721,35.07993504185313,0 33.81008072200371,35.08064103256205,0 33.80970133599543,35.07989405004363,0 33.80867553004992,35.08016472509036,0 33.80812185937461,35.08023437307867,0 33.80795495393347,35.07958190773863,0 33.80741634615286,35.0796994211651,0 33.80743187842319,35.07979525581658,0 33.80682685800609,35.07983525969053,0 33.80678067659901,35.07958972573718,0 33.80610236599281,35.07959423564986,0 33.80562739412322,35.07950744992002,0 33.8055705773265,35.07966372652451,0 33.80548299385466,35.079658312283,0 33.80536940510423,35.07923334222237,0 33.80437835540557,35.07932986111149,0 33.80436335536149,35.07928798847642,0 33.80384609634447,35.07935137939368,0 33.80289074709805,35.07936970034109,0 33.8029046879348,35.0793036509279,0 33.80254747590909,35.07932400351753,0 33.80235078172646,35.07934929004668,0 33.80245440621921,35.08024802347173,0 33.8020024297812,35.08027499844383,0 33.8018013536382,35.07910708266684,0 33.80126932961106,35.07915257215968,0 33.80116888600028,35.07857760699335,0 33.80057180860962,35.07868348427862,0 33.80073941400963,35.07941390573901,0 33.80078510963253,35.07961147627161,0 33.80037713257337,35.07966213869364,0 33.80029303805632,35.07926694913272,0 33.80019080973268,35.07925563168731,0 33.8001580060962,35.07888408763043,0 33.79934864950329,35.07891341020614,0 33.79861928894351,35.07891821560632,0 33.7979775677883,35.07893443200965,0 33.79801152928604,35.07942589133799,0 33.79731180469733,35.07947846295696,0 33.79721360475816,35.07913133296484,0 33.79720380324554,35.07887356392692,0 33.79687588184808,35.07890569929542,0 33.79659160560308,35.07892555594665,0 33.79660175599292,35.07921929978991,0 33.79619337024718,35.07922797776574,0 33.79574128045979,35.07924293717436,0 33.79575487773207,35.07914091375765,0 33.79508380544718,35.07913931938566,0 33.79507253416661,35.07948117291611,0 33.79457673853253,35.07950241055673,0 33.79456049693307,35.08008414202068,0 33.79466984477009,35.08007742948801,0 33.79468582739984,35.08022123199846,0 33.79477794673029,35.08069432306034,0 33.79367033773207,35.08080950744412,0 33.79372319472832,35.08099504178957,0 33.79346709804381,35.08091277163089,0 33.79346951606067,35.08040908088966,0 33.79312653538032,35.08039333560936,0 33.79311425124458,35.07987774892685,0 33.79245764386285,35.07986405250691,0 33.79249380955841,35.07907832255803,0 33.79201242974981,35.07908146741895,0 33.7919842987411,35.07918958139121,0 33.79182378027841,35.07918463357491,0 33.79175252397989,35.07935898714798,0 33.79170146819905,35.07935932047574,0 33.79173567779272,35.07912524765497,0 33.79131218251153,35.07908004270671,0 33.79133215353431,35.078882039946,0 33.79107664457609,35.0788597228731,0 33.79058831945463,35.07889888443425,0 33.79057257566539,35.07877906384922,0 33.78996002818237,35.07879504763092,0 33.7899925543917,35.07914261156908,0 33.78989073201485,35.07917325586654,0 33.78970850644809,35.07918643471478,0 33.78887674175057,35.07916186821215,0 33.78890060680159,35.07861006769288,0 33.78855045620887,35.07860634900423,0 33.78851533929136,35.0779889757023,0 33.78831774844984,35.07716279307675,0 33.78796169419315,35.07730301751376,0 33.78777388321016,35.0767346049916,0 33.787242556669,35.07685198162599,0 33.78739718097439,35.07776239130879,0 33.78705473044668,35.07780059138157,0 33.78695410031712,35.07719563378808,0 33.78615290997917,35.07731475655814,0 33.78600295802136,35.07689000320894,0 33.7859132512045,35.07666273093736,0 33.78544756317073,35.07677967433116,0 33.78530536875412,35.0764028389564,0 33.78453375953518,35.07656373256951,0 33.78362368684248,35.07673750813333,0 33.78354053488426,35.07643224238705,0 33.78336264278419,35.07537207406094,0 33.78260471067735,35.07543692960807,0 33.78199970674348,35.07547680847908,0 33.78197571058944,35.07525510546151,0 33.78044896550763,35.07536531881016,0 33.78041989404803,35.07501928538181,0 33.77913769841083,35.07517743323859,0 33.77901120377596,35.07414690878479,0 33.77895684589758,35.07303197437791,0 33.77752123855201,35.07316111006387,0 33.77736582361396,35.07215475295967,0 33.77732907367476,35.07212500741361,0 33.77675349110108,35.07218865736694,0 33.77672068341509,35.07180511285387,0 33.77616703908315,35.07187461555279,0 33.77608786379739,35.07121554610391,0 33.77609101280711,35.0707778068759,0 33.77551543968636,35.0708414499481,0 33.7755222787027,35.07079343698719,0 33.77460393572607,35.07085926705086,0 33.77466401939798,35.0702712603878,0 33.77451103944278,35.07029022553881,0 33.77448513938687,35.06986466472016,0 33.77389441872405,35.06986843547177,0 33.77383409502507,35.06965895436592,0 33.77370316275729,35.06969576684968,0 33.77325276096125,35.06988452019648,0 33.77316213605401,35.06955530925939,0 33.77260414920885,35.0699366229877,0 33.77245207219396,35.07005151828549,0 33.77211128371545,35.0702635543104,0 33.77184291528312,35.07042116233051,0 33.77154414537623,35.06967354344451,0 33.77192241255319,35.06956920196689,0 33.77189799402894,35.06929953088396,0 33.77166490650897,35.06933099433571,0 33.77156609310965,35.06890589661035,0 33.77158791567037,35.06889976173725,0 33.77147401024423,35.06842079370097,0 33.77128485091207,35.06846996602245,0 33.77126088501816,35.06824826023396,0 33.77118089121597,35.0682727539743,0 33.77100253930039,35.06792011395144,0 33.77113307415969,35.06784133458809,0 33.77093827786471,35.06729092584548,0 33.77045859880167,35.0674678628406,0 33.77039223272907,35.06739033399121,0 33.77019020639649,35.06684596683886,0 33.77063477174457,35.06681316275913,0 33.77059802664051,35.06678341508459,0 33.77031950102403,35.06663528046824,0 33.76999721970075,35.06648742299151,0 33.76980547429132,35.06626078579271,0 33.76959959542496,35.06608220724495,0 33.76956958063439,35.06599245515814,0 33.76946450401389,35.06567532581661,0 33.76930283141913,35.06554443557624,0 33.76920118651077,35.06559304952851,0 33.76931349922195,35.06590413806564,0 33.76920608026742,35.06611468466642,0 33.76925915324289,35.06633020942429,0 33.76832244875464,35.06598836957608,0 33.76824279330427,35.06604883553057,0 33.76807607623431,35.06615782298665,0 33.76814652963389,35.06589354523609,0 33.76815309175596,35.06581555413272,0 33.76816239727042,35.06525185570478,0 33.76811134998798,35.06525217898866,0 33.76795125276882,35.06528916995167,0 33.7679747021683,35.06545691358377,0 33.76792393663381,35.06548721615673,0 33.76790991241565,35.06554726634766,0 33.76784663858174,35.06579950552664,0 33.76780288331621,35.06579978251929,0 33.76759515758302,35.06542333985457,0 33.76750041124253,35.0654299354771,0 33.76742726237195,35.0654064132238,0 33.76742455177078,35.06540554160314,0 33.7673175385995,35.0653711302141,0 33.76714251952267,35.06537223730786,0 33.76652793531348,35.06516026146254,0 33.76505033006418,35.06468390135122,0 33.76458995796439,35.06458486959715,0 33.76464650788226,35.06439263582428,0 33.76316001652609,35.06374241931174,0 33.763091986413,35.0634850124981,0 33.76317938296239,35.06347247052118,0 33.76307355212356,35.06307139350807,0 33.76216413739688,35.06330496501577,0 33.76203688115702,35.06295199102309,0 33.76173138537247,35.0630378565078,0 33.76179941192722,35.06329526415603,0 33.76159561718159,35.06333851722861,0 33.7616184971608,35.06344630435673,0 33.76144348195932,35.06344740317513,0 33.76136627141935,35.0629861834869,0 33.76126212106404,35.0627649786304,0 33.76115073376239,35.06254981604384,0 33.76097605429877,35.06258688840506,0 33.76048808729308,35.06265590633836,0 33.7600359130627,35.062652744461,0 33.75999182598367,35.06261704436488,0 33.75982043781022,35.06222237024415,0 33.7597548081999,35.06222278134449,0 33.75956828261486,35.06176824106877,0 33.75911644737361,35.06180105085556,0 33.75912451645479,35.0618849460647,0 33.75835337693302,35.06208764417057,0 33.75816918764382,35.06188492512395,0 33.75804372335359,35.06172381300687,0 33.7578000350284,35.06139554616782,0 33.75755551785077,35.06097734219588,0 33.75733249242732,35.06051702928166,0 33.75696909442194,35.05985971928667,0 33.75682910728757,35.05970469161323,0 33.75663028823702,35.05949606621122,0 33.75643152550355,35.0592934361799,0 33.75618884609245,35.05907309050893,0 33.75583441325348,35.05859560644999,0 33.75547981390508,35.05828583812211,0 33.75519070224642,35.05796031753059,0 33.75512728272717,35.05782773801158,0 33.75503766780321,35.05755211906656,0 33.75497330734807,35.05731725797619,0 33.75477089638086,35.05695028243888,0 33.75459552971397,35.0568183991121,0 33.75435580565144,35.05645165494073,0 33.75386589923406,35.05593303290964,0 33.75342575351338,35.05541409976436,0 33.75316012918682,35.05493499664776,0 33.75290797838599,35.05456832657884,0 33.7519888107591,35.05335680354283,0 33.75166194740819,35.05298036392374,0 33.75064424757423,35.051871728995,0 33.74999026657322,35.05108815756936,0 33.7504350395454,35.05075808565886,0 33.75106328661885,35.05008932684472,0 33.75072531306915,35.04985615674888,0 33.75052930280556,35.05018469097389,0 33.75043036148425,35.05024667536547,0 33.74973393671072,35.05026121037604,0 33.74953299301368,35.05005750479373,0 33.74949283221088,35.05000039540772,0 33.74939178987541,35.0497756746844,0 33.74937523550502,35.04950486472294,0 33.74938231726592,35.04921731587972,0 33.74937944312474,35.04897285567707,0 33.74936901567202,35.0489187138409,0 33.74930822136246,35.048587370833,0 33.74925591746836,35.04830230520614,0 33.74940885511535,35.04804767392407,0 33.74938401448902,35.04746434571754,0 33.74942752081754,35.04700167058567,0 33.74943047314129,35.04691137317403,0 33.74932375489571,35.046563014171,0 33.7493081655371,35.04649221486635,0 33.7493110913504,35.04639636051506,0 33.74937573245339,35.04610031190779,0 33.74986493480139,35.04602119165034,0 33.75003497489459,35.0465041038224,0 33.75030256373454,35.04659601216287,0 33.75041089922114,35.04659534211057,0 33.7504826342993,35.04654143937041,0 33.75048887912575,35.04643448182244,0 33.75054654891094,35.04642224558133,0 33.75057380868213,35.04624388023857,0 33.75064505321105,35.04613652142676,0 33.75075740436732,35.04578537210264,0 33.75113318148092,35.04580680599189,0 33.75128218489801,35.0455148284532,0 33.75133735321947,35.04522937116674,0 33.75172024168723,35.0452388797339,0 33.75200267127323,35.045320287603,0 33.75225594084744,35.04537217647155,0 33.75241802197365,35.04493161890075,0 33.75245977573805,35.04475910342138,0 33.75244955865574,35.04443247159989,0 33.75234046367883,35.0443499899919,0 33.75224570396571,35.04425553901712,0 33.75230293631024,35.04419578493067,0 33.75219766332935,35.04418775362775,0 33.75216021408832,35.04330664788759,0 33.74979255164266,35.04312980823396,0 33.74976343189459,35.04302743556764,0 33.74976197731902,35.04302262119128,0 33.74957354209277,35.04239860577555,0 33.74918608627257,35.04240272510594,0 33.74913417926844,35.04194606163998,0 33.74902880611101,35.04117559820877,0 33.74953296798582,35.04126130816687,0 33.75032423558277,35.04139214672228,0 33.75026614606722,35.04221321282758,0 33.75057342510039,35.04214606657049,0 33.75075254079572,35.04068746345511,0 33.75077118973756,35.04063960204493,0 33.75105347662036,35.04068881353034,0 33.75109053824669,35.04031846574165,0 33.75139670808634,35.039518112991,0 33.75220203394899,35.03966699204232,0 33.75225721882083,35.03906780690836,0 33.75337456659412,35.03905671600572,0 33.75339259446174,35.03826646419532,0 33.75290204747627,35.03825703296678,0 33.75295358149646,35.03781173921625,0 33.75340337203607,35.03778815462436,0 33.75376010815253,35.03699163993162,0 33.7538308531504,35.03698704138311,0 33.75394162379194,35.03693645005941,0 33.75404197805601,35.03685265375419,0 33.75418550900383,35.03689838637582,0 33.75444715334419,35.03657566548792,0 33.75483106117939,35.03684219926473,0 33.75514750457088,35.03623719380054,0 33.75521134719059,35.03594177953257,0 33.75497535390515,35.03589143953892,0 33.75480998953621,35.03548024832035,0 33.7539965255793,35.03517445059655,0 33.75410043114891,35.03485844517498,0 33.75447929932132,35.03495970811952,0 33.75459888857404,35.03456251246111,0 33.75500572142282,35.03472667233472,0 33.75499801985857,35.03508037304094,0 33.75552016128006,35.03508424220153,0 33.75552367413685,35.034763994024,0 33.7575030071908,35.03488669227524,0 33.75751844919581,35.03494707501913,0 33.75803287407248,35.03485109157401,0 33.75858889380619,35.0346707330736,0 33.75858105012227,35.03461082216878,0 33.76016723107936,35.03447493062814,0 33.76067664155364,35.03442448609483,0 33.76110639025692,35.03437896228942,0 33.76089442284997,35.03403047898408,0 33.76137014684647,35.03384078426988,0 33.76144300091966,35.03381886667846,0 33.76142750237452,35.03378150283473,0 33.76160991884196,35.03370720613003,0 33.76140735355234,35.03335124167722,0 33.76128775571754,35.03339706008168,0 33.7612293619969,35.03329012158093,0 33.76141629634034,35.03319022873412,0 33.7615227682954,35.03313590768914,0 33.76277867640257,35.03267090157151,0 33.7625605723347,35.03222373790653,0 33.76219997533672,35.03244705191597,0 33.76210905893611,35.03249054473616,0 33.76181221048549,35.03255464567665,0 33.76151289284269,35.03263378405208,0 33.76095675392299,35.03287334317984,0 33.76071839256193,35.03250726296659,0 33.76048608223635,35.0321409045543,0 33.76099842944478,35.03214320715725,0 33.76088656623485,35.03149384441964,0 33.75910495997898,35.03153934085171,0 33.75913063523579,35.03120572854519,0 33.75913890404554,35.03111274737334,0 33.7591660454919,35.03079325525157,0 33.75919545096227,35.03044711718994,0 33.75929646154207,35.03044886665695,0 33.75949897820414,35.03001929629641,0 33.75980348449999,35.03005201623523,0 33.7599646155406,35.0294200549936,0 33.75914375406784,35.02924492195311,0 33.75914648217229,35.02925778133458,0 33.75938575935287,35.02939495409097,0 33.75915767764852,35.02992967618955,0 33.75904515836225,35.02995511259676,0 33.75898961206632,35.03004511563053,0 33.75870204575016,35.03004073129433,0 33.75872859006066,35.02986280003751,0 33.75870774879403,35.02984438051251,0 33.75875695640104,35.0296786746993,0 33.758886688882,35.02968559199905,0 33.7588605032564,35.02949562420748,0 33.75882451363144,35.02946493407717,0 33.75888992636127,35.02901933879631,0 33.75913507370702,35.02915269398959,0 33.75913539117165,35.0291870289,0 33.75998493070995,35.02935983797344,0 33.76007340124907,35.02905239172237,0 33.762672953105,35.02986424603161,0 33.76284108772612,35.02991252166561,0 33.76290921544942,35.02986779424428,0 33.76301889178012,35.02994764799213,0 33.76315941046275,35.03005348511162,0 33.76331435430698,35.03013104016225,0 33.7635326236967,35.03017396605122,0 33.76369429295122,35.03018503008319,0 33.76389795070631,35.03023610124487,0 33.76411764143369,35.03030016027281,0 33.76464512781175,35.03042570644515,0 33.76460065390976,35.03050082418254,0 33.76466871397718,35.03053689282811,0 33.76485232559205,35.03069324914506,0 33.76500513241626,35.03080177752533,0 33.76538199208638,35.03089544655902,0 33.7655386833071,35.03091943038122,0 33.76573503635741,35.03093932107034,0 33.76589854476384,35.03093237057412,0 33.76598483582786,35.03093018624766,0 33.76657038013209,35.03050749276975,0 33.76686374951815,35.03029761858834,0 33.76706097892126,35.03015257231867,0 33.76709465340026,35.03012817229211,0 33.76722619451328,35.03003285906279,0 33.76745042072535,35.02987088812392,0 33.76824784641993,35.02929483405194,0 33.76814140403744,35.02732223314786,0 33.76812644664079,35.02703389458667,0 33.76705537072797,35.02393446469461,0 33.7670362793022,35.02387958394369,0 33.76691042416348,35.02351663333744,0 33.76689808684711,35.02348412220543,0 33.76703220734391,35.02344363383103,0 33.76833321284303,35.02309160560593,0 33.76991661573005,35.02267758593797,0 33.77164893872196,35.02221911728911,0 33.77474464093056,35.02418615382462,0 33.77500126351083,35.02409778378722,0 33.77506377787912,35.02422647346415,0 33.77578976909232,35.02511526298842,0 33.77615576208832,35.0249918201405,0 33.77650879342592,35.02483040850999,0 33.77676712418362,35.02466335990017,0 33.77660225742827,35.02419085682985,0 33.77923830463171,35.02310446607337,0 33.77902567468955,35.02275273819998,0 33.77878927362011,35.02213853081286,0 33.77927909419235,35.0220037573869,0 33.77904319631239,35.02137313366403,0 33.77928943672797,35.02131608167279,0 33.77912635896156,35.02092713608218,0 33.77887359683949,35.02099263691832,0 33.77852474711491,35.02040652494296,0 33.77917703291956,35.02023760043479,0 33.77894340164789,35.01981112533345,0 33.77808081388719,35.01828267016068,0 33.77879596758148,35.01818940722825,0 33.77867154708001,35.01776292011252,0 33.7791710457805,35.01772475990259,0 33.77899179325838,35.0175346919076,0 33.77891402741815,35.01750434884651,0 33.77881624821922,35.01747207898265,0 33.77793500145506,35.01720775538896,0 33.77836832414643,35.01648515482697,0 33.77876569004475,35.01658880556099,0 33.77935011624031,35.01674018713571,0 33.77989427940432,35.01673968776954,0 33.77986093978431,35.01659365488223,0 33.77984794833942,35.01654575520594,0 33.78060832126397,35.01641554211805,0 33.78191088397602,35.01619505038232,0 33.78315013315305,35.0158923853363,0 33.78328606864344,35.01619605756851,0 33.78348292657904,35.01614511002394,0 33.78351891089858,35.01613573755682,0 33.78416887795247,35.01596545017035,0 33.78456435679878,35.0158358288779,0 33.78474169385721,35.01623893526876,0 33.78507688942958,35.0161677664402,0 33.78507710705747,35.01616772356819,0 33.78516116275234,35.01615104480818,0 33.78516138473668,35.01615099920363,0 33.78583716909264,35.0160102873698,0 33.78611267863255,35.01595422555069,0 33.78700933465884,35.01583712797615,0 33.78693649843172,35.01566809898329,0 33.78700164009643,35.01564960539081,0 33.78709177758847,35.01562602713499,0 33.78744755393337,35.01556938853404,0 33.78763354547645,35.01613824271917,0 33.78873781017015,35.01588949524568,0 33.78887773585681,35.01629778543828,0 33.78987679386129,35.01612614260151,0 33.78958698827299,35.01490752794622,0 33.78958300267659,35.01488476928017,0 33.79068101290967,35.0147578659216,0 33.79089073815279,35.01474748365766,0 33.7909876273449,35.0151945523098,0 33.79154823037656,35.01518603883873,0 33.7915560402168,35.01534295252064,0 33.79345392082221,35.01489709808134,0 33.79300408599968,35.01521321014944,0 33.79280257459397,35.0153305958169,0 33.79255786432649,35.01549046842685,0 33.7941888599866,35.01544604114936,0 33.79309266649035,35.01615172999264,0 33.79318565869543,35.01621865305023,0 33.79370288596765,35.01585651512192,0 33.79424354064258,35.01553009724427,0 33.79431069948272,35.0155781951885,0 33.79473951236908,35.01535802354275,0 33.79489885407077,35.01571531101531,0 33.79517931206269,35.01655578845813,0 33.79569051189205,35.01644520886791,0 33.79551474394713,35.01550181375156,0 33.79600341992656,35.01538014911524,0 33.79603941537673,35.01537120644432,0 33.79641373634085,35.01527823433408,0 33.79650764012675,35.01569866094555,0 33.79791548313696,35.01526325503932,0 33.79802468835469,35.01545456945239,0 33.79813488425803,35.01540509824944,0 33.79816801602853,35.01539012721906,0 33.79874537237258,35.01512757150854,0 33.79877831731818,35.01511256548611,0 33.79961175208037,35.01473237529606,0 33.79946592344292,35.01435530867425,0 33.79944994576785,35.0143139965916,0 33.79944198727123,35.01429341786952,0 33.79938501668074,35.01417400934749,0 33.79937127859763,35.01414519838131,0 33.79933791084109,35.014075264322,0 33.79930451759633,35.01400720892889,0 33.79999334928316,35.01405734913114,0 33.80079614563167,35.01411063836633,0 33.8009017915724,35.0141177365274,0 33.80185305014763,35.01418628302142,0 33.80240188278142,35.01423181424995,0 33.80250631968229,35.01424084618874,0 33.80257086986527,35.01421634758692,0 33.80273909251375,35.014214375128,0 33.80327448238263,35.01435784499809,0 33.80365539421391,35.01446998080932,0 33.80389698138706,35.01453942342492,0 33.80417681583611,35.01462354104439,0 33.80444406259082,35.01470258366425,0 33.80475927665588,35.01476546111027,0 33.80559719920391,35.01491560640579,0 33.80559754483318,35.01491789185246,0 33.80609830736437,35.01501290098433,0 33.80642207562279,35.01507245332296,0 33.80682827887326,35.01515542760055,0 33.80725123183733,35.01523981786974,0 33.80754564366598,35.01530058463557,0 33.80786419874253,35.01535812974191,0 33.8083666343816,35.0154044033487,0 33.80835908086404,35.01537511325681,0 33.80833623541672,35.01526822748105,0 33.80832182114176,35.01521290212115,0 33.80836668509349,35.01520825678361,0 33.80840931347067,35.01511071504267,0 33.80844069746492,35.01507844878448,0 33.80848519772086,35.01503685855089,0 33.80891577415583,35.01509643722084,0 33.80890825559108,35.01513413408858,0 33.80920901776321,35.01522962669468,0 33.80921175758082,35.01508321649898,0 33.80921255392093,35.01505216534837,0 33.80922126882634,35.01467346551068,0 33.80981089299602,35.01468167811089,0 33.80985560022148,35.01450347239513,0 33.80973823506312,35.01433741270479,0 33.8102488486432,35.01422893652774,0 33.81021427477529,35.01413174457832,0 33.8102037059024,35.0141020474674,0 33.8100982662234,35.0138056226826,0 33.81063144455884,35.01374562996175,0 33.81057155079953,35.01359884030366,0 33.81032775824963,35.01300963537428,0 33.81013678988552,35.01259141267386,0 33.8101235076981,35.01256241150729,0 33.80972240636248,35.01168906627463,0 33.80962900307956,35.01149453909182,0 33.81010577184957,35.01137543655218,0 33.81039900006159,35.01189308650917,0 33.8109109809617,35.0117017647744,0 33.81062832381141,35.01119554725798,0 33.81119099563151,35.01094234843165,0 33.81165243644508,35.01176460709775,0 33.81261557235636,35.01137174427922,0 33.81287375751148,35.0119567812004,0 33.81349814593753,35.01142849428514,0 33.81359502783499,35.0113731897048,0 33.8139559324509,35.01161003709198,0 33.81396042006411,35.01170370339806,0 33.81435328864507,35.01184454036381,0 33.81454979709753,35.01192227764439,0 33.81479288649136,35.01203190964165,0 33.81567683364861,35.01242456180256,0 33.81486973697984,35.0135787558414,0 33.81468110056034,35.01385730110341,0 33.81406379773291,35.01454608391666,0 33.81403037755754,35.01453261499226,0 33.81303355439456,35.01526608220751,0</coordinates>
						</LinearRing>
					</outerBoundaryIs>
				</Polygon>
			</MultiGeometry>
		</Placemark>
	</Document>
</kml>