<?xml version='1.0' encoding='UTF-8'?>
<kml xmlns="http://www.opengis.net/kml/2.2">
	<Document>
		<name>AGIA NAPA, AVGOROU</name>
		<Style id="PolyStyle70">
			<LabelStyle>
				<color>00000000</color>
				<scale>0.000000</scale>
			</LabelStyle>
			<LineStyle>
				<color>ff0055ff</color>
				<width>2.000000</width>
			</LineStyle>
			<PolyStyle>
				<color>00828282</color>
				<outline>1</outline>
			</PolyStyle>
		</Style>
		<Placemark id="ID_70301">
			<name>AGIA NAPA, AVGOROU</name>
			<snippet />
			<description>&lt;html xmlns:fo="http://www.w3.org/1999/XSL/Format" xmlns:msxsl="urn:schemas-microsoft-com:xslt"&gt;

&lt;head&gt;

&lt;META http-equiv="Content-Type" content="text/html"&gt;

&lt;meta http-equiv="content-type" content="text/html; charset=UTF-8"&gt;

&lt;/head&gt;

&lt;body style="margin:0px 0px 0px 0px;overflow:auto;background:#FFFFFF;"&gt;

&lt;table style="font-family:Arial,Verdana,Times;font-size:12px;text-align:left;width:100%;border-collapse:collapse;padding:3px 3px 3px 3px"&gt;

&lt;tr style="text-align:center;font-weight:bold;background:#9CBCE2"&gt;

&lt;td&gt;3&lt;/td&gt;

&lt;/tr&gt;

&lt;tr&gt;

&lt;td&gt;

&lt;table style="font-family:Arial,Verdana,Times;font-size:12px;text-align:left;width:100%;border-spacing:0px; padding:3px 3px 3px 3px"&gt;

&lt;tr&gt;

&lt;td&gt;DIST_CODE&lt;/td&gt;

&lt;td&gt;3&lt;/td&gt;

&lt;/tr&gt;

&lt;tr bgcolor="#D4E4F3"&gt;

&lt;td&gt;VIL_CODE&lt;/td&gt;

&lt;td&gt;110&lt;/td&gt;

&lt;/tr&gt;

&lt;tr&gt;

&lt;td&gt;VIL_CCD&lt;/td&gt;

&lt;td&gt;3110&lt;/td&gt;

&lt;/tr&gt;

&lt;tr bgcolor="#D4E4F3"&gt;

&lt;td&gt;VIL_NM_E&lt;/td&gt;

&lt;td&gt;AGIA NAPA, AVGOROU&lt;/td&gt;

&lt;/tr&gt;

&lt;tr&gt;

&lt;td&gt;VIL_NM_G&lt;/td&gt;

&lt;td&gt;ΑΓΙΑ ΝΑΠΑ, ΑΥΓΟΡΟΥ&lt;/td&gt;

&lt;/tr&gt;

&lt;/table&gt;

&lt;/td&gt;

&lt;/tr&gt;

&lt;/table&gt;

&lt;/body&gt;&lt;script type="text/javascript"&gt;

				function changeImage(attElement, nameElement) {

				document.getElementById('imageAttachment').src = attElement;

				document.getElementById('imageName').innerHTML = nameElement;}

			&lt;/script&gt;&lt;/html&gt;

</description>
			<styleUrl>#PolyStyle70</styleUrl>
			<MultiGeometry>
				<Polygon>
					<extrude>0</extrude>
					<altitudeMode>clampToGround</altitudeMode>
					<outerBoundaryIs>
						<LinearRing>
							<coordinates> 33.81303355439456,35.01526608220751,0 33.81403037755754,35.01453261499226,0 33.81406379773291,35.01454608391666,0 33.81468110056034,35.01385730110341,0 33.81486973697984,35.0135787558414,0 33.81567683364861,35.01242456180256,0 33.81479288649136,35.01203190964165,0 33.81454979709753,35.01192227764439,0 33.81435328864507,35.01184454036381,0 33.81396042006411,35.01170370339806,0 33.8139559324509,35.01161003709198,0 33.81359502783499,35.0113731897048,0 33.81362760456576,35.01134211927963,0 33.81261612932821,35.01074029791592,0 33.81227443856557,35.01052954216433,0 33.81262480564885,35.01028817569076,0 33.81287366395853,35.01033395330458,0 33.81300651275102,35.01031116680993,0 33.81305944934342,35.01028161511491,0 33.81308577371927,35.01025224257767,0 33.81307199813374,35.01020488992133,0 33.81307152865189,35.01015744902856,0 33.81303539392732,35.0100919992027,0 33.81302609023189,35.01004826633348,0 33.81301660489348,35.00998628683374,0 33.81298959448973,35.00994632321797,0 33.81297170828685,35.00993184402426,0 33.81286522056394,35.00992890839247,0 33.8128445828799,35.0098522531331,0 33.81363416465003,35.00969855249205,0 33.81462631369272,35.00949010129873,0 33.81457618466074,35.00935540332156,0 33.81467776560537,35.00931092725544,0 33.81461496451249,35.00913438684507,0 33.81438003757651,35.00850605294677,0 33.8143648091422,35.00843584898467,0 33.81430911815849,35.00829232656553,0 33.81427208940865,35.00823683449301,0 33.81412653322245,35.00806287256581,0 33.81443651530842,35.00787321258706,0 33.81466800536712,35.00775119027252,0 33.81502681144008,35.00754871675655,0 33.81538315026025,35.00736131747283,0 33.81603080478003,35.00702137274064,0 33.81617637866834,35.00693649566848,0 33.81639606510871,35.00681497129845,0 33.81643777303763,35.00681692261763,0 33.81683948798147,35.00730375870489,0 33.81699440953041,35.00751062286504,0 33.81779243266636,35.0069792439999,0 33.81820545835019,35.00670200546341,0 33.81829419707987,35.00664922186616,0 33.81842960551126,35.00656519935954,0 33.81854872590559,35.00649674818082,0 33.8186304182002,35.00644401275959,0 33.81898250832842,35.00681761049555,0 33.81902841914422,35.0068640010989,0 33.81935779383473,35.0071964310153,0 33.81977214887227,35.00753263260832,0 33.81981040167436,35.00750579480829,0 33.82012769835529,35.00774691890363,0 33.82001380430908,35.00798935964154,0 33.82017454984311,35.00806084486065,0 33.82020746599156,35.00807590017685,0 33.82031750624511,35.00812445201463,0 33.82035017795604,35.00813916010375,0 33.82091211934859,35.00839169497733,0 33.82093481504683,35.00840168216831,0 33.82103558147997,35.00844719707442,0 33.82178366986815,35.00732017986698,0 33.82254757788771,35.0077559471039,0 33.82273540231797,35.00770910859966,0 33.82268172619777,35.00721554136595,0 33.82346365418763,35.00721206166972,0 33.82381021809329,35.00720995335733,0 33.82409835812032,35.00754858488485,0 33.82449924162015,35.00798329122996,0 33.82453065479423,35.00802317638181,0 33.82499133821325,35.00776006035245,0 33.82499182517191,35.00776076824302,0 33.82501884909884,35.0077483273951,0 33.82502186653326,35.00774693766655,0 33.82562943285841,35.00742816378147,0 33.82621009294945,35.00719182138611,0 33.82633057099476,35.00714215376232,0 33.82686758920723,35.00785522156433,0 33.82688506015515,35.00787559755108,0 33.82691355016091,35.00786364025967,0 33.82732286474432,35.00764450009182,0 33.82757505853858,35.00800645384978,0 33.8276520450616,35.00802035302596,0 33.8281509469007,35.0077723882211,0 33.82893749579604,35.00737998284947,0 33.8289585344162,35.00736616861817,0 33.82894807257216,35.00734244686041,0 33.82880679220639,35.00715823638668,0 33.82915326017555,35.00702301266635,0 33.82939254028077,35.00745432301353,0 33.82956534688481,35.00738265753938,0 33.82954883574044,35.00736169578456,0 33.83055699268282,35.00716111428829,0 33.83053892069561,35.00713044812118,0 33.83034783422998,35.00683709418337,0 33.83077067923381,35.00665356133291,0 33.83084124302625,35.00679401766146,0 33.83096772782938,35.00704638772211,0 33.83098110341384,35.0070699081746,0 33.83101271923822,35.00706044521831,0 33.8314706275404,35.00687505908122,0 33.83148291361343,35.00687025702013,0 33.83151905055998,35.00685613610431,0 33.83162567931039,35.00680385664438,0 33.83190501678101,35.00666616992131,0 33.83210927836946,35.00698380836238,0 33.83210976255408,35.00698456131282,0 33.83259755674894,35.00774309440821,0 33.83261051753532,35.00776616592122,0 33.83264081375778,35.00775491060798,0 33.83366862406167,35.00735759696391,0 33.83400210898851,35.0072288377084,0 33.83403162011677,35.00721679782304,0 33.8340176066536,35.00719236718186,0 33.83375704225813,35.00675923915841,0 33.83364438588418,35.00657197672098,0 33.83405028711733,35.00638011272027,0 33.83410942294999,35.00648049754703,0 33.83412148908831,35.00650466663804,0 33.83412235573349,35.0065043506028,0 33.83421101672153,35.00672864993714,0 33.83440285481227,35.00718931109702,0 33.83470399382538,35.00712910064834,0 33.83465475209718,35.00698173053454,0 33.83477676318363,35.006960464073,0 33.83489495542323,35.00693922375702,0 33.83496367795857,35.00712417138406,0 33.83493896430047,35.00713534109903,0 33.83511401984281,35.00763540106164,0 33.8349977999424,35.0076629134467,0 33.83495913389275,35.00780460183277,0 33.83503158036283,35.00798009609355,0 33.83523861919945,35.00786867626523,0 33.83524490031935,35.00773506720261,0 33.83560052633278,35.00758648279078,0 33.83553347170341,35.00737795352052,0 33.83544434918854,35.00725285858986,0 33.83536431815078,35.00727069454936,0 33.83535847704201,35.00725973503964,0 33.83581833369232,35.00703186440322,0 33.83595983362078,35.00686118269999,0 33.83615227080848,35.00700442274432,0 33.83644879209044,35.00724122653717,0 33.83642418947174,35.00726339549725,0 33.83652231879488,35.00733500110943,0 33.83666066981548,35.0072303376594,0 33.83671465258699,35.00728024979669,0 33.8369029432644,35.00720352573891,0 33.8369663782112,35.00724394401066,0 33.83726051582421,35.00706974198074,0 33.83730895227212,35.00712687171304,0 33.83743348184319,35.00727483541514,0 33.83746367872237,35.00730991934073,0 33.83699797867815,35.00759612600487,0 33.83702589057382,35.00761941843818,0 33.83729069162571,35.00787944242541,0 33.83730587661969,35.00789875098992,0 33.83733376160721,35.00788476730082,0 33.83786545831489,35.00760129203015,0 33.83789701527058,35.00763478360795,0 33.83792415298105,35.00762091491266,0 33.83875383897296,35.00704247577094,0 33.8388167396224,35.00699892743292,0 33.83912553553278,35.00677810498956,0 33.83916509195065,35.00681757126139,0 33.83916527793003,35.00681776016965,0 33.8394014096429,35.00705431257254,0 33.83903450779373,35.00733229454,0 33.83936760650813,35.00763964092999,0 33.83946975463115,35.00757780198163,0 33.83975251292099,35.007500068581,0 33.8398502157987,35.00746854779381,0 33.84054079718089,35.00726420704394,0 33.84073079600591,35.0072041365169,0 33.84106857870157,35.00708220849107,0 33.84101715239692,35.00688970086835,0 33.84097471637249,35.00669794939224,0 33.84101564702286,35.00668845896139,0 33.8410039555034,35.00663943745615,0 33.84120212531852,35.00658387063428,0 33.84130963635114,35.00656201936056,0 33.84135539684814,35.00674284892515,0 33.84160553043169,35.00773115851109,0 33.84161516562812,35.00775863197358,0 33.84164993204059,35.00775074257844,0 33.84208574712712,35.00760709338965,0 33.84209796440534,35.00760279191009,0 33.84244004267124,35.00756168345506,0 33.84248271031178,35.00755243556721,0 33.84287038737632,35.00746127771803,0 33.84287064858269,35.00746121641219,0 33.84326362500036,35.00737165834325,0 33.84355068129026,35.00730440191487,0 33.84377609846419,35.00725313227044,0 33.84385150098211,35.00723346878961,0 33.84393674507852,35.00744989285132,0 33.84398878869517,35.00759279300942,0 33.84424148420572,35.00754683852691,0 33.84433641709087,35.0075292995929,0 33.84450581632194,35.00749896641839,0 33.84474969751154,35.00745737365644,0 33.84497126447651,35.00742207333536,0 33.84514888225004,35.00739304135281,0 33.8453820150547,35.00735417316174,0 33.84542879521548,35.0073480423609,0 33.84666197133627,35.00739024104535,0 33.84684114483006,35.00766721144767,0 33.84681801700669,35.00776673695947,0 33.84738337311873,35.00801716434591,0 33.84795014439796,35.00817020171248,0 33.84834629770794,35.0074718827185,0 33.84925277082356,35.00749041760332,0 33.84944252247399,35.00735593785448,0 33.84954370768845,35.00727390151415,0 33.84982565192249,35.0070961535009,0 33.84997822967129,35.00705048601667,0 33.85014326201924,35.00697587211668,0 33.85051717603558,35.00675025613822,0 33.85061352763458,35.0069313711395,0 33.84988286065084,35.00727830300821,0 33.85001019614438,35.0074463305381,0 33.84983588343744,35.00764031848177,0 33.84966381993552,35.00781839166527,0 33.85001681544198,35.0080861909716,0 33.85044350784528,35.00777318514714,0 33.85026532965902,35.0075935906413,0 33.85042359874061,35.00748318075868,0 33.85073295196827,35.00726837344993,0 33.85080317661286,35.00728576665879,0 33.85099861795621,35.00726651110482,0 33.85084620430175,35.00700923234396,0 33.85103429670578,35.00698009129834,0 33.85116647849051,35.00738258363889,0 33.85150365151683,35.00728880398037,0 33.85152086667578,35.00731849226339,0 33.85178389177562,35.0072947861513,0 33.85218077218597,35.00783452957634,0 33.85259901052862,35.0076388260198,0 33.8525492019127,35.00749410397045,0 33.85266479952293,35.00746149533739,0 33.85278768368001,35.00743280963965,0 33.85330749628139,35.00818035065728,0 33.85386971238626,35.0080194707104,0 33.85497041355727,35.00764840719945,0 33.85499921713878,35.00764382984799,0 33.85498959005111,35.0076158787839,0 33.85476333937101,35.00694726904125,0 33.85566851771366,35.00669843470781,0 33.85587607091878,35.00663816632183,0 33.85596012287337,35.00685496691881,0 33.85631599176912,35.0077575114086,0 33.85712388741931,35.0073944944194,0 33.85741264148358,35.00802722883159,0 33.85742585206398,35.00805141630775,0 33.85749919992383,35.00801537067335,0 33.85779548469107,35.00783861167033,0 33.85832165232328,35.00763827583381,0 33.85834778215392,35.0076263170692,0 33.85831386524404,35.00757640346377,0 33.8582242479679,35.00746065302063,0 33.85855497766355,35.0073370804359,0 33.85845708042661,35.0071809775179,0 33.85833129269393,35.00698789292768,0 33.85877929670325,35.00680691448935,0 33.85913515895628,35.00720850824072,0 33.8586806361356,35.00732972584473,0 33.85879863394159,35.007529330855,0 33.85892044458834,35.0077175935847,0 33.85909084669213,35.00766789362586,0 33.85934029429399,35.00759273015825,0 33.85941432250253,35.00779007056572,0 33.85947145037225,35.00793036341678,0 33.8596214896024,35.00787427541709,0 33.85989067581804,35.00776885822418,0 33.86007189475239,35.00769716922517,0 33.86030481303328,35.00801794460625,0 33.86075640038527,35.0078128897654,0 33.86074832248463,35.00779193290314,0 33.86120270947225,35.00765969352304,0 33.86139657297575,35.00798062940239,0 33.86181240387243,35.00783268149425,0 33.86204834780174,35.00822020617802,0 33.86238446442281,35.00798887764257,0 33.86263350969975,35.00783969701366,0 33.86488107232508,35.00787247860573,0 33.86495659363604,35.00814865500026,0 33.86514026305837,35.00889573336867,0 33.86522761470351,35.00920641429618,0 33.86511195985833,35.0094745192318,0 33.86546865943124,35.00959461143699,0 33.86527776358335,35.00989023795383,0 33.86532100131821,35.00989531280829,0 33.86562582181477,35.0100008302229,0 33.8654777523551,35.01035640868434,0 33.86510344328126,35.01019332672175,0 33.86476046575013,35.01074292699293,0 33.86522121385842,35.01088578946386,0 33.86501133136399,35.01132037680659,0 33.86516568673827,35.01137274442089,0 33.86539127240328,35.01160639649196,0 33.86535056657293,35.01164946042704,0 33.86558752944937,35.01193471584358,0 33.8655596695254,35.01196343093277,0 33.86583338278328,35.01224129554888,0 33.86623770362529,35.0125788234031,0 33.86585736096167,35.0128720475121,0 33.86520914611669,35.01323668838101,0 33.86499115318579,35.01331309730658,0 33.86479765286769,35.01324675024601,0 33.86450531800138,35.01325774405584,0 33.86451913475663,35.01364439813232,0 33.86487005255663,35.01364189797577,0 33.86521549763695,35.01363408877007,0 33.86608502574322,35.01340510368114,0 33.86636856114992,35.01440827913658,0 33.86660235728059,35.01439235176802,0 33.86684661694989,35.01495736829392,0 33.86707608793324,35.01491601833809,0 33.86710851531944,35.01496975289603,0 33.86658816838035,35.01521091910633,0 33.86677409714331,35.0156027723726,0 33.86656777086913,35.01576460128017,0 33.86660961749676,35.01582289464234,0 33.86634501538966,35.01596817872553,0 33.86674937729865,35.01645715218277,0 33.8668539172378,35.01641785848871,0 33.86690122530265,35.0164606935524,0 33.86702869051172,35.01664018359076,0 33.86705665558939,35.01662610690209,0 33.86731561513326,35.01763264865424,0 33.86769033687284,35.0172660853227,0 33.86779704379904,35.01743184602433,0 33.86797975130011,35.01775817028963,0 33.86768257511635,35.01795073737924,0 33.86731718210915,35.01816029573246,0 33.8671640764919,35.01824373178363,0 33.86727454345114,35.01837560534413,0 33.8680270223297,35.017914216109,0 33.86791934402548,35.01803800699965,0 33.86783014540955,35.01811162409736,0 33.86766151088063,35.01822334024612,0 33.8674829243454,35.01835285132594,0 33.86729569461196,35.01856009666637,0 33.86710195671028,35.0187552077393,0 33.86697341809018,35.01886060795396,0 33.86664773761156,35.01908931275496,0 33.86657416171114,35.0191377253827,0 33.86636898867175,35.01925237957711,0 33.8672967664764,35.01941335888321,0 33.86732692516109,35.01976359369849,0 33.86783356356898,35.01975779490947,0 33.86779937553369,35.02002795145339,0 33.86777507897481,35.0202327360902,0 33.8677199539928,35.02052480905577,0 33.86760002170444,35.02091038763542,0 33.86896333650598,35.02100349537598,0 33.86888843023564,35.02142631363116,0 33.86869434753714,35.0220894218705,0 33.86846308261944,35.02273973652788,0 33.86838978350612,35.02331491187236,0 33.86854867340391,35.02332683498554,0 33.86854665024341,35.023635942933,0 33.86914457218245,35.02362730826637,0 33.86933195739796,35.02433121891615,0 33.86896245299897,35.02442093415306,0 33.86902259834923,35.02460334654746,0 33.86892228394942,35.02462583252088,0 33.86914385637301,35.02505958673733,0 33.86983376765465,35.02474119814995,0 33.86967767746909,35.02449417181582,0 33.86971227579295,35.02426319269165,0 33.87012986699816,35.02421666566007,0 33.87007107022068,35.02466113562281,0 33.86975757184432,35.02504212934294,0 33.86947231269266,35.02535362927957,0 33.86944025316452,35.02540286567649,0 33.86948105431527,35.02541018646571,0 33.86972320726444,35.02555310689885,0 33.86987635544898,35.02576394543107,0 33.86962317495489,35.02584412137598,0 33.86997006564672,35.0266165423191,0 33.86988042591357,35.02664765907389,0 33.86994117350991,35.02688666116853,0 33.86993139723499,35.0279620243036,0 33.86979909628467,35.0279629727058,0 33.8698261216089,35.02851566250941,0 33.8704977068157,35.0284629594211,0 33.87050582992853,35.02922910165017,0 33.87064617268343,35.02920476684311,0 33.87058383812745,35.02942279109108,0 33.87038141594652,35.02963164084794,0 33.87028594259769,35.02972772131393,0 33.87010031907647,35.0298969504021,0 33.87000660427716,35.02998386083991,0 33.8703897703594,35.03020198454261,0 33.87037772379742,35.0302629768231,0 33.87039238097346,35.03038972218365,0 33.87024754460644,35.0307176159328,0 33.87086090470092,35.03083677132278,0 33.87073849240439,35.03128209160026,0 33.87073101787463,35.03132727410846,0 33.87085897268462,35.03143635757559,0 33.87091125196294,35.03147861438033,0 33.87097123693064,35.03151442230917,0 33.87100238309583,35.03197762368806,0 33.87050884709789,35.03205169718137,0 33.87065561496408,35.03257340921103,0 33.87044443700368,35.0326371579149,0 33.87064624821268,35.03311698506405,0 33.87024534053209,35.03336464814176,0 33.8704007005711,35.03374523523995,0 33.87056961025398,35.03397636322629,0 33.87012843599982,35.03423261208734,0 33.8702776106756,35.03450537193371,0 33.86997200166287,35.03470256332337,0 33.86999073832236,35.03504264042647,0 33.87009811107669,35.03517878488463,0 33.87008929926871,35.0352991670235,0 33.87004877160972,35.03528286220445,0 33.86964066434162,35.03580440368064,0 33.86979378547819,35.03597341225643,0 33.86934602500892,35.03656161961796,0 33.87031529248168,35.03758360394597,0 33.86955009067477,35.03773015382227,0 33.86953243104765,35.0382146342276,0 33.8694995385397,35.03867232187741,0 33.86975719062819,35.03948029794152,0 33.86967648412897,35.03949318941208,0 33.86972186695562,35.04013529843675,0 33.86908145564769,35.04013525977491,0 33.86967535247591,35.04221187772114,0 33.86967122920202,35.04246844896489,0 33.86944199652491,35.04246771768916,0 33.86949104539913,35.0431859141537,0 33.86877629473278,35.04326983729835,0 33.86894061318077,35.04380057558073,0 33.86851896678381,35.04385284654403,0 33.86856286536516,35.04403968703317,0 33.86822289164855,35.04417017409694,0 33.86837843717853,35.04500387304162,0 33.86793014816713,35.04508588282751,0 33.86814409157618,35.04577879767224,0 33.86834689306152,35.04626739719402,0 33.86841573383825,35.04626444185084,0 33.86851883029416,35.04654659376779,0 33.8692605169613,35.04644466849479,0 33.86937546617868,35.04643201412174,0 33.86937868075307,35.04647368467177,0 33.86940515072148,35.04681348495966,0 33.86931110946379,35.04696526892059,0 33.86923562449287,35.04696787937784,0 33.86930441901382,35.04728409631781,0 33.8691760795917,35.04728708546425,0 33.86849286233083,35.04742238914572,0 33.86849384829519,35.04751553215822,0 33.8687755668642,35.04811365828243,0 33.86830540785774,35.04831293143184,0 33.86701549121516,35.04885145243923,0 33.86712444289738,35.04919863909913,0 33.86715379760385,35.04919657061656,0 33.86733440882883,35.04976340814455,0 33.86812849272274,35.04996220375603,0 33.86812051703159,35.05017761885198,0 33.86789627952534,35.05023592855196,0 33.86744253592668,35.05042161696377,0 33.8676244807397,35.05075808282107,0 33.86690344117631,35.05104183320795,0 33.86690652124165,35.05127479578784,0 33.86691267078484,35.05153724235874,0 33.86686652736438,35.05154257118559,0 33.86698640102492,35.05182256803653,0 33.8679263656746,35.05137920308224,0 33.86804640539236,35.05163728411251,0 33.86822966910258,35.05199264155875,0 33.8678980777764,35.0522069975397,0 33.86748983528835,35.05242492943943,0 33.86752496796642,35.05253968678031,0 33.86710761760094,35.05277622402033,0 33.86737147348421,35.05314775974179,0 33.86710201848157,35.05327231048103,0 33.86748038980585,35.0537988280302,0 33.86772729359513,35.05413912043196,0 33.86689926338862,35.05446772466422,0 33.86696191101722,35.0546432398171,0 33.86699776159509,35.05469625721496,0 33.86703587026917,35.05473869062979,0 33.86747624892125,35.05522144065919,0 33.86786899448576,35.05556855779949,0 33.86792570262435,35.05564213678621,0 33.86759649433026,35.05578446238969,0 33.86797389323086,35.05628965557715,0 33.86756905112431,35.05640852743579,0 33.8672587633453,35.05650072694164,0 33.86621868688857,35.05679809787326,0 33.86638278131232,35.05713885433979,0 33.86675665275308,35.05708019483722,0 33.8669047014965,35.05751304605414,0 33.86725671119799,35.05745654141347,0 33.86737562651422,35.05789359883577,0 33.86670002259066,35.0579344202491,0 33.86677442723877,35.05830181101643,0 33.86671145880509,35.05832625579944,0 33.86689076748586,35.05867478805219,0 33.86691132534846,35.05871474550179,0 33.86761825637596,35.05979264507834,0 33.86717696412009,35.05992801033151,0 33.86733858551978,35.06021481799848,0 33.86769225950454,35.06012535636416,0 33.86799350379565,35.0609092138199,0 33.86749911766513,35.0610232269341,0 33.86714195448914,35.06015826940222,0 33.86671279121951,35.06029535714823,0 33.86707669816813,35.06139620037845,0 33.86636776134288,35.06161233143305,0 33.86657293448139,35.06253064916432,0 33.86651180879497,35.06254076761916,0 33.86659549792213,35.06288290992341,0 33.86657559059817,35.06322772851282,0 33.86607886597069,35.06346945249383,0 33.86619054949551,35.06358433669413,0 33.86615125262438,35.06368414986586,0 33.86607020269184,35.06386351709093,0 33.86601104226077,35.06399296260309,0 33.86598264125261,35.06406320646399,0 33.86595763037041,35.06424217348973,0 33.86582790342342,35.06425748659076,0 33.86585013066271,35.06446727628757,0 33.86578910949868,35.06446771188354,0 33.8658140212663,35.06451520100062,0 33.86583939663541,35.06460658957025,0 33.86588992503712,35.0646237905046,0 33.86596779353858,35.06462950639753,0 33.86605787955894,35.06463638972808,0 33.8660932254768,35.06471992991263,0 33.86611103574766,35.06477812131857,0 33.86627463910843,35.06480169500195,0 33.8661562225967,35.06498633271103,0 33.86617504103833,35.06513994722943,0 33.86623402321974,35.06522965528707,0 33.86622645228058,35.06532690729144,0 33.86623613285488,35.06542933711892,0 33.86629821614891,35.0656091513728,0 33.8663423583378,35.06571840458574,0 33.86637347487449,35.06581538024518,0 33.86651181206015,35.06588861548039,0 33.8665391534394,35.06603510037828,0 33.86655950628649,35.06613038617292,0 33.86664441061238,35.06623227847628,0 33.86673363331273,35.06633590746907,0 33.86701693618318,35.06660073518407,0 33.86731222891964,35.0668813804701,0 33.86739050094782,35.06696564804587,0 33.86725059652213,35.06705636132366,0 33.86696088632002,35.0672464528579,0 33.86662811636194,35.06751987414145,0 33.86667671582153,35.06758112826174,0 33.86715062634662,35.06797198488047,0 33.86748511899353,35.06814453861314,0 33.86791660743576,35.06870324993549,0 33.86805784848131,35.06873919939916,0 33.86814556363883,35.06881495650878,0 33.86816453629275,35.06890845359398,0 33.86808495371305,35.06903468854975,0 33.86813076665469,35.06911567343037,0 33.86829913584557,35.06916621289275,0 33.86870830013259,35.06971386605214,0 33.86865052446923,35.06973445190153,0 33.8685978313142,35.0698136840069,0 33.86852558841265,35.0698371235252,0 33.86833040387247,35.06983577011206,0 33.86839796856626,35.07010760832717,0 33.8682262936409,35.07013933389585,0 33.86799110754498,35.07022687757276,0 33.86807405860352,35.07034200782093,0 33.8675063462111,35.07054392150721,0 33.86764780742656,35.07082475462885,0 33.86744653397088,35.07089898820518,0 33.86758148273518,35.07120786579265,0 33.86772512157837,35.07146123522264,0 33.86792135494174,35.07175202123037,0 33.86819567260894,35.07187709584844,0 33.86840820952159,35.07200473047889,0 33.86865668639881,35.07212152058432,0 33.86869937144687,35.072260957869,0 33.86851041775188,35.07228880909654,0 33.86849667671527,35.07253252846428,0 33.86846507029411,35.07263082243391,0 33.86852823361051,35.07278521396951,0 33.86849924041872,35.07284392488152,0 33.86843502790596,35.0729111040831,0 33.86825035124178,35.07298867695354,0 33.86835499598666,35.0734549633289,0 33.86832895003294,35.0736229014499,0 33.86836427455661,35.07367411741365,0 33.86853133779789,35.07390357922523,0 33.8688286536899,35.07415112776703,0 33.86937268144404,35.07424597630708,0 33.8693461175576,35.07433668525856,0 33.86927715303973,35.07467662272311,0 33.86937810403479,35.07469704728811,0 33.8694329249083,35.07470748167445,0 33.8694717551376,35.07464306910143,0 33.8695392839926,35.07451431566019,0 33.8696066832462,35.07446885525878,0 33.86963881965606,35.0744419709702,0 33.86965888695698,35.07442350288679,0 33.86967267172012,35.07438592279387,0 33.86969763624025,35.07435159403204,0 33.86972824697463,35.07427641202512,0 33.8698599649595,35.07427713308427,0 33.86985609196064,35.07438960458835,0 33.86982253169814,35.07447313744609,0 33.86978129336604,35.07454957470289,0 33.86970576974451,35.07453305679163,0 33.86965181090446,35.07461016301329,0 33.86961745562527,35.07467418300226,0 33.86980897986027,35.07480035855983,0 33.86955858117973,35.07478569590429,0 33.86942585329115,35.07477636185389,0 33.86938188295957,35.07487748125647,0 33.86927196594304,35.07513130945452,0 33.86923734836635,35.07517064508387,0 33.86904071767403,35.07527080151834,0 33.86894248209852,35.07544637070536,0 33.86889581154126,35.07552899400202,0 33.86905193249581,35.07562045079035,0 33.86916596091659,35.07575750256674,0 33.86937542205532,35.07593621521747,0 33.86941343325311,35.07592549570904,0 33.86945047595447,35.07591795058587,0 33.86979209283142,35.07608122885564,0 33.86965184421614,35.07626418025948,0 33.869601365282,35.07642414438708,0 33.86972429687204,35.07648112067008,0 33.86950270401771,35.07700172850098,0 33.86940711479267,35.07708896894669,0 33.86928253786181,35.07733871076208,0 33.86924093918877,35.07815802891654,0 33.86925294768641,35.07831885915878,0 33.86926116810177,35.07836538089378,0 33.86947292476459,35.0784781714347,0 33.86950963598394,35.07856101552814,0 33.86956333919446,35.07867740253756,0 33.86939756151372,35.07885322285978,0 33.8692986783071,35.07895740934881,0 33.86926947945133,35.07898767609855,0 33.86956080150826,35.0792552229235,0 33.86980230166392,35.07917227567604,0 33.87008497297923,35.07986545299308,0 33.86985853118833,35.07987790578506,0 33.86984287064081,35.07989141984587,0 33.86983069180349,35.07990981694807,0 33.86981992356784,35.07994447925902,0 33.8698252291163,35.07997800861626,0 33.86988680836499,35.08008639147904,0 33.86994508458785,35.08019483135404,0 33.87001954387654,35.08033161978926,0 33.87006116446994,35.08040557690165,0 33.87010869827809,35.08049571101022,0 33.86997528226291,35.08048843682274,0 33.86968590394642,35.08047742447405,0 33.86961276994922,35.08046444807364,0 33.8695266715067,35.0804335622182,0 33.86945870965928,35.08039204518176,0 33.86940704293448,35.08033841029967,0 33.86927470052132,35.0800768337531,0 33.86912621990653,35.07979762091875,0 33.86909805296797,35.07974739054146,0 33.86895207343974,35.07947333256922,0 33.86886367677171,35.07934687397241,0 33.86862202975665,35.07910452200002,0 33.86823774801866,35.07887225331044,0 33.86812901966279,35.0787942312006,0 33.86792670707108,35.07862450439855,0 33.86705628686099,35.0776483697887,0 33.86678613587022,35.07733972291609,0 33.86666691286589,35.07720950606698,0 33.86642834859736,35.07693767397733,0 33.86595122485528,35.07639401008735,0 33.86580385794928,35.07622410177242,0 33.86557229091659,35.07595791739217,0 33.86499883368664,35.0753446590914,0 33.86427479908861,35.07452825679483,0 33.86403245470843,35.07422510474623,0 33.8638556585387,35.07389299171228,0 33.86369962815304,35.07355788123628,0 33.86357484885323,35.07322824654354,0 33.86346420385751,35.07292415538691,0 33.86341033164089,35.07273931752086,0 33.8631985228982,35.07237897349454,0 33.86293515614413,35.0720531736393,0 33.8620210473795,35.07123670230366,0 33.86058599193981,35.07019689472889,0 33.86029529706468,35.0700239572267,0 33.85942935249399,35.06956210130515,0 33.85896584914273,35.06931749195123,0 33.85782404786566,35.06870871165482,0 33.8576464938247,35.06860156068809,0 33.85758857835766,35.06866452621444,0 33.85740416244006,35.06857905931103,0 33.85720200597542,35.06852130704937,0 33.85698855661467,35.06848006015174,0 33.8568681807993,35.06847093144975,0 33.85669980643681,35.06848614281349,0 33.85663488307685,35.06849765685484,0 33.85638428442343,35.0685750535527,0 33.85618173053736,35.06862184573344,0 33.85596140715609,35.06865787607884,0 33.85576132729091,35.0686622346036,0 33.85566285874351,35.06863639712504,0 33.85559689860381,35.06857160140042,0 33.85561694890632,35.06849135130658,0 33.85567899368507,35.0684382709918,0 33.85579442189433,35.06836499435892,0 33.85627059132963,35.06809812579956,0 33.85633050059706,35.06806454994224,0 33.85640426070341,35.06798811192055,0 33.85645407618755,35.06789444534022,0 33.85645902697763,35.06779313995104,0 33.85643638111723,35.06770354460657,0 33.85639296018555,35.06762366774157,0 33.85627571004154,35.06752214258999,0 33.8559979725249,35.06741680150549,0 33.85581511677672,35.06734330682138,0 33.85566993758946,35.06725378085731,0 33.85553669404632,35.06713562640892,0 33.85540265798357,35.06694378748266,0 33.85535330829168,35.06683447769458,0 33.85530840823054,35.06664503774688,0 33.85489729566832,35.06631790264719,0 33.85465099084407,35.06615435173589,0 33.85433390966344,35.06597999642,0 33.85406770014165,35.0658546688754,0 33.85390768266486,35.06578485303667,0 33.85364116512763,35.06571974366737,0 33.85316717561353,35.06563944382384,0 33.85277244232899,35.06554935652903,0 33.85250730726147,35.0654683795866,0 33.85234124193087,35.06541170398535,0 33.85196137429129,35.06525407250838,0 33.85179829421561,35.06517188584421,0 33.8515953445936,35.06506476627766,0 33.85137305414826,35.06491739921083,0 33.85126911042185,35.06484525456886,0 33.85081153620148,35.06451007648712,0 33.85057718324557,35.06436423655876,0 33.85038916385547,35.06427428706629,0 33.84998970123222,35.06412660277746,0 33.84861300007989,35.06365096426798,0 33.84798275826932,35.06343465543368,0 33.84770061781956,35.06334686682657,0 33.84749774904414,35.06329339286239,0 33.84730985315543,35.06325546650896,0 33.84705793452275,35.06321683321787,0 33.84634882052371,35.06314703418202,0 33.84590720463886,35.06310354481758,0 33.84571209429956,35.06307764569959,0 33.84549027975619,35.06303836296615,0 33.84527070882871,35.06298157191168,0 33.84442346485756,35.06274332230405,0 33.84411156713859,35.0626459073554,0 33.84358970839193,35.06245781515599,0 33.84295712568262,35.06223579231263,0 33.84266781008531,35.06216010050866,0 33.84236429672452,35.06209365026489,0 33.84173792022068,35.06197646582124,0 33.84160909105086,35.06195589508946,0 33.84154638984942,35.06194426328327,0 33.84152915590333,35.06197551039728,0 33.84122511755957,35.06193403201398,0 33.84117826922299,35.06217393166263,0 33.84117475079523,35.06219194591449,0 33.84104498768723,35.06214425476735,0 33.84066681240572,35.06200526605362,0 33.84057035254498,35.0619980086778,0 33.84008679626319,35.06183889573215,0 33.83994011995439,35.06211742111397,0 33.83992133986271,35.06215308107726,0 33.84016835928647,35.06226200725897,0 33.84038627294841,35.06237572535115,0 33.84046730186849,35.06228798821484,0 33.84061725729575,35.06234242392096,0 33.84048014798618,35.06260093866636,0 33.84082885992694,35.06276891071365,0 33.84079132315036,35.06286823407997,0 33.84137689982226,35.06310588808964,0 33.84142913564385,35.06303023752072,0 33.84182992520613,35.06310670720101,0 33.84224100454982,35.06324650483366,0 33.84260422035062,35.06341833348718,0 33.84310273756819,35.06362488302767,0 33.84292242507126,35.06389955069584,0 33.84366271338239,35.06418366900989,0 33.84384469937627,35.06422647264426,0 33.84477088805482,35.06455476099679,0 33.84588522062307,35.06470320556268,0 33.84652790775247,35.06473591464163,0 33.8469197510767,35.06500840616433,0 33.8473765376764,35.06543665442673,0 33.8480613418453,35.06604183137613,0 33.84826856860484,35.06595855817301,0 33.84893521300336,35.06655641884039,0 33.84885533329082,35.06670574868548,0 33.84954812634398,35.06720672234011,0 33.84969534148275,35.06744372587831,0 33.84974211744445,35.06759216889776,0 33.84974543247016,35.06791200538584,0 33.84961219595579,35.0681509726637,0 33.84940535044463,35.06827143929945,0 33.84906295443059,35.06840773103696,0 33.84871143265858,35.06853664745232,0 33.84843136261117,35.06857579988711,0 33.84817881769487,35.06865195119187,0 33.84775507168357,35.06879624725826,0 33.84756593146562,35.06887939320855,0 33.84745001239937,35.0690438521996,0 33.84723695792449,35.06943958531897,0 33.84711229823696,35.06963385972484,0 33.84689831854332,35.06994033555151,0 33.84675487136948,35.07006779319155,0 33.84640441392307,35.07030083511648,0 33.84617187572086,35.07056280805562,0 33.8460118669878,35.07083915106805,0 33.84577518971075,35.07157722156671,0 33.84573578342963,35.07192338975608,0 33.84544198387006,35.07326438228744,0 33.84522591955345,35.0738089042752,0 33.84515449814695,35.07390238333124,0 33.84504673255498,35.07398124006478,0 33.84490668732745,35.07400081225803,0 33.84454973002828,35.07404421058479,0 33.84443287820231,35.07411941004202,0 33.84438484084348,35.07428711249543,0 33.84439277430868,35.07461807319959,0 33.84448109955748,35.07528693003329,0 33.84515228048329,35.07588105955143,0 33.84546358681929,35.07623594102865,0 33.84566851963294,35.07658655360434,0 33.8453132842095,35.07686502292668,0 33.84504642894993,35.07703247850707,0 33.84483628259211,35.07727313637476,0 33.84480565156789,35.07755854192744,0 33.84479901335973,35.0780001765657,0 33.84469166180889,35.07844251362813,0 33.8445358505458,35.07852639624356,0 33.84420014125518,35.07852873371157,0 33.84334314592802,35.07789991292636,0 33.8425938722796,35.07795111974045,0 33.8423243615503,35.0778609950645,0 33.84214333203033,35.0776690561841,0 33.84119717220167,35.0759828665006,0 33.84093791416262,35.0758006696342,0 33.84063399308982,35.07562798041926,0 33.8399064586366,35.07561462226487,0 33.83940253512257,35.07558131226597,0 33.83910990182127,35.07541774148965,0 33.83894966477207,35.07506925831257,0 33.83909428475877,35.07498546026792,0 33.83903682919784,35.07483866181403,0 33.83909023519342,35.07458989797422,0 33.83958126796088,35.0744577026406,0 33.83930555383282,35.07376042922957,0 33.83895490687271,35.07339486449576,0 33.83865034005556,35.07315777613038,0 33.83832461846104,35.07304043156235,0 33.83792094684815,35.07296042371022,0 33.83790261186681,35.07335614084521,0 33.83751200826082,35.07346003639405,0 33.83679926600399,35.07270137483283,0 33.83635536455677,35.07196845472304,0 33.8359539515585,35.0721092188054,0 33.8362857665912,35.07282451338824,0 33.83582905842272,35.07303005685326,0 33.83593445613079,35.07348931943721,0 33.83594406832568,35.07360884974406,0 33.83638778648272,35.07432337334004,0 33.83665365643066,35.07460673195554,0 33.83660466406071,35.07474046665762,0 33.83672520942432,35.07503862769708,0 33.83613628736845,35.07490009325281,0 33.83519935710599,35.07465355518224,0 33.83512341843138,35.07488867236687,0 33.83511527511867,35.07518772115004,0 33.83505677624657,35.07548711666334,0 33.83517478620479,35.07553690321391,0 33.83494881264837,35.07587425089555,0 33.83488095141014,35.07635310598876,0 33.83535690275568,35.07638662743845,0 33.83508640283045,35.07674728175449,0 33.83454400993178,35.07678321383181,0 33.8345630439375,35.07700387772345,0 33.83470016224045,35.07757906880111,0 33.83562060103407,35.07920791275115,0 33.83655705628424,35.07949794382895,0 33.83689764474737,35.07960895719279,0 33.83736890489966,35.08005043655061,0 33.83752186233952,35.08048539189676,0 33.83747631190626,35.08121820640546,0 33.83746258235276,35.08195080106149,0 33.83752141355752,35.08251721042682,0 33.83717992122635,35.08231900271853,0 33.83637607831113,35.08151356815779,0 33.83629755459452,35.08109553806466,0 33.83606045574912,35.08073092296612,0 33.83588904887156,35.0805664195508,0 33.83544300782972,35.08051717250935,0 33.83480718947484,35.08058259288727,0 33.83445812477605,35.08068091788986,0 33.83354269960807,35.08037328527929,0 33.83328847877209,35.08040991327378,0 33.83308809272578,35.08052465256274,0 33.83298441248792,35.08076081155471,0 33.83305018440749,35.08096964564581,0 33.83328718202367,35.08132554742129,0 33.83339511881329,35.08150793070133,0 33.83438174751597,35.08255629431824,0 33.83429830766838,35.08269639259903,0 33.8341081698,35.08277618223323,0 33.83389637214329,35.08281252062449,0 33.83360996606003,35.08281448983751,0 33.833184952308,35.08274764826862,0 33.83299259710203,35.08260944647729,0 33.8328413432892,35.08234015787202,0 33.83267939356777,35.0820622225235,0 33.83244319360794,35.0817847957657,0 33.83219691836402,35.08155976026781,0 33.83181027021448,35.08109151956469,0 33.83123835536766,35.08118264376733,0 33.83060208612586,35.08120444441349,0 33.8302561940514,35.08161666407966,0 33.82937347849683,35.08139597859778,0 33.82840735329523,35.08123233357588,0 33.82752715278729,35.08112483660534,0 33.82702431017847,35.08101097624332,0 33.82690415129665,35.08096260894645,0 33.82664512140524,35.08083573397968,0 33.82640876010664,35.08067465148789,0 33.82582325867779,35.08012245648154,0 33.82599650798111,35.07995858302138,0 33.82592948168455,35.07970175747953,0 33.82589494030911,35.07947119512222,0 33.82567924037718,35.07888142621519,0 33.82562542908098,35.07875229341195,0 33.82562431088311,35.07864130185885,0 33.82546331303213,35.07829706670038,0 33.82542313841551,35.07803217540404,0 33.82559547283492,35.0780125022762,0 33.82554829322197,35.07779699147027,0 33.8254684437274,35.07747529908873,0 33.82540111960841,35.07733549649644,0 33.82550575841486,35.07729778422266,0 33.82542640284159,35.07686666033415,0 33.82517490322177,35.07647370783781,0 33.82457137072412,35.07613248165245,0 33.82429867763986,35.07586917059794,0 33.82391093633917,35.07535380842344,0 33.82375156368017,35.07516989262066,0 33.82347100445989,35.0748696330004,0 33.82337975886987,35.0747469196258,0 33.82337002864099,35.07452498716646,0 33.82336371055921,35.0738960336074,0 33.82345322060142,35.07384609216557,0 33.82347107612527,35.07338347378596,0 33.82327805270926,35.07283595419317,0 33.82357658854391,35.07283882989292,0 33.82329793404037,35.07188656125383,0 33.82317182390724,35.07192431188808,0 33.82312866743069,35.07186167186939,0 33.82312254020921,35.07185277802062,0 33.82311198702598,35.07176900366743,0 33.82313534539659,35.07167701378201,0 33.82313442332644,35.07158518868648,0 33.82308955565016,35.07146970662049,0 33.82306431212176,35.07137405344241,0 33.82299002707161,35.07123082170754,0 33.82290663113835,35.07114754160368,0 33.8228121120745,35.07107110721144,0 33.82273526356532,35.07100896062054,0 33.8225590409827,35.07087041321741,0 33.82238293914759,35.07074384234537,0 33.82223617486422,35.07063703530837,0 33.82220126890945,35.07054005840018,0 33.82225439316827,35.07045587297504,0 33.82230848440034,35.07039093096433,0 33.82235787534569,35.0703318915256,0 33.82239936148522,35.07019658984172,0 33.82233449776533,35.07008024881823,0 33.8222771437127,35.06987649993573,0 33.82225140105014,35.06968294951781,0 33.82227313994697,35.06947733572936,0 33.82234552411999,35.06933791074403,0 33.82249381259837,35.0691725329746,0 33.822645741412,35.06889559103227,0 33.82284703802522,35.06855765249751,0 33.82293999619898,35.0683339440823,0 33.82291793236133,35.06803274330925,0 33.82308899513076,35.06767723504738,0 33.82301934464601,35.06765349646984,0 33.82304057090478,35.06746312480624,0 33.82301825323289,35.06733530465711,0 33.8229623713174,35.06721635924563,0 33.82274356930275,35.06700167504304,0 33.82266462182862,35.06688980318325,0 33.822761199955,35.06666260356959,0 33.82293391059123,35.06647639167272,0 33.82318619478912,35.06625505239324,0 33.82303513113509,35.06608314300302,0 33.82297570333895,35.06602993720107,0 33.82296892465389,35.06598329048189,0 33.82297428187037,35.06588657413506,0 33.82287773869583,35.06578110083608,0 33.8228219362877,35.06568261985869,0 33.82285303795249,35.06525789641191,0 33.82287777946399,35.06508036364173,0 33.82291302213634,35.06493513110949,0 33.82303337889508,35.06435900901398,0 33.82309765957328,35.06388697905401,0 33.82327573670843,35.06337112645569,0 33.82337291739786,35.0630945550278,0 33.82344574730772,35.0630001334109,0 33.82353108453401,35.06296628835671,0 33.82374489030364,35.06292765701287,0 33.82381555599181,35.06285477408748,0 33.82389094198943,35.06277794613812,0 33.82400180852902,35.06267935199573,0 33.82405843054177,35.06263004726111,0 33.82411220175286,35.06253379781636,0 33.82410628179191,35.06241838481468,0 33.82408030155223,35.06220135415162,0 33.82407264116794,35.06199729075353,0 33.82403269690711,35.061765100764,0 33.82411246232854,35.061784912156,0 33.82426329857486,35.06183913233509,0 33.82446239735259,35.06194536150806,0 33.8245156865357,35.06196971350311,0 33.8245311312288,35.06192308703948,0 33.82434595635517,35.06179495609781,0 33.82429328108555,35.06165574784309,0 33.82435013550523,35.06150707340139,0 33.82444695170059,35.06146425480798,0 33.82449071390849,35.06142034284066,0 33.82449037773716,35.06138690727718,0 33.8244530732389,35.06136971540209,0 33.82420906023381,35.06136846585623,0 33.82398940374958,35.06132779766439,0 33.82387028989875,35.06126318501077,0 33.8237792600567,35.0611780281906,0 33.82375317924561,35.06104590874523,0 33.82375263894134,35.06099212124298,0 33.82375526987035,35.06090196737711,0 33.82375394101753,35.06076967892402,0 33.82393800315218,35.0604355059666,0 33.82387764368176,35.06041120082536,0 33.82403854575737,35.06005973956457,0 33.82405090757808,35.05988229053603,0 33.82413990557309,35.05976538080007,0 33.82437511806484,35.05959514012815,0 33.82471122142205,35.05943584368239,0 33.82477805234417,35.05940049748219,0 33.82476559175955,35.0593495213289,0 33.82476930835607,35.05924578425078,0 33.82478763699581,35.05917521441142,0 33.82486069803575,35.05910427238759,0 33.82470244087023,35.05898598226705,0 33.82469736658949,35.05896899496993,0 33.82465811200073,35.05883756466606,0 33.82452713183878,35.05859189589993,0 33.82426651223864,35.0582336115936,0 33.82368149551125,35.05827476505452,0 33.82367732366271,35.05857027358145,0 33.82360343575048,35.05879581025229,0 33.82357493869242,35.05880187357408,0 33.8235223897229,35.05878266213166,0 33.82344701547608,35.05870781244482,0 33.82311170799692,35.05838789450851,0 33.8230179062681,35.05832062496364,0 33.8228872216595,35.05825504958236,0 33.82284519770077,35.05826978300131,0 33.82275235288004,35.0582978645394,0 33.82269354234124,35.05839073135866,0 33.82266651730891,35.05849927584461,0 33.82263404689627,35.05859051906526,0 33.82258434051055,35.05871511061314,0 33.82253752410114,35.05877755531471,0 33.82236704690983,35.05894919872908,0 33.82235362311066,35.05898490715988,0 33.82233110626012,35.05904480016464,0 33.82228833973039,35.05916067499508,0 33.82226844283169,35.05927928462869,0 33.82224837315963,35.05938055814367,0 33.82224766894927,35.05966085652535,0 33.8222343659877,35.05973607733563,0 33.82217657233753,35.05975525129182,0 33.82210584238783,35.05971094165524,0 33.82196756794935,35.05941424694318,0 33.82185961377014,35.0591621356615,0 33.82183185440606,35.05902217692315,0 33.82182536254045,35.05898848738278,0 33.8217818089685,35.05876244947093,0 33.82170146932111,35.05863585031839,0 33.82164558062738,35.05854452624325,0 33.82165993309935,35.05832378377197,0 33.82165205266769,35.0581985316588,0 33.82159483749262,35.05810902652279,0 33.82154438508933,35.05803309642332,0 33.82136512389273,35.05799617358235,0 33.82115619777892,35.05764346623916,0 33.82101948257933,35.05755449897161,0 33.82094319949448,35.05749988909464,0 33.8209737216168,35.057444934034,0 33.82102832481932,35.05735696760247,0 33.82113320332936,35.05719201311878,0 33.82120959768458,35.0570637503774,0 33.82120435550254,35.056983488439,0 33.82114144943384,35.05690726658143,0 33.82103208757201,35.05684595891217,0 33.82089456863961,35.05685418996863,0 33.8208773442326,35.05690722971533,0 33.82085810212232,35.05698035702023,0 33.82079383611524,35.05698991664401,0 33.8207448488576,35.05697382392002,0 33.82059646310233,35.05678320899052,0 33.82051483727778,35.05661039180965,0 33.82037296458808,35.05640513365215,0 33.82013942397542,35.05591032930694,0 33.81989682639966,35.05539733616479,0 33.81959607579755,35.05550521496947,0 33.81965623599467,35.05575117497997,0 33.81990174600839,35.05633349717779,0 33.82001166091496,35.0566721925702,0 33.82000371381135,35.05676531820247,0 33.82001445232113,35.05695138942475,0 33.82003294243196,35.05724690432805,0 33.8200410417671,35.05739102024985,0 33.820084112476,35.05759191161806,0 33.82018320728309,35.05795431881395,0 33.8201955662571,35.05799675731223,0 33.82015204028346,35.0580199486644,0 33.82026433743884,35.05819248292521,0 33.82035582670003,35.05846378042675,0 33.82034268314693,35.05870293624653,0 33.82034342101454,35.05899851878394,0 33.8203434204413,35.05899857106829,0 33.82030013092936,35.05910836078335,0 33.82022027251968,35.05911255052878,0 33.82011565693549,35.05908223393436,0 33.82002218988072,35.05900069083979,0 33.8199163902211,35.0589083864387,0 33.81990523199415,35.05868034498786,0 33.81984352395424,35.0585019177499,0 33.81966295560719,35.0582001987577,0 33.81967758722442,35.05804107796024,0 33.81972188305976,35.05803797440953,0 33.81974895486126,35.05767610510465,0 33.81974174344741,35.05763690110371,0 33.81964574361321,35.05758427870438,0 33.81955329297351,35.05754565063204,0 33.8194233939615,35.05751288300201,0 33.81922678833143,35.05748682590227,0 33.81909140757707,35.05741851535323,0 33.81894862818223,35.05745236112063,0 33.81877883558432,35.05752100055467,0 33.81876201721816,35.05752284474158,0 33.81876699968205,35.05738955442737,0 33.81874034644206,35.0572495549838,0 33.81877710496669,35.05713681726044,0 33.8187636309838,35.05705210833141,0 33.8187080503949,35.05696595383464,0 33.81869238666419,35.05687260634902,0 33.81865362448462,35.05678460674528,0 33.81869712739383,35.05671508924569,0 33.81865203540183,35.05662540169472,0 33.81849530003428,35.05652608440511,0 33.8183603876633,35.05650449600967,0 33.81814062417948,35.05662712138314,0 33.8180609116239,35.05665361806375,0 33.81799120411232,35.05662812907296,0 33.81785725738918,35.05649231421057,0 33.81775384361218,35.05646359100295,0 33.81770457816766,35.05637739255328,0 33.81769786165553,35.05628095323961,0 33.8177059361142,35.05625125125133,0 33.81774832283033,35.056184512474,0 33.81748898571513,35.05596138575103,0 33.81714008809595,35.05566390324499,0 33.81707036630467,35.05573337326486,0 33.81681130509251,35.05558462486049,0 33.81707667007004,35.05538945386127,0 33.81711012887686,35.05533057244222,0 33.81711737145059,35.05524387138961,0 33.8170141148001,35.05513125335536,0 33.81701354385773,35.05507393430686,0 33.81697233916757,35.05500622369924,0 33.81687333313869,35.05499489206856,0 33.81617077768238,35.05514810228284,0 33.81558257696835,35.05460941981499,0 33.8157493586011,35.05437789172657,0 33.8154993240513,35.05401012882738,0 33.81526645449142,35.0536680711981,0 33.81456646216797,35.05396078173554,0 33.81438781472611,35.05366517010538,0 33.8143873448067,35.05345454302884,0 33.81438861512468,35.05325590264945,0 33.81453530309435,35.05300829328132,0 33.81454115106783,35.05294426531781,0 33.81447062624652,35.05286208689042,0 33.81443402339563,35.05276768229336,0 33.81443661708617,35.05270234212465,0 33.81444222798849,35.0526143198785,0 33.81444762524118,35.05254562935185,0 33.81445112817853,35.0524902812826,0 33.81445521722245,35.05241226745725,0 33.81446126751342,35.0522869157377,0 33.81448390588351,35.05219944528844,0 33.81453136241075,35.05216246625858,0 33.81454278541754,35.0520884017445,0 33.81434641925082,35.0519857385643,0 33.81415310434187,35.05170041872857,0 33.81412693713686,35.05151395992005,0 33.81412997172508,35.05141129025932,0 33.81413553959992,35.05123728297951,0 33.81414439890241,35.05098660036788,0 33.81415418892725,35.05091121458099,0 33.81417324008007,35.05078910712466,0 33.81418606602921,35.0506930384118,0 33.81419600812191,35.05063298152518,0 33.81421069211745,35.05056089531978,0 33.81422539041522,35.05049014217069,0 33.81423313848208,35.05045409679109,0 33.81429428015143,35.05024438921212,0 33.81431854584228,35.05015757397103,0 33.8143783956949,35.05014450769026,0 33.81443634767784,35.05010345967315,0 33.81449404151706,35.050036416392,0 33.81451709993318,35.04990961727468,0 33.8145324066648,35.0499001824176,0 33.81454537103546,35.04981810950144,0 33.81464535872866,35.04968412802379,0 33.81468203493527,35.04948525517038,0 33.81466986590413,35.04941350336653,0 33.81463780354117,35.04935719434633,0 33.81439281148236,35.04934470726877,0 33.81436800213693,35.04929777080719,0 33.81431617573445,35.04907676719363,0 33.81440060111836,35.04902842591864,0 33.81445810701697,35.04896924222329,0 33.81444898230713,35.04888933671347,0 33.81460174408645,35.04875381561977,0 33.81481550410255,35.04858406541961,0 33.81488446229539,35.04847729776833,0 33.81482469116197,35.04842454700476,0 33.81498918539826,35.04817539947953,0 33.8151349613911,35.04793966488344,0 33.8152171631206,35.04781066091074,0 33.81527821859791,35.0477216638488,0 33.81541361755984,35.0475258626042,0 33.81553992466463,35.04722824816885,0 33.8155770295982,35.04716820234193,0 33.81579037060393,35.04679487437834,0 33.81600037285351,35.04647583845954,0 33.81604724178778,35.04639714826803,0 33.81633638231496,35.04607790571686,0 33.8163816318897,35.04602444898001,0 33.81642420950237,35.04597322492211,0 33.81632053970104,35.04583882763716,0 33.81608795524514,35.04595084420753,0 33.81576052651934,35.04605875950829,0 33.81566067149765,35.04607117691391,0 33.81537721929372,35.04603120374074,0 33.81527825648856,35.04603557353632,0 33.81509217911265,35.04607298311235,0 33.81485776260281,35.0461206197607,0 33.81463367020599,35.04620728261676,0 33.81454156335591,35.04621842028368,0 33.81432406209953,35.0462818915259,0 33.814039924139,35.04587186951301,0 33.81472287962855,35.0454621435899,0 33.81508840558954,35.0452557461636,0 33.81548589699185,35.0450122839593,0 33.81569143234425,35.04485526823196,0 33.81576152308614,35.04486813212451,0 33.81621001228648,35.04420292841036,0 33.81503450777935,35.04414318267733,0 33.81504133969256,35.04375258514823,0 33.81501606738224,35.04336513999621,0 33.81495518120783,35.04298674333162,0 33.81494866079115,35.0424684597283,0 33.81495181323879,35.04192660284374,0 33.81519888073775,35.04188015112175,0 33.81539143872622,35.04185042098285,0 33.81559421624512,35.04184147460653,0 33.8156369850186,35.04142479427015,0 33.81550881795699,35.0413109016069,0 33.81579508701765,35.04098869318812,0 33.81543839361074,35.04072047647376,0 33.81529975918213,35.04081047095881,0 33.81527265375217,35.04080722781632,0 33.81532695502661,35.04061332173146,0 33.81537118518456,35.04045373885008,0 33.81534394484553,35.04043679458967,0 33.81550484359093,35.04007260960849,0 33.81565991251962,35.03979929043035,0 33.81582313165074,35.03949271982771,0 33.81593011489579,35.03927396841123,0 33.81565216119973,35.03915720256293,0 33.8160459546913,35.03876979231404,0 33.81567859937068,35.03867927865463,0 33.81563115105969,35.03861226373066,0 33.81564265523033,35.03859294890948,0 33.81513408662953,35.03802242942055,0 33.81545819734158,35.03774207954896,0 33.81473640613589,35.03717308666923,0 33.81509517759432,35.03685237235418,0 33.81556727621827,35.03649970804651,0 33.81537045964056,35.0363086495997,0 33.81562131972863,35.03605366178015,0 33.81577181503594,35.03589874468891,0 33.81588345781,35.03575691456849,0 33.81602488126232,35.03547380460027,0 33.81614307453574,35.03520688196301,0 33.8157495240952,35.03503013175986,0 33.81512728495714,35.03475122612598,0 33.8153015528685,35.03434930562037,0 33.8154522160464,35.03404627651657,0 33.81516255536383,35.03356174718682,0 33.81507118253415,35.03357639477377,0 33.81485349044049,35.03321041267058,0 33.81471431417993,35.03325345034371,0 33.81453340677471,35.03290501591564,0 33.81418041356552,35.03302598022859,0 33.81372003657644,35.03306516201118,0 33.8134944984155,35.03307956510947,0 33.81342507745254,35.0327165108702,0 33.81332172475907,35.03272493761796,0 33.81326897206237,35.0324623191081,0 33.81283405383414,35.03254000019773,0 33.81275194603923,35.03216156081331,0 33.81319813312239,35.03200065379252,0 33.81314641668521,35.03179797623083,0 33.81431221170984,35.03141221896099,0 33.81474384897323,35.03224659565871,0 33.81548112866848,35.0319949689095,0 33.81498780494507,35.03104261854062,0 33.81528588759543,35.0309437894779,0 33.81520675609778,35.03066430728555,0 33.81501542127609,35.03029921992925,0 33.81511026280947,35.03023839241391,0 33.81457754742326,35.02913499958465,0 33.81503502557015,35.02906912138874,0 33.81491034570431,35.02868788376794,0 33.81525968380306,35.02862534766196,0 33.81516653079122,35.02821511159347,0 33.8150604709363,35.02778664491537,0 33.81540594864629,35.02773180608789,0 33.81532780737045,35.02747604811847,0 33.81527175236349,35.02727753697246,0 33.81518967676618,35.0269060917454,0 33.81528043559472,35.02627898074109,0 33.81528574540519,35.02607620020395,0 33.8153377416061,35.02607836574165,0 33.81533781738777,35.02579410380745,0 33.81533952248455,35.02533391688576,0 33.81487177574029,35.0253370587233,0 33.81501772023605,35.02463942625862,0 33.81512730280046,35.02459090558776,0 33.81422404651527,35.02353061327101,0 33.81445978158236,35.02325489695648,0 33.8141506814169,35.02291493288701,0 33.81408365069369,35.02293801745775,0 33.81379269663704,35.02257780980526,0 33.81433373627862,35.02225980687791,0 33.81326171374792,35.02144207827346,0 33.81341781448146,35.02115180821688,0 33.81395578213628,35.02145000037363,0 33.81414659573434,35.02096081139409,0 33.81426624219972,35.02100276356469,0 33.81449236467926,35.02037501374901,0 33.81467895377484,35.02007699187256,0 33.81464515278292,35.02005961365381,0 33.81507132720135,35.01933302220133,0 33.81480796607654,35.0191647589797,0 33.81439561586549,35.01891417472582,0 33.81407244213236,35.0187505468883,0 33.81379268019545,35.01862574758175,0 33.81497590432449,35.01760440194299,0 33.81522284648995,35.01738851180253,0 33.8155910025022,35.01706562331387,0 33.8149617830008,35.01663766236378,0 33.81352110393816,35.01566931606858,0 33.81346632022169,35.01562497411282,0 33.81303355439456,35.01526608220751,0</coordinates>
						</LinearRing>
					</outerBoundaryIs>
				</Polygon>
			</MultiGeometry>
		</Placemark>
	</Document>
</kml>