<?xml version='1.0' encoding='UTF-8'?>
<kml xmlns="http://www.opengis.net/kml/2.2">
	<Document>
		<name>AGIA MARINA XYLIATOU</name>
		<Style id="PolyStyle70">
			<LabelStyle>
				<color>00000000</color>
				<scale>0.000000</scale>
			</LabelStyle>
			<LineStyle>
				<color>ff0055ff</color>
				<width>2.000000</width>
			</LineStyle>
			<PolyStyle>
				<color>00828282</color>
				<outline>1</outline>
			</PolyStyle>
		</Style>
		<Placemark id="ID_70334">
			<name>AGIA MARINA XYLIATOU</name>
			<snippet />
			<description>&lt;html xmlns:fo="http://www.w3.org/1999/XSL/Format" xmlns:msxsl="urn:schemas-microsoft-com:xslt"&gt;

&lt;head&gt;

&lt;META http-equiv="Content-Type" content="text/html"&gt;

&lt;meta http-equiv="content-type" content="text/html; charset=UTF-8"&gt;

&lt;/head&gt;

&lt;body style="margin:0px 0px 0px 0px;overflow:auto;background:#FFFFFF;"&gt;

&lt;table style="font-family:Arial,Verdana,Times;font-size:12px;text-align:left;width:100%;border-collapse:collapse;padding:3px 3px 3px 3px"&gt;

&lt;tr style="text-align:center;font-weight:bold;background:#9CBCE2"&gt;

&lt;td&gt;1&lt;/td&gt;

&lt;/tr&gt;

&lt;tr&gt;

&lt;td&gt;

&lt;table style="font-family:Arial,Verdana,Times;font-size:12px;text-align:left;width:100%;border-spacing:0px; padding:3px 3px 3px 3px"&gt;

&lt;tr&gt;

&lt;td&gt;DIST_CODE&lt;/td&gt;

&lt;td&gt;1&lt;/td&gt;

&lt;/tr&gt;

&lt;tr bgcolor="#D4E4F3"&gt;

&lt;td&gt;VIL_CODE&lt;/td&gt;

&lt;td&gt;324&lt;/td&gt;

&lt;/tr&gt;

&lt;tr&gt;

&lt;td&gt;VIL_CCD&lt;/td&gt;

&lt;td&gt;1324&lt;/td&gt;

&lt;/tr&gt;

&lt;tr bgcolor="#D4E4F3"&gt;

&lt;td&gt;VIL_NM_E&lt;/td&gt;

&lt;td&gt;AGIA MARINA XYLIATOU&lt;/td&gt;

&lt;/tr&gt;

&lt;tr&gt;

&lt;td&gt;VIL_NM_G&lt;/td&gt;

&lt;td&gt;ΑΓΙΑ ΜΑΡΙΝΑ ΞΥΛΙΑΤΟΥ&lt;/td&gt;

&lt;/tr&gt;

&lt;/table&gt;

&lt;/td&gt;

&lt;/tr&gt;

&lt;/table&gt;

&lt;/body&gt;&lt;script type="text/javascript"&gt;

				function changeImage(attElement, nameElement) {

				document.getElementById('imageAttachment').src = attElement;

				document.getElementById('imageName').innerHTML = nameElement;}

			&lt;/script&gt;&lt;/html&gt;

</description>
			<styleUrl>#PolyStyle70</styleUrl>
			<MultiGeometry>
				<Polygon>
					<extrude>0</extrude>
					<altitudeMode>clampToGround</altitudeMode>
					<outerBoundaryIs>
						<LinearRing>
							<coordinates> 33.04660529563808,35.03858084008822,0 33.04672659792556,35.03874675968756,0 33.04686208515025,35.03887418746486,0 33.04686646935535,35.0389666536559,0 33.04700688345358,35.03902089740812,0 33.04714738527268,35.03904817401885,0 33.04732568016338,35.0389830778244,0 33.04772811452521,35.03916502640536,0 33.04779809605346,35.03926148978614,0 33.04790120765552,35.03925786417125,0 33.04800916939964,35.03920416886228,0 33.04810763254202,35.03918897605968,0 33.04825290872853,35.03918929607408,0 33.04826193093932,35.03929718189395,0 33.04830407062983,35.03930883133146,0 33.04865099799778,35.03926721830459,0 33.04900719812907,35.03925644269804,0 33.04899326346332,35.03921788909344,0 33.0488715688701,35.03917139323612,0 33.04875922137777,35.03913262319547,0 33.04868911372029,35.03907468359379,0 33.04864717430348,35.03900139676711,0 33.04859593809869,35.03890497594487,0 33.04847434326695,35.03882766092448,0 33.04817009668833,35.03871527377655,0 33.04803463168481,35.03858014299284,0 33.04781077358043,35.0384052851795,0 33.04764647490945,35.03827737669,0 33.04769171371382,35.03820078670456,0 33.04768161075583,35.03813840414168,0 33.04767551538311,35.03805632302472,0 33.04770363793724,35.03800051213068,0 33.04789272787255,35.03799560512481,0 33.04812095666816,35.03779791675731,0 33.04848024483176,35.03756319932115,0 33.04892209078429,35.03743589980846,0 33.04926548190267,35.0372061154203,0 33.04944543531568,35.0369726360229,0 33.04959790574506,35.03682564104214,0 33.04962643611334,35.03660608162635,0 33.04969493560461,35.03638880536339,0 33.05009882524244,35.03554470584289,0 33.05016130886625,35.03551899759863,0 33.05044715393392,35.03540138677704,0 33.0505525312029,35.03549711727865,0 33.05057890604749,35.03582001840625,0 33.05059354919418,35.03595156681563,0 33.05054673225975,35.0360663491367,0 33.05063161768621,35.0361596668716,0 33.05061699283797,35.03624814579192,0 33.05075164111044,35.03634148684261,0 33.05084533456574,35.03660866260208,0 33.05089353426829,35.03665966561314,0 33.05090388379801,35.03660878949494,0 33.05098580581252,35.0363248602001,0 33.0510765328784,35.0362938167179,0 33.05106772786127,35.0358991893491,0 33.05126968510204,35.03590168766918,0 33.05130771916594,35.03569602464913,0 33.05143941649318,35.03561717464338,0 33.05156073336511,35.03540687444088,0 33.05183802716861,35.03552467320412,0 33.05163809942169,35.0360169387868,0 33.05172607745525,35.03609759305917,0 33.05189138057911,35.03606717699687,0 33.05194472015229,35.03639616799015,0 33.05184731873902,35.0365225052457,0 33.05187914907206,35.03661091397553,0 33.05192744963534,35.0366488206669,0 33.05204051401759,35.03661126404332,0 33.05228853464696,35.0365001787986,0 33.05232224101186,35.03650144609293,0 33.05234882963431,35.03661193279585,0 33.0523134836385,35.03681359173432,0 33.05199831032625,35.03688825680251,0 33.05162750585075,35.03722641697838,0 33.05183097582331,35.03727622757629,0 33.05205215493866,35.03725341976426,0 33.05232936809524,35.03730946005292,0 33.05235497126534,35.03744847898472,0 33.05282015702581,35.03736343642171,0 33.05279201089354,35.03722857064425,0 33.05281716415652,35.0370231706074,0 33.05284251671642,35.03696922927016,0 33.05293143296271,35.03691736864494,0 33.05305582438809,35.03677837537935,0 33.05308611141406,35.03661352802397,0 33.05312797478236,35.03650072462466,0 33.05323135106626,35.03639887627146,0 33.05326526563979,35.03639507811951,0 33.0533300262296,35.03638943471551,0 33.05336608490362,35.03636600351253,0 33.05349656446361,35.03611509549876,0 33.05367450280121,35.03598811015218,0 33.05377020557685,35.03603954261743,0 33.05406624038738,35.03575980693068,0 33.05407881363625,35.03554074211436,0 33.05427783867395,35.03526021797042,0 33.05433443056091,35.03506644536247,0 33.05420931466428,35.03505211280882,0 33.05406680884239,35.035156876629,0 33.05402322080081,35.03551038532793,0 33.05372151830661,35.03565094468297,0 33.05346651538686,35.03573001110639,0 33.05345092755493,35.03562235566338,0 33.05323409090786,35.03554017182645,0 33.05293383072651,35.0354093877604,0 33.05272979768851,35.03537428594992,0 33.05246026467132,35.03527534092523,0 33.05242750260307,35.03512504645791,0 33.05240482103358,35.03493152440607,0 33.05237711124744,35.03486151565479,0 33.05248997338776,35.03433354594158,0 33.05256329154137,35.03395958508493,0 33.05258382497382,35.03377978919966,0 33.05257668319797,35.03358539143073,0 33.05281773861329,35.03344106539571,0 33.05305191605907,35.03361195055624,0 33.05309094223117,35.03354068231745,0 33.05315694832065,35.03302980801727,0 33.05324203149299,35.03305147067436,0 33.05338601307273,35.03306798278591,0 33.05353275836395,35.03293280114376,0 33.05360770856523,35.03287719442798,0 33.05356318960703,35.03263483134695,0 33.05342101169022,35.03244000815254,0 33.0533920062139,35.03238134638708,0 33.05324603754033,35.03229508393392,0 33.0531693599939,35.03227551160003,0 33.05308422562651,35.03232764030826,0 33.05289797942935,35.03210571373967,0 33.05272770998697,35.03207080090254,0 33.05275431101462,35.03188815379907,0 33.05279686285557,35.03174466478085,0 33.05271173344238,35.03172720606415,0 33.05269575191623,35.03155322390306,0 33.05266915164503,35.03151840896432,0 33.05281281223017,35.0312532109118,0 33.05279683860529,35.03123145660312,0 33.05303629007662,35.03105331748996,0 33.05286600071997,35.03085311536317,0 33.0527595706931,35.03079214072868,0 33.05280745429631,35.03054426093203,0 33.0527648816527,35.03050943042184,0 33.05274891405078,35.03038762982425,0 33.05289789725195,35.03027031413101,0 33.05309479044847,35.03037050609455,0 33.05318524800104,35.03048800939057,0 33.05325096862101,35.03054872749181,0 33.05361972406455,35.03079599681969,0 33.05378466517679,35.03088946092388,0 33.05412181187247,35.03043419681151,0 33.05397591844428,35.0302982532233,0 33.05367866453891,35.03022748991848,0 33.05360966981908,35.02976297725131,0 33.05350681936938,35.02949952212874,0 33.05346903071395,35.02950711795256,0 33.05341151146059,35.02971968452042,0 33.05321688926627,35.02972979745407,0 33.05311668361897,35.02924478445313,0 33.05269581928687,35.02929488155084,0 33.05265654361197,35.02934530440049,0 33.05261726514559,35.02934527095674,0 33.05252184951153,35.02917088412425,0 33.05223002304909,35.02899631237371,0 33.05212338900929,35.02886318459847,0 33.05169121646379,35.02839946708006,0 33.05141056449246,35.02793584795303,0 33.05176746699717,35.02777232490017,0 33.05190875224569,35.02771470954512,0 33.05200016757995,35.02761628180601,0 33.051950270134,35.02708290724677,0 33.05227856812418,35.027276856355,0 33.05240322121123,35.02726678777651,0 33.05291431290296,35.02708724035909,0 33.05316776693674,35.02695161402853,0 33.05325881051622,35.02687162321757,0 33.0534280782131,35.02677600779923,0 33.0539235379244,35.02663819442162,0 33.05405588978969,35.0265440863776,0 33.05431973293549,35.02657208579095,0 33.0549197907242,35.02640762316496,0 33.05515011063805,35.02657063679664,0 33.05543109771405,35.0266637800225,0 33.05619810315348,35.02663898336913,0 33.05630701216835,35.02680506351521,0 33.05646699989487,35.02684016725102,0 33.05692912193711,35.02720084361817,0 33.0587570905822,35.02578183331275,0 33.05534682650084,35.02212565387694,0 33.05414258833596,35.02084266201053,0 33.05381568663555,35.02081560419764,0 33.05365360510881,35.02066213446148,0 33.05329028000438,35.02061130903613,0 33.05321770496104,35.02059009159125,0 33.05318776492274,35.02056890951258,0 33.05316215185493,35.02053895016034,0 33.05313662053173,35.0204896534006,0 33.05311547394162,35.02041751711717,0 33.05309854971647,35.02036121521442,0 33.05309722486464,35.02033057816498,0 33.05308322756731,35.02030160888586,0 33.05307620749646,35.02029212085322,0 33.05306789208768,35.02028578476791,0 33.05305829135512,35.02027944473681,0 33.05303714023319,35.02027307189283,0 33.05302561720489,35.02026620085841,0 33.05298333788156,35.02024819533102,0 33.05293145600763,35.02022437527916,0 33.05288633076891,35.02019912710833,0 33.05283449368932,35.02016478916939,0 33.05278140680323,35.02012255707214,0 33.05273383224179,35.02008471610161,0 33.05269746862235,35.02003359135458,0 33.05264383781083,35.01996821624837,0 33.05257751502108,35.01984981488462,0 33.05254636327881,35.01978029786157,0 33.05251175374639,35.01971817040491,0 33.05246707808124,35.01966018573155,0 33.05241408795232,35.01959534118198,0 33.05233532869713,35.01950901684879,0 33.05225359811393,35.01941434294098,0 33.05222473434133,35.01939247958106,0 33.05219133970159,35.01937582299073,0 33.05215917395314,35.01936693254115,0 33.05212133158886,35.01935699075496,0 33.05209169933175,35.01934655505844,0 33.05205769255124,35.01932523922784,0 33.05198965262015,35.01928933488425,0 33.05191407284652,35.01924461148037,0 33.05186186306206,35.01923273138345,0 33.05177485176267,35.01920401847978,0 33.0517162245261,35.0191821145064,0 33.05164317178451,35.01913739887044,0 33.05159566848577,35.01910485509197,0 33.05154082671273,35.01908399778164,0 33.05148535085659,35.01906365542911,0 33.05144376388395,35.01904387145746,0 33.05140034938077,35.01900855669106,0 33.05137112811961,35.0189646327015,0 33.05134237591339,35.01889624112446,0 33.05131764545656,35.01884945049247,0 33.05131919280117,35.01867782750783,0 33.05131335043833,35.01863237651635,0 33.05129306122404,35.01858755902212,0 33.05123867276603,35.01853564998915,0 33.05119794293294,35.01848238123021,0 33.05117599557564,35.0184263678125,0 33.05116600182667,35.01836899180559,0 33.05119345754706,35.01830742911363,0 33.05121770898131,35.01824884878018,0 33.05126734570916,35.01821402199469,0 33.0513118050385,35.01819316676411,0 33.05135792260775,35.01818350741816,0 33.05139202853136,35.01818919810251,0 33.05145493331786,35.01824532753829,0 33.05155073175708,35.01819104813439,0 33.05161140749241,35.01814705713737,0 33.05166098025363,35.01812761574332,0 33.0517105177317,35.01811656571142,0 33.05176346839443,35.01810552592224,0 33.05183515014182,35.01810433068992,0 33.05189311999726,35.01811708362226,0 33.05196129532895,35.01813825777992,0 33.05202434465993,35.01816081688266,0 33.0520550157644,35.01817209408352,0 33.0520789195428,35.01816936422975,0 33.05209773928699,35.01815822805913,0 33.05214297484025,35.01812292324594,0 33.05217211595399,35.01809223251905,0 33.05219448511267,35.01804893465965,0 33.05222709841762,35.0180042667292,0 33.05224433013392,35.01796515097936,0 33.0522512678132,35.0179385938081,0 33.05224626665308,35.01791060490403,0 33.05223443124309,35.01788399541729,0 33.05219870003535,35.01785871769746,0 33.05216638662545,35.01783204940177,0 33.05212972279506,35.01780126795953,0 33.05211296838296,35.01776891849397,0 33.05211648759194,35.01773570306722,0 33.05213693535916,35.01769330746624,0 33.0521607536261,35.01765276554636,0 33.05216759448346,35.01763248143875,0 33.05216655869395,35.01761125151538,0 33.05216443829855,35.01759026904855,0 33.05216115350249,35.01756811072201,0 33.05215219712016,35.01755608685276,0 33.05214325483437,35.01754037344297,0 33.05212197317498,35.01751354895491,0 33.05195718845123,35.017337736199,0 33.05193550521928,35.01731681077663,0 33.05192203570252,35.01730662051714,0 33.05190628028978,35.01730473065683,0 33.05188149578216,35.01730743110634,0 33.05186233457114,35.01731199149294,0 33.05184990946389,35.01732118502977,0 33.05181383873277,35.01733031204022,0 33.05175069755443,35.01735043895945,0 33.05164643130479,35.01737141987407,0 33.05158670838281,35.01738232637653,0 33.05153040810209,35.01738216820345,0 33.0514639653811,35.0173847501309,0 33.05143358256027,35.01738004945613,0 33.05141786629267,35.01736893072332,0 33.05140327642963,35.01735781601851,0 33.05139206738259,35.01734578673665,0 33.05138312255473,35.01733099542945,0 33.05138094044996,35.01731437857697,0 33.05137878717643,35.01729130029531,0 33.05138137602674,35.01721194131694,0 33.05139172857243,35.01712647459802,0 33.05139301157327,35.01708956429135,0 33.05139083817952,35.01707110131552,0 33.051384146173,35.01705631626528,0 33.05137407878892,35.01704059966803,0 33.05135952324319,35.01702117920927,0 33.05128005312309,35.01691021579325,0 33.05126877124069,35.01687616020001,0 33.05126665336898,35.01684477706738,0 33.05127017559439,35.0168106422048,0 33.05128153359062,35.01678760328289,0 33.05131094152927,35.01675630868829,0 33.05134145190505,35.01673055558367,0 33.05150305587706,35.01659073552879,0 33.05168532949146,35.01643825855532,0 33.05183327074582,35.01633439091727,0 33.05187044732167,35.01630904858546,0 33.05188787173791,35.01628734562932,0 33.05189551325937,35.01627360553934,0 33.05189502329723,35.01626117418979,0 33.05188963479733,35.01625450053621,0 33.05187664982844,35.01625135740723,0 33.05186258011273,35.01624821113467,0 33.05183549867309,35.01624813526452,0 33.05178403591562,35.01625021338228,0 33.05148469038868,35.01625625767834,0 33.05134846624635,35.01625311081488,0 33.05127755373322,35.01624830013773,0 33.05121160866292,35.016233927706,0 33.05115314404492,35.01621438601654,0 33.05109695236248,35.01619023705769,0 33.05102955297931,35.01615406145864,0 33.05096218523391,35.01611050313355,0 33.05089145585045,35.01606324492701,0 33.05083315538591,35.01600587108549,0 33.05078896407139,35.01595164449919,0 33.05075317386324,35.01589617852937,0 33.05073203530709,35.01583706286347,0 33.05071438487583,35.01575211989316,0 33.05071913920581,35.01570436849204,0 33.0507305985336,35.01565733903443,0 33.05074656225612,35.01561032301652,0 33.05075789516741,35.01559282250847,0 33.05077371994551,35.01557810191993,0 33.05078839928103,35.01556799169907,0 33.05081770238285,35.01556069140855,0 33.05085263897368,35.01555248281821,0 33.05090670754195,35.01554617271067,0 33.05100132111018,35.0155362831159,0 33.05106181485677,35.01552653580782,0 33.05112492918596,35.01551102274905,0 33.05116891260794,35.01549361120843,0 33.05119601568877,35.01547430837038,0 33.05120171228889,35.01545863738741,0 33.05120514852392,35.01544480446313,0 33.05120296760256,35.0154281894046,0 33.05119639709301,35.01538480205338,0 33.05119201131497,35.0153571076005,0 33.05118874429597,35.01533126149953,0 33.05119217562516,35.01531835253867,0 33.0512090847604,35.01531378509383,0 33.05122257070551,35.0153193583269,0 33.05123718302484,35.01532493559014,0 33.05125518097998,35.01532867611944,0 33.05134734901738,35.01536491594154,0 33.05137208671093,35.01537236657442,0 33.05139120995943,35.01537611021293,0 33.05140811038886,35.01537338796239,0 33.05142166052853,35.0153641984985,0 33.05142621928981,35.01535129175774,0 33.05142629377945,35.01533375989896,0 33.05147886267151,35.01521810363491,0 33.05150382755478,35.01517203379911,0 33.05151855837303,35.01514992819618,0 33.05153663076854,35.01513613682445,0 33.05155806485875,35.01512604527596,0 33.05159640040904,35.01511323144636,0 33.05169110632296,35.01508211720672,0 33.05181623595067,35.01504554980548,0 33.05187170253221,35.01502934191838,0 33.0519066371827,35.01502205518334,0 33.05193145030032,35.01501197294086,0 33.05193601926511,35.01499629879905,0 33.0519372189166,35.01497876916181,0 33.05193846635272,35.01495016819369,0 33.05193857112691,35.01492525274265,0 33.05193864170776,35.01490864394393,0 33.05193375523019,35.01490388290132,0 33.05192750958452,35.0149035006646,0 33.05191902550969,35.0149049393635,0 33.05190694862555,35.01491148887913,0 33.05188099129747,35.01492970426848,0 33.05184520333572,35.0149511834068,0 33.05177948404553,35.0149806258809,0 33.05171083461968,35.01499752803205,0 33.05167024479537,35.01501125870612,0 33.05163420767331,35.01501300567983,0 33.0515846732191,35.01501194773431,0 33.05154977986865,35.01501000646438,0 33.05152952923563,35.01500626062492,0 33.05151751425679,35.0150015242258,0 33.05150631147804,35.0149955110621,0 33.05149569062572,35.01498443794807,0 33.05148788263811,35.01497199347291,0 33.05147783339394,35.01495862057789,0 33.05145047541612,35.01492219384617,0 33.05143267179246,35.01488395209586,0 33.0513892547316,35.01480598814651,0 33.05136251682045,35.01473947875222,0 33.05134923054712,35.0146868474207,0 33.05132264173157,35.01458527699872,0 33.05130253567001,35.01450229303154,0 33.05128150695838,35.01441734614434,0 33.05126162149282,35.01432778977943,0 33.05123825910746,35.01426221550822,0 33.0512313960143,35.01423270302003,0 33.05122587631623,35.01420685245743,0 33.0512169367665,35.01419114257503,0 33.05116433392587,35.01411810780228,0 33.05105686006047,35.01397664722856,0 33.05096001171671,35.01383588430658,0 33.0509070453046,35.01374296952415,0 33.05088298275317,35.01369784431793,0 33.05087664404943,35.01366734542711,0 33.05087352935691,35.01363950619386,0 33.05088175594619,35.01360639697828,0 33.05089972960564,35.01356271085073,0 33.05092577202001,35.01352302186348,0 33.05096151654858,35.01348336034746,0 33.05101863286473,35.01344686015486,0 33.05107050225855,35.01341784217518,0 33.05112242116982,35.01337689828728,0 33.05115654368357,35.01333855708364,0 33.05118262395062,35.01328959144954,0 33.05121520173061,35.01323401832028,0 33.05123643826891,35.01318371429702,0 33.05124143026772,35.0131505956028,0 33.05126788101369,35.01306340933122,0 33.05127776946204,35.01301970131855,0 33.05127949365772,35.01299452646665,0 33.05127789246731,35.01296750058902,0 33.05126543371426,35.01295167500813,0 33.051252963789,35.01293900892875,0 33.05123469590293,35.01293027461131,0 33.05122123785868,35.01292313288423,0 33.05120971376808,35.01291441644995,0 33.05119530990525,35.0129033241688,0 33.05118190645104,35.01288354802742,0 33.05118293359985,35.012868548767,0 33.05118691795614,35.01283776609296,0 33.05120146609332,35.01281490700504,0 33.05121896972283,35.01277705415069,0 33.05123544677477,35.0127217402033,0 33.05125016843248,35.01268202256621,0 33.05125512126167,35.01265818226344,0 33.05125843550923,35.01263517647142,0 33.05125333890075,35.01261821648963,0 33.05123877625656,35.01259840749027,0 33.05121730771076,35.01258211065472,0 33.05118981897772,35.01256297325648,0 33.05114514203827,35.01253390487299,0 33.05110735789469,35.01250485520526,0 33.05107048666599,35.01246380355489,0 33.05106460341396,35.01242919036744,0 33.05106898316588,35.01241225613752,0 33.05108452476112,35.01237841276726,0 33.05109431767043,35.01235723504836,0 33.05109929817883,35.01232676925728,0 33.05110266150096,35.01229629873812,0 33.05110283070493,35.01225654307176,0 33.05109325301708,35.01222736343352,0 33.05107880764051,35.01220214670905,0 33.05103537708793,35.01214902500584,0 33.05097579425427,35.0120918843017,0 33.05094690363038,35.01204145172314,0 33.05092928725585,35.01200165033462,0 33.05090846531136,35.0119552148898,0 33.0508923837569,35.01189560671622,0 33.0508828798841,35.01184920257756,0 33.05087343930869,35.01178822054727,0 33.05086399189868,35.0117285645164,0 33.05086425217939,35.01166760816599,0 33.05085814735206,35.0115827847162,0 33.05085205979871,35.01149398596806,0 33.05082632448583,35.01139860061232,0 33.05080411358078,35.01129916006078,0 33.05078029022849,35.01119839057434,0 33.05076919455281,35.01114668309511,0 33.0507628963789,35.01110691390068,0 33.05076303231237,35.01107511242632,0 33.05076476238254,35.0110486151788,0 33.05077138311308,35.01101285553348,0 33.05078643621177,35.01094935727578,0 33.05079313529976,35.01089504714406,0 33.05079489878931,35.01086060020274,0 33.05079352114162,35.01080494401442,0 33.0507856565291,35.01075324689984,0 33.05077636934935,35.01065649438683,0 33.05076873386977,35.0105517951075,0 33.05076094235991,35.01044988039717,0 33.05075328965532,35.01034915911509,0 33.05074551719986,35.01027626220952,0 33.05073760881605,35.01023516678151,0 33.05072640969623,35.0102073128789,0 33.05071036135372,35.01017944657817,0 33.05068306897213,35.01013432626017,0 33.05064373327231,35.01008874312042,0 33.05057968148825,35.01003242526543,0 33.05050717794783,35.00997393845523,0 33.05044436937211,35.00991680331808,0 33.05040739498721,35.00986768372415,0 33.05039467793107,35.0098173019693,0 33.0503820681659,35.00974174783389,0 33.0503860521398,35.00966721353453,0 33.0504125811083,35.00957750337261,0 33.05044911485416,35.00947659693452,0 33.05047803120467,35.00941035800869,0 33.05048580889507,35.0093870826456,0 33.05049472464339,35.0093401768134,0 33.0504949393429,35.00929018811534,0 33.05049382868032,35.00925855932272,0 33.05048906977594,35.00920753695359,0 33.05049047150403,35.00917081405547,0 33.05049808017671,35.00913818826323,0 33.0505069038802,35.00911270577041,0 33.05052819685594,35.00908215477417,0 33.05053460718089,35.00906600124582,0 33.05053717980169,35.00904662491195,0 33.05053477288074,35.00902723442538,0 33.05053115201959,35.00900070153973,0 33.05052254786784,35.00897517401577,0 33.05051269050625,35.00895168513813,0 33.05050530781661,35.00893126368614,0 33.05044253968418,35.00876379750926,0 33.05043302496254,35.00873084169948,0 33.05043320811544,35.00868830239929,0 33.05043945807252,35.00864294091566,0 33.05044405483498,35.00857985176048,0 33.05045219154043,35.00851687200871,0 33.05045318340253,35.00848709657247,0 33.05044556190702,35.00844879181086,0 33.05043282228807,35.00839345761937,0 33.05041588076041,35.00830904514625,0 33.0503927437222,35.00821756625344,0 33.0503639282717,35.0080778246199,0 33.05030153320875,35.00787931936401,0 33.05028337582596,35.00784326530905,0 33.05026445072314,35.00781840458517,0 33.05024203107883,35.00780133273045,0 33.05020750933478,35.00778210425605,0 33.0501297883231,35.00775000592008,0 33.05004864570726,35.00770868284177,0 33.04996317997443,35.00766734886832,0 33.04994725366864,35.00765696647848,0 33.04992742497017,35.00764131955624,0 33.04991453425567,35.00762143667797,0 33.04990114867498,35.00760390672562,0 33.04983218066823,35.0074833935597,0 33.04998032622889,35.0072661185368,0 33.04983230527702,35.00687583991763,0 33.04967209912746,35.00676923341916,0 33.04951198007522,35.00664829668759,0 33.04935529205012,35.00653883170965,0 33.04878880653655,35.00620368298792,0 33.04834391394991,35.00607589890031,0 33.04824700264023,35.00602241973151,0 33.04825022660791,35.00593609509196,0 33.04834007162144,35.00584650076796,0 33.04838660816262,35.00578181655459,0 33.04841361037268,35.00567743225143,0 33.04839248845985,35.00553504944536,0 33.04828548617679,35.00541938126135,0 33.04833477422262,35.0052628432471,0 33.0483223197266,35.00513950412388,0 33.04838067877499,35.00490304734587,0 33.04826649734622,35.00461430976709,0 33.04824153807803,35.00435961600476,0 33.04815370901502,35.00408598114943,0 33.04820364045198,35.00389727816816,0 33.04812329838482,35.00363212903842,0 33.04812011710931,35.00343591659497,0 33.04820495312566,35.0030794873701,0 33.04847380213897,35.00252041773641,0 33.04863427907613,35.00227553574047,0 33.04890051318188,35.00204447943459,0 33.04891474744635,35.00195470773349,0 33.04885159533595,35.00182348169,0 33.04860540581855,35.00175895084531,0 33.04851895542436,35.00170624108984,0 33.04848759924866,35.00160507737357,0 33.04856797322537,35.00114504036588,0 33.04873030267876,35.00097542306263,0 33.04886205304863,35.00077111468089,0 33.04890053585189,35.00057257052353,0 33.04900275582263,35.00031619026524,0 33.04908950208564,35.00015451117052,0 33.04911692108663,34.99993454084994,0 33.04915478145071,34.99983992787524,0 33.04924111366559,34.99974549625573,0 33.04932807486642,34.99958962388774,0 33.04951552624535,34.9993701913851,0 33.04935070199747,34.99891624073358,0 33.04917589249342,34.9987978874502,0 33.04896161644169,34.99858471779245,0 33.04888812402041,34.99851521304377,0 33.04885174060993,34.99841988633674,0 33.04875787610219,34.99822482165758,0 33.04871150071121,34.99803426572916,0 33.04870769355375,34.99778762567179,0 33.0487514007255,34.99754116575018,0 33.04888485040507,34.99729504830183,0 33.04901760102944,34.99716574978514,0 33.04918187626875,34.99706253200162,0 33.04907127138008,34.99701884215556,0 33.04888748653883,34.99685373585575,0 33.04870768118314,34.9967757029575,0 33.04853911523694,34.99659533604461,0 33.04840752301846,34.99645919356076,0 33.04821908862208,34.99614310692585,0 33.04818734879961,34.99591577654856,0 33.04803689624178,34.99547437143855,0 33.04806271321647,34.99532254802161,0 33.04805100284254,34.99504277263991,0 33.04790187709547,34.99480087278128,0 33.04790647143604,34.99459246966139,0 33.04779041518592,34.99441650872945,0 33.0475301243187,34.99413192256502,0 33.0474744494055,34.99391236620028,0 33.04745562838912,34.99374575615231,0 33.04748803472445,34.99349339387324,0 33.04770647152846,34.99318547747448,0 33.04770523680275,34.99308693014009,0 33.04772900944221,34.99278945373832,0 33.04778904685246,34.99264273967678,0 33.04799833533754,34.9923862203886,0 33.04801401856657,34.99214151224771,0 33.04807373651591,34.9920926951617,0 33.04811888110844,34.99194594895629,0 33.04814909722078,34.99181140588936,0 33.04852164999215,34.99171432780428,0 33.04880478772424,34.99164152668338,0 33.048894163153,34.99162948549186,0 33.04926600165382,34.99175267142969,0 33.04980123097818,34.99199858560037,0 33.05018772643783,34.9921952237563,0 33.05029187405778,34.99221992579227,0 33.05051529545563,34.99219593886359,0 33.0507089760893,34.99215964952554,0 33.05091754718415,34.99212339149484,0 33.05114081126898,34.99214835198202,0 33.0513040842672,34.99230778917444,0 33.0514817786018,34.99261410428361,0 33.05211641146933,34.99309663529122,0 33.05242751114714,34.99333378899977,0 33.05286094237193,34.99358937520605,0 33.05336697035847,34.99385422530212,0 33.05404620301426,34.99424891111544,0 33.05434360643028,34.99444073401105,0 33.05453211555361,34.99459050209889,0 33.05458990399368,34.99470414178185,0 33.05464744626332,34.99489544954148,0 33.05471903471983,34.99524212478131,0 33.05481312987548,34.995367791063,0 33.05495810465028,34.99549356675861,0 33.05526376910755,34.99577880586848,0 33.05533613485336,34.99588052706055,0 33.05560237814309,34.99673545177104,0 33.05575436277265,34.9969448839398,0 33.05630666765407,34.99743415059825,0 33.05639351721347,34.99755382537088,0 33.05642925950113,34.99774508552709,0 33.05647159429597,34.99815144229554,0 33.05655126982523,34.99824122982122,0 33.05745845641981,34.99869722126092,0 33.057398430092,34.99949093088922,0 33.05657500453763,35.00013442672647,0 33.0561885962242,35.00049804746529,0 33.05603421484989,35.00071639775897,0 33.05588749408756,35.00114027435524,0 33.05595954447961,35.00134356089065,0 33.05659810304554,35.00170339333938,0 33.05775967761289,35.00263555245238,0 33.05809301879037,35.00297083078539,0 33.05894854458482,35.00398527865892,0 33.05903559207466,35.00404520741498,0 33.05954394719691,35.00420759013891,0 33.05975435213532,35.0043394728312,0 33.05999368660552,35.00451921115406,0 33.06051143575464,35.00497222962146,0 33.06081558922254,35.00534926087328,0 33.06161954042586,35.00660211389036,0 33.06241023946512,35.00715341653458,0 33.06259174448769,35.00762383089498,0 33.06274455711341,35.00783769031153,0 33.06278139194688,35.00797820458818,0 33.06284066476442,35.00847700629173,0 33.06289578257066,35.00874664491551,0 33.06294857681133,35.00902324191689,0 33.0628645531137,35.0092445099454,0 33.06289503637146,35.00943933838776,0 33.06300223861459,35.00972786004568,0 33.06315183613155,35.01003285925442,0 33.06330174836307,35.01020592353851,0 33.06355963739847,35.010359398136,0 33.06389330923985,35.01052358362733,0 33.06413790032639,35.01069222056692,0 33.06442176187277,35.0107335007023,0 33.06460511977465,35.01090207272284,0 33.06539551079683,35.01138288126238,0 33.06563404591068,35.01179499721926,0 33.06584278641758,35.01201739488764,0 33.06583288959816,35.01273549423531,0 33.06586583290809,35.01295171852888,0 33.06596045802296,35.0131150415764,0 33.06592086734824,35.01339491074454,0 33.06595407481817,35.01349053308587,0 33.06602037180485,35.01378286008394,0 33.06615729505929,35.01401229574645,0 33.06632395279125,35.01419330663774,0 33.06640170988705,35.01423164052307,0 33.06696533135023,35.01458288600421,0 33.06720437283143,35.01470495385689,0 33.06747235861879,35.01484304692042,0 33.06773838716195,35.01526134681929,0 33.0678691523931,35.01534774842749,0 33.06845014662098,35.01559872428761,0 33.0685549191564,35.01581677947683,0 33.06865791723967,35.01642424503758,0 33.06867273140194,35.01671943903872,0 33.06878720759212,35.01699530501256,0 33.06904794381059,35.01743512550954,0 33.06913613530021,35.01775586369149,0 33.06942304291046,35.01820865614771,0 33.06980480797215,35.01863800319581,0 33.07029114391637,35.01900506042472,0 33.07055414221909,35.01922703967467,0 33.07063215685736,35.01942961479387,0 33.07060455519346,35.01967965637373,0 33.07050842759678,35.01994416146377,0 33.07033171895016,35.02022825427451,0 33.0700696139979,35.02028329993971,0 33.06996944052373,35.02043192154861,0 33.06983379485725,35.0204982102216,0 33.06942659289376,35.02083370352371,0 33.06920874887229,35.02094993955436,0 33.06913595753046,35.02121203060385,0 33.06921226616664,35.02145955617989,0 33.0692029204253,35.02161834204635,0 33.06924331650568,35.02175134493804,0 33.06916607748874,35.02197651976491,0 33.06875924070162,35.0221371756534,0 33.06812967213182,35.02241786109185,0 33.06790908530509,35.02213976815296,0 33.06616427911388,35.02011277059053,0 33.06428217498326,35.02202628974039,0 33.06419688325321,35.02213205846429,0 33.06369626694945,35.02324139704394,0 33.06333095284362,35.02405876543617,0 33.06351197450661,35.02408688452012,0 33.06358574542784,35.0240926420511,0 33.06371281441125,35.02419749127996,0 33.06378646311612,35.02423621564057,0 33.06397407382865,35.02429732540237,0 33.06413475034514,35.0243858118418,0 33.06414806512771,35.02441333159646,0 33.06410740303715,35.02452307894359,0 33.06410732157025,35.02454505751148,0 33.06416747323394,35.02460571230476,0 33.06419422506919,35.02462778665618,0 33.06417284895792,35.02496288346304,0 33.06413910110018,35.02501770879147,0 33.06391769656709,35.02502241114151,0 33.06378284735609,35.02520325187502,0 33.06393010814449,35.02529169423992,0 33.06403034698762,35.0253964526791,0 33.06412418783781,35.02541876836649,0 33.06429851068487,35.02544686637124,0 33.06437895523294,35.02546363888998,0 33.06461402773012,35.02539304874573,0 33.06502226694023,35.02566375551535,0 33.06504887996349,35.02572429351154,0 33.065129426976,35.02571359187569,0 33.06533705957955,35.02580774849227,0 33.06546670417203,35.02600869076911,0 33.06545112666256,35.02620912718253,0 33.06554699900254,35.02636135929572,0 33.06573979939188,35.02638027686085,0 33.065828659075,35.02642312475479,0 33.06600664887051,35.0264359139356,0 33.06604327040854,35.02656363208862,0 33.06636933560629,35.02665593669695,0 33.06649462037089,35.02688118532052,0 33.06636064378087,35.02700221891317,0 33.06646349684517,35.02727599715148,0 33.06693103473046,35.0272290698905,0 33.06710827803555,35.02744843534568,0 33.06698136242991,35.02766671129906,0 33.06704795249718,35.02771555783515,0 33.06712960158945,35.0277036986402,0 33.06762534335524,35.02806396043479,0 33.06773613913647,35.02819803138546,0 33.06808378827653,35.02848485643788,0 33.06808314863751,35.02866106166872,0 33.06822441690894,35.02857650452351,0 33.06834272525981,35.02883543497239,0 33.06850411281737,35.02953004401562,0 33.06833254916781,35.02971792706742,0 33.06781316874665,35.03002435440228,0 33.067863192735,35.03014508111143,0 33.06799280726887,35.03035219981187,0 33.06824747142623,35.03086630982592,0 33.06812099587815,35.03095195659908,0 33.06843881108023,35.03144908484018,0 33.068559886363,35.03169407017865,0 33.06866076892921,35.03170821506382,0 33.06879459374619,35.03178939986208,0 33.06916813006004,35.03204535754791,0 33.06928801984575,35.03210655076702,0 33.06990950103374,35.03218403492006,0 33.07000043826347,35.03243896802491,0 33.07015493620344,35.0327028154523,0 33.07033475667747,35.03280184174601,0 33.07052887584785,35.03285462728333,0 33.07070155185476,35.03297677507442,0 33.07119903182841,35.03292465600599,0 33.07160086500389,35.03318618287111,0 33.07168538944699,35.03337678480463,0 33.071940271322,35.03358069446494,0 33.07226305596383,35.03320127680051,0 33.07243711799698,35.03326216870381,0 33.07246460745721,35.03315443406331,0 33.07261997776342,35.03302496266502,0 33.07295318497603,35.03298493974913,0 33.07297614284807,35.0330643133571,0 33.07301039722869,35.03323570552169,0 33.07303734032116,35.03328337728141,0 33.07314131663185,35.03345185188078,0 33.07311754547375,35.03360400474107,0 33.0731755508727,35.03362958821319,0 33.0734465993441,35.03364643070939,0 33.07367133207001,35.03361870103163,0 33.07377264068804,35.03358869331944,0 33.07415336269584,35.03369545204323,0 33.07433139524603,35.03373662738493,0 33.0744703703337,35.03362364438517,0 33.07465847088334,35.03361621916953,0 33.07480202919204,35.0336086327293,0 33.0750844242997,35.03352859227147,0 33.07559869969428,35.03366420302953,0 33.07579732098087,35.03347847527949,0 33.076064996432,35.03336189985429,0 33.07630314312281,35.03319657813669,0 33.07672881815468,35.03319405617916,0 33.07676334016197,35.03323065915598,0 33.07688179640096,35.03332836059789,0 33.0769410828612,35.03336100050086,0 33.07706225708891,35.03340815275791,0 33.0771859329342,35.03348620948392,0 33.07731669329451,35.03368779344569,0 33.07731633856969,35.03379174393958,0 33.07724121124137,35.03410766201914,0 33.07728797419551,35.03435471941021,0 33.07716574188824,35.03452320368035,0 33.07710714574412,35.03464427133654,0 33.07702211644505,35.0347609117291,0 33.07698997988457,35.0348777438694,0 33.07673045989635,35.03497642832242,0 33.07662462894982,35.03498903939071,0 33.07652347775527,35.03517925560173,0 33.07638655415403,35.03531660418162,0 33.07634912443194,35.03539256176649,0 33.07633396432825,35.03547773049008,0 33.07625896926098,35.03566921273399,0 33.07616200686119,35.03576321627219,0 33.07620268318658,35.03582423866931,0 33.07625416596775,35.0359857457352,0 33.07626104618253,35.03614709061343,0 33.0763055870183,35.03616551563128,0 33.07639088710249,35.0362206136888,0 33.07647232642899,35.03631831173431,0 33.07656493812718,35.03640996404636,0 33.07667625930846,35.03646515905894,0 33.07683210338082,35.03654486520696,0 33.07686176732443,35.0365662804414,0 33.07692423163892,35.03666610132588,0 33.07712125698068,35.03697841824597,0 33.07717051102737,35.03711210390964,0 33.07713142336317,35.03723510979664,0 33.07704817674971,35.03735171747636,0 33.07704544394522,35.03749596208722,0 33.07713622778352,35.0376720873758,0 33.07731047968662,35.03784154210128,0 33.07737024942671,35.03796234324778,0 33.07741394414488,35.03833040568047,0 33.0774722360837,35.03839683212883,0 33.07763096812122,35.03853210804686,0 33.07763085634916,35.03865264987642,0 33.0776060410353,35.03886632259361,0 33.07754099233836,35.03905803623513,0 33.07745884118598,35.03923347115884,0 33.07738156159871,35.03921839730977,0 33.07737657593712,35.03930452233942,0 33.07738997764259,35.0394006765805,0 33.07743895994594,35.03950686437926,0 33.0775860708258,35.03963516713482,0 33.07773760285455,35.03972344645099,0 33.07791220373885,35.03980318061149,0 33.0780107085588,35.03990035189254,0 33.07821320685585,35.03996261254672,0 33.07828787180065,35.04002323729581,0 33.07845421128897,35.0400746551317,0 33.07845764457904,35.04013829689573,0 33.07847654719149,35.04021575466241,0 33.07853577436208,35.04028938233269,0 33.07859504033399,35.04033588887179,0 33.07881792458313,35.04043868215636,0 33.07893882368674,35.04052396279425,0 33.07910473353251,35.04067511601438,0 33.07917105712711,35.04077583998478,0 33.07916618202857,35.04089974267313,0 33.07912799300988,35.0410941582602,0 33.07903597061588,35.04136798719096,0 33.07897531847301,35.04167139109858,0 33.07885019541088,35.04194176281712,0 33.07867394665416,35.04225022376667,0 33.07863711040034,35.04232092179204,0 33.07861861631589,35.04244519742714,0 33.07861842827987,35.04264021466546,0 33.07867289416508,35.04283305920307,0 33.07875618946359,35.04302993959426,0 33.07876222042008,35.04319142441088,0 33.07871568583446,35.04334780793844,0 33.0787031657879,35.04350926962751,0 33.07871535598233,35.04368841198506,0 33.07868128200424,35.04375650130524,0 33.07852673641088,35.04371094443709,0 33.0784679925299,35.04371089049604,0 33.07817113677542,35.04412319746982,0 33.07805112180035,35.04406989707484,0 33.0781232987346,35.04392300279908,0 33.07835344984034,35.0436096880355,0 33.07759705231839,35.04334655346891,0 33.07756280144563,35.04337095250467,0 33.07748994957259,35.0435174890275,0 33.07738293509746,35.04360814835972,0 33.07717965305429,35.04372488839326,0 33.07709826562509,35.04386617571767,0 33.0770553956951,35.04397782684249,0 33.07702973597027,35.04424103108362,0 33.07682902326567,35.04432031573955,0 33.07665766139227,35.04425338723414,0 33.07658159623134,35.04436300120815,0 33.07641005064607,35.04451066298859,0 33.07626254725045,35.04462438983876,0 33.07642935522215,35.04504894886667,0 33.07656397952977,35.04524823939757,0 33.07653445979376,35.0457232059298,0 33.07657508803308,35.04586570035699,0 33.07654733263829,35.04610540749785,0 33.07670730559501,35.04616550155219,0 33.07703781208912,35.04622149123855,0 33.07731323485704,35.04629895813557,0 33.07756300575569,35.04631354236333,0 33.07762417067897,35.04583627930173,0 33.07773362467347,35.04584193775784,0 33.07772425777502,35.04567219357342,0 33.07784715292773,35.04584649286625,0 33.07798242066648,35.04586548277421,0 33.07797820084956,35.04595216251698,0 33.07800576616258,35.04605312287024,0 33.07800424341377,35.04612318228163,0 33.0777199187609,35.04610432312508,0 33.07767896827986,35.04624428232244,0 33.07754433489096,35.04658166390097,0 33.07739699717859,35.04675362647563,0 33.07736240657911,35.04703777095887,0 33.07743102070754,35.0471058872193,0 33.07740633192418,35.04727796526225,0 33.07753383378908,35.04733412889914,0 33.07738643548453,35.04757811769651,0 33.07736179141666,35.04771416320054,0 33.07728814069427,35.04777811906089,0 33.07714588750343,35.04776596199156,0 33.07706784402827,35.04783069302825,0 33.07697831956773,35.0478731734204,0 33.07706747286469,35.04803537704424,0 33.07704461705146,35.04806639682342,0 33.07704561655177,35.04816661252599,0 33.07678905530142,35.04816633437969,0 33.07672720698979,35.04865478029626,0 33.07668561595986,35.04893117490722,0 33.0766479421595,35.04934826432414,0 33.07658294640949,35.04969016184283,0 33.0764823407086,35.04982652637376,0 33.07645152781092,35.04994288761084,0 33.07641302779482,35.05006074462878,0 33.07635176916766,35.05016905188723,0 33.07608783962748,35.05054201988124,0 33.0759779800987,35.05078098582329,0 33.0762366074181,35.05093976650389,0 33.07640192511028,35.05110397067693,0 33.07645845641629,35.05110838627706,0 33.07648138603859,35.05114128898477,0 33.0765534116457,35.05116677448261,0 33.07674783443511,35.0513961387941,0 33.07667062992537,35.05179257897999,0 33.07666070706583,35.05181693260614,0 33.07640613600602,35.05178015029619,0 33.07634174955839,35.05185993675618,0 33.07645774162997,35.05199401394602,0 33.07617063749236,35.0522427313612,0 33.07616552863018,35.05235774584363,0 33.0760615810489,35.05244559584077,0 33.07597760842665,35.05239545468877,0 33.07574497405227,35.05258332085887,0 33.07575209702019,35.05279576035745,0 33.07579160998331,35.0528215144864,0 33.07576180411622,35.05292431390206,0 33.07586555297169,35.05296907037128,0 33.07597179139848,35.05301382969956,0 33.07592463900355,35.05314096663096,0 33.07591952691541,35.05326003297048,0 33.0759490572221,35.05335342502009,0 33.07607989158402,35.05348209013442,0 33.07643062463332,35.05367456889894,0 33.07684048050034,35.05401051974,0 33.07720340787208,35.05432343081718,0 33.07718593682934,35.05444382472814,0 33.07702482169466,35.05473996415316,0 33.07685142476046,35.0549954913621,0 33.07718711705272,35.05532999786446,0 33.07750819557488,35.0555224427336,0 33.07763167824739,35.05559696976397,0 33.0778348615749,35.05578030367869,0 33.07801057754365,35.05589912860493,0 33.07795550295637,35.05659827694072,0 33.07813858660228,35.05716945977452,0 33.07823718618589,35.05735759092934,0 33.07854313667163,35.05774208739436,0 33.07881210261242,35.05806430911827,0 33.07894982196805,35.05853517858633,0 33.079218677165,35.05892907486503,0 33.07949745900649,35.05929187137294,0 33.07952683564869,35.0594758524507,0 33.07961822220066,35.05952058040631,0 33.07999391901738,35.05996948863113,0 33.08007665321004,35.06015552114235,0 33.08009302991155,35.06040284251532,0 33.08011095238832,35.06092728059657,0 33.08016089414788,35.06152383710398,0 33.08025726259967,35.06195489754149,0 33.0802625856841,35.06241915248461,0 33.0803261180352,35.06281045402913,0 33.08038696441621,35.0629707742503,0 33.08047126179547,35.06309451915668,0 33.08063032662078,35.06327258337446,0 33.0807077829506,35.06344471898834,0 33.07964853302362,35.06375576119777,0 33.07970430543603,35.06389291681671,0 33.07979699262142,35.06413228878516,0 33.07960482988429,35.06420315203205,0 33.07892624377664,35.064385206874,0 33.07892636373083,35.06430138391972,0 33.07886732361334,35.06412149924757,0 33.07861272350714,35.0641387563013,0 33.07850461250929,35.06371544188581,0 33.07849011729735,35.06348692640508,0 33.07843113490036,35.06326375444802,0 33.07824127444223,35.06295795008427,0 33.07814984118086,35.06294567401385,0 33.07804385317642,35.06275489214095,0 33.07795981658016,35.06275479113351,0 33.07767029936433,35.06299782167294,0 33.07763815100466,35.06300859437118,0 33.07758611525802,35.06310048129498,0 33.07716533073782,35.06354613418599,0 33.07688400940962,35.06326457000795,0 33.07662407836518,35.06356980328246,0 33.07668809949171,35.06373347571262,0 33.07656435649186,35.06385499565278,0 33.07645564509808,35.06384134283054,0 33.07624045722723,35.06397492152193,0 33.07594395503286,35.06394615936547,0 33.07580068309997,35.06390812259033,0 33.07572646928055,35.06396345652952,0 33.07521510001693,35.06385330587177,0 33.07511871821696,35.06385994324383,0 33.07499287539229,35.06372729537699,0 33.07497356496576,35.06340280843634,0 33.07489234696954,35.06316205731011,0 33.07483550415961,35.06317009968991,0 33.07476877106407,35.06317542225027,0 33.07468035413404,35.06278999594898,0 33.07480388370047,35.06280096852338,0 33.07483614058394,35.06271177130147,0 33.0747150965435,35.06267917310154,0 33.07457669382273,35.06269522779628,0 33.07447286850256,35.06272754884028,0 33.07458729888259,35.0621760510986,0 33.07436026270816,35.06194863097411,0 33.07438768802332,35.06177694439998,0 33.07448437678688,35.06154720270838,0 33.07436088982444,35.06149161316242,0 33.07391352479205,35.06156273807049,0 33.07380960545333,35.06165861312903,0 33.07360946390984,35.06165566360536,0 33.07357740688844,35.06160695236255,0 33.07235614126862,35.06206920876077,0 33.07210899172247,35.06212568557046,0 33.07202980504128,35.06221076522987,0 33.07201723624928,35.06238109662496,0 33.0717206382845,35.06245643892989,0 33.07160680506042,35.0625968930948,0 33.07157695429847,35.06275503032955,0 33.07131535353231,35.06252892656154,0 33.07118443807992,35.06250308406675,0 33.07116947841882,35.06261256651505,0 33.07101130746889,35.06265157254309,0 33.07103098881088,35.06271378323378,0 33.07082341882503,35.0627419152752,0 33.07062073552901,35.06282411840748,0 33.07056893818644,35.06275104802034,0 33.07064812185187,35.06265246697521,0 33.07067044813187,35.06258084438424,0 33.07052472257188,35.06255497194503,0 33.07041612147128,35.06247507470496,0 33.07009989292735,35.06247062366236,0 33.06974908128088,35.06247423053503,0 33.06940338770313,35.06233590151172,0 33.06933436038732,35.06221549794449,0 33.06933696264999,35.06210870269513,0 33.06923571141098,35.06208018195083,0 33.06907989990314,35.0622259941047,0 33.06887477196435,35.06229196748089,0 33.06870414892232,35.06242694078698,0 33.06868182340728,35.06250802340582,0 33.06873368943263,35.06251349448524,0 33.06895565858253,35.06281388160893,0 33.06899491140254,35.06303021774794,0 33.06893789928267,35.06318695454344,0 33.06882924450306,35.06316112660397,0 33.06845858831029,35.0632512131713,0 33.06828591499142,35.06304823083885,0 33.06782609422812,35.06334636793439,0 33.06775196819926,35.06336789736944,0 33.06764575430685,35.06336505227508,0 33.06750986632333,35.06339055969294,0 33.06738624587774,35.0634863671731,0 33.06714192513602,35.06329680815986,0 33.0668603486333,35.06329103415156,0 33.0667762340065,35.06340580941273,0 33.06671196154112,35.06344492577053,0 33.0665187808865,35.06389341267226,0 33.06591372548434,35.06382502241915,0 33.0658864930992,35.06387905380572,0 33.06581734478053,35.06387491056506,0 33.06565156002537,35.06413959462164,0 33.06544669767325,35.06402579038567,0 33.06499921161257,35.06442928406296,0 33.06474959858087,35.06457896374502,0 33.0646827954038,35.06469509844653,0 33.06453465625395,35.06465840399081,0 33.06433203953787,35.06474732204139,0 33.06424798209039,35.06483235139788,0 33.06435159559251,35.06493790122295,0 33.06425516847222,35.06503777178214,0 33.06415630477903,35.06510791297811,0 33.06398830608566,35.06516578712483,0 33.06375117638989,35.06522085882392,0 33.06368197016271,35.06527617284009,0 33.0635165017769,35.06528810242563,0 33.06327440722819,35.06536749605264,0 33.06314585591934,35.06549568880771,0 33.06303457007692,35.06564431301003,0 33.06296036537422,35.06574478484552,0 33.06311170583658,35.06592362326317,0 33.06315459767981,35.06608565246559,0 33.06299100923704,35.0663905321906,0 33.06238013238424,35.06665130267701,0 33.06209360364159,35.06670386353413,0 33.06243107635201,35.06671147315817,0 33.06228045257843,35.06707345545369,0 33.06199397586735,35.06712001440567,0 33.06213170680548,35.06736035929082,0 33.06209326938775,35.06761183037504,0 33.06181081323462,35.06790113323232,0 33.06181862812743,35.06800121726859,0 33.06176629780349,35.06817661474627,0 33.06197621364626,35.06822712318137,0 33.06200544802937,35.06835042939392,0 33.0619923784572,35.06844982638794,0 33.06195247828521,35.06856302967699,0 33.06194717744504,35.06847630428619,0 33.06191503687644,35.06840569822646,0 33.06188136522609,35.06836630362462,0 33.0617193945053,35.06834046047169,0 33.06171827552532,35.06826530714309,0 33.06166070789753,35.06820966576375,0 33.06158899517366,35.06816786289291,0 33.06152269715193,35.06818388318021,0 33.06143074266587,35.06827498919856,0 33.06137960068904,35.06838122552963,0 33.06137223026184,35.06846560465853,0 33.06140233693214,35.06869921434447,0 33.06131741072885,35.06879611012265,0 33.0612222459783,35.06899124028762,0 33.0612472966521,35.06907338284104,0 33.06138479129311,35.06923095144114,0 33.0613914956235,35.0693199801589,0 33.06119013270474,35.06928131734463,0 33.06105506238337,35.06922663961387,0 33.06099069663169,35.06910740723819,0 33.06090224921803,35.06902163672363,0 33.0608108185892,35.06897863089022,0 33.06071638123668,35.06898532615246,0 33.06064577171041,35.06902560526434,0 33.06062725210315,35.06907873415962,0 33.06066045845734,35.06923949980597,0 33.06063774233395,35.06928452435146,0 33.06025084538576,35.06949968720212,0 33.06016217366081,35.06984737549514,0 33.06020348273601,35.0701017647535,0 33.0601011138001,35.07034652330697,0 33.05993270532259,35.0705448688823,0 33.05995179011877,35.07071480817383,0 33.05998815663788,35.07078540091896,0 33.06021446012031,35.07092583687641,0 33.06028923807306,35.07127041877413,0 33.06032050129692,35.07157211479401,0 33.06035091819631,35.07172473033013,0 33.06050214537998,35.07197011179171,0 33.06052667629785,35.07218856881529,0 33.06061815713099,35.0725839847283,0 33.06057233462067,35.07277912655297,0 33.06081123644454,35.07330547149974,0 33.06021491410065,35.07341589691776,0 33.06013747567148,35.07377843294043,0 33.05968436830714,35.07365125859494,0 33.05960609417001,35.07386475260809,0 33.05971569157889,35.07393783425658,0 33.05968878196362,35.0739770347976,0 33.05939087030451,35.07378675852283,0 33.05927320455015,35.07323308016215,0 33.05919717549303,35.07322362897686,0 33.05902892243356,35.0730140621148,0 33.05881339397879,35.07301809158248,0 33.05868656203323,35.07303507171104,0 33.05861650865657,35.07293321481377,0 33.05865600809643,35.07291714959427,0 33.05857072538,35.07274362205255,0 33.05845801291105,35.07275140066981,0 33.0583739311466,35.07263448500412,0 33.05831338500706,35.07262854223924,0 33.05832097858502,35.0724783715158,0 33.05818744739311,35.07240175569959,0 33.05819468574192,35.07234862901222,0 33.05782868831945,35.07228870928267,0 33.0575962683705,35.07229385248078,0 33.05751724902107,35.07233407334969,0 33.05750290859027,35.07240450876991,0 33.05760787988562,35.07258733215129,0 33.05739369040931,35.07261678112598,0 33.0572102436925,35.07271447413248,0 33.05694690568716,35.07309843044457,0 33.05705613105908,35.07327200645135,0 33.05695743798199,35.07369450099116,0 33.05684437398829,35.07380622516513,0 33.05684076963508,35.07402567048675,0 33.05671906256168,35.07419280237234,0 33.05669881027958,35.07434289143512,0 33.05633871192984,35.07423215341055,0 33.05620633304987,35.07423524448875,0 33.05614281694326,35.07427779824498,0 33.05602966768939,35.07441837874582,0 33.05596046286868,35.07447708211246,0 33.05550308415166,35.07480837995436,0 33.05522262885867,35.0748837951963,0 33.05515058969107,35.07495056706706,0 33.05503720090597,35.07516618156586,0 33.05487433181391,35.07544168864025,0 33.05467881577647,35.07539031776422,0 33.05459841347993,35.075435118336,0 33.0544103944263,35.07565973039269,0 33.05438037266383,35.07579242427263,0 33.05411939631588,35.07594868889382,0 33.05399636523179,35.07611112040562,0 33.05396601249271,35.07634193531549,0 33.05396863049937,35.07648447875299,0 33.05390234695732,35.07668174807638,0 33.05387850394214,35.07671268446725,0 33.05380291901334,35.07676072746198,0 33.05370084740034,35.07679149567538,0 33.05343360727971,35.07692864793564,0 33.05337339209935,35.07697557604823,0 33.05324589189054,35.07709581343584,0 33.05319688022196,35.07713358265684,0 33.05316223728551,35.0770462794387,0 33.05326895387697,35.07687320122037,0 33.053102605756,35.07670307231029,0 33.05303914793374,35.07666151953645,0 33.05284441338328,35.07603919624,0 33.05276111663939,35.07597801189281,0 33.05274107822908,35.07577202257161,0 33.05269521810063,35.07567278571489,0 33.05266596642308,35.07540416363181,0 33.05255480838596,35.07540935983778,0 33.05245286367269,35.07547718599493,0 33.0520526428848,35.07550234928842,0 33.05201678709012,35.07539108478061,0 33.05175105553192,35.07530629851866,0 33.05157668548756,35.07522019915603,0 33.05168216284164,35.07481741657632,0 33.05145778375471,35.07479147455225,0 33.05120502362298,35.07464827247579,0 33.05121698665238,35.07445060203893,0 33.05088679717423,35.07415949502926,0 33.05087025673591,35.07455690871556,0 33.05092858125123,35.07464412876848,0 33.05082786964521,35.074596942181,0 33.05068419284493,35.0746442680949,0 33.05066906357111,35.0746744204985,0 33.0506481039873,35.07478927966852,0 33.0506163135517,35.07476078473157,0 33.0505266475862,35.07460269738287,0 33.05031944129453,35.07458899635126,0 33.05021960571322,35.07469315768032,0 33.05013698408857,35.0748035036432,0 33.050062065387,35.07488565906612,0 33.05002929777514,35.07494997605339,0 33.05001848900238,35.07503867811814,0 33.05004712686627,35.07513171775351,0 33.05014893852263,35.0753080532091,0 33.05015515133275,35.07542109821122,0 33.04990078325534,35.07543325506955,0 33.04990161249111,35.07558862831746,0 33.04993518580734,35.07591576204039,0 33.04998680293102,35.07593633995148,0 33.04995105663093,35.07604905429074,0 33.04999880216204,35.07620277031756,0 33.04993950335659,35.07620836189631,0 33.04988550283478,35.07617969563395,0 33.04983631241613,35.07616317125541,0 33.0497844194473,35.07616882191296,0 33.04972524870922,35.07639635651787,0 33.04960442238831,35.0763853284848,0 33.0495978692156,35.07653861704888,0 33.04963108171827,35.07666598623832,0 33.04962488939468,35.07678497575134,0 33.04949181064665,35.07676577947597,0 33.04949334139129,35.07662052459408,0 33.04924161017763,35.07661856190886,0 33.0493266697104,35.07674431551418,0 33.04943532393029,35.07697314813579,0 33.04968337625856,35.07732412504937,0 33.04960718809518,35.07752729763273,0 33.04946343038007,35.07758467921571,0 33.04941441259172,35.0775520147394,0 33.04935539413404,35.07753137740489,0 33.04928152787455,35.07751465822255,0 33.04924161418925,35.07732066618566,0 33.0492000854444,35.07727999039695,0 33.04912402822375,35.07723702816855,0 33.0490855623301,35.07713988727471,0 33.04905150072923,35.07709321759788,0 33.04880837875655,35.07721236394496,0 33.04853611708337,35.07728689594529,0 33.04820482544446,35.07710878468198,0 33.04775625103585,35.07705483748246,0 33.04766958302904,35.07684838410178,0 33.04729830464581,35.07672040301284,0 33.04702813715111,35.07659926574038,0 33.04688478714483,35.07638632191326,0 33.04684811562034,35.07635375798664,0 33.04650704194081,35.07664158986147,0 33.0463183430012,35.07675308256016,0 33.04626253994277,35.07689788937731,0 33.04657486353584,35.07699716634038,0 33.04659769415178,35.07717284814844,0 33.04660075389883,35.0775864069136,0 33.0467749012996,35.07792061751965,0 33.04677399985886,35.07824134269569,0 33.04632993890523,35.07823380241765,0 33.04629175719474,35.07858044310353,0 33.04642174483563,35.07889008578254,0 33.04622188317117,35.07889051817305,0 33.04624239296877,35.07905204413647,0 33.04602277774971,35.07905433523757,0 33.04581765275201,35.07908699548894,0 33.04542036065426,35.07909392357028,0 33.04541205714259,35.0789446025811,0 33.04537265053569,35.07893823980964,0 33.0453175389319,35.07878249569273,0 33.04521361101261,35.07881192515556,0 33.0451289403023,35.07865191294209,0 33.04500382567488,35.07858436132462,0 33.0449253734852,35.07853734910019,0 33.04481698048651,35.07852237250739,0 33.04469593789864,35.07853754834678,0 33.04463154800942,35.0785612414463,0 33.04440836176884,35.07843643935649,0 33.04436737776553,35.07834535271861,0 33.044208916943,35.07840057184867,0 33.0441742564204,35.07841239843913,0 33.0441533647046,35.07828718490067,0 33.04403195300225,35.07810268387875,0 33.04384636525386,35.07815768883098,0 33.04389906788464,35.07830735625558,0 33.04350391167308,35.07835262894302,0 33.04344129925567,35.07844288946514,0 33.04318898131149,35.07851147639443,0 33.04318925412093,35.07872122414174,0 33.04306000954846,35.07881498493285,0 33.04291898336079,35.0788562143159,0 33.04290235250539,35.07926749133697,0 33.04297341332825,35.07954837719586,0 33.04310155963874,35.07955948404446,0 33.04318164429858,35.07968515803439,0 33.04326990740703,35.07973628103978,0 33.04358987149694,35.07983592618536,0 33.04336542400302,35.07996711851148,0 33.04304507092276,35.07993111108545,0 33.04282064600952,35.07986003003882,0 33.04283320790689,35.08005685971496,0 33.04297792619676,35.08010571484723,0 33.04303075135435,35.08031394124587,0 33.04291142216746,35.08044690542503,0 33.04270061732653,35.08059032389553,0 33.04293651037926,35.08090112004374,0 33.04302677181403,35.08131419974552,0 33.0428078586813,35.08130571826617,0 33.04269417075399,35.08140097489598,0 33.04249904640406,35.08141560219367,0 33.04252475545209,35.08156330909592,0 33.04248024597857,35.08156855560977,0 33.0424960778914,35.08181089570176,0 33.04213009091072,35.08185470058685,0 33.04181723617598,35.08184701972564,0 33.04185588512006,35.08215836260764,0 33.04177673528912,35.08218294265892,0 33.04178243342658,35.08184366853798,0 33.04161228328561,35.0814863021464,0 33.04153607745484,35.08108723090127,0 33.04106041044792,35.08125032108592,0 33.04101113516084,35.08119382889798,0 33.04082878347692,35.08116146559043,0 33.0406718187222,35.08098125588126,0 33.04021031659423,35.08101795947464,0 33.04013063725062,35.08094526774163,0 33.04000490585811,35.08066876388121,0 33.039921477506,35.08037691557879,0 33.03981097354618,35.08027008272242,0 33.03962317169467,35.08029089211356,0 33.03947359723112,35.08017126258389,0 33.03934870284758,35.08023554258106,0 33.0392389183663,35.08009726396977,0 33.03922753536136,35.08000633460281,0 33.03921347551307,35.07993565280537,0 33.03912812766453,35.07984423441196,0 33.03907932207291,35.07979545198698,0 33.03899629386949,35.07971816605433,0 33.03892991625836,35.07969948750069,0 33.03887584516819,35.07968292329452,0 33.03871033607561,35.07947593536919,0 33.0386292093042,35.07945310582809,0 33.0385980394261,35.07936817260284,0 33.03854407353601,35.07934152857876,0 33.03849746303624,35.07931897552695,0 33.0383931728048,35.07915280637001,0 33.03834167325745,35.07912618220669,0 33.03815784410733,35.07902188052076,0 33.03814336769275,35.07899152086894,0 33.03811946872487,35.07891874352931,0 33.0380085755322,35.07891382414724,0 33.03783931303028,35.07883181934825,0 33.03768563561551,35.07891123959865,0 33.03747420032177,35.07885510901812,0 33.0373849981576,35.07866083897574,0 33.03741748358421,35.07861875715664,0 33.03719011370615,35.07843547991401,0 33.0372774355917,35.07833536434747,0 33.03717858349366,35.07812085309327,0 33.03704914846356,35.07800287836778,0 33.03703168650155,35.07778498161292,0 33.03687177266582,35.0777534645315,0 33.03687119036094,35.07733407169573,0 33.03688257511879,35.07718696968435,0 33.03693705716099,35.07692527549737,0 33.03689047169583,35.0769007107504,0 33.03674831607594,35.07705887588261,0 33.0366625223708,35.07724974614087,0 33.03656455078016,35.07718847939359,0 33.03639985996556,35.0771428153944,0 33.03653929466764,35.07700882838483,0 33.03584244493021,35.07669682978652,0 33.03573775227063,35.07657099137425,0 33.03573085823682,35.07652254586918,0 33.03576924978996,35.07638574097803,0 33.03563470892066,35.0762858801805,0 33.03564003079106,35.07600968545617,0 33.03574956538857,35.07590569914625,0 33.03570803924133,35.0758690769026,0 33.03559142453664,35.07594276232884,0 33.03558615997166,35.0759749832099,0 33.03554875134538,35.07601703084454,0 33.03549162421981,35.07605892288517,0 33.03543483177887,35.07606855580278,0 33.03539823557815,35.07603197438027,0 33.03535683588655,35.0759832558698,0 33.03529079012511,35.07593434350223,0 33.03522449387189,35.07590962519495,0 33.03501785785289,35.0758696864641,0 33.03494661407697,35.07584694533829,0 33.03484612825858,35.07579171379838,0 33.034770517167,35.07571449850704,0 33.03474896172978,35.07565384024011,0 33.03473509069205,35.075565014101,0 33.03466148662156,35.07553217400913,0 33.03457334599936,35.07547502410256,0 33.0345515599867,35.07543654342044,0 33.03455763498078,35.07532569446965,0 33.03454320271445,35.07529130322051,0 33.03451657124815,35.0752447192724,0 33.03446030302491,35.07520394976709,0 33.03443858148233,35.07515942053787,0 33.0344243135749,35.07510890107738,0 33.03441476906566,35.07507858102561,0 33.03442038367716,35.07501208642076,0 33.03445711536996,35.07479662654982,0 33.0344706462057,35.07467978375544,0 33.03443660028845,35.07463515706504,0 33.03436301935435,35.07460030211337,0 33.0343215588426,35.07455763446644,0 33.03425639063946,35.07442404397384,0 33.03421754278244,35.07436728189862,0 33.03417840192618,35.07433874596124,0 33.03409962178972,35.0743300649534,0 33.03405787174713,35.07431562426555,0 33.03402860943515,35.07428515016331,0 33.03396868372578,35.07412135516248,0 33.03393209343578,35.07408477508653,0 33.03387524437433,35.07410046211022,0 33.03365961466052,35.07421774059608,0 33.03344384338281,35.07387126044046,0 33.03335270484051,35.07386651703863,0 33.03326110753189,35.07342825249654,0 33.03324739092557,35.0730853571959,0 33.03339343222468,35.07302398285537,0 33.0332961358437,35.07266026704847,0 33.03327426892896,35.07262985021897,0 33.03312823873446,35.0724512698644,0 33.03312992267657,35.07228794792788,0 33.03292501982777,35.07208269872811,0 33.03279514206346,35.07201111901355,0 33.03249443916771,35.07225480344645,0 33.03234944866151,35.07221536913902,0 33.0321619427619,35.07247604936854,0 33.0320508098271,35.07249938492553,0 33.0321057476921,35.07218305317554,0 33.03215300492491,35.07214730757698,0 33.03219806414404,35.07207909800039,0 33.03238341290298,35.07202810326018,0 33.03243787283871,35.07200432644812,0 33.03262374725118,35.07190292214185,0 33.03276725323937,35.07184756798896,0 33.03282434673266,35.07180767745695,0 33.03287421249661,35.07175160030329,0 33.0325390011076,35.07151711755782,0 33.03246814215299,35.07145809370804,0 33.03238312187101,35.07133846409623,0 33.03236858445995,35.07131415404529,0 33.0324494106929,35.07112320503473,0 33.03244276605265,35.07105055797687,0 33.03267474283899,35.0707800993255,0 33.03272388190263,35.07079459259044,0 33.03282916081245,35.07086194780258,0 33.03310275130337,35.07062003035563,0 33.03315905683088,35.0706567612608,0 33.03318153589985,35.0703887150154,0 33.03321381054746,35.07012678940176,0 33.03310764367225,35.06990615590967,0 33.03309561219043,35.06987782944076,0 33.03309292795223,35.06965999990341,0 33.03315963308314,35.06964437364114,0 33.0334551992792,35.06966275622288,0 33.03370110941257,35.0697170634665,0 33.03376460554673,35.06977401720509,0 33.03387880724936,35.06969421170782,0 33.03390157080189,35.06963791452184,0 33.03394883525827,35.06959591958012,0 33.03400338954822,35.06956406442632,0 33.03399768073726,35.06940065523208,0 33.03401545355915,35.06935036736944,0 33.03400139345564,35.06927966951736,0 33.03401661933722,35.06923743022451,0 33.03407620609526,35.06919552732472,0 33.03419399420214,35.068768827931,0 33.03434767948364,35.06868527626957,0 33.03446326382259,35.0684723457335,0 33.03447412246857,35.0683756106019,0 33.03456932486761,35.06822706680965,0 33.03456244397826,35.06793857449254,0 33.03464379607298,35.0676991500177,0 33.03467853249747,35.06767722211583,0 33.03494611303687,35.06754609628707,0 33.03494690485533,35.0674694502943,0 33.03495490330462,35.06741101266969,0 33.03503068557904,35.06723406589902,0 33.03508608045742,35.06712151686791,0 33.03506264013351,35.06700434200876,0 33.03507306209102,35.06694995464402,0 33.0351004683626,35.06692191802505,0 33.03520224138837,35.06685409108131,0 33.03515947727618,35.06669844210766,0 33.0351725101313,35.06662995219064,0 33.03529042858285,35.06643111739641,0 33.035402293266,35.06634116924715,0 33.03543529792159,35.0662486164209,0 33.03567071224641,35.06613134053319,0 33.03571052984373,35.06609532167051,0 33.03568880126267,35.06605077817708,0 33.03565437387969,35.06604245378835,0 33.03554854182157,35.06602552917202,0 33.03545996449427,35.06600873373215,0 33.03539620755274,35.06597598309764,0 33.03535954393384,35.06594545103814,0 33.03533322104369,35.06586859568131,0 33.03530234360672,35.06575539375732,0 33.03533969326123,35.06571935680256,0 33.03538941254249,35.06567937612918,0 33.03538546491154,35.06558368903257,0 33.03539800360783,35.06548626099329,0 33.03521929425149,35.06541894822022,0 33.03511816724817,35.06535007853464,0 33.03499558562856,35.0652371554326,0 33.03472289285996,35.06478605229246,0 33.03473183589196,35.06471379564296,0 33.03483724391288,35.06457051742008,0 33.03491172106285,35.06448042898879,0 33.03490291883837,35.06435759343331,0 33.03478519986099,35.06432919380434,0 33.0349594429997,35.06418757324871,0 33.03496431506177,35.06409993864794,0 33.03481308534749,35.06395717311845,0 33.03473309408413,35.06393363747537,0 33.03476471969279,35.0638496883277,0 33.03467913907052,35.06376311264637,0 33.03510955949013,35.06329570158623,0 33.03519813335117,35.06329098133168,0 33.03523862918754,35.06317768199302,0 33.03562507055917,35.06320161176224,0 33.03562731558587,35.06308492967803,0 33.0353660817233,35.062701869847,0 33.03522687117357,35.06274150246041,0 33.03507756122353,35.06268646634061,0 33.03499299412452,35.06246542594612,0 33.034998538381,35.06227826999235,0 33.03492209688429,35.06211687046178,0 33.03491888945784,35.06200449331207,0 33.03498103719467,35.06190913504913,0 33.03505366250682,35.06173232963643,0 33.03504344949144,35.06167894155122,0 33.0348819125413,35.06158586703459,0 33.03484428770823,35.06147342855206,0 33.03498222886089,35.06133331737941,0 33.03500307054572,35.06123787454669,0 33.03478804178366,35.06076544415469,0 33.03477082780604,35.06060789367581,0 33.03431874221712,35.06075002653973,0 33.03413591952923,35.06070576075801,0 33.03402153989771,35.06070379263907,0 33.03387408570923,35.06061858490625,0 33.03381794704807,35.06061166234628,0 33.03356205295058,35.06065688818832,0 33.03315027614083,35.06066950228353,0 33.03311730993185,35.06054043980842,0 33.03304409594423,35.06056181168356,0 33.03285726736666,35.06066795853882,0 33.03276955826705,35.06056660237409,0 33.03261621126464,35.06060648551537,0 33.03252173786414,35.06055079326894,0 33.03250863005425,35.06046375305999,0 33.03230888815991,35.06040673487711,0 33.03216191330486,35.06026874684671,0 33.03202333548118,35.06022638345776,0 33.03186482602754,35.06022601054136,0 33.0319448039757,35.05994808381683,0 33.03201635637473,35.05986095091374,0 33.03206789102299,35.05984812994043,0 33.03224594006859,35.05995202538132,0 33.03238456250615,35.05997498996773,0 33.03282037378481,35.06000511185531,0 33.03291939503859,35.06002474768089,0 33.03310565712184,35.06001548629667,0 33.03318506581642,35.05995098789863,0 33.03321335990668,35.0597182328458,0 33.03325721341956,35.05960193145653,0 33.03335246616523,35.05953748629115,0 33.03364691469025,35.05948552831476,0 33.03382381658621,35.05945515267958,0 33.03392774677244,35.05937459177413,0 33.03398232050275,35.05922081602436,0 33.03397557404627,35.05907267598018,0 33.03394746498612,35.05899181933469,0 33.0338203989972,35.05888764895859,0 33.03385127323071,35.05878384823289,0 33.0340856625411,35.05866253090021,0 33.03435651431133,35.05850503604786,0 33.03469197428574,35.05834439781004,0 33.03470018894751,35.05827525119111,0 33.03463984934744,35.05817630070542,0 33.03481375096197,35.05803507153242,0 33.03479366103808,35.05798891110338,0 33.03470076204982,35.05800516686427,0 33.03454349825822,35.05792247136143,0 33.03432917891675,35.05808336704185,0 33.03424046024583,35.0580403457336,0 33.034070789001,35.05808606210947,0 33.03386100209254,35.05802300976939,0 33.03369144025159,35.05802590816504,0 33.03361505634114,35.05788741274595,0 33.03338638143901,35.05762963027983,0 33.03342358765391,35.05754989850178,0 33.03323364040352,35.05735963219231,0 33.03315739184454,35.05717827393602,0 33.03308339448645,35.05696496239489,0 33.032872444445,35.05681074989516,0 33.03281940687558,35.05670347910217,0 33.0326824200435,35.05667522232392,0 33.03264833241931,35.05660371467614,0 33.03273230390626,35.05651696196579,0 33.03271139178938,35.05643940585869,0 33.03260962784211,35.05638142149359,0 33.03258409846566,35.05622920472069,0 33.03252203680807,35.05618117210056,0 33.03229588070869,35.05613839614966,0 33.03216738608188,35.05611482210534,0 33.03200771778373,35.05603476598608,0 33.03189697222878,35.05592585047251,0 33.03171518244353,35.05581134211028,0 33.03168004637079,35.05566458033098,0 33.03166477361551,35.05556494408616,0 33.03144922578069,35.05535090574904,0 33.03127221022635,35.05524625880921,0 33.03086009076199,35.05517135629151,0 33.03054691975468,35.05510675957439,0 33.03047703986729,35.05503262545331,0 33.03043612279143,35.05492158440844,0 33.03050667580298,35.05476035496213,0 33.03051955052813,35.05458556911663,0 33.03043371837723,35.05432652349968,0 33.03050855854146,35.05410147603462,0 33.03050483226021,35.05387668717013,0 33.03058453851008,35.05359162638019,0 33.03062654621063,35.053292533626,0 33.03075383040871,35.05315301478523,0 33.03075054492967,35.05309988772041,0 33.0308227877572,35.05301896513221,0 33.03087126962527,35.05285132832589,0 33.03101520358113,35.05288799744603,0 33.03146742013949,35.05305673682447,0 33.03148087621584,35.05315462755623,0 33.03168289575852,35.05327810377602,0 33.03197031065879,35.05353878937201,0 33.03216247482654,35.0535056600752,0 33.03269718849461,35.05364665969729,0 33.03266275488787,35.05369972384932,0 33.0325528989855,35.0537358318078,0 33.03244969506478,35.05385864818052,0 33.03252823557279,35.05399866184017,0 33.03265859550638,35.05399615873281,0 33.03274407857999,35.05410542655196,0 33.03258551090456,35.05417708885941,0 33.03276638463416,35.0542821042447,0 33.03300580468829,35.05411033507887,0 33.03310359323056,35.05424388264559,0 33.0332069677502,35.05414565190665,0 33.03349893405798,35.05408886962708,0 33.03367015471971,35.05402361080866,0 33.03373817427125,35.05398069333761,0 33.0339696561521,35.05375902095705,0 33.03401989999988,35.05374159054367,0 33.03474071182838,35.05370517354485,0 33.03478019609665,35.05368479825349,0 33.0349307414371,35.05371436214423,0 33.03483810797677,35.05343060823607,0 33.03506771379032,35.05336972057577,0 33.03525769444787,35.05339936730714,0 33.03543342712807,35.05337637136675,0 33.03604487202702,35.05313334779093,0 33.03638776286599,35.05299703094815,0 33.036483039682,35.05294292794726,0 33.03670210959139,35.05284771608203,0 33.0367433117685,35.05287625158636,0 33.03707669581511,35.05271922734521,0 33.03727846253088,35.05202402001915,0 33.03742097966104,35.05152281622134,0 33.03751841803008,35.05135147029601,0 33.03789984433332,35.05115980894001,0 33.03790501968231,35.05108460632893,0 33.03795609105794,35.05069085263447,0 33.03815836900572,35.05064789239164,0 33.03865193874137,35.05047275422671,0 33.03880969162409,35.05048927287926,0 33.03890679509647,35.05041327457069,0 33.03896747920901,35.0503802315572,0 33.03918995090148,35.05039344413674,0 33.03933558738789,35.05031744602371,0 33.03968344618483,35.05033726225518,0 33.03974815270156,35.05039673482602,0 33.03982498783267,35.05049585867017,0 33.03993415533564,35.05076350409421,0 33.03992604862874,35.05086594147308,0 33.04027022288059,35.05108998934339,0 33.04045735244993,35.05120443902479,0 33.04055830054993,35.05109064066428,0 33.04064357703232,35.05099124044769,0 33.04083286758722,35.051061924869,0 33.04086532914241,35.05087193959438,0 33.04110330404963,35.05056708986676,0 33.04141697313712,35.05061567432582,0 33.04176308075934,35.05044778421475,0 33.04193071219463,35.05023573303673,0 33.0428323479069,35.04934492906853,0 33.0430872746687,35.04899778915636,0 33.04356541029914,35.0486021922045,0 33.04349867419381,35.04853991355309,0 33.04362732197878,35.04843481218519,0 33.04378933076566,35.04834722947478,0 33.04389651659007,35.04820904981381,0 33.04394172779124,35.0480027640323,0 33.04382498089671,35.04802417353546,0 33.04359093711793,35.04754579808284,0 33.0434414903373,35.0475591755833,0 33.04339648693023,35.04771467597015,0 33.04322038678812,35.0475725550085,0 33.04330836681033,35.04733346140748,0 33.04329190363354,35.04707887896866,0 33.04316953966519,35.0469094842699,0 33.04296211708042,35.04692034249105,0 33.04254597042643,35.04720375975901,0 33.04255927587148,35.04726022821271,0 33.04266167390784,35.04732538481661,0 33.04246988313972,35.04737244497397,0 33.0423078411028,35.04746682356299,0 33.04207272661604,35.04745163614752,0 33.04193989580475,35.04749068932005,0 33.04180057704725,35.04756009812784,0 33.04169873314493,35.04775418745034,0 33.04149502565785,35.04774864143471,0 33.04144070311401,35.04782073400593,0 33.04139317164495,35.04779855184063,0 33.04137959128856,35.04764327771486,0 33.04104007711515,35.04769318481077,0 33.04101291195553,35.04779855116482,0 33.04086351558232,35.04790391817392,0 33.04077524121688,35.04787064397667,0 33.04046967118312,35.04783736756755,0 33.04020615097951,35.04777962181564,0 33.040001117816,35.04785400091534,0 33.03987210497469,35.04779299645443,0 33.03980419899616,35.0477929953131,0 33.03972948459959,35.04788727146304,0 33.03965478415073,35.04789281710227,0 33.03939675529647,35.04780408055456,0 33.03890472652142,35.04801327610448,0 33.03880838571139,35.04817547166036,0 33.0386338350655,35.04822953508976,0 33.03860965691432,35.04855394699535,0 33.03842305574322,35.04861784755124,0 33.03824246159999,35.04870632766977,0 33.03814014166839,35.04870632562201,0 33.03798970111637,35.04862767247783,0 33.03765261735682,35.04869157109542,0 33.03734565962891,35.04867190231259,0 33.03724336558046,35.04861291052723,0 33.03714106520125,35.04856866770329,0 33.03702669790525,35.0485834120414,0 33.03688227864468,35.04851458928353,0 33.03671375355988,35.04850475361008,0 33.03646094457637,35.04852440779931,0 33.03638267394444,35.04856373143643,0 33.03626822930023,35.04870136937866,0 33.03612979171467,35.04869644926021,0 33.03596118874454,35.04879967776724,0 33.03563632190414,35.04853421145925,0 33.03605178450669,35.04830319430111,0 33.03587139897116,35.04801810041505,0 33.03593766498911,35.0479247152408,0 33.03578128119696,35.04776742926309,0 33.03553761009106,35.04748758084065,0 33.03529232494486,35.04747272940911,0 33.03525601827842,35.04742450583152,0 33.03523789317728,35.04736144588524,0 33.03562415808121,35.04712778754492,0 33.03544263989809,35.04687556271314,0 33.03537925536892,35.04657885233686,0 33.03550197695322,35.0464527671793,0 33.03572907589766,35.0464527825503,0 33.03588361755637,35.04627107535746,0 33.03556122336508,35.04615609124634,0 33.03544319719911,35.04606708340047,0 33.0352933554021,35.04601515473965,0 33.03516176672057,35.04584456653845,0 33.03487100137193,35.04597062225145,0 33.03453931228137,35.04614117946218,0 33.03417130972707,35.0462635289789,0 33.03396234984813,35.04629318039899,0 33.03373075198884,35.04623753176799,0 33.03353545033539,35.04622638935017,0 33.03340372833253,35.04622637700668,0 33.03320838447225,35.04625973633291,0 33.03313563862371,35.04633390261308,0 33.03305830872279,35.04644886481039,0 33.03294003070722,35.04663058560462,0 33.03280431935945,35.04676778259644,0 33.03269872895598,35.04695508672277,0 33.0325249039638,35.04716770744074,0 33.03234476617761,35.04747653734067,0 33.03224519532498,35.04781577574033,0 33.03217683871633,35.04795248985458,0 33.03196580919639,35.04812970637896,0 33.03183543741952,35.04826136161649,0 33.03158147319559,35.04914814205434,0 33.03105462361957,35.04894877290506,0 33.0305593393575,35.04897762693373,0 33.03049580908647,35.04886206816106,0 33.03057025639165,35.04873496623006,0 33.03048914052033,35.04854141734766,0 33.03053181765434,35.04835943950557,0 33.0306167989896,35.04829012136756,0 33.03083953461531,35.04837968421782,0 33.03105583478414,35.04793777689554,0 33.03117249220631,35.04799266334351,0 33.03165632696848,35.04761772997964,0 33.03181207054857,35.04736616666663,0 33.03189065236646,35.04723923768658,0 33.03209066643552,35.04711077573257,0 33.03218128368211,35.04690198443203,0 33.03250795118488,35.04646977503397,0 33.03239027834121,35.04642168774345,0 33.03256464647026,35.04629369786934,0 33.03321151674339,35.04592020889524,0 33.0334836115716,35.04565768534031,0 33.03338756600812,35.0455548262935,0 33.03315195483819,35.04580110688261,0 33.03291327200583,35.04578484261449,0 33.03303287109558,35.04552772388713,0 33.03262174240317,35.04557369311406,0 33.03222382401663,35.04565755679332,0 33.0319919088107,35.04551407945142,0 33.0321808952921,35.04549786068523,0 33.03268161570274,35.04537612152648,0 33.03298021159107,35.04513528283664,0 33.03312682211784,35.04491241155616,0 33.03300306445222,35.04482038041585,0 33.03307969653698,35.0447181509899,0 33.03317854018879,35.04466931654488,0 33.03346675749189,35.04450601612904,0 33.03350207352255,35.0441980384691,0 33.03345359946066,35.04416283511084,0 33.0335399864904,35.04399346482472,0 33.03367215850291,35.04384610260112,0 33.03379869200726,35.04397589825387,0 33.03394711129909,35.04372955783006,0 33.0340132000324,35.04366635328244,0 33.03417345787113,35.0434385578013,0 33.03437499640626,35.04290594191632,0 33.03456837627849,35.04227625567592,0 33.03464925516343,35.04197563911321,0 33.03463818934348,35.04152600587915,0 33.0347395158629,35.0413649406093,0 33.03517827223935,35.04113279273088,0 33.03539036487999,35.04073367789722,0 33.03561781618031,35.04037230971264,0 33.03592601666416,35.04015552963173,0 33.03599924082652,35.04005813001496,0 33.03606072272756,35.03987492387238,0 33.03610057545446,35.03968645171197,0 33.03607335048192,35.03953445300113,0 33.03581123094629,35.0390240462658,0 33.03579741882678,35.03893804474901,0 33.0358059280134,35.03864611485218,0 33.03572870164821,35.03827370599222,0 33.03593867841031,35.03781103224897,0 33.03605865280093,35.03782503901643,0 33.03605285286072,35.03796488559951,0 33.03595656457367,35.03815290489165,0 33.03598922769922,35.03852851246433,0 33.03596280460594,35.03876703481797,0 33.03598497756514,35.03877888104558,0 33.03612227223994,35.03885222954391,0 33.03614002599207,35.03896577370741,0 33.03617901276983,35.03909677118359,0 33.03621645059084,35.03925165859635,0 33.0362348888988,35.03933637685727,0 33.03625705712449,35.03947106163042,0 33.03631280496206,35.03965989379161,0 33.03636263915151,35.03987146155759,0 33.03635311933295,35.04032478052766,0 33.03634625705804,35.0406835304933,0 33.03634194429551,35.04084716329991,0 33.0363347788022,35.04094948764811,0 33.03641041086466,35.04101694812465,0 33.03655295751441,35.04122327949518,0 33.03680591390226,35.0412159168412,0 33.03692035363288,35.04120462872584,0 33.03716999250069,35.04124143058411,0 33.03736893559342,35.04130733282789,0 33.03752280483002,35.04142685083788,0 33.03760357003131,35.04131502338941,0 33.03772750145058,35.04121545893625,0 33.03794324200121,35.04118718527796,0 33.03811029293971,35.04106624053893,0 33.03828566937301,35.04099811355906,0 33.0385258140875,35.04074941007163,0 33.03886159309836,35.04055806904488,0 33.03928894641559,35.04045542533348,0 33.03939906348128,35.04040836965839,0 33.03966384387092,35.0403955661392,0 33.03976871385255,35.04035278909051,0 33.04009117163429,35.04027580881658,0 33.04018838716227,35.04016923128483,0 33.04025961200725,35.0400549497325,0 33.04031422615077,35.03988643148661,0 33.04034881682107,35.03972433709475,0 33.0403205576022,35.03955124460477,0 33.04023775802923,35.039401228578,0 33.04008628008808,35.03927263586026,0 33.0398988585724,35.03914536994888,0 33.0398527823865,35.03906638264959,0 33.0398481967219,35.03894227094305,0 33.03990813684644,35.03878808731859,0 33.03981143090262,35.03836312644614,0 33.04005111994736,35.03806609924278,0 33.04043362273818,35.03797215506661,0 33.04067325008045,35.03799099223541,0 33.04101886651462,35.03797224440422,0 33.04103269651462,35.03784440632437,0 33.04111103467828,35.03784441857141,0 33.04111104144262,35.03758874814701,0 33.04126145840039,35.03759809983244,0 33.04144920371886,35.03750991910873,0 33.04152464603688,35.03737140509027,0 33.04155793812672,35.03722509013153,0 33.04168011361077,35.03712520397695,0 33.0416855447273,35.03690178004859,0 33.04176125509495,35.03668236581239,0 33.04197287810448,35.03645940526596,0 33.04221130999304,35.0366294462337,0 33.04233288231623,35.03671061934813,0 33.04242611932675,35.03685721847881,0 33.04251506762185,35.03688438506752,0 33.04252774444975,35.03730046821002,0 33.04258829421261,35.03741232250929,0 33.04272890747853,35.03740493369809,0 33.04280018483842,35.03710846229695,0 33.04293699247143,35.0368352514138,0 33.04334997899186,35.03665511665666,0 33.04333215228926,35.03637770663629,0 33.04321046510914,35.0363312050739,0 33.04312211692223,35.03612297994324,0 33.04351132387627,35.0360468051191,0 33.04365640383322,35.03610491460164,0 33.04385907947781,35.03575095111651,0 33.04417758505576,35.03579789164894,0 33.04419144054719,35.03585956013712,0 33.04430397160525,35.03584054956828,0 33.04432709708488,35.03593305773177,0 33.04452394061948,35.03592579231748,0 33.04469774763368,35.03579905150345,0 33.0448898923259,35.0357956272865,0 33.04487014607781,35.03609991970408,0 33.04494017237891,35.03618097585048,0 33.04486952481574,35.03628868412884,0 33.04525319608036,35.03647059926585,0 33.04529932288907,35.03669413934433,0 33.04554255001905,35.03683336495256,0 33.04551333181933,35.03716845536898,0 33.04543358989829,35.03719139219702,0 33.04542804232673,35.03745334041037,0 33.04547002872555,35.03751121853701,0 33.04560571554509,35.03757701021242,0 33.04562401787474,35.03771188315825,0 33.0455903025217,35.03798917874234,0 33.04550130137126,35.03797742334628,0 33.04535587532853,35.03802332863344,0 33.04528984930798,35.03815030960774,0 33.04521922586003,35.03825031449153,0 33.04522838283809,35.0383158246454,0 33.04477358447559,35.03838415434616,0 33.04466565924087,35.03842628963605,0 33.04455393784683,35.03819875133534,0 33.04434306810447,35.03819442873209,0 33.04406614378372,35.03832479053443,0 33.04396253605316,35.03847865311494,0 33.04365797770835,35.03846256270874,0 33.0435636522454,35.03864341289081,0 33.04346963360675,35.03873180671501,0 33.04335229647435,35.03878547609992,0 33.04309433238285,35.03885038835238,0 33.04314161630841,35.03872336657378,0 33.04282340683794,35.03858396797376,0 33.04291294511268,35.03843392706436,0 33.04275376426006,35.03838734096034,0 33.04258499359584,35.03840622380374,0 33.04254662122245,35.0386719503945,0 33.04244967643547,35.03878406898495,0 33.04216239361092,35.03892598989266,0 33.04242069108245,35.03928160375391,0 33.04255831251825,35.03920935526005,0 33.0425882932848,35.03893997817046,0 33.04274012101675,35.03898886840778,0 33.04315180019677,35.03931305800021,0 33.04321023560934,35.03946184036022,0 33.04327469872528,35.03951387451378,0 33.04324345823343,35.03924602086307,0 33.04331027456466,35.03921540096442,0 33.04319673023101,35.03900931053204,0 33.04349873143793,35.03898422334231,0 33.04365686237838,35.03894552619297,0 33.04384141108137,35.03912192115622,0 33.04396749059439,35.03904047261348,0 33.04400279655928,35.03907781294677,0 33.04404631960853,35.03912384450369,0 33.04418641063926,35.03911433224635,0 33.04444327768669,35.03919534209413,0 33.04446377376652,35.03937874964597,0 33.04458640344774,35.03950024158686,0 33.0446447852877,35.03951930412831,0 33.04468565804058,35.0395478912061,0 33.04466234974914,35.03965984558968,0 33.04478789981077,35.03976705141118,0 33.04471787996298,35.03984803755267,0 33.04487551146542,35.03988616720316,0 33.04491932054377,35.03995048999003,0 33.04502146810919,35.03992191221236,0 33.04523458603329,35.04002198364341,0 33.04539507179024,35.03991479782035,0 33.0454795918655,35.03965277416982,0 33.04551734118669,35.03925022908578,0 33.04560482727464,35.03910494738807,0 33.04574528690155,35.03892729272315,0 33.04590390418575,35.03877651143264,0 33.04613504685095,35.03862228238378,0 33.04617770913452,35.03859381546911,0 33.046262505205,35.03862220681597,0 33.04634938904093,35.03854352817986,0 33.04644877645586,35.0385975908341,0 33.0465812046585,35.03852328091051,0 33.04660529563808,35.03858084008822,0</coordinates>
						</LinearRing>
					</outerBoundaryIs>
				</Polygon>
			</MultiGeometry>
		</Placemark>
	</Document>
</kml>