<?xml version='1.0' encoding='UTF-8'?>
<kml xmlns="http://www.opengis.net/kml/2.2">
	<Document>
		<name>AGIOS THERAPON</name>
		<Style id="PolyStyle70">
			<LabelStyle>
				<color>00000000</color>
				<scale>0.000000</scale>
			</LabelStyle>
			<LineStyle>
				<color>ff0055ff</color>
				<width>2.000000</width>
			</LineStyle>
			<PolyStyle>
				<color>00828282</color>
				<outline>1</outline>
			</PolyStyle>
		</Style>
		<Placemark id="ID_70574">
			<name>AGIOS THERAPON</name>
			<snippet />
			<description>&lt;html xmlns:fo="http://www.w3.org/1999/XSL/Format" xmlns:msxsl="urn:schemas-microsoft-com:xslt"&gt;

&lt;head&gt;

&lt;META http-equiv="Content-Type" content="text/html"&gt;

&lt;meta http-equiv="content-type" content="text/html; charset=UTF-8"&gt;

&lt;/head&gt;

&lt;body style="margin:0px 0px 0px 0px;overflow:auto;background:#FFFFFF;"&gt;

&lt;table style="font-family:Arial,Verdana,Times;font-size:12px;text-align:left;width:100%;border-collapse:collapse;padding:3px 3px 3px 3px"&gt;

&lt;tr style="text-align:center;font-weight:bold;background:#9CBCE2"&gt;

&lt;td&gt;5&lt;/td&gt;

&lt;/tr&gt;

&lt;tr&gt;

&lt;td&gt;

&lt;table style="font-family:Arial,Verdana,Times;font-size:12px;text-align:left;width:100%;border-spacing:0px; padding:3px 3px 3px 3px"&gt;

&lt;tr&gt;

&lt;td&gt;DIST_CODE&lt;/td&gt;

&lt;td&gt;5&lt;/td&gt;

&lt;/tr&gt;

&lt;tr bgcolor="#D4E4F3"&gt;

&lt;td&gt;VIL_CODE&lt;/td&gt;

&lt;td&gt;306&lt;/td&gt;

&lt;/tr&gt;

&lt;tr&gt;

&lt;td&gt;VIL_CCD&lt;/td&gt;

&lt;td&gt;5306&lt;/td&gt;

&lt;/tr&gt;

&lt;tr bgcolor="#D4E4F3"&gt;

&lt;td&gt;VIL_NM_E&lt;/td&gt;

&lt;td&gt;AGIOS THERAPON&lt;/td&gt;

&lt;/tr&gt;

&lt;tr&gt;

&lt;td&gt;VIL_NM_G&lt;/td&gt;

&lt;td&gt;ΑΓΙΟΣ ΘΕΡΑΠΩΝ&lt;/td&gt;

&lt;/tr&gt;

&lt;/table&gt;

&lt;/td&gt;

&lt;/tr&gt;

&lt;/table&gt;

&lt;/body&gt;&lt;script type="text/javascript"&gt;

				function changeImage(attElement, nameElement) {

				document.getElementById('imageAttachment').src = attElement;

				document.getElementById('imageName').innerHTML = nameElement;}

			&lt;/script&gt;&lt;/html&gt;

</description>
			<styleUrl>#PolyStyle70</styleUrl>
			<MultiGeometry>
				<Polygon>
					<extrude>0</extrude>
					<altitudeMode>clampToGround</altitudeMode>
					<outerBoundaryIs>
						<LinearRing>
							<coordinates> 32.85254279870186,34.81057384661368,0 32.85207101286512,34.81075303406623,0 32.85226484388497,34.81099392109492,0 32.85234726517861,34.81107795831834,0 32.85256516801983,34.81122829946761,0 32.85222638031539,34.81160587040885,0 32.85217273987974,34.81168847228364,0 32.85212537403334,34.81182316061444,0 32.85208530385065,34.8119798082197,0 32.85205491099848,34.81201591871256,0 32.85185255394914,34.81220375206775,0 32.85173349025639,34.81228158019524,0 32.85160647518445,34.81193547582175,0 32.85151994562089,34.81175069370228,0 32.85142677260018,34.81159490862028,0 32.85130597749001,34.81147289698019,0 32.85124933682636,34.81143156094781,0 32.85106056529983,34.81136907556061,0 32.85082109158903,34.81118294365872,0 32.85042331049539,34.8110152102041,0 32.85018616101174,34.81090319753755,0 32.85007023669182,34.81083558175195,0 32.84998223325571,34.81075735319423,0 32.84983745885698,34.81062966019893,0 32.84978037564728,34.8105558615344,0 32.84977831386957,34.81039710102404,0 32.84973605826498,34.81027684341561,0 32.84964754718446,34.81005256742838,0 32.84954270587514,34.80986779367981,0 32.84945558893212,34.80975128372817,0 32.84922690649871,34.809540623487,0 32.84911085311284,34.80935820989377,0 32.8491127208467,34.80928632475697,0 32.84916166722725,34.80916544890012,0 32.84921090014189,34.80906659592952,0 32.84928460813585,34.80890730182573,0 32.84933088572242,34.80879687045486,0 32.84934934930784,34.80838284854268,0 32.84925918528909,34.80835675063191,0 32.84891032127838,34.80808182660574,0 32.84876310415191,34.8078798249806,0 32.84861984154992,34.80776591922479,0 32.84845040318277,34.80769044130273,0 32.84828105074178,34.80762191888217,0 32.84818245698966,34.80759702121804,0 32.84799991082965,34.80759352286254,0 32.84779746295479,34.80767828789592,0 32.84768967651663,34.80770215699366,0 32.84767073480435,34.8074366852839,0 32.84799199404659,34.80731174591702,0 32.84807509634717,34.80701199040958,0 32.84810201429171,34.80692367234725,0 32.84814206161714,34.80655224687893,0 32.84852161226166,34.80648262813482,0 32.84862355203882,34.80601219869837,0 32.84864949602656,34.80595635693629,0 32.84892880273843,34.80562866151944,0 32.84879193557936,34.80557613137548,0 32.84823987056504,34.80555397419644,0 32.84807525611033,34.8055282927581,0 32.84798352361105,34.80549288440506,0 32.84786650104117,34.80545646899443,0 32.84774068632529,34.80549900369179,0 32.84757260898546,34.80553135386836,0 32.84731440431607,34.8055445276802,0 32.84714019509912,34.80553862620411,0 32.84692699322316,34.80545173912923,0 32.84683306178371,34.80546391319329,0 32.84674465478707,34.80546909073184,0 32.84640357784813,34.80537833214333,0 32.84632067352329,34.80537535453811,0 32.84613134274019,34.80539623009854,0 32.84604103173763,34.80557547943994,0 32.84598451909176,34.8057614819249,0 32.8458528291988,34.8057866515031,0 32.84560609518369,34.80582180469408,0 32.84542271239444,34.80586817625746,0 32.84534721043448,34.80589416395213,0 32.8451868547187,34.80598217020784,0 32.84508141500577,34.80608028388136,0 32.8450011800503,34.80617244119696,0 32.84488011962196,34.80625788556956,0 32.84482880266647,34.8064113614827,0 32.84479552872069,34.80644405270783,0 32.84473435125103,34.80649084044532,0 32.84468280341486,34.80652248426885,0 32.84445091833084,34.8065146239779,0 32.84428933719241,34.80651213394903,0 32.84416435177626,34.80651522190599,0 32.84396077803704,34.80652459129688,0 32.84384022110988,34.80654389637694,0 32.84360909205479,34.80659404862772,0 32.84346088898019,34.8066471737673,0 32.84338750446378,34.80672652823376,0 32.84330908099642,34.80684884584905,0 32.84322243600265,34.80688302832803,0 32.84300106779114,34.80692848279022,0 32.84292054020622,34.80694683797764,0 32.84270395819946,34.80703510729782,0 32.842460954274,34.80698264014699,0 32.84160326260596,34.80748098540215,0 32.84132657498498,34.80756939847174,0 32.84073439742881,34.80763217389083,0 32.84033363087728,34.8075709501225,0 32.83982604637069,34.80721643748873,0 32.83931962926429,34.80665854328087,0 32.83906833157194,34.80633486001049,0 32.83893189589873,34.80604687718896,0 32.83852378875164,34.80554902130472,0 32.83817253253147,34.805455444261,0 32.83784316083452,34.80498772813863,0 32.83789737514263,34.80470862672475,0 32.83787495527227,34.80460549014712,0 32.83774842450155,34.80431212210571,0 32.83753300115102,34.80404009894429,0 32.83730855139945,34.80387517521824,0 32.83696358712638,34.80366923299592,0 32.83692375614858,34.80357593122313,0 32.83669588092684,34.80318914804151,0 32.83664488058864,34.80293279835293,0 32.83662498512141,34.80288282106513,0 32.83651596994252,34.80288571888546,0 32.83647745663926,34.80291643203423,0 32.83566762935553,34.80331461318946,0 32.83544237325876,34.80347744168878,0 32.83515123146046,34.80386668665371,0 32.83503425056854,34.80405196121356,0 32.83489203642505,34.80419783665009,0 32.83470419923471,34.80427302540179,0 32.83442115936241,34.80432343225608,0 32.83435173832667,34.80438824079682,0 32.83420860856047,34.80469139566964,0 32.83395699093688,34.80499140864913,0 32.83363497304277,34.80496030584223,0 32.83355899132219,34.80502237444399,0 32.83238760944454,34.80461910331077,0 32.83241556907927,34.80433447651672,0 32.83196828976207,34.80435981898197,0 32.83120762562001,34.80400155365781,0 32.83094499170991,34.80393542610135,0 32.83070165949218,34.80394259335532,0 32.83069189793864,34.80384901857926,0 32.83070640272236,34.80362076309969,0 32.83066086225821,34.80351396286022,0 32.83055833943113,34.80336276770742,0 32.83038588786668,34.8031701694129,0 32.83036405109694,34.80311525022785,0 32.83036236414623,34.80308782739048,0 32.83056836153253,34.80259668204067,0 32.83060178644865,34.80256482964904,0 32.83113515771678,34.80229736069061,0 32.83116956103221,34.80209796938229,0 32.83135208529769,34.80183062791747,0 32.8307373853535,34.80148091281693,0 32.83052253233853,34.80159276847466,0 32.83046417552226,34.80146764080369,0 32.83059232298388,34.8013417325782,0 32.83062036018468,34.80128396572506,0 32.83070748041973,34.80091115000165,0 32.8307390845332,34.80087472104051,0 32.83103768406959,34.80065048855148,0 32.83094593857533,34.80055112072268,0 32.83071942087861,34.80044817145551,0 32.83064107628819,34.80058341612133,0 32.8305471377862,34.80054344099391,0 32.83054197106389,34.80016416498309,0 32.83051650348261,34.80009856930334,0 32.83015914666343,34.79963564382982,0 32.83011129046981,34.79929427570919,0 32.83022064869783,34.79922312490996,0 32.83044820701011,34.79914787575036,0 32.83022328868351,34.79877229396205,0 32.8302093732318,34.79862601953251,0 32.82974401437392,34.79800425680387,0 32.82977794621277,34.79757030515497,0 32.82954036691781,34.79746578587744,0 32.82912904591425,34.79676198807401,0 32.82878414909021,34.79543854772741,0 32.82877220842936,34.79527095727842,0 32.82875115143664,34.79508353005478,0 32.82846759775377,34.79463460086397,0 32.82920820613677,34.79428419757629,0 32.8292602796526,34.79359062542371,0 32.82925495468874,34.79355405033809,0 32.8292347720677,34.79353264486472,0 32.82907440605116,34.79348707465825,0 32.82883620282316,34.79349069189892,0 32.8287495890421,34.79346292958047,0 32.82870729439992,34.7934338224057,0 32.82865416186836,34.79336354662956,0 32.82859592138161,34.79322014012111,0 32.82844593833846,34.79297888813043,0 32.82794229788784,34.79228080975369,0 32.82791870734284,34.79221065292774,0 32.82795629538951,34.79178433017968,0 32.82796418952871,34.79138378226804,0 32.82841775240706,34.79054788328927,0 32.82856320088164,34.79030324329394,0 32.82877175854539,34.79000097697325,0 32.8287163750274,34.78968547083508,0 32.82899885388478,34.78937131419264,0 32.8289928429738,34.78933691242364,0 32.82898658044326,34.78930107067233,0 32.82907166844006,34.7889223425633,0 32.82914815979172,34.78877078775731,0 32.82923787939407,34.78860572688261,0 32.8292717183601,34.78844044333734,0 32.82960598878311,34.78749264988118,0 32.82974374221013,34.78698338260425,0 32.8302538949166,34.78630746856704,0 32.83032358964945,34.78619385036441,0 32.830383751668,34.78602324756466,0 32.83041746092306,34.78587965704292,0 32.83040839422313,34.78574403080112,0 32.83038298883712,34.78559206989821,0 32.83026589632252,34.78538008285938,0 32.82995411876488,34.78473614692167,0 32.82994986263672,34.78434020861503,0 32.82978113923539,34.78396530852724,0 32.82975946436694,34.78373743181147,0 32.82986214643996,34.78360225108304,0 32.83037925459702,34.78285856784203,0 32.83037420214647,34.78259821585637,0 32.83048393701496,34.78238170936414,0 32.83081680277877,34.78209339004562,0 32.83110396694895,34.78193075994047,0 32.8312635418383,34.78182054258477,0 32.83131789244284,34.781736474817,0 32.83131523527084,34.78147615047649,0 32.83232222965978,34.78152487281753,0 32.83226148586112,34.7816194513557,0 32.83280117502282,34.78181601146846,0 32.83348231251226,34.78224988345217,0 32.83345480362758,34.78255947445964,0 32.83349186819805,34.78286820905949,0 32.83358377000234,34.78289026722886,0 32.8337496168761,34.78319735677707,0 32.83395630947732,34.78326325608326,0 32.83407037379289,34.78343183749433,0 32.83444881377793,34.78335468937037,0 32.83481105873069,34.78323680189672,0 32.83506540266606,34.78302086243849,0 32.83531615640358,34.78285643055517,0 32.83538016093216,34.78258821497971,0 32.83553342047702,34.78223086200922,0 32.83611768420887,34.78179927593032,0 32.83598535966802,34.7813784272766,0 32.83593507412924,34.78097959631041,0 32.83619921032054,34.78020506116641,0 32.83605229377887,34.78003364019241,0 32.83681089410837,34.78014509457383,0 32.83713372245848,34.78001890791611,0 32.83740449985778,34.77980031529506,0 32.83781222098057,34.77977208550024,0 32.83827529749677,34.77983355910754,0 32.8385816439297,34.77971544000486,0 32.83883839436832,34.77964864939131,0 32.83948960393808,34.77957255306713,0 32.84030930040072,34.77992015033473,0 32.84064407680493,34.78000280935013,0 32.84085750636525,34.78003889452299,0 32.8413685295238,34.77976428100818,0 32.84185278381243,34.77957091516942,0 32.84223425173391,34.77953443226721,0 32.8426549891734,34.77952793009503,0 32.8430765265024,34.77958479379959,0 32.84346323617931,34.77964542984846,0 32.84366270919636,34.77961630400918,0 32.84392751024261,34.77956949204311,0 32.84402519630315,34.77959677822194,0 32.84414438824097,34.77966600612375,0 32.84423421663444,34.77980089741901,0 32.84430219975151,34.77995364205932,0 32.84432714124986,34.78002848428253,0 32.84446780380804,34.78014563296239,0 32.84460149085572,34.78021491589045,0 32.84465227254825,34.78020614279546,0 32.84478645219608,34.78018872196828,0 32.84489905827322,34.78014131890915,0 32.84504438066602,34.78007610398782,0 32.84535720567247,34.77986802212586,0 32.84547323153653,34.77985650998281,0 32.84560348185867,34.77989289048704,0 32.84575161388826,34.7799711978596,0 32.84621434817536,34.78016732070416,0 32.8464745279047,34.78029688775888,0 32.84684972162834,34.7805943254658,0 32.84705597032713,34.78064893646581,0 32.84729867679099,34.78066481837659,0 32.84754884936611,34.78064186075648,0 32.84848009889144,34.78065440255457,0 32.8486717695798,34.78072390371405,0 32.84877328358421,34.78071532356904,0 32.84895839867923,34.78066221493423,0 32.84903093979627,34.78065053365996,0 32.84908165581251,34.78065371739829,0 32.84920806670725,34.78072894759914,0 32.84933464363329,34.78077427916593,0 32.84950143648791,34.78075697824048,0 32.84977754601278,34.78063245992376,0 32.84995898503075,34.7805883057371,0 32.85006778060571,34.78057377213456,0 32.8501655210674,34.78059208483189,0 32.85023405250561,34.78064915312644,0 32.8503095632808,34.78075408664824,0 32.85050402198861,34.78097308729966,0 32.85067022874031,34.78106042727554,0 32.85085098107,34.78113885228404,0 32.85104649632069,34.78116949610123,0 32.85119500301698,34.78118202140993,0 32.85136166382046,34.78118863620058,0 32.85158291266533,34.78115360048862,0 32.85200382048215,34.78105653805574,0 32.85226509714131,34.78099175471923,0 32.85242789952807,34.78104021092133,0 32.85254000192985,34.78108249450707,0 32.85267728667694,34.78115776222189,0 32.85276413993831,34.78117902185232,0 32.85289810299768,34.78120045915304,0 32.85312650094794,34.78118338724863,0 32.85335170619616,34.78108856649592,0 32.85350807636218,34.78099049387827,0 32.85363562334071,34.78086241467834,0 32.85368670491123,34.78079982103904,0 32.85387906410043,34.78074673255575,0 32.85407850270001,34.78072356899354,0 32.85429235213613,34.78071540911991,0 32.8544445494766,34.78071598513395,0 32.8547702701789,34.78079196334973,0 32.85498048059988,34.78078677905294,0 32.85526309998959,34.78079382587181,0 32.85542974203024,34.78080342521209,0 32.85551649552627,34.7808426209065,0 32.85559937863672,34.78092664874476,0 32.85571876182282,34.78096297759153,0 32.85580229174003,34.78093040496523,0 32.85587877024253,34.78086192691087,0 32.85596670038201,34.78068884616624,0 32.85606814913703,34.78069221862317,0 32.85636446840944,34.78084283111738,0 32.85650923528618,34.78087626480294,0 32.85666509030053,34.78087087198558,0 32.85676331132655,34.7808024721588,0 32.85680734203846,34.78070397368881,0 32.85684816287057,34.78053071608188,0 32.85700121925743,34.78037581966695,0 32.85724083040208,34.78029599538741,0 32.8574874415981,34.78026104447951,0 32.85772640818055,34.78029782049816,0 32.85801577968525,34.78039458208588,0 32.85817500836984,34.78043404790294,0 32.85843939329349,34.78046194841547,0 32.85868941148154,34.78046587628773,0 32.85902299316071,34.78043124765922,0 32.85926968512779,34.78038134432833,0 32.85943319689373,34.78030123031284,0 32.85963319075717,34.78017640517879,0 32.86009455165377,34.77996884150549,0 32.86022923585855,34.77985871974092,0 32.86037461070246,34.77978152689253,0 32.86056327325584,34.77974037153854,0 32.86072997871185,34.77973800402831,0 32.8609146734206,34.77975962215388,0 32.86107744442355,34.77981404885331,0 32.86118594261393,34.77985332121935,0 32.86131957842466,34.77993454541802,0 32.86148218753408,34.78001886740385,0 32.86161249404799,34.78004626132697,0 32.86194564507557,34.78008935977709,0 32.86225357891364,34.78010545440271,0 32.86247487017568,34.78006143030373,0 32.86292505795939,34.77990763067099,0 32.86308877807269,34.77978864462538,0 32.86316521670123,34.7797261386058,0 32.86323101503486,34.77962173875761,0 32.86330747144029,34.77955624522855,0 32.86344931618763,34.77946109666981,0 32.86355466374461,34.77941365016219,0 32.86368873987193,34.77941414742798,0 32.86371394292123,34.77944413927225,0 32.86370973329063,34.77955175805441,0 32.86373470805067,34.77962360712522,0 32.8637815716961,34.77966862889984,0 32.86387201752702,34.77969587212858,0 32.86397341681932,34.77970820746757,0 32.86408584757698,34.77969068516595,0 32.86415484413774,34.77966403209106,0 32.86428593228339,34.77954791341455,0 32.86479040421692,34.77940626766541,0 32.86524025968411,34.7793122556191,0 32.86535984075707,34.77931269713619,0 32.86553358158609,34.77934921710552,0 32.86574445175162,34.77922143171384,0 32.86616289214948,34.7789060515358,0 32.86640640640683,34.77877240622309,0 32.86690313715805,34.77872041864016,0 32.86703054773746,34.77861325257475,0 32.86731126506211,34.77830034926198,0 32.86748951754506,34.77817244052545,0 32.86799856597937,34.77785140755591,0 32.86818424224654,34.77769063769839,0 32.86830815325823,34.77755953632079,0 32.86846496666622,34.77737474153301,0 32.86863273160583,34.77717503648245,0 32.86865722425512,34.7771555634218,0 32.86876374472336,34.77707087161638,0 32.86888725267957,34.77701451738967,0 32.86899611636947,34.77698501800909,0 32.8691448126611,34.77696164350586,0 32.86925704763608,34.77697999432635,0 32.8693581374705,34.77704913037412,0 32.86946092741838,34.77713285468995,0 32.86977085730411,34.77740574135279,0 32.86996336358589,34.77757600941894,0 32.8700598281609,34.77762124583239,0 32.870180925673,34.77758179100697,0 32.87037473859905,34.77750769196331,0 32.87068403908286,34.77731432503608,0 32.87083567566104,34.77721513517279,0 32.87122902955278,34.77712680131117,0 32.87149555948437,34.77701805582204,0 32.87165307733308,34.77694880954292,0 32.87176192442539,34.77693923355048,0 32.87182844164414,34.77693448799923,0 32.87204568255353,34.77700011026464,0 32.87219063075772,34.77702058685285,0 32.87228758056234,34.77697605549199,0 32.87255488164607,34.77672268358711,0 32.87275530146754,34.7765438749103,0 32.87301045316462,34.77630043329532,0 32.873265105596,34.7761517440321,0 32.87356770581865,34.77607803523993,0 32.87366536376516,34.77589885144379,0 32.873690099358,34.77579421122761,0 32.8737998997894,34.77560509950597,0 32.8740491195195,34.77534168487144,0 32.87430354713775,34.77523288821823,0 32.87470918316124,34.77510469135429,0 32.87492096160619,34.77502526597079,0 32.87495252628628,34.77500639566698,0 32.87513888292369,34.77489498339917,0 32.87530408600212,34.77482064969706,0 32.87543217289097,34.77476838431966,0 32.87577874387431,34.77474188302372,0 32.87605465695385,34.77472067702368,0 32.87628687406731,34.77469376212454,0 32.87652912433992,34.77467798368864,0 32.87675759371234,34.77472320979946,0 32.87685511761229,34.7747263355913,0 32.87690916476998,34.77468212672187,0 32.87691608138675,34.77464607348052,0 32.87684977069313,34.77446544652674,0 32.87681980944239,34.77440705924777,0 32.87682361048384,34.77432381679181,0 32.87707481646426,34.77388623746136,0 32.87724422862298,34.77365095401836,0 32.87729911098249,34.77344856104574,0 32.8773206531457,34.77319054405385,0 32.87738913581072,34.77296044750601,0 32.87750049009495,34.772891467119,0 32.87800949837489,34.77267405360736,0 32.87824530520106,34.77260274429859,0 32.8784440157937,34.77255072843125,0 32.87857575086403,34.77244296761329,0 32.8785233918405,34.77216803373251,0 32.87854440220439,34.77200992127438,0 32.87856847011185,34.77191010034053,0 32.87875110935065,34.77171649074185,0 32.8789130984964,34.77161161279363,0 32.87923305694042,34.77152672718147,0 32.87925494084335,34.77120210562784,0 32.87921985781763,34.77083842672704,0 32.87922751787069,34.77066084102241,0 32.87938248441829,34.77061144221549,0 32.87973177501924,34.77070427319368,0 32.88003453567217,34.77069147907126,0 32.88054431328229,34.77032419666635,0 32.8806018960794,34.77024669681391,0 32.88069057206074,34.77001111917156,0 32.88080582195491,34.76983946757611,0 32.88088352277698,34.76977313925869,0 32.88110610082831,34.76965737387186,0 32.88143327935018,34.76947537593345,0 32.88165558393219,34.76941233666038,0 32.88179015297765,34.7694044903565,0 32.8820689580761,34.76946931169679,0 32.8823010715564,34.76945903608261,0 32.88255010466595,34.76942939402257,0 32.88265726052456,34.76951858068534,0 32.88280048762716,34.76978550980914,0 32.88293682626689,34.77008294209635,0 32.88302057498537,34.7701470696317,0 32.88309118710152,34.7701500951522,0 32.88320956175963,34.7700228547841,0 32.88343935650994,34.76981275410258,0 32.88345376096595,34.76962964137783,0 32.88341139862887,34.76936862046568,0 32.88344934693347,34.76918559066932,0 32.88354733952481,34.76909713115159,0 32.8836454493668,34.76898647046668,0 32.88383721780507,34.76897327408938,0 32.88394802764739,34.76900696912743,0 32.88429682336845,34.76919414255538,0 32.88449825336737,34.76926423585646,0 32.88487487851093,34.76927389294886,0 32.88519094306236,34.76928888522882,0 32.88533243775404,34.76924220657028,0 32.88548765929882,34.76914284571462,0 32.88570764252947,34.76887720144124,0 32.88582979161119,34.76866949034662,0 32.88596277648179,34.76831750760253,0 32.88602058209788,34.76819560205755,0 32.88619301680419,34.76801859545535,0 32.88649924144726,34.76798359628959,0 32.88665719154566,34.76800635389919,0 32.88690249514472,34.76804606964841,0 32.88728188096228,34.76817228808852,0 32.88767783924138,34.76834574191117,0 32.88782544427683,34.76841841412178,0 32.88796994142486,34.76844112427838,0 32.88827633848937,34.76837281810003,0 32.88847165340905,34.76832354838232,0 32.88832439331451,34.76818427185808,0 32.88818375917933,34.76806444487005,0 32.88798337500559,34.76779177037339,0 32.88766624477987,34.76733274763533,0 32.88740544333869,34.7670376592405,0 32.88725841592371,34.76685397830011,0 32.88714158464579,34.76668427980395,0 32.88682039535632,34.76636122487062,0 32.88662655968106,34.76612465050837,0 32.88661741785629,34.76594145316201,0 32.88665230911517,34.76569735706183,0 32.88672742761745,34.76547837975706,0 32.88680991601204,34.76513454229676,0 32.8869418729919,34.76497959444678,0 32.88702355946443,34.76479116727997,0 32.88698419168445,34.7645995393395,0 32.88674405390934,34.76421293949704,0 32.88672427699507,34.76413516365261,0 32.88670597755597,34.76377154623981,0 32.88666499827565,34.76324133543865,0 32.88647224612217,34.76279662211512,0 32.88648950375158,34.76271065128709,0 32.88661125528503,34.76257786929673,0 32.88673754457231,34.76221753516599,0 32.88671496560909,34.76203151625153,0 32.88661535645263,34.76178417122384,0 32.88638768841387,34.76158910511445,0 32.88628828150009,34.76130290694164,0 32.88598453512436,34.76086335264809,0 32.88597822516702,34.76078284970451,0 32.88600205157925,34.76072742933761,0 32.88619427576619,34.76062264821088,0 32.88626691473453,34.76054134642589,0 32.88639079625957,34.76044716904409,0 32.88675860423099,34.76012930783287,0 32.88683835183248,34.75987043850672,0 32.88682496874124,34.75963524245591,0 32.88690498534262,34.75932118483752,0 32.88691200716708,34.75907406153458,0 32.88679759512546,34.7586945464734,0 32.88653172097952,34.75837929438279,0 32.88653189692462,34.75834330272246,0 32.88673864456715,34.75826723320836,0 32.88680275469959,34.75823386205523,0 32.88687676913371,34.75795817590096,0 32.88701682790581,34.75725320918455,0 32.88701293810917,34.75685967889039,0 32.88706085110633,34.7565719049528,0 32.88708313143315,34.75617606589792,0 32.88708437513149,34.75532665025239,0 32.88694714931922,34.75485827468512,0 32.88706359242942,34.75422641057484,0 32.88759130924741,34.75439208129592,0 32.88781031349565,34.75452716299441,0 32.88840348548437,34.75509506054421,0 32.88848854229313,34.75517091190567,0 32.8885271536856,34.75517776052078,0 32.88856382059192,34.75516613364645,0 32.88858433982753,34.75512926362147,0 32.88854441424461,34.75497465037832,0 32.88851362876323,34.75461353994475,0 32.88852036798556,34.75448259405938,0 32.88857195048941,34.75433165327505,0 32.88885697229235,34.75385745072252,0 32.889038900446,34.75367001746068,0 32.8892387406197,34.75356324248427,0 32.89048051847896,34.75333578677905,0 32.89089727156191,34.75337583160586,0 32.89155795894668,34.75344357451111,0 32.89168583957021,34.75349606338676,0 32.8918071328686,34.7536492749699,0 32.8920758139753,34.75402798765764,0 32.89211452342707,34.75401468660105,0 32.89237604862957,34.7537687516261,0 32.89273250111972,34.75366082554159,0 32.892883087194,34.75364454784263,0 32.89345202843155,34.75375898211484,0 32.89383835008215,34.75378380238057,0 32.89419038565327,34.7537480574205,0 32.89437335354161,34.75376546938418,0 32.8947430499266,34.75386411037918,0 32.89511427470983,34.75406853837373,0 32.89515339800231,34.75410767036315,0 32.89518082034775,34.75422800155672,0 32.89518106232589,34.7542283948033,0 32.89521689748022,34.75431644729432,0 32.89523133334486,34.75438229272969,0 32.89525428026857,34.75443142062252,0 32.89555727786259,34.75530043247922,0 32.89562401523824,34.75540446003476,0 32.89572560569479,34.75547949026653,0 32.89581483950293,34.75552949061422,0 32.89595267693091,34.75557373241676,0 32.89618729848893,34.75560935838742,0 32.89638758412462,34.75562590406037,0 32.8966340428863,34.75564912518342,0 32.89711640020238,34.75571466984739,0 32.89717305230293,34.75572140295468,0 32.89742829820135,34.75577419249445,0 32.89771030545273,34.7557926149405,0 32.89795510406305,34.75585111078162,0 32.89802898379138,34.75586012240343,0 32.89817660760489,34.75586144578217,0 32.8982637712958,34.75583842764051,0 32.89833418953711,34.75580212590948,0 32.89850135164009,34.75568992042744,0 32.89860810299937,34.75557881289304,0 32.89867076865924,34.75552416963668,0 32.89875079846777,34.75545366690918,0 32.89883371050143,34.75535725394325,0 32.89891565395245,34.75528558349632,0 32.8991088554594,34.75513208108458,0 32.89920177502241,34.75506617357981,0 32.89925146298854,34.75501333482465,0 32.89930207846499,34.75496567843049,0 32.8993832698479,34.7549199692037,0 32.89946670941887,34.75488470253409,0 32.89954564483811,34.75485729736461,0 32.89973482574491,34.7548195386059,0 32.89995344502542,34.75482115715262,0 32.89998388276155,34.75482087205235,0 32.9000207379866,34.75482553313766,0 32.90010747472934,34.75483827619944,0 32.90019956951278,34.75486051871088,0 32.90026650234642,34.75488738398818,0 32.90029228680501,34.75489285355152,0 32.9003448253938,34.75490399808767,0 32.90043486892118,34.75491364078339,0 32.90053794327221,34.75489289939586,0 32.90061174900712,34.75486200428539,0 32.90063929159371,34.75485047540248,0 32.90092826536749,34.75472951171891,0 32.90106460127393,34.75469866989433,0 32.90121529229508,34.75467153015654,0 32.9012780412469,34.75466694210978,0 32.90148586273654,34.75467648293563,0 32.90163210676789,34.75468829765457,0 32.90171986715856,34.75469817644403,0 32.90175632442084,34.75470228047972,0 32.90186462598815,34.75470800285837,0 32.90195165429596,34.7547079990423,0 32.90213760794694,34.75469747168546,0 32.90233365939732,34.75470168206591,0 32.90241576653297,34.75467344192085,0 32.9025267073025,34.75457290304848,0 32.90256887522872,34.75450314003934,0 32.90258194256038,34.75442235767923,0 32.90256615852174,34.75433696648764,0 32.90255997578323,34.75432269226566,0 32.9025427096588,34.75428282922886,0 32.9025517251971,34.75422310002457,0 32.9025974250651,34.7540855425151,0 32.90268435411582,34.75394800802435,0 32.90291704993932,34.7536930027803,0 32.90304055101199,34.75349011127368,0 32.90311790138698,34.75339062053806,0 32.90314232622747,34.75335920500867,0 32.90319291236739,34.75331425225234,0 32.90325250808868,34.75327965724521,0 32.90341214420177,34.75318698543526,0 32.9035686715479,34.75307549288591,0 32.90363170231925,34.75305750808803,0 32.90368427016333,34.75304848725644,0 32.90370729207918,34.75304453631576,0 32.90372766156815,34.75304104031618,0 32.90385537652725,34.75304469118345,0 32.90400398088877,34.75307503271376,0 32.90441798399548,34.75310050922354,0 32.90456874327971,34.75313303239811,0 32.90466276134111,34.75314241816658,0 32.90493952267667,34.75321450376592,0 32.90507149623267,34.75327471004262,0 32.90519399555671,34.75333059439232,0 32.90543856844941,34.75338225005046,0 32.90558342189007,34.75340328813633,0 32.90559073090569,34.75340434941769,0 32.90559805426975,34.7534033598786,0 32.90580165443819,34.75337583898452,0 32.90588753096422,34.75337512020824,0 32.90604129494704,34.75339991292404,0 32.90622056125783,34.75345658643997,0 32.90639457597315,34.75353397941624,0 32.90654969574137,34.75358019763222,0 32.90659362242381,34.7535843311931,0 32.90644838048529,34.7544263657152,0 32.90575701277558,34.75567967618441,0 32.90573903697061,34.75579463227201,0 32.90545928198448,34.755994986601,0 32.90566153098654,34.75621130907622,0 32.90577553205283,34.7566621634947,0 32.90602388069551,34.75695531490112,0 32.90626715824617,34.75709509406465,0 32.90691145449851,34.75718347741822,0 32.90706150387518,34.75738524855759,0 32.9070237206427,34.75799854130477,0 32.90768192495452,34.75882498371036,0 32.90812731285987,34.75921462386374,0 32.90881050635264,34.75967692555555,0 32.90953561722581,34.75987578295543,0 32.90983118577034,34.76001572629671,0 32.91046227712989,34.76044430231408,0 32.91077025923995,34.76041655238613,0 32.91096754162528,34.76046032581536,0 32.91136344363707,34.76026512873808,0 32.91176338519951,34.76044374487458,0 32.91205389617284,34.76042552012498,0 32.91217567015199,34.76046904592619,0 32.91209467326868,34.76062955611088,0 32.91199864706384,34.76079401730676,0 32.91200100178659,34.76114636490574,0 32.91190260742366,34.76131214314034,0 32.91149837454167,34.76165811098821,0 32.91130818008894,34.76188734085684,0 32.91120909840888,34.76219405183218,0 32.91108626936021,34.76278423382538,0 32.9110405356686,34.7629904515223,0 32.91094221239446,34.76314112947658,0 32.91064203037518,34.76341025942565,0 32.91045633936764,34.76354890140045,0 32.91029126384939,34.76362888837818,0 32.91003482267405,34.76368340263318,0 32.90960596044583,34.76365680826129,0 32.90948790085566,34.76368493814323,0 32.90931660297898,34.76379006908002,0 32.90924654939392,34.76397942772472,0 32.90924606528092,34.76407841788433,0 32.9092981291823,34.76424133836557,0 32.90947139394749,34.76456573334348,0 32.90950715354523,34.76473699004433,0 32.90947587663619,34.76489627776972,0 32.90937579290302,34.76498990043538,0 32.9088552839048,34.76499319888593,0 32.90848108012861,34.76501376270705,0 32.90836501858448,34.7650486079884,0 32.90792495394926,34.76523169657586,0 32.90786970468243,34.76530365729695,0 32.9078781805896,34.76564763745017,0 32.90783738653813,34.76567434575703,0 32.90763546018739,34.76580453880043,0 32.90747669312081,34.76584092027108,0 32.90738532406589,34.76581544759341,0 32.90720107460092,34.7656587926912,0 32.90700264280557,34.76549202578816,0 32.90679360025158,34.7654158239766,0 32.90661270880712,34.76540347235287,0 32.90654962303491,34.76541500593927,0 32.90637410105911,34.76555031943586,0 32.90631272615061,34.7656272913733,0 32.90619731479158,34.76594233303836,0 32.90615384644114,34.76651096452576,0 32.90608144411049,34.76676239233542,0 32.90588853597254,34.76712415071673,0 32.90581276176721,34.76723463212154,0 32.90560862319216,34.76740004829313,0 32.90532104640292,34.76758028510569,0 32.90512121960185,34.76769538148241,0 32.90489939287095,34.76773657921669,0 32.90464983134409,34.76763003764139,0 32.90446174931343,34.76742638782709,0 32.90429226607498,34.76716239944447,0 32.90410699996249,34.76680104587334,0 32.90396119360133,34.76668310712899,0 32.90389214779377,34.76666609523995,0 32.90373537746748,34.76670918929411,0 32.90367007356314,34.76675762549551,0 32.90343461702748,34.76708735792321,0 32.90321773177314,34.7673617846124,0 32.90311969650381,34.76745037626331,0 32.90292874386746,34.7674161750437,0 32.90248638291587,34.76723850665398,0 32.90213136723327,34.76707791117646,0 32.90197495470643,34.76704885832752,0 32.90177556745441,34.76707502664138,0 32.90161883689594,34.76710972808949,0 32.90144726989099,34.76726518170494,0 32.90129562477325,34.76750291505322,0 32.90105815685176,34.76782592441031,0 32.90100093320957,34.76788445309562,0 32.90087826291671,34.76801993948935,0 32.90073767844851,34.76807818470444,0 32.90033536122304,34.76802480229293,0 32.9000791849981,34.76802225122402,0 32.89986752085565,34.7680634751694,0 32.89974725034731,34.76812514437272,0 32.89948446943338,34.76822323845121,0 32.89933587624469,34.76825628768335,0 32.89921198476619,34.76822901872877,0 32.89913116935591,34.76812639697842,0 32.89899007408135,34.76788095522824,0 32.89889088411449,34.76779336977929,0 32.8987449479763,34.76770226934352,0 32.89850706412995,34.76770145557744,0 32.89840318381769,34.76773801156796,0 32.89824022469275,34.76779785515558,0 32.89780110988949,34.7681889589493,0 32.89766452855505,34.7682589581349,0 32.89738544532526,34.7683637029902,0 32.89728339602822,34.76844053147384,0 32.89691669111066,34.768986238817,0 32.89685407801517,34.76930648599142,0 32.89679022642088,34.7694690123163,0 32.89642790081204,34.76995097583782,0 32.89605357515191,34.7703926308565,0 32.89598564642406,34.77055682095106,0 32.8958646225536,34.77054948687188,0 32.89553319677555,34.77052940413991,0 32.89552365415783,34.77042113852485,0 32.89528824917822,34.77041755039867,0 32.89502152923611,34.76995594542502,0 32.89467194318709,34.7699186619278,0 32.8943555538732,34.76996752197002,0 32.89430438850673,34.77010888174028,0 32.89373559653274,34.77085067173042,0 32.89293126997809,34.77095056743995,0 32.8923742639947,34.77135659127341,0 32.89176518278686,34.7714210818423,0 32.8917844119166,34.77160708755461,0 32.89162270677694,34.77165925551937,0 32.89184622929001,34.77201525929222,0 32.89170696159406,34.77228396838844,0 32.89089342524064,34.77220898415311,0 32.89061115386568,34.77216081999332,0 32.89041866691954,34.77231278561335,0 32.89037142449334,34.7723431484697,0 32.89026632469145,34.77250652026418,0 32.8902154789345,34.77258404877087,0 32.88997901001735,34.77278581310082,0 32.88986738163661,34.77291030853255,0 32.88976885117506,34.77310422822899,0 32.88970741381114,34.77327885141763,0 32.8896462620174,34.77339797367094,0 32.88959196475697,34.77349214064958,0 32.8896417300647,34.77362552629028,0 32.88965474278599,34.77371160147602,0 32.88960405108075,34.77375860457583,0 32.88946605561193,34.77377754797025,0 32.88928120163375,34.77375192363738,0 32.88915672992157,34.77375703974933,0 32.88911939265238,34.77382351284154,0 32.88919647768148,34.77387651230948,0 32.88931711502087,34.77396296668933,0 32.8894204225103,34.77414926725713,0 32.88942347213123,34.77421033229084,0 32.88935224472983,34.7743266416816,0 32.88928807029051,34.77437914662653,0 32.88903509167842,34.77451979842745,0 32.88873801953291,34.77473244875645,0 32.88838966936166,34.77501722050606,0 32.88833055356262,34.77505402342423,0 32.88825551092017,34.77510074128675,0 32.8880471282785,34.77538659958415,0 32.88804622936341,34.77556114770951,0 32.88826887894647,34.7757514378801,0 32.88843101490207,34.7759564786881,0 32.88837487289607,34.7762954070967,0 32.88834275396042,34.77666434187928,0 32.88842629233523,34.77687409460191,0 32.88847999548661,34.77700893560396,0 32.88847937994578,34.77712862466325,0 32.88833399094973,34.77719294762198,0 32.88801851528162,34.77742124839464,0 32.88787250353015,34.77760525983835,0 32.88768338431941,34.77794371911874,0 32.88746442621878,34.77820726799442,0 32.8873058334743,34.77848599075148,0 32.88728587512475,34.77884000368387,0 32.88727311477047,34.77896962816644,0 32.88739173101791,34.77940891224632,0 32.88734922004306,34.77944865976229,0 32.88579856365093,34.77891456733627,0 32.88546465904375,34.77919765470688,0 32.88497852569995,34.77969465092278,0 32.88488571571882,34.78010825405367,0 32.88446708417226,34.78040600185344,0 32.88332251639578,34.78082086637186,0 32.88299881843928,34.78030105781879,0 32.88264660600156,34.78061399506718,0 32.88240548184793,34.78048846124485,0 32.8816193433678,34.78055548367539,0 32.88155248966304,34.78062506544104,0 32.8816739167926,34.7816777812733,0 32.88081484341254,34.78181934589934,0 32.88115917203943,34.78186047089019,0 32.88217412674826,34.78196382638757,0 32.88240942129067,34.7820494437815,0 32.88226304987779,34.7822982800704,0 32.88237748090803,34.782378480882,0 32.88214085676696,34.78254720088333,0 32.88109818978984,34.78311700736568,0 32.88067331576281,34.78344962953947,0 32.88041195783641,34.78372298855393,0 32.88029601201094,34.78393203392135,0 32.88271492278725,34.78489817579855,0 32.88298604962636,34.7850687007636,0 32.88304608303901,34.78514870798308,0 32.88280366962686,34.78526753867299,0 32.8824586236442,34.78536106771887,0 32.88213700049356,34.78559930447683,0 32.88160857511093,34.78608117510014,0 32.88126174797756,34.78651381800308,0 32.87974794475236,34.78585011464122,0 32.87920490432794,34.78565866233048,0 32.87895520760991,34.78601185208032,0 32.87867637845888,34.78615547891442,0 32.87820328483211,34.7864579976714,0 32.87786915519276,34.78677098660255,0 32.87781988356667,34.78694535865295,0 32.87766807419874,34.78707447809882,0 32.87750457424981,34.78712874826957,0 32.87720121524031,34.78733711772795,0 32.87697510635941,34.7878001040521,0 32.87688338106042,34.78799925895115,0 32.87678394252919,34.78851257335707,0 32.87691426936317,34.78901673961897,0 32.87670150479215,34.78924039612519,0 32.87656775941284,34.78951759971853,0 32.87652708057436,34.7896019070376,0 32.8764959736993,34.78966274646789,0 32.87631865639507,34.7898178706002,0 32.87618851340143,34.78997824387982,0 32.87601684642474,34.7902282004318,0 32.87579585431453,34.79049152461612,0 32.87561218656148,34.79068218031027,0 32.87565463762191,34.79080423517664,0 32.87563990426516,34.79087359906501,0 32.87518251155542,34.79159489248995,0 32.8750646661118,34.79175700161547,0 32.87503973195075,34.79181447643352,0 32.87512298970616,34.79236841508451,0 32.87515113114546,34.79286628320612,0 32.87514052644426,34.79293058234592,0 32.87505159252412,34.79305893442922,0 32.87501848686245,34.79310960655204,0 32.8749409229053,34.79341577470157,0 32.87474891928576,34.79401443019803,0 32.87471149898654,34.7941040290501,0 32.87463932496371,34.79416810427881,0 32.87444174195377,34.79427236064696,0 32.8742688088272,34.7943716264471,0 32.87421508897262,34.79443915503741,0 32.87412716631228,34.79476221512551,0 32.87401937072985,34.79496330085423,0 32.87383146686078,34.79517594759314,0 32.87325862780056,34.79560052583386,0 32.87305453739302,34.79576909304543,0 32.87286686507434,34.79593771942854,0 32.87275733578758,34.79607784652598,0 32.87254037633399,34.79634964423664,0 32.87239750228866,34.79658446303028,0 32.87233740273766,34.79669260104421,0 32.87227355279438,34.79673469612045,0 32.87198572303045,34.79682507582862,0 32.87184788426777,34.79688552313223,0 32.87163146182718,34.79705573631534,0 32.87154304516471,34.79708588962747,0 32.87144446599872,34.79709738188926,0 32.87140965374446,34.79708201763314,0 32.87133895237193,34.7968701256621,0 32.87128984098047,34.79684285603085,0 32.87124674853581,34.79684100663511,0 32.87119535738104,34.7968560561773,0 32.87092769540301,34.79701253695839,0 32.87100114442874,34.79671143610195,0 32.87081071426802,34.79662778079013,0 32.87075431938057,34.79642779117075,0 32.8702827517814,34.79671727843341,0 32.86990410922666,34.796519497472,0 32.86975785875637,34.7966171600055,0 32.8695893874396,34.79664871270924,0 32.86935579181078,34.79667850776261,0 32.86920853722197,34.79669729103038,0 32.86913336661748,34.7969067179426,0 32.8689754859836,34.79689188767676,0 32.86888051246998,34.79711142097813,0 32.86874496860858,34.79707427726355,0 32.86827674568141,34.79694022320427,0 32.86761150852432,34.79672604080328,0 32.86754345175099,34.79698842787423,0 32.86754345562913,34.79744447874589,0 32.86762382634915,34.79764429666943,0 32.86770428248398,34.79782782799873,0 32.86780711800369,34.79798090170527,0 32.86803026568943,34.79825046593353,0 32.86817729727275,34.79844645692993,0 32.86809453132398,34.79869046562091,0 32.86800208852234,34.79889779247624,0 32.86792987514811,34.79901561209869,0 32.86775229045986,34.7989925646182,0 32.86755750811901,34.79895520105575,0 32.86731762441332,34.79904186457041,0 32.8669367481919,34.79872896315548,0 32.86668291797374,34.79865677072972,0 32.8666214223591,34.79861786136741,0 32.86641406744948,34.79862320495184,0 32.86616214108032,34.79865485057016,0 32.86635557814464,34.79894059606085,0 32.86649308758784,34.79907140326619,0 32.86664279547451,34.79922872291146,0 32.86655875787786,34.79925080934514,0 32.86633653685096,34.79926627698418,0 32.86638742987526,34.79943951988411,0 32.86618748331171,34.79944285465309,0 32.86609658641706,34.7993651527541,0 32.86603788095118,34.79926721155504,0 32.86593584175975,34.79896755133663,0 32.86562705926426,34.79901527378885,0 32.86570256618413,34.79920082380139,0 32.86558148185074,34.79922684319821,0 32.86551563730826,34.7990800123538,0 32.86520643644594,34.79920509811819,0 32.86501143981034,34.79920641356855,0 32.86508416868742,34.79944896000024,0 32.86515474947257,34.79963245586574,0 32.86523576771783,34.79971215687315,0 32.86537369750163,34.79976560095614,0 32.8653744493094,34.79962715963814,0 32.86548494190511,34.79973343647957,0 32.86564216466918,34.79987042607127,0 32.86582332823573,34.80014391070713,0 32.86590929488092,34.80022159384713,0 32.86604462483429,34.80029945927572,0 32.86571870323198,34.80032065213406,0 32.8654200961359,34.80031140508594,0 32.86525250369118,34.80026599535799,0 32.86513934351652,34.80019635507231,0 32.86494784221512,34.80000833950264,0 32.86480788910807,34.79987345056859,0 32.86462202484917,34.79955719136345,0 32.86448803820733,34.79923298018883,0 32.86438984368966,34.79913489145337,0 32.86418078346883,34.79899974446747,0 32.86381171035377,34.79924065387183,0 32.86369754189587,34.79935627944732,0 32.86394858411203,34.79948751048786,0 32.86400983179795,34.7995712116081,0 32.86392789681808,34.7996604886638,0 32.86387294352717,34.79978040571584,0 32.86358180959152,34.79975896670747,0 32.86323829152936,34.79983912994911,0 32.86321292184304,34.79996526483427,0 32.86315551955427,34.80008109971005,0 32.86323167818134,34.80014653282805,0 32.86334488071621,34.80020803117259,0 32.86360142680233,34.80023545101564,0 32.86399385519968,34.80023894163014,0 32.86408249005073,34.80027998932649,0 32.86381299198206,34.8003644989124,0 32.86359554755311,34.80040848356921,0 32.86343092324147,34.80027146501401,0 32.8631818481942,34.80023185740147,0 32.86310101978084,34.80011754471514,0 32.86291906419006,34.79999064014416,0 32.86276726105539,34.80021810133938,0 32.86285574652823,34.80028561653209,0 32.86271442826727,34.80040114025077,0 32.86231839403749,34.80018919937739,0 32.86211272725635,34.800288680277,0 32.8626390892851,34.80070408444156,0 32.86253235844777,34.80074657308687,0 32.86217078306035,34.80051720313385,0 32.86217604168582,34.8004581798969,0 32.86180486215914,34.80017991016626,0 32.86146834219112,34.80033338732209,0 32.86117558886683,34.80015720565579,0 32.86085375499202,34.80033313151626,0 32.86105182513374,34.80067183679712,0 32.8612887065002,34.80113487882682,0 32.86145365521516,34.80166280376729,0 32.86160035561508,34.80191784220649,0 32.86177185947999,34.80215057955601,0 32.86202142531008,34.8025525896352,0 32.86207781207736,34.80307400095935,0 32.86157844306097,34.80321465614752,0 32.86158789163357,34.80329205692213,0 32.86123928775201,34.80339662641769,0 32.86100152914405,34.80354232791173,0 32.86120915140595,34.80396660449612,0 32.86120918847331,34.80396665862576,0 32.86129053291275,34.80408609966729,0 32.86129979612962,34.80415791842478,0 32.86126703980047,34.80423114784211,0 32.86123174375739,34.80432641676047,0 32.86118171297286,34.80447857508374,0 32.86128802744307,34.80481641062771,0 32.86131788537781,34.80497039172506,0 32.86127612528566,34.80511089465406,0 32.86126492483988,34.80522918717684,0 32.86127517323532,34.80526621444828,0 32.86153506439194,34.80544196262383,0 32.86164771731464,34.80548995355688,0 32.86176198862195,34.80555647565227,0 32.86184388620075,34.80561044507591,0 32.86189234057827,34.80567968411908,0 32.86192722470423,34.80578608829846,0 32.86195698762377,34.8059330819234,0 32.86194843453027,34.80603858944314,0 32.86193351039103,34.80619743789399,0 32.86188866012716,34.80631359368272,0 32.86181854349347,34.8064252684747,0 32.86166975144531,34.80663592111235,0 32.86157726264747,34.80675120860148,0 32.861459381508,34.8068515894857,0 32.86131998406955,34.80702741922075,0 32.86124366955158,34.80708930460967,0 32.86106566031577,34.80719932881556,0 32.86098330650449,34.80745938227145,0 32.86090654564457,34.80771823500361,0 32.86084992546711,34.80790396389212,0 32.86081726054122,34.80798410921313,0 32.86060839270457,34.80820786473686,0 32.86053217766614,34.80827785656969,0 32.86019828191186,34.80800653734717,0 32.85997792929069,34.80785845699398,0 32.85975677741285,34.80776135443877,0 32.85959198122537,34.80769054527168,0 32.85940449492617,34.80759785748096,0 32.85922516858521,34.80748541622728,0 32.85913897909151,34.80742685348324,0 32.8590772241643,34.8074191268227,0 32.85901876207014,34.80745193790123,0 32.85892180563593,34.80754640626781,0 32.8587155978004,34.8074144246935,0 32.85863982807018,34.8075226700396,0 32.85852884275381,34.8077319528215,0 32.85847378590756,34.80781457211725,0 32.85834031573477,34.80778759490738,0 32.85827191309482,34.80781003993287,0 32.85816438120828,34.80784200015768,0 32.85803810328245,34.8079459259609,0 32.85783613747314,34.80781971717015,0 32.85747036538984,34.80816966166285,0 32.85758020703347,34.80832656961312,0 32.85727994522903,34.80853124667941,0 32.85687376337543,34.80878642149803,0 32.85652067871899,34.80902851794949,0 32.8559512695897,34.80954027034606,0 32.85579006951055,34.80965485361255,0 32.85571183988556,34.80967737298431,0 32.85546370656052,34.80990374223737,0 32.8551704122392,34.81021845032792,0 32.85469212819214,34.81065136290245,0 32.85455863016059,34.81073911963352,0 32.8544146619885,34.81077481367094,0 32.85432573595114,34.81072789738616,0 32.85415588296968,34.81060157224255,0 32.85401840329145,34.81059667655552,0 32.85354119612751,34.81056271323742,0 32.85331472986526,34.81050857490595,0 32.85301029966958,34.81039005743129,0 32.85254279870186,34.81057384661368,0</coordinates>
						</LinearRing>
					</outerBoundaryIs>
				</Polygon>
			</MultiGeometry>
		</Placemark>
	</Document>
</kml>