<?xml version='1.0' encoding='UTF-8'?>
<kml xmlns="http://www.opengis.net/kml/2.2">
	<Document>
		<name>AGIOS ERMOLAOS</name>
		<Style id="PolyStyle70">
			<LabelStyle>
				<color>00000000</color>
				<scale>0.000000</scale>
			</LabelStyle>
			<LineStyle>
				<color>ff0055ff</color>
				<width>2.000000</width>
			</LineStyle>
			<PolyStyle>
				<color>00828282</color>
				<outline>1</outline>
			</PolyStyle>
		</Style>
		<Placemark id="ID_70005">
			<name>AGIOS ERMOLAOS</name>
			<snippet />
			<description>&lt;html xmlns:fo="http://www.w3.org/1999/XSL/Format" xmlns:msxsl="urn:schemas-microsoft-com:xslt"&gt;

&lt;head&gt;

&lt;META http-equiv="Content-Type" content="text/html"&gt;

&lt;meta http-equiv="content-type" content="text/html; charset=UTF-8"&gt;

&lt;/head&gt;

&lt;body style="margin:0px 0px 0px 0px;overflow:auto;background:#FFFFFF;"&gt;

&lt;table style="font-family:Arial,Verdana,Times;font-size:12px;text-align:left;width:100%;border-collapse:collapse;padding:3px 3px 3px 3px"&gt;

&lt;tr style="text-align:center;font-weight:bold;background:#9CBCE2"&gt;

&lt;td&gt;2&lt;/td&gt;

&lt;/tr&gt;

&lt;tr&gt;

&lt;td&gt;

&lt;table style="font-family:Arial,Verdana,Times;font-size:12px;text-align:left;width:100%;border-spacing:0px; padding:3px 3px 3px 3px"&gt;

&lt;tr&gt;

&lt;td&gt;DIST_CODE&lt;/td&gt;

&lt;td&gt;2&lt;/td&gt;

&lt;/tr&gt;

&lt;tr bgcolor="#D4E4F3"&gt;

&lt;td&gt;VIL_CODE&lt;/td&gt;

&lt;td&gt;120&lt;/td&gt;

&lt;/tr&gt;

&lt;tr&gt;

&lt;td&gt;VIL_CCD&lt;/td&gt;

&lt;td&gt;2120&lt;/td&gt;

&lt;/tr&gt;

&lt;tr bgcolor="#D4E4F3"&gt;

&lt;td&gt;VIL_NM_E&lt;/td&gt;

&lt;td&gt;AGIOS ERMOLAOS&lt;/td&gt;

&lt;/tr&gt;

&lt;tr&gt;

&lt;td&gt;VIL_NM_G&lt;/td&gt;

&lt;td&gt;ΑΓΙΟΣ ΕΡΜΟΛΑΟΣ&lt;/td&gt;

&lt;/tr&gt;

&lt;/table&gt;

&lt;/td&gt;

&lt;/tr&gt;

&lt;/table&gt;

&lt;/body&gt;&lt;script type="text/javascript"&gt;

				function changeImage(attElement, nameElement) {

				document.getElementById('imageAttachment').src = attElement;

				document.getElementById('imageName').innerHTML = nameElement;}

			&lt;/script&gt;&lt;/html&gt;

</description>
			<styleUrl>#PolyStyle70</styleUrl>
			<MultiGeometry>
				<Polygon>
					<extrude>0</extrude>
					<altitudeMode>clampToGround</altitudeMode>
					<outerBoundaryIs>
						<LinearRing>
							<coordinates> 33.15368410661599,35.28500771712275,0 33.15349947471837,35.28499754055046,0 33.1535331031182,35.28483125372944,0 33.15364036736246,35.28467664998482,0 33.15377177485362,35.28455848907919,0 33.15391818697974,35.28450572331759,0 33.15400212870681,35.28440818763155,0 33.15409104666968,35.28434541465472,0 33.15422234955269,35.28427938676821,0 33.15422258185094,35.28416187927264,0 33.15419659428191,35.2840377160232,0 33.154120268356,35.28385638619361,0 33.15346106224175,35.28401852881368,0 33.15340993164521,35.28385295612401,0 33.15341133333147,35.28365600630254,0 33.1534469785696,35.28348972231969,0 33.15340349535825,35.28336748029264,0 33.1533218958773,35.28313807315453,0 33.15314969310315,35.28307573157186,0 33.15301144858217,35.28307709813681,0 33.15307415842057,35.28296848666697,0 33.1530858021353,35.2828271987941,0 33.15309110377145,35.2825426573422,0 33.1531660717625,35.28245890762383,0 33.15336322068419,35.28235591079497,0 33.1534116663418,35.28227755958528,0 33.15340062441916,35.28211683051862,0 33.15334780639731,35.2820134996171,0 33.15332520515908,35.28195213403464,0 33.15262136951281,35.28211733839214,0 33.15211368208705,35.28220671646054,0 33.15166584302835,35.28219679473249,0 33.15151660257686,35.28201802167609,0 33.15149119078914,35.28194190089321,0 33.15153580207321,35.28188683710152,0 33.15158617368177,35.28179296145157,0 33.15148319179548,35.28168179824335,0 33.15140966193569,35.28152176014537,0 33.1513112034093,35.28151541589455,0 33.15112369672169,35.28153146597455,0 33.15055010043048,35.28143907167954,0 33.15037112983138,35.28144814406646,0 33.15019329792247,35.28136249903486,0 33.15008067985794,35.28133517089078,0 33.15006861021372,35.28121791926898,0 33.15023721381723,35.2811847634769,0 33.15025677786841,35.28087500882911,0 33.15069618465128,35.28083678798509,0 33.15096972519648,35.28088296742622,0 33.15106621411822,35.28092657677599,0 33.15158387510849,35.28105383039718,0 33.15195492922989,35.28110557402535,0 33.15212147291798,35.28115471104777,0 33.15232331169015,35.28107346132007,0 33.15245231179839,35.2809579530828,0 33.15251782178632,35.28086875597387,0 33.15254932443882,35.2807399164322,0 33.15276640889074,35.28060977363356,0 33.15300346931269,35.28043229688178,0 33.1532071983183,35.28035104869072,0 33.15331623024222,35.28027743685399,0 33.15344161311549,35.28007496558718,0 33.15368422105215,35.2799634888944,0 33.15353541274181,35.27956655182935,0 33.15352608902774,35.27949433475626,0 33.15344964961963,35.27936690283963,0 33.15343941916981,35.2792737224872,0 33.15336610558236,35.27900421469296,0 33.15359522987517,35.27900529772761,0 33.15416173189221,35.27884922160329,0 33.15411639853073,35.27879170787629,0 33.15411838452432,35.2787451271569,0 33.15390966995743,35.27847776791988,0 33.15390460456054,35.278167979894,0 33.15392322545309,35.27784968238481,0 33.1543011642432,35.27776478258771,0 33.15426360418617,35.27760712406764,0 33.15353344411433,35.2776993172741,0 33.15299261521422,35.27780495974455,0 33.15282688882868,35.27782414697853,0 33.15237498435375,35.27796484368417,0 33.15218656735488,35.27796691877121,0 33.15204336339212,35.27808551384602,0 33.15196552122951,35.2781878936678,0 33.15160948933602,35.27820526927891,0 33.15094593583087,35.27812983547303,0 33.15078272962953,35.27830663213575,0 33.15066143069298,35.27836003891267,0 33.15009260949864,35.27872416925285,0 33.1497549413552,35.27855678307716,0 33.14971633336684,35.27845346898538,0 33.14956406211979,35.27837251550447,0 33.14953102408681,35.27832355702594,0 33.14914393382632,35.27824926851824,0 33.14902285048193,35.27819708418298,0 33.14875864876866,35.27821923548321,0 33.14863935965567,35.27821518975774,0 33.14846863323694,35.27790129085281,0 33.14840744416379,35.27772884612746,0 33.14836901449159,35.27754012868417,0 33.14815120056384,35.27756544962256,0 33.14800280305721,35.27744412716872,0 33.14779914137134,35.27749353411426,0 33.14760797882067,35.27744979159434,0 33.14761477650745,35.2773675021097,0 33.14758653514846,35.27728904750231,0 33.14765865797789,35.27720762566202,0 33.14774223427494,35.27708196600429,0 33.14762216910832,35.27699639618886,0 33.14761951757152,35.27690477716646,0 33.14759599662221,35.2768325399628,0 33.14744355364185,35.27683776368725,0 33.14735070148011,35.27687024287052,0 33.14736994657325,35.27717927486095,0 33.14725472136247,35.27750054373823,0 33.14718222115904,35.277764417069,0 33.14720446313536,35.27799736664624,0 33.14718060973542,35.27808584322911,0 33.14706779672452,35.27815556197935,0 33.14688028394795,35.27817781603676,0 33.14675630336561,35.27815357500013,0 33.1466655844112,35.27807037444755,0 33.1466754520075,35.27787706574519,0 33.14664151574127,35.27780559004517,0 33.14650827510865,35.27768195696726,0 33.14642045822217,35.27756848057205,0 33.14638756247876,35.27745197571582,0 33.14628176855754,35.27733303963913,0 33.14626634145109,35.27701158987914,0 33.14572082521899,35.27709157191779,0 33.1454167184853,35.27718198355732,0 33.14531934568203,35.27711197094055,0 33.14549017986557,35.27691422963105,0 33.14561918503568,35.27679795159609,0 33.14569340736806,35.27661870819822,0 33.14598605479004,35.27657486356056,0 33.14617572061245,35.27642528482986,0 33.14656812593179,35.27621387587108,0 33.14672154017295,35.27619623277786,0 33.14671887044889,35.27613905479839,0 33.14656443635604,35.27616651070922,0 33.14646427560037,35.27613949488152,0 33.14644384693226,35.27610579155292,0 33.1463747622254,35.2759918182883,0 33.14633375846636,35.27583313202337,0 33.14605596121856,35.27585036869191,0 33.14537476228479,35.27586026068096,0 33.14541660028438,35.27561898689446,0 33.14545821244474,35.2754851603724,0 33.14532156033575,35.27544044728301,0 33.14548390497072,35.27545333489117,0 33.14552941548784,35.27543306116695,0 33.14565618657117,35.27529325326888,0 33.14570769948696,35.27516859084457,0 33.14579138574761,35.27507617457562,0 33.14584949992636,35.27495762364219,0 33.14598374202676,35.27480257205826,0 33.14613681343981,35.27473499603261,0 33.14621472532912,35.2746361316138,0 33.14626958892426,35.27448978204495,0 33.14735428331299,35.27443265379454,0 33.14750307425779,35.274436250195,0 33.14806867362159,35.27435568388363,0 33.14809629571685,35.27418963727943,0 33.14797577235694,35.27410744492268,0 33.14811060404524,35.27406492290129,0 33.14807865120065,35.27392590876921,0 33.14794215239576,35.27397452977055,0 33.14792736230302,35.2739311226727,0 33.14793322863347,35.27389249110063,0 33.14798456567619,35.27385120973026,0 33.14811112215711,35.2738127450526,0 33.14815251710969,35.2737822969228,0 33.14817667516179,35.27369216837542,0 33.14820484177468,35.2736623800173,0 33.14822816326256,35.27357767432108,0 33.14842019564839,35.27345591761031,0 33.14861697907791,35.27343585186203,0 33.14865237886426,35.27350708008451,0 33.14923849162617,35.27349771694821,0 33.14927627232039,35.2736184353658,0 33.14962339025463,35.27365483993703,0 33.14991619554115,35.2735711803754,0 33.1500699513546,35.27357139087642,0 33.15012542498381,35.27352808075538,0 33.150256097966,35.27349707580948,0 33.15052233194083,35.27347032254456,0 33.15057943370961,35.27343921676201,0 33.15064408327166,35.27335524516604,0 33.15078471898854,35.27330255972072,0 33.15081865491848,35.27328159083899,0 33.15096289418636,35.27308180617008,0 33.15118483914781,35.27288144831765,0 33.15144107544477,35.27289264216973,0 33.15156172706989,35.27291178706813,0 33.15180480110184,35.27289110018105,0 33.15191638402558,35.27289803060124,0 33.15230666543393,35.27284500262633,0 33.15262507967259,35.27276611676589,0 33.15325680327989,35.27268087093529,0 33.15319259435656,35.2725458822128,0 33.15305044837827,35.27252806593049,0 33.15270645578332,35.27258387094804,0 33.15259365305061,35.27236001154542,0 33.15255915872184,35.27224743402637,0 33.15267579096046,35.27220962788368,0 33.15271574473361,35.272072067357,0 33.15277121095719,35.27203079045363,0 33.15291911751227,35.27164729712788,0 33.15296628672528,35.27162159936631,0 33.15349868051993,35.27159926388367,0 33.15358546888332,35.27160276920743,0 33.15376824253799,35.27155827267165,0 33.15377919593477,35.27145388991247,0 33.1539604755781,35.27132871999044,0 33.15407296415573,35.27129429706837,0 33.15410872147512,35.2711872362162,0 33.15407913466054,35.27110042530416,0 33.15407883776326,35.27083333132068,0 33.15405928672,35.27068823477653,0 33.15407191393513,35.27057300796679,0 33.15410272234272,35.27046051804437,0 33.15418819735547,35.27029183452046,0 33.1543577468459,35.27024460651365,0 33.15443812313294,35.27014641775209,0 33.15454327036002,35.27006181995594,0 33.15475504188574,35.26998075257941,0 33.15477675620065,35.2698682497697,0 33.15475042443181,35.26980788152605,0 33.15471514507679,35.26967361010288,0 33.15467641039558,35.26961458183715,0 33.15473606928952,35.26954212509969,0 33.15471631030179,35.26950142481131,0 33.1546544492175,35.26943355285487,0 33.15463554491486,35.26937929550399,0 33.15494832002349,35.26921769134471,0 33.15494691600249,35.26909159994211,0 33.15498551488758,35.2688652420127,0 33.15502922437129,35.26860890640013,0 33.15522527364227,35.26857166393138,0 33.15538529500201,35.26858526958446,0 33.15543104767045,35.26857193609423,0 33.15520644846705,35.26817920527762,0 33.15496272041587,35.26837844746336,0 33.15439836674991,35.26802008880751,0 33.15454472218245,35.2675099864106,0 33.1546024016778,35.26724620742277,0 33.15474463450795,35.2671687136305,0 33.15505383876582,35.26689053641505,0 33.15557009605417,35.26678808731116,0 33.1557106701125,35.26672398281612,0 33.15601295011177,35.26664267951805,0 33.15616994668545,35.26653037957526,0 33.15627321400149,35.26633496881897,0 33.1564353194469,35.26611418628295,0 33.15647639317788,35.26598834007297,0 33.15655167596159,35.26590539799145,0 33.15657191173971,35.26557861980841,0 33.15659334555423,35.26547417806558,0 33.15642058072041,35.26529849397931,0 33.15637342872535,35.26519396153752,0 33.15659583847738,35.26503219035101,0 33.15653956211753,35.26458075098243,0 33.15634037030171,35.26456039828772,0 33.15606783015088,35.26446896363016,0 33.15601241555551,35.26441263707704,0 33.1560226884297,35.26417022630016,0 33.15597234998569,35.26402416996267,0 33.15596770492098,35.26389424543614,0 33.15616206501306,35.26387976725544,0 33.15662408989857,35.26394332455745,0 33.15706497571666,35.26396131354866,0 33.15747813721489,35.26395917478092,0 33.1577705407588,35.26391267708954,0 33.15794534504387,35.26387808183875,0 33.15801774726036,35.26359422959468,0 33.15815991410444,35.26354485783752,0 33.15801706696671,35.26310000324007,0 33.15801879732875,35.26305044899487,0 33.15808248892185,35.26304785273439,0 33.15818203447141,35.26308414501691,0 33.15835520215377,35.26304820644085,0 33.15849092108622,35.26295596642128,0 33.15852842769283,35.2629828020788,0 33.15861100378862,35.26295776689142,0 33.15886664436066,35.26288025922151,0 33.15885617354904,35.2627707381358,0 33.15925699508309,35.26262889620593,0 33.15926255305234,35.2625150156753,0 33.15933730953117,35.26252168307641,0 33.15933477771112,35.26244940412587,0 33.15918663824587,35.26171989411031,0 33.15897403577271,35.26161826539821,0 33.15890674420094,35.2615860994221,0 33.15881402970837,35.26156127793459,0 33.15862673046947,35.26154324977308,0 33.15861372136984,35.26154590789258,0 33.15829368322306,35.26161131794264,0 33.15822189204451,35.26161729158819,0 33.15792516971683,35.2616419842288,0 33.15779273697235,35.26161673425018,0 33.15766851353052,35.26159304995759,0 33.1574782679898,35.2615948652081,0 33.1574128389498,35.26161623932023,0 33.15702192791231,35.26174393755439,0 33.15672001613611,35.26164576849187,0 33.15671680561729,35.26161532917415,0 33.15670705423119,35.2615228413731,0 33.15681222204503,35.26135950703996,0 33.15684274666179,35.26120614679299,0 33.15690741996753,35.26097922955988,0 33.15692197328878,35.26078168772531,0 33.15657347448312,35.26075411500182,0 33.15659095186305,35.26051086723621,0 33.15676764270943,35.26048359501321,0 33.15699632472356,35.26043508508875,0 33.15687866462839,35.2602234240967,0 33.15689877451877,35.26008244705864,0 33.15693690145901,35.25990585443538,0 33.15695989683579,35.25973853868004,0 33.15698734873389,35.25970758455236,0 33.15738793542363,35.25966239770939,0 33.15765855843151,35.2599052462683,0 33.1577603335593,35.26002856414205,0 33.15784612010732,35.26011622223645,0 33.15786297369544,35.26019371963005,0 33.15785525158451,35.26027893161274,0 33.15803567155104,35.26027606677054,0 33.15836608486391,35.26037411415493,0 33.15854462123922,35.26036892273332,0 33.15861597180324,35.26037597363057,0 33.15872503007395,35.2603867509453,0 33.15886464216111,35.26045609810831,0 33.15895599456088,35.26056293144077,0 33.15899627902813,35.26068516171932,0 33.15922404319726,35.26095496315347,0 33.15936917704482,35.26102607188477,0 33.15935501568751,35.26119626897687,0 33.1597697378099,35.26137269250726,0 33.16001999812203,35.26164957104647,0 33.16068292794895,35.26134265605018,0 33.16109127736296,35.261232536798,0 33.16133012986466,35.26113071148993,0 33.16148925449515,35.26112240296838,0 33.16175575606421,35.26102912293319,0 33.1619185945306,35.26088464702181,0 33.16203283465843,35.26083089126588,0 33.16211598434374,35.26075723655367,0 33.16204696583946,35.2606748781395,0 33.16157327315091,35.26058916940467,0 33.16132446681593,35.26046970238892,0 33.1611065166522,35.26049212093367,0 33.16073987343811,35.26049732728477,0 33.16058093233726,35.26041201641443,0 33.1607722896203,35.25981934573472,0 33.16034353305102,35.25975071144897,0 33.15987665606765,35.25972174382566,0 33.15940635569152,35.25967291051194,0 33.15910875138805,35.25975196092176,0 33.15893256255369,35.25964393032736,0 33.1588218110256,35.25968066668948,0 33.15867654355218,35.25968047958162,0 33.15878064995397,35.25950188889252,0 33.15870803220318,35.25949328395629,0 33.158739455215,35.25934013113289,0 33.15898517407264,35.25926385126758,0 33.15922379383486,35.25928118130096,0 33.15942457289712,35.25919065824083,0 33.1590589714267,35.25865684684901,0 33.15866862756562,35.25840102067308,0 33.1586197535033,35.25841095855497,0 33.15852946427007,35.2584293182683,0 33.15811461107595,35.2580421864979,0 33.15814298902617,35.25802401348017,0 33.1581534933761,35.25796437020227,0 33.1582434572033,35.25784440037724,0 33.1583191400595,35.25778096442281,0 33.15845909988947,35.25769437503439,0 33.15853099560643,35.25763946473077,0 33.15862143348126,35.25754329786619,0 33.15870851315771,35.25745070303289,0 33.15880221210291,35.25728628402209,0 33.15899279803276,35.25709929310285,0 33.15909080501261,35.25649232063867,0 33.15900496579643,35.25616596399717,0 33.15872868054672,35.25595284179786,0 33.15866331681475,35.25577402798677,0 33.15862488893552,35.25574530963976,0 33.15851034387041,35.25565968808061,0 33.15833793829407,35.25559682467892,0 33.1582305949543,35.2555259284321,0 33.15818403998033,35.25546902422602,0 33.15816862959364,35.25539360533479,0 33.15816735256539,35.25532284437445,0 33.15819589685587,35.25518716246322,0 33.15821457426679,35.25503522878154,0 33.15824722515179,35.25497031132843,0 33.15829964501823,35.25492165971092,0 33.15836902972675,35.25487302643279,0 33.15851481381517,35.2548082573569,0 33.15860935305767,35.25477136763492,0 33.15862684966263,35.25472844129319,0 33.15866550989422,35.25463358973467,0 33.15862726545459,35.25451204791028,0 33.15859319530486,35.25440377265212,0 33.15859606043529,35.25436556532826,0 33.1586024901106,35.25427982940076,0 33.15862778099304,35.25424419409111,0 33.15868197691811,35.25416783037553,0 33.1586728955465,35.2541023581739,0 33.15869083690188,35.25402835584853,0 33.15887945354721,35.25394702481769,0 33.15913752639995,35.25382248242941,0 33.15914566359647,35.25374091765215,0 33.15905798670432,35.253681892784,0 33.15894562269825,35.25369735231232,0 33.15886509529953,35.25375263658305,0 33.15875509155765,35.25381543378968,0 33.15878897246706,35.2537545563935,0 33.15886713650837,35.25365042269195,0 33.158885616882,35.25329695564773,0 33.15869362671022,35.25321740126996,0 33.15866845144357,35.25290164159662,0 33.15890353331687,35.25291755455094,0 33.15909077101504,35.2529147756502,0 33.15932651980154,35.25290249325492,0 33.1597781260944,35.2530088206365,0 33.15986951460602,35.25304871981983,0 33.15992528041765,35.2531001533175,0 33.15998527921235,35.25318683632508,0 33.15995998590773,35.25325377356552,0 33.16006495759299,35.25325038886783,0 33.1602096007234,35.25337192916746,0 33.16049154049649,35.25360744190547,0 33.1609882668345,35.25355470077753,0 33.1611835306,35.25352725316628,0 33.16135613884588,35.25347057545862,0 33.16133974637969,35.25337386835031,0 33.16143681461875,35.2533337127186,0 33.161381507203,35.2530400688421,0 33.1620559257189,35.25283548070252,0 33.16224190084597,35.25285107433664,0 33.16225760738153,35.25298302746607,0 33.16245605639465,35.25322397025186,0 33.16260946696061,35.25325488106751,0 33.16294520282334,35.25328350198277,0 33.16328094810633,35.2533068398135,0 33.1633502323158,35.25335324897535,0 33.16357242288485,35.25337064763242,0 33.16404512706895,35.25335915235613,0 33.16409304362878,35.25334159233357,0 33.16411772595181,35.25327414577856,0 33.16440687459497,35.25326594547445,0 33.16463651768823,35.2532360226487,0 33.16477019879333,35.25331423451711,0 33.16500041628416,35.25330747321323,0 33.16511334504175,35.25332045332905,0 33.16513203288248,35.25317318863329,0 33.16512003208564,35.25302311651633,0 33.16497138218455,35.252740944686,0 33.16496930556387,35.2525354956921,0 33.16497855774991,35.2521789953748,0 33.16495478478846,35.25208782341668,0 33.16494383943944,35.25169907095225,0 33.16544698538413,35.25181903059386,0 33.16572034427386,35.25171614247628,0 33.166097465113,35.25160280669208,0 33.16625833740687,35.25157933715988,0 33.16644883684984,35.25147030195193,0 33.16663802891921,35.25140406801,0 33.16678660988262,35.25138914544766,0 33.16680183412179,35.25145814835059,0 33.1671050847233,35.25145499428641,0 33.16730649135227,35.25142150613161,0 33.16740623825119,35.25125545847976,0 33.16758471857383,35.25133876213535,0 33.16787651565969,35.25156017609503,0 33.16802423420487,35.25168271777446,0 33.16814123387034,35.25181931585229,0 33.16837325143139,35.25217459851793,0 33.16844143851797,35.25214548250536,0 33.16862702728064,35.25237531895348,0 33.16860640719312,35.25257973766455,0 33.16867255978685,35.25266114097012,0 33.16876522634303,35.25267635973061,0 33.1688214797479,35.25279979681149,0 33.1688378564659,35.25290959019297,0 33.16882353220187,35.25302387836307,0 33.16894683425881,35.25341327219258,0 33.16910507452499,35.25349050572826,0 33.1692179579084,35.25353092396053,0 33.16930953319233,35.25381352462485,0 33.16821434060073,35.25383032683887,0 33.16807798058949,35.25387346297781,0 33.16800072549758,35.25437737542249,0 33.16799608576144,35.25440763968393,0 33.16794852492158,35.25448354134389,0 33.1677233446673,35.25468752424828,0 33.16752597648277,35.25481777789526,0 33.16750433442147,35.25530854371533,0 33.16755187821725,35.25579371524901,0 33.16703994740256,35.25582429318323,0 33.16673206523691,35.25586079585172,0 33.16654889266404,35.25578681512587,0 33.16636904699431,35.25578659018154,0 33.16618567025397,35.25582608139756,0 33.16588103540765,35.25597605866608,0 33.1656773471853,35.25577439149026,0 33.16573670383972,35.25547091359689,0 33.16579224925228,35.25535750500674,0 33.1656164264311,35.25505090130994,0 33.16565800166181,35.25500839710589,0 33.16548195550844,35.25482378475854,0 33.16487282837552,35.25505281176016,0 33.16477927021842,35.25514915432837,0 33.16473757567044,35.25525406784638,0 33.16449839766993,35.25554313685989,0 33.16435973425326,35.25571601512037,0 33.16405776710453,35.25629153156418,0 33.16396410939161,35.25643893638323,0 33.16380122444085,35.25661745794159,0 33.16373875213866,35.25673085964832,0 33.16355864933993,35.25686680003982,0 33.16346159544199,35.25698299486531,0 33.163385012669,35.25724673188918,0 33.16316609599454,35.25779398165671,0 33.16311057179975,35.25789320472673,0 33.16306861054186,35.2581399613605,0 33.16345257909921,35.258106406549,0 33.16379093893719,35.25842739493698,0 33.16390856000152,35.25841336240924,0 33.16407387137782,35.25879371532547,0 33.16430151454048,35.25913726352398,0 33.16456794026512,35.25908086128411,0 33.16472965590575,35.25953780548974,0 33.16451849994534,35.25962832080165,0 33.16454951069885,35.25969361034498,0 33.1650374365421,35.25956371926788,0 33.16516884160161,35.25957806765224,0 33.16520267402062,35.25998946185783,0 33.16626114450801,35.25994254436864,0 33.1662719344528,35.25971559969292,0 33.16655225456077,35.25962516913122,0 33.16661093493571,35.25969332432967,0 33.16670774219214,35.25971330096929,0 33.16699837765069,35.25965975708949,0 33.16727151443118,35.25971398953172,0 33.16747577528449,35.25960927669362,0 33.16746244248414,35.25933407702531,0 33.16814046101972,35.25927816837783,0 33.16820213168654,35.25960164944355,0 33.16904953944304,35.25959416877759,0 33.16918778394031,35.25965390615689,0 33.1692811994989,35.25963700068084,0 33.16930895080385,35.25959164367089,0 33.16914688147511,35.25931910308254,0 33.16926829952791,35.25911782911186,0 33.16949698746582,35.25888547367517,0 33.16979807167449,35.25878938364574,0 33.16996411341076,35.25877540257395,0 33.17009198764639,35.2588294576228,0 33.17018522542223,35.25891467446669,0 33.1704686123969,35.25904267111128,0 33.1707246704722,35.25898057135035,0 33.17121552028913,35.25914569449431,0 33.17140570963527,35.25916861615899,0 33.17143704060182,35.25905517625406,0 33.17188121971046,35.25902837525749,0 33.1726070959451,35.25898457569178,0 33.17260741801933,35.25880060733116,0 33.17289619653963,35.25869417380557,0 33.17332914694738,35.25865994798824,0 33.17366953790306,35.25863719025416,0 33.17404597610653,35.25862862345708,0 33.17445226935144,35.25858921652797,0 33.17472062630657,35.25850076464065,0 33.17476463117974,35.25844935712749,0 33.1748247372064,35.25815611274186,0 33.17485324586383,35.25799533691347,0 33.17492895575073,35.25774842289572,0 33.17496230876127,35.25750660612569,0 33.17458590919961,35.25749587789016,0 33.17463694871652,35.25700321987289,0 33.17465323431902,35.25665460515061,0 33.17513329892422,35.25657668759326,0 33.17553015389529,35.25654755752019,0 33.17577012293496,35.25654397592542,0 33.17584724139395,35.25638840233088,0 33.17576125111268,35.25622877869103,0 33.17597955341102,35.25605664867894,0 33.1761597907402,35.2561314675926,0 33.17633856709619,35.25614196799059,0 33.17655804742805,35.2561975358549,0 33.17660979801681,35.2562001654067,0 33.17675571469669,35.25616816940866,0 33.17695347099862,35.25608477599069,0 33.17714664272143,35.25593191714925,0 33.17716826008805,35.25613519456768,0 33.17748829645731,35.25608281554147,0 33.17758084560445,35.2560739137636,0 33.17779580592264,35.25602141585259,0 33.17800436667614,35.25603965892375,0 33.17807656972273,35.25600887033478,0 33.17818973981731,35.25586233989785,0 33.17836227139749,35.25585610501446,0 33.17840134788645,35.25593590682402,0 33.1788139325439,35.25587462091645,0 33.17917803903659,35.25573095088234,0 33.17920478080884,35.2556833774655,0 33.17935700597557,35.25562565778412,0 33.17943080722048,35.25557300103738,0 33.1794638406516,35.25551771767159,0 33.17948289706974,35.2553762273021,0 33.17946263194131,35.2553028762194,0 33.17935614085535,35.25520498916563,0 33.1793578131648,35.25514452334686,0 33.17939243133164,35.25507637934038,0 33.17946626202991,35.25500441568281,0 33.17952749331198,35.25496717863835,0 33.17966713233498,35.2549338904414,0 33.17969547850739,35.2548631623631,0 33.17980692557527,35.25480925964276,0 33.17977287916215,35.25453391707689,0 33.17993028339042,35.25439130159994,0 33.18006161091511,35.25427231856655,0 33.18011094432644,35.25419763270604,0 33.18006909042463,35.25415872255007,0 33.17999628390098,35.25410632226738,0 33.17995995955433,35.25403004399111,0 33.17987078184331,35.2539611833788,0 33.17981981397136,35.25392674585071,0 33.17971962457173,35.2539042094316,0 33.17967960504994,35.25385782750732,0 33.17973822067873,35.253680004632,0 33.17951965710562,35.25360950513382,0 33.17925874616192,35.25379456481664,0 33.1792312669226,35.25388422789566,0 33.17917986293283,35.25410988375333,0 33.17902346069337,35.25391538822085,0 33.17874308422251,35.25375811552008,0 33.17867568171597,35.25374458425449,0 33.17863215721803,35.25361896787205,0 33.17871083858656,35.25342771942333,0 33.17846579045828,35.25285193762801,0 33.17825410962772,35.2530220992181,0 33.17819953582777,35.25296374885903,0 33.17826525983508,35.25289505726941,0 33.17838419683509,35.2526066881453,0 33.17863575403059,35.25256212829353,0 33.17902403524614,35.25248633181965,0 33.17919167934648,35.2524910025861,0 33.1794833776035,35.25241659242776,0 33.17948902922987,35.25230448551263,0 33.17941821939717,35.25214894317192,0 33.17958770123185,35.25214464725439,0 33.17965698050295,35.25212678976825,0 33.17960272381152,35.25187858810857,0 33.17957005455625,35.25179932246569,0 33.17986538064059,35.25172939671946,0 33.18004956395833,35.25165336649703,0 33.18034125838876,35.25157596075887,0 33.18078256159749,35.25139258896982,0 33.18108334548501,35.25132864453193,0 33.18143159936169,35.25120944424842,0 33.18156288073905,35.25116175497455,0 33.18161762570245,35.25111697204355,0 33.18172519287906,35.2510856991234,0 33.18200766948858,35.25107255422358,0 33.18222469531541,35.25096815775682,0 33.1825965705698,35.25088934404847,0 33.18284787758301,35.25098977326991,0 33.1828696987731,35.25102118796173,0 33.18294432096091,35.25107807271677,0 33.18322652668115,35.25122935948039,0 33.18341733348966,35.25156291249402,0 33.18349720760521,35.25174836036277,0 33.18352812277282,35.25178874979291,0 33.18352603322142,35.2519576642387,0 33.18367360005951,35.25198174180981,0 33.18374648259834,35.25198630126883,0 33.18384861307169,35.25193708536175,0 33.18422234923076,35.25183733719283,0 33.18475283597085,35.25171682945237,0 33.18500801272009,35.25168272497137,0 33.18515567159263,35.25169414689754,0 33.1855168513421,35.25172690008993,0 33.18611810518507,35.25170637620509,0 33.18613787369033,35.25168522986394,0 33.18650645210472,35.25190976084771,0 33.18668561268887,35.25190248532138,0 33.18670986504588,35.25192616885736,0 33.18687951684247,35.25217539160858,0 33.18692312356961,35.25244316925099,0 33.18695041827665,35.25246561133164,0 33.18712633598224,35.2525940550617,0 33.18713838734559,35.25265383906548,0 33.18707561792539,35.25298499997881,0 33.18721081752885,35.25293782945351,0 33.18733986661545,35.25293796596825,0 33.18745676146617,35.25294306619147,0 33.18751146562271,35.25291199530339,0 33.18769702123238,35.252706727344,0 33.18789749701295,35.25266460352378,0 33.18791262961717,35.25269699486872,0 33.18790180031645,35.2528227554144,0 33.18798368414404,35.25289132308342,0 33.18807783037739,35.25287896839573,0 33.18814772048522,35.25284542184091,0 33.18832104215764,35.25269119775952,0 33.18843068960432,35.25248211311022,0 33.18845660144115,35.25241489405814,0 33.18868297523829,35.2523167613734,0 33.1887484221796,35.25221222711272,0 33.18905059272592,35.25218514555378,0 33.18912352581407,35.25214786463395,0 33.18937431385774,35.25196756696111,0 33.18978925723984,35.25166789650574,0 33.18982267160798,35.25166046172419,0 33.19005954485478,35.25164202972351,0 33.19047240162728,35.251709696898,0 33.19053617197606,35.25170602881636,0 33.19067219100855,35.25211336042177,0 33.19078114721583,35.25234757773239,0 33.19114242468495,35.25239028603287,0 33.19172992993606,35.25242824348701,0 33.19198650929722,35.25243099518273,0 33.19255291381501,35.25236308065618,0 33.19278847089868,35.25221513928254,0 33.19339887672574,35.25216594464906,0 33.1936600663193,35.25213134089462,0 33.19414757310363,35.2520297187208,0 33.19416756393186,35.2520215453053,0 33.19417491805622,35.25201853999381,0 33.19425846580187,35.25198998602711,0 33.19443028837679,35.25181457927519,0 33.19449725720854,35.25170133024566,0 33.19456903847018,35.25141499687123,0 33.1946226692222,35.25108257216868,0 33.19472023395553,35.25081369767584,0 33.19483751446469,35.25055854114095,0 33.19485607943891,35.25031698137109,0 33.19485611129223,35.25031697591145,0 33.19580678676503,35.25011495005791,0 33.19619397246998,35.25008170803636,0 33.19651603044841,35.24994629354294,0 33.19655705476178,35.24992641439014,0 33.19659525084677,35.24975959177196,0 33.19694110864961,35.24996040967207,0 33.19724775930768,35.24998063229906,0 33.19752865116479,35.24996097998529,0 33.19757272203886,35.24993238359139,0 33.19766844292719,35.2498826680175,0 33.19796299564658,35.24986551807466,0 33.19805263444967,35.24981953217794,0 33.19809974880845,35.24978595674663,0 33.19840492554273,35.24960050441572,0 33.19842013255152,35.24959520816133,0 33.19862148287119,35.24952512027856,0 33.19874534173144,35.24959303040188,0 33.19879649847667,35.24964866754613,0 33.19886076521286,35.24978295095097,0 33.19890194195995,35.24988738942175,0 33.19895282322916,35.25013555101175,0 33.19896261275952,35.25022504464233,0 33.19895900553992,35.25043654705951,0 33.19894401601602,35.25051652489625,0 33.198914181894,35.25057479644693,0 33.19873040171119,35.25079697253913,0 33.19868898769864,35.25086201084387,0 33.19866909007046,35.25090673256546,0 33.19867232983633,35.25094876802212,0 33.19871187717039,35.25103422235778,0 33.19884549849326,35.25121467184506,0 33.19893615062286,35.25139101568586,0 33.19904322982873,35.25163923080645,0 33.19908943002611,35.25169622082955,0 33.19917853715588,35.25179934811293,0 33.19924954314835,35.25184686781717,0 33.19935029226955,35.25189848487621,0 33.19956337927703,35.25198817159013,0 33.19971202016158,35.25206695293256,0 33.19994807188446,35.25228275130367,0 33.20003720231236,35.25236960783936,0 33.20010655553455,35.25241848094803,0 33.20018419606889,35.25244973889342,0 33.20028001856964,35.25247965698225,0 33.20057908345309,35.25255179826875,0 33.20074763941117,35.25257636195224,0 33.20084845149125,35.25258459021416,0 33.20115429059263,35.2525401368455,0 33.20129154236645,35.25249281288193,0 33.20140070015928,35.25244410772072,0 33.20156932109436,35.25242122105855,0 33.20161062169344,35.2524348164101,0 33.20175429462327,35.25252579208558,0 33.20192773785345,35.2526018783591,0 33.20203845161157,35.25262367303232,0 33.20221328680762,35.25265121229272,0 33.20223153313192,35.25283332537633,0 33.20207560820151,35.25323314339911,0 33.20180110182359,35.25332779294489,0 33.20166564005287,35.25327614475457,0 33.20136807377651,35.25331111656353,0 33.20112177391395,35.25332851010702,0 33.20125037775398,35.25355640706793,0 33.2015870703982,35.25390923418578,0 33.20173398536821,35.25404630866776,0 33.20205110800271,35.25421201363782,0 33.20212864496213,35.25431919442909,0 33.20219149468846,35.25441414984228,0 33.20233180655099,35.25462613637142,0 33.20227527029716,35.25485125253232,0 33.20217594855649,35.25492440751302,0 33.20193774793471,35.25497572915792,0 33.20162688623999,35.25495644850303,0 33.20149139521014,35.25487493448983,0 33.20136567515617,35.25490465700207,0 33.20094866698199,35.25511044302718,0 33.20052861534489,35.25512632278958,0 33.20041934808239,35.25521303075713,0 33.20017788521044,35.2552317916942,0 33.20024362482396,35.2555194195474,0 33.20045830760122,35.25573122744086,0 33.20037858208123,35.25597530934282,0 33.20015348758333,35.25611345270609,0 33.20002793883988,35.25602109585684,0 33.19975350417236,35.25596657621665,0 33.19950814052375,35.25640040170072,0 33.1990813750022,35.25647866627022,0 33.19924295582265,35.25681521837804,0 33.19904067750542,35.25718397463754,0 33.19882230307952,35.25724344754352,0 33.19865988147992,35.25749287592937,0 33.19860658305082,35.25775868533848,0 33.19861951620813,35.25796487640117,0 33.19840802531956,35.25803244524045,0 33.19829965695284,35.2580670676033,0 33.19808504859833,35.25815031251413,0 33.19800241490586,35.25824721803718,0 33.19800233335225,35.25830360448126,0 33.19808450676005,35.25852697719665,0 33.1982712255632,35.25871436195764,0 33.19840681138231,35.25887810124198,0 33.19843227773442,35.25890885539363,0 33.19854514327119,35.2590879355306,0 33.19889227158514,35.25919949809995,0 33.19843184544561,35.25967380696262,0 33.1984284150596,35.25976061530521,0 33.19849771701319,35.25986919635849,0 33.1984869625088,35.26044974087464,0 33.1984044652422,35.26051274433297,0 33.19838762616109,35.26052560409254,0 33.19827403655218,35.26058641037245,0 33.19816677586739,35.26059758390343,0 33.19794960068552,35.26055000809071,0 33.19795842180071,35.26015305327867,0 33.19792275038458,35.26010114303562,0 33.1978321260618,35.26001760280943,0 33.19773592755315,35.2599859320513,0 33.19754565090811,35.2603579011098,0 33.19713858934251,35.26041163504673,0 33.19712473563722,35.26048379655405,0 33.19713286134865,35.2605695133737,0 33.19728640498041,35.26087866255848,0 33.19732731075148,35.26111552823014,0 33.19751389325096,35.26139989906137,0 33.19737081242072,35.26146065887756,0 33.19721696342035,35.26135901149335,0 33.19719796869139,35.26118081113554,0 33.19711562841285,35.26107472220433,0 33.19663409556453,35.26128175569451,0 33.19619966626497,35.26124298550527,0 33.19554762980322,35.26145435716635,0 33.19562437544612,35.26166005319181,0 33.19563648966008,35.26169252050574,0 33.19560871526509,35.2617485226281,0 33.1956567510931,35.26184264534466,0 33.19587988246351,35.2620504002419,0 33.19615181654942,35.26227883636732,0 33.19642240786458,35.26241381823003,0 33.19648596082284,35.26246606761556,0 33.19671627578067,35.26282432199529,0 33.19692449781624,35.26311337633022,0 33.19696291595156,35.26315103684885,0 33.19719513290767,35.26322165638332,0 33.19728083069692,35.26330912249773,0 33.19740768240622,35.26358960121266,0 33.19777100853655,35.26406813473463,0 33.1979749353378,35.26426251704353,0 33.19833806179922,35.26449278466701,0 33.19839869910485,35.26452901655524,0 33.19851312790984,35.26459738925969,0 33.1990060084194,35.26481770153148,0 33.19933789446539,35.26515876637836,0 33.19949307643509,35.26535676792479,0 33.19988664185166,35.26568030391557,0 33.20022131859987,35.26594882348644,0 33.20043268062562,35.26622821706236,0 33.20058256243191,35.2663866424619,0 33.20112599397059,35.26688838320361,0 33.20119028195535,35.26691922091995,0 33.20143951440186,35.26695682852831,0 33.20160022369453,35.26704271537849,0 33.20169117318932,35.26717690192477,0 33.20171252229425,35.26724507063523,0 33.20174428382357,35.26753528571041,0 33.20192083453711,35.26779485816757,0 33.2020252654923,35.26787409777697,0 33.20212966551938,35.2679753194525,0 33.20228220676221,35.26815353088522,0 33.20247509068849,35.26823504962352,0 33.20277769242091,35.2684507718861,0 33.20287679573126,35.26850582286836,0 33.20336976007358,35.26869094223199,0 33.20349551412596,35.26891978021038,0 33.20350946132341,35.26894515961422,0 33.20375530184306,35.26922168951315,0 33.20378384875585,35.26941309131494,0 33.20381524560464,35.26962812264259,0 33.20390720194548,35.2697983188304,0 33.20399658420209,35.2701406794794,0 33.20385051992277,35.27012250944502,0 33.20331586933411,35.27007793233342,0 33.20274140171286,35.27018412770043,0 33.20226297567729,35.27039713990629,0 33.20184691935463,35.27051739994351,0 33.20164015843564,35.27068193934234,0 33.20182329808017,35.27122503531397,0 33.20193064327064,35.27134346504738,0 33.2022953461749,35.27153406225988,0 33.20239424342944,35.27162464116333,0 33.20244496406078,35.27177318038057,0 33.20235975564355,35.27201208014965,0 33.20237923592927,35.27224643756904,0 33.2023705639892,35.27237867992998,0 33.20236183431142,35.272552685379,0 33.20238152630547,35.27263391054432,0 33.20245500474719,35.27269430483352,0 33.20259072465648,35.27275475531894,0 33.2028028385105,35.27281295756381,0 33.20297524100355,35.27294536862463,0 33.20302317556629,35.27306374286687,0 33.20296346877829,35.27327482402223,0 33.20300555681444,35.2735300834443,0 33.20224160372697,35.27356185493966,0 33.20211660891602,35.27392600717137,0 33.20192875009111,35.27473325628547,0 33.20182960742795,35.27481669078215,0 33.20149565975529,35.27487902205007,0 33.20093825563146,35.27489705828993,0 33.20089858619189,35.27493878439018,0 33.19999877625624,35.27499593393142,0 33.20005222777677,35.27521176246982,0 33.19904201759721,35.2753059243071,0 33.19891411905148,35.27570951353028,0 33.19872436619342,35.27583926065906,0 33.19891086185621,35.27600881389636,0 33.19881172703332,35.27608296523643,0 33.19879798384125,35.27616752241607,0 33.19879035692236,35.27621445564638,0 33.19869964705791,35.27622245301924,0 33.19851992127547,35.27643085984201,0 33.19838162681764,35.27641577305841,0 33.19781851236338,35.27635434450537,0 33.19733058836691,35.27636110037756,0 33.19699351026651,35.27639210570013,0 33.19688366633069,35.27646912848392,0 33.19680034573391,35.2764979704581,0 33.19632995470094,35.27657423743415,0 33.19639151855532,35.2766835665588,0 33.19603187549907,35.27673463190207,0 33.19585350845855,35.27677061202565,0 33.19568005797341,35.27679333808124,0 33.19566403909184,35.27702632063649,0 33.19508983827548,35.27706994022344,0 33.19500182903684,35.27761820078434,0 33.19474117362706,35.27764445522956,0 33.19472141767334,35.2777528992963,0 33.19471826405975,35.27789711423705,0 33.19473551364992,35.27815825011751,0 33.19485211446604,35.27815193836719,0 33.19487420927454,35.27845043782603,0 33.194918656302,35.27887068193917,0 33.19448456848995,35.27890198526537,0 33.19357616884729,35.27899829039144,0 33.19346147914579,35.27903593720166,0 33.19345333992814,35.27923678954949,0 33.19342773819167,35.27932112437724,0 33.19330785078295,35.27955721558171,0 33.19341116545164,35.27992047431586,0 33.193494151392,35.28011820364504,0 33.19329413862471,35.28020798760524,0 33.19315880956328,35.2802857850216,0 33.19300565649625,35.28048890046989,0 33.19289365880807,35.28068884393389,0 33.19318362576337,35.28072489002002,0 33.19312972143232,35.28073447667838,0 33.19277583955589,35.28085101954185,0 33.19244983911567,35.28131829077356,0 33.19237028371154,35.28144435062156,0 33.19225532772683,35.2816547343999,0 33.19203087017108,35.2817083365773,0 33.19180362861445,35.28165829166257,0 33.19101092555177,35.28168198493848,0 33.19052092613478,35.28174254193645,0 33.19040511450061,35.28186856293688,0 33.19034127133083,35.28197053335749,0 33.19030091464365,35.28209020424053,0 33.19019957701479,35.28236085912686,0 33.18978302633106,35.28244398547873,0 33.18955957454453,35.28247749774858,0 33.18889407656781,35.28260535537081,0 33.18870195302221,35.28265577037115,0 33.18861956618522,35.2827087109593,0 33.18857257639989,35.28268214921142,0 33.18854918112741,35.282604190698,0 33.18786306459022,35.28275772998329,0 33.18735622246495,35.28293114010967,0 33.18734450533607,35.2829054174254,0 33.18706610121298,35.28298948409228,0 33.18675853853802,35.28292488295825,0 33.18665074211458,35.28293360616655,0 33.18631762470896,35.28291878893172,0 33.18596387735852,35.28293769353446,0 33.18556403283047,35.28298466932397,0 33.18545636006984,35.28291706476088,0 33.18531331205507,35.2829128942315,0 33.18510569793027,35.28294067906868,0 33.18474639804391,35.28298876461475,0 33.18415530529244,35.28304131428384,0 33.18387929937397,35.28286962831139,0 33.18359787592175,35.28307813761129,0 33.18384994772765,35.283192668665,0 33.18380659911038,35.2832576315004,0 33.1836622849272,35.28335991262291,0 33.18358352616761,35.28340409904298,0 33.18346495968912,35.28347061989581,0 33.18368934002198,35.28379384658697,0 33.18322757515423,35.28391385858591,0 33.18311177830468,35.28371006149052,0 33.18306213868275,35.28350151394098,0 33.18297831598323,35.28340343854698,0 33.18291516280151,35.2833295484319,0 33.18272564932268,35.28315598394319,0 33.18254101365628,35.28293908585151,0 33.18225245393871,35.2831003062559,0 33.18171155029162,35.28331246572144,0 33.18154077551394,35.28340185820861,0 33.18132756015273,35.2835134655946,0 33.18098653511833,35.28350947206214,0 33.18082916976245,35.28355750329411,0 33.180527889354,35.28351980848955,0 33.18047655214707,35.28345226233785,0 33.18037697714296,35.28340056592897,0 33.18028201248565,35.2833512629534,0 33.18015970774744,35.28321716863812,0 33.17997483295854,35.28314801379069,0 33.17988368401532,35.28306123247189,0 33.17915324516224,35.28311360156913,0 33.17906922901837,35.28307213879075,0 33.17858615358532,35.28317797143526,0 33.17877817247167,35.28328456586188,0 33.17898258710212,35.28339900261472,0 33.17912561043668,35.28347907091617,0 33.17925179644118,35.28361660110595,0 33.17937515834814,35.28368663879166,0 33.17908386813185,35.28382852008595,0 33.17899567523723,35.28382359925423,0 33.17846695503232,35.28354581660939,0 33.17811660795768,35.28383947845506,0 33.17780490638521,35.28387768967195,0 33.17704305620131,35.28411785324542,0 33.17721304575391,35.28442897671237,0 33.17729503316708,35.28462430641895,0 33.17711557502809,35.28469400111888,0 33.17699191459879,35.28480232206802,0 33.1767510530087,35.2846743018013,0 33.17642217234167,35.28444253393157,0 33.17611693108803,35.28414089419434,0 33.17545354560806,35.28353513997856,0 33.17512413678543,35.28361430003174,0 33.17515025149287,35.2838143857749,0 33.17513533679086,35.28393970519772,0 33.17498509137242,35.28411789373885,0 33.17494087786191,35.28418292045074,0 33.17493190228468,35.28427450235466,0 33.17501699100674,35.28437342338448,0 33.17506398396753,35.2843999921939,0 33.1750373657459,35.28449155276044,0 33.17489339044544,35.28444317999163,0 33.17472305614202,35.28433692758056,0 33.17468792007539,35.28425493703137,0 33.17495899360542,35.28390816583705,0 33.17496201019203,35.28386478415626,0 33.1748710585828,35.28375621412186,0 33.17466547614354,35.28363063910867,0 33.17469754125567,35.28378975655318,0 33.17435332697314,35.28392915466962,0 33.17392093032142,35.28405880665522,0 33.17368849581355,35.28416217964462,0 33.17353261397025,35.28419815135511,0 33.17310611270202,35.28431816698792,0 33.17297381115838,35.28432042130523,0 33.17280392248338,35.28396108386988,0 33.17236297350096,35.28393646246232,0 33.1724190777451,35.28379672922819,0 33.17226661756024,35.28339124952985,0 33.17217400881531,35.28314494736433,0 33.17214059273964,35.28302079945924,0 33.17201897548551,35.28250452598407,0 33.17183976530644,35.2825447940406,0 33.17149708521049,35.28262179254592,0 33.17110436196433,35.28272490637799,0 33.1707973030197,35.2827968759693,0 33.17027304149085,35.28289640585676,0 33.1702801440605,35.28301198039912,0 33.17034054181256,35.28309851391544,0 33.17040704177217,35.28327579470262,0 33.17039556937788,35.28338902385193,0 33.17036087082658,35.28373144918168,0 33.17036922268805,35.28385660906776,0 33.16994041231466,35.28390249776573,0 33.16978936715868,35.2839768433158,0 33.16953897434116,35.28398497794628,0 33.16898663650052,35.28406024568192,0 33.1687481725242,35.28411057834998,0 33.16816662153965,35.28421674198344,0 33.16787324826142,35.2842838807421,0 33.16742376635631,35.28437895161031,0 33.16725558336835,35.28444483568566,0 33.16678034993853,35.28455393465767,0 33.16659847024983,35.28460714520965,0 33.16653500251707,35.28461550460294,0 33.16648210679918,35.28446919799789,0 33.16636734666417,35.28439312309568,0 33.16625972933348,35.28416237963096,0 33.16621688170354,35.28414826514281,0 33.16615509618575,35.28417490570725,0 33.16588751755898,35.28420269935344,0 33.16578797752987,35.28424335484262,0 33.16539341326241,35.2843145815008,0 33.16532684162154,35.2841457584662,0 33.16525143727147,35.28411754179761,0 33.16510220844547,35.284134230976,0 33.16485867008183,35.28414517691188,0 33.16485851195649,35.284230953772,0 33.16482214961528,35.28441933497547,0 33.16484257310743,35.28450372990856,0 33.16485953504988,35.28460499535748,0 33.16480276753214,35.2846991384754,0 33.16453150402108,35.28486332260924,0 33.16443026349845,35.28489553782731,0 33.16441343518301,35.28472255800104,0 33.16446018673665,35.28448075577921,0 33.16441235684839,35.28437945200465,0 33.16388904366869,35.28451941517958,0 33.16388257155167,35.28431129428498,0 33.16337338211059,35.28423472265331,0 33.16337014404813,35.28413206834981,0 33.16316267364538,35.28411352744735,0 33.16277509655182,35.28411585144177,0 33.16275808207375,35.28404411601684,0 33.16257797107841,35.28406779330177,0 33.16243755924155,35.28395512317509,0 33.16202399364727,35.2840994341946,0 33.16174951097989,35.28414970846551,0 33.16084232398594,35.28414714755105,0 33.16065362676533,35.28417643639328,0 33.16031577623467,35.28418162857971,0 33.15932588511608,35.28393427681294,0 33.15899642373033,35.28403650183276,0 33.15899716248698,35.28409837460109,0 33.15874145331763,35.28419506932374,0 33.15858391592276,35.28425703340296,0 33.15856997988787,35.28426200207485,0 33.15820471691483,35.28439220215962,0 33.15798656277033,35.284498669453,0 33.15736158771003,35.28470142481333,0 33.15690125252356,35.28481502210731,0 33.15658434792451,35.28485184504709,0 33.15539056458327,35.28490737280036,0 33.15477697566541,35.28495952120132,0 33.15455896825421,35.28498902281915,0 33.15406556114049,35.2849858835252,0 33.15368410661599,35.28500771712275,0</coordinates>
						</LinearRing>
					</outerBoundaryIs>
				</Polygon>
			</MultiGeometry>
		</Placemark>
	</Document>
</kml>