<?xml version='1.0' encoding='UTF-8'?>
<kml xmlns="http://www.opengis.net/kml/2.2">
	<Document>
		<name>AGIOS THEODOROS LARN</name>
		<Style id="PolyStyle70">
			<LabelStyle>
				<color>00000000</color>
				<scale>0.000000</scale>
			</LabelStyle>
			<LineStyle>
				<color>ff0055ff</color>
				<width>2.000000</width>
			</LineStyle>
			<PolyStyle>
				<color>00828282</color>
				<outline>1</outline>
			</PolyStyle>
		</Style>
		<Placemark id="ID_70209">
			<name>AGIOS THEODOROS LARN</name>
			<snippet />
			<description>&lt;html xmlns:fo="http://www.w3.org/1999/XSL/Format" xmlns:msxsl="urn:schemas-microsoft-com:xslt"&gt;

&lt;head&gt;

&lt;META http-equiv="Content-Type" content="text/html"&gt;

&lt;meta http-equiv="content-type" content="text/html; charset=UTF-8"&gt;

&lt;/head&gt;

&lt;body style="margin:0px 0px 0px 0px;overflow:auto;background:#FFFFFF;"&gt;

&lt;table style="font-family:Arial,Verdana,Times;font-size:12px;text-align:left;width:100%;border-collapse:collapse;padding:3px 3px 3px 3px"&gt;

&lt;tr style="text-align:center;font-weight:bold;background:#9CBCE2"&gt;

&lt;td&gt;4&lt;/td&gt;

&lt;/tr&gt;

&lt;tr&gt;

&lt;td&gt;

&lt;table style="font-family:Arial,Verdana,Times;font-size:12px;text-align:left;width:100%;border-spacing:0px; padding:3px 3px 3px 3px"&gt;

&lt;tr&gt;

&lt;td&gt;DIST_CODE&lt;/td&gt;

&lt;td&gt;4&lt;/td&gt;

&lt;/tr&gt;

&lt;tr bgcolor="#D4E4F3"&gt;

&lt;td&gt;VIL_CODE&lt;/td&gt;

&lt;td&gt;307&lt;/td&gt;

&lt;/tr&gt;

&lt;tr&gt;

&lt;td&gt;VIL_CCD&lt;/td&gt;

&lt;td&gt;4307&lt;/td&gt;

&lt;/tr&gt;

&lt;tr bgcolor="#D4E4F3"&gt;

&lt;td&gt;VIL_NM_E&lt;/td&gt;

&lt;td&gt;AGIOS THEODOROS LARN&lt;/td&gt;

&lt;/tr&gt;

&lt;tr&gt;

&lt;td&gt;VIL_NM_G&lt;/td&gt;

&lt;td&gt;ΑΓIOΣ ΘΕΟΔΩΡΟΣ ΛΑΡΝΑΚΑΣ&lt;/td&gt;

&lt;/tr&gt;

&lt;/table&gt;

&lt;/td&gt;

&lt;/tr&gt;

&lt;/table&gt;

&lt;/body&gt;&lt;script type="text/javascript"&gt;

				function changeImage(attElement, nameElement) {

				document.getElementById('imageAttachment').src = attElement;

				document.getElementById('imageName').innerHTML = nameElement;}

			&lt;/script&gt;&lt;/html&gt;

</description>
			<styleUrl>#PolyStyle70</styleUrl>
			<MultiGeometry>
				<Polygon>
					<extrude>0</extrude>
					<altitudeMode>clampToGround</altitudeMode>
					<outerBoundaryIs>
						<LinearRing>
							<coordinates> 33.38533840449224,34.81783904998404,0 33.38520051056174,34.81803773303311,0 33.38478490471446,34.81728024244943,0 33.38469583434936,34.81730807053482,0 33.38464392518781,34.81759662409412,0 33.38457117977645,34.81765490728503,0 33.38202508068104,34.81712409073724,0 33.38191308942717,34.81702379650547,0 33.38133705514277,34.81678038938291,0 33.38141266344016,34.81622659824368,0 33.3807412212448,34.81622875424611,0 33.37973904543287,34.81566478834703,0 33.37955655098205,34.81570968736506,0 33.37920721369919,34.81575725342444,0 33.37798253231169,34.81465139683912,0 33.37782187249009,34.81483068642016,0 33.37766569003841,34.81494504947273,0 33.37736592107756,34.81509780689165,0 33.37668562627098,34.81509291049599,0 33.37649224937641,34.81511092856517,0 33.3765483489229,34.81457686295339,0 33.37583743807486,34.81413472585234,0 33.37601516637276,34.81393650346943,0 33.37566885225259,34.81369074829694,0 33.37551336244758,34.81345035656516,0 33.37555367684545,34.8133896655964,0 33.37563291613607,34.81341179858482,0 33.37619144558057,34.81341939774535,0 33.37626835585905,34.81342661944081,0 33.37687529552155,34.81301938571934,0 33.37704037425409,34.81294045097937,0 33.37761172507535,34.81278424758339,0 33.37761845294514,34.81154307194257,0 33.37763214827685,34.81105847074384,0 33.37703437061015,34.81072545035423,0 33.37748592803824,34.81020730992476,0 33.37747696050624,34.81004868355087,0 33.37743138289579,34.80990985387474,0 33.37691189252562,34.80965385228605,0 33.3771399561186,34.80954621214802,0 33.37730065056935,34.80942606102587,0 33.37742872455654,34.80926470915599,0 33.37729385949937,34.80906406626128,0 33.37698963442512,34.80901404294908,0 33.37638790702405,34.80918997096705,0 33.37611571799238,34.80838905060864,0 33.37620222841985,34.80784600859615,0 33.37613914289244,34.80774389175602,0 33.37581970129729,34.8078499291419,0 33.37512711797115,34.80736088945832,0 33.37525010195976,34.80720671302556,0 33.37500662516599,34.8070276251953,0 33.37483034352367,34.8066227023979,0 33.37451957147341,34.80651712313364,0 33.37410043174882,34.80678793055377,0 33.37382020334088,34.80686333347892,0 33.37371602912653,34.8070246704332,0 33.3737815499007,34.80750670616504,0 33.37307324986758,34.80752138184895,0 33.3730998715887,34.80830450692837,0 33.37324115601373,34.80838149920366,0 33.3732869048871,34.80855351505548,0 33.3735368689199,34.80869138470484,0 33.37334157389947,34.80904989380733,0 33.37315483534484,34.80922202235831,0 33.37286379678769,34.80938344821756,0 33.37270301949919,34.80939606884032,0 33.37252048667593,34.80936927325633,0 33.37229221944231,34.80918838198276,0 33.37248759548591,34.80893740013662,0 33.37201347756446,34.80827634703446,0 33.37204814754131,34.80814013293076,0 33.37186755423503,34.80776925870828,0 33.37202818861284,34.80755234222723,0 33.37200843146238,34.80725845060049,0 33.3721386476542,34.80704692476338,0 33.37188207117718,34.80676210537533,0 33.37237269983394,34.80617586595903,0 33.37188528266931,34.80614688108486,0 33.3714512608547,34.80586089189737,0 33.37081927559309,34.80625723167064,0 33.37051517124102,34.80600780716797,0 33.3704880353577,34.80598555094383,0 33.37048088009931,34.80541549375624,0 33.37041308162633,34.80535404814309,0 33.36990830282505,34.80538501495673,0 33.36981352068852,34.80549962765631,0 33.36915306943012,34.80578774777867,0 33.36873639067011,34.80584102559952,0 33.36844458626926,34.80569310068586,0 33.3680763811914,34.80555516256334,0 33.36794214405602,34.80545590233273,0 33.36778752511036,34.80545022182113,0 33.36721143279596,34.80520735922219,0 33.36666099415083,34.80513579675544,0 33.36633423316838,34.80524944048958,0 33.36552753472106,34.80500966620893,0 33.36545975838052,34.80480253071568,0 33.36519133438553,34.80435566618793,0 33.36500232614193,34.80420232583009,0 33.36440350091954,34.80409694958959,0 33.36452552804103,34.80362117973539,0 33.36482744246552,34.80336403944978,0 33.36503171808062,34.80355878031895,0 33.36553603186963,34.8035594832855,0 33.36577922360271,34.80350756191142,0 33.36628802732677,34.80353066554539,0 33.36646430628751,34.80299894956861,0 33.36645997099958,34.80274141901418,0 33.36626605091561,34.8022130899727,0 33.36633369691945,34.80203780115499,0 33.36623032776555,34.80178019901336,0 33.36583257096132,34.80174804792048,0 33.36573381200734,34.80137854607493,0 33.365562873844,34.80122535141079,0 33.36581504141706,34.8010221746613,0 33.3657794670079,34.80043648884801,0 33.36562641558001,34.80046611880223,0 33.36568026213808,34.80068253338555,0 33.36555416737588,34.80076815341726,0 33.36506379496912,34.80048026488235,0 33.36486559215165,34.80067022170206,0 33.36436576745103,34.80045185876928,0 33.36485316502771,34.79929396722019,0 33.36387129884626,34.79869462350084,0 33.36325117361378,34.79794448134982,0 33.36348579662506,34.79770697491567,0 33.36381543997134,34.7970202078527,0 33.36371681670423,34.7966846973811,0 33.36369972685771,34.79616513534478,0 33.3639380414443,34.79624742686971,0 33.3640237111081,34.79603890192161,0 33.36384397507356,34.79585983135906,0 33.36378639424846,34.79561888129079,0 33.36356171857193,34.79542114482305,0 33.36393976037683,34.79517581074305,0 33.36434421445036,34.79551160403705,0 33.3647763034264,34.7951583135378,0 33.36499301152269,34.79535724084155,0 33.36580674787051,34.79580908550488,0 33.36606310221788,34.79585040805818,0 33.36623861259244,34.79572025218111,0 33.36645250724237,34.79566721508691,0 33.3669743841642,34.79545929584756,0 33.36690379991948,34.79489875863806,0 33.36702980369945,34.79476484123948,0 33.36731312934789,34.79478011441611,0 33.36780338058114,34.79470627077017,0 33.3680642898778,34.79455763761656,0 33.36859954588789,34.7943348853313,0 33.3686445965978,34.79410405649244,0 33.3689302300353,34.79396298189243,0 33.36907410976077,34.79404881646082,0 33.36944289824869,34.79390779136995,0 33.36980252531495,34.79463817618407,0 33.37050759818035,34.79470239771958,0 33.3710448111514,34.79478043423566,0 33.37120969145717,34.79495274341588,0 33.3715834518744,34.79499235305478,0 33.37158743414417,34.79493930938663,0 33.37158734585861,34.79481001982503,0 33.37175609826045,34.79476353046874,0 33.3717318998874,34.79463756698077,0 33.37222995334452,34.79426935674152,0 33.37255518488064,34.79387470572853,0 33.37397756660744,34.79359887053207,0 33.37425036420267,34.79294566024575,0 33.37498550420249,34.79259389927552,0 33.37504171920096,34.79253419868812,0 33.37496931118937,34.79243146693086,0 33.37547947465614,34.79217263512168,0 33.37482423856858,34.79186465336684,0 33.37422959587533,34.79199754882021,0 33.37359082963467,34.79224317539801,0 33.37352247311031,34.79218353597367,0 33.37369903656125,34.79182873411651,0 33.37381555998187,34.79181210239441,0 33.37373482258337,34.79129166878833,0 33.37405201555709,34.79092353832204,0 33.37400377533697,34.79089704052719,0 33.37283076230931,34.79142802212826,0 33.3724167452928,34.79126246139542,0 33.3724608655021,34.79114309669971,0 33.37283024014783,34.79067880592384,0 33.3728784179015,34.79061579555987,0 33.37334372041141,34.79029343145744,0 33.37365884330491,34.79007511078718,0 33.37407761805725,34.78957988082236,0 33.37430948156793,34.78914443892617,0 33.37439072598374,34.78890559168327,0 33.37440562901781,34.78866428826725,0 33.3741130706929,34.78855497708295,0 33.37390513139956,34.78871428339253,0 33.3733895132472,34.78870209376225,0 33.37314531180319,34.78875444987754,0 33.37288297445273,34.78874213675706,0 33.37240951573978,34.78865280811944,0 33.37228875044435,34.78842898172703,0 33.37262334142793,34.78828205599449,0 33.37255968164848,34.78779203088789,0 33.37233659419421,34.78784935086345,0 33.37154681039302,34.78815569346809,0 33.37050332603904,34.78832205689275,0 33.37013665923427,34.78838051201468,0 33.37000722569091,34.78825697919234,0 33.36973843693961,34.78844810436146,0 33.36981338134459,34.788532335615,0 33.36959912913003,34.78883298084592,0 33.36873094125789,34.78857494979452,0 33.36900977144715,34.78811698436717,0 33.36895525391859,34.78803555010438,0 33.3685366235002,34.78812281058529,0 33.36848544496851,34.7879402572317,0 33.36867937250563,34.78778849274534,0 33.36949622513724,34.78764206830793,0 33.36959144465047,34.78750158345741,0 33.36944840838395,34.78739490972603,0 33.3696082740648,34.78721507131535,0 33.36979546215895,34.78717285385906,0 33.3696932449687,34.78702122172567,0 33.3699110543538,34.7869565198952,0 33.37050247216872,34.78704650986604,0 33.3707319723495,34.78708143022453,0 33.3708584848886,34.78689480374737,0 33.37052658600702,34.786556643651,0 33.37077972915199,34.78635752069939,0 33.37158464739058,34.78616063003486,0 33.37194347892789,34.78620026449454,0 33.37282387222026,34.7861451228838,0 33.37320682923031,34.78618971704396,0 33.37329463584246,34.78670957989787,0 33.37312002567063,34.78709772740472,0 33.37338541259513,34.78716476509979,0 33.37340327516505,34.78683888284014,0 33.37351182532486,34.78684629328811,0 33.37366250053454,34.78672432941639,0 33.37320952487686,34.78573199956566,0 33.37380003133562,34.78507499258299,0 33.37466313800077,34.78615915985517,0 33.3747717048296,34.78619144472799,0 33.37482001996838,34.78628843654369,0 33.37510048479027,34.78636043976812,0 33.37518800938963,34.78647731204195,0 33.37596589865149,34.78643463772301,0 33.37659322320706,34.78665820330554,0 33.37662651953802,34.78682983066867,0 33.3769159846856,34.78683963405025,0 33.37717238416168,34.786986271568,0 33.37723587776017,34.78721509611004,0 33.37766702755027,34.78717756315152,0 33.37767586020461,34.78689894897246,0 33.37836928280421,34.78680157237367,0 33.37845059974935,34.7866821267892,0 33.3784202612792,34.78643836098824,0 33.37792538586505,34.7859311481588,0 33.37797354456025,34.78581918240738,0 33.37782269337976,34.78569736862104,0 33.3779190485441,34.78552318734324,0 33.37806371888162,34.78544848542774,0 33.37823222215847,34.78499814411774,0 33.37838589262778,34.78486871007274,0 33.37840378311324,34.78460501638585,0 33.37823187486659,34.78454291588405,0 33.37810205118773,34.78431412472842,0 33.37818580754192,34.78344093689061,0 33.37795642713673,34.78313010792275,0 33.37834213580871,34.78284632215279,0 33.37810952990047,34.78225937114065,0 33.37775929732422,34.78161029141592,0 33.37779489542363,34.78084160787413,0 33.37813245844176,34.7806896898154,0 33.3781233123315,34.78056034068431,0 33.37855733175085,34.78038349589293,0 33.3791483754822,34.78052249063325,0 33.37950710522595,34.78045762383501,0 33.3793954254627,34.78029350261136,0 33.37921455833723,34.78033588639633,0 33.37881900318717,34.77955996559084,0 33.37912648404589,34.77950756512735,0 33.37936453563886,34.77934077032386,0 33.37927398323718,34.77920648884611,0 33.37938842124549,34.77904224704142,0 33.37960232825053,34.77884810207568,0 33.37940626451009,34.77872382674942,0 33.37939393758409,34.77837805750165,0 33.37886898237594,34.77790569158826,0 33.37974313443637,34.77769875979641,0 33.38036722730797,34.7777208153941,0 33.38068661554991,34.77748432211364,0 33.38005109571183,34.77690098273585,0 33.37995618361204,34.77641256188518,0 33.3809905868107,34.77681748236534,0 33.38211792040463,34.77654820588437,0 33.38185400612912,34.77578352712417,0 33.38161671597152,34.77504482617621,0 33.38170885332569,34.77430191462898,0 33.38145770644539,34.77430842872939,0 33.38141892123317,34.77412352940402,0 33.38107894263863,34.77418110353212,0 33.38095095413587,34.77357859410735,0 33.3806225200855,34.77356920774234,0 33.3806223232072,34.77332052495284,0 33.38088889559672,34.77327893469823,0 33.38119412578008,34.77325963930242,0 33.3812095227722,34.77318948946798,0 33.38104336313734,34.77317044986012,0 33.38122845475535,34.77270167826565,0 33.38158005841651,34.77270148635582,0 33.38184610415794,34.77200630305938,0 33.38238633161429,34.77113880246267,0 33.38227416339257,34.77099539336443,0 33.38232811385223,34.77081682240721,0 33.38213866954506,34.77066707970047,0 33.3810414496958,34.77076651452478,0 33.38079443868298,34.77110460370617,0 33.38095291930643,34.77119059983573,0 33.38098775391824,34.7712670991857,0 33.38096469061554,34.77141695891864,0 33.38083744592771,34.771739039409,0 33.38059784717833,34.77168815781318,0 33.37999150428256,34.77202962534083,0 33.37978301634077,34.77223059538199,0 33.37973718848629,34.77291928036411,0 33.37960237335113,34.77345816585935,0 33.37931641276357,34.77341049126147,0 33.37924881465247,34.77332402066671,0 33.37927843868014,34.77272362258413,0 33.37933557289165,34.77232860554341,0 33.37947755011365,34.77199448234722,0 33.38003496743364,34.77124483802282,0 33.37942780389805,34.7713354439129,0 33.37879074190226,34.77167659736627,0 33.3786265854234,34.77162702764767,0 33.37826838431169,34.77178972328789,0 33.37825714997982,34.77140602680441,0 33.3782761891997,34.77126382080378,0 33.3780353178921,34.77104726687779,0 33.37828145491162,34.77099522670711,0 33.37866429374352,34.77086411620374,0 33.3787955058047,34.77075796555241,0 33.37881727675386,34.77061350092454,0 33.37878420603339,34.77029301389329,0 33.37900846368916,34.77024775526252,0 33.37972793992436,34.77038054241759,0 33.37980160985335,34.77014576660776,0 33.38052069717224,34.76978650719629,0 33.38084368538158,34.77007975302887,0 33.3811581152405,34.76991932960476,0 33.38166123199152,34.7697114041088,0 33.38182798402246,34.7695894309184,0 33.38236916169402,34.76909709028662,0 33.38275748122393,34.76899982099098,0 33.38303637505616,34.76887778382007,0 33.38324414317338,34.76874675703917,0 33.38319484740894,34.7686700442016,0 33.38284756275596,34.76877857755711,0 33.38242916216655,34.7688826349333,0 33.3822350339745,34.76897302587528,0 33.38174022133792,34.76929605977621,0 33.38163347856282,34.76921034869611,0 33.38234128152136,34.7684493253402,0 33.38229178748644,34.76812659115057,0 33.38299456605283,34.76792757857555,0 33.3838914069904,34.76757045605468,0 33.38405563305587,34.76770804472488,0 33.38500983484155,34.76726285644978,0 33.38497965243849,34.7671500202515,0 33.38543617211053,34.76685633669916,0 33.38588418073557,34.76620603915605,0 33.38690424583966,34.7660451888427,0 33.38727609957777,34.76590503016094,0 33.38772720772305,34.76569259620177,0 33.38855306824203,34.7655318473464,0 33.38921179885844,34.76505069103134,0 33.38933217074662,34.76508673041346,0 33.38950714400934,34.76500311158751,0 33.38969542416322,34.76451321073873,0 33.38999609158111,34.76430311667701,0 33.39019286690202,34.76413822930893,0 33.39026101216114,34.76388313782913,0 33.39044700060004,34.76388979378518,0 33.3905506675874,34.76360308054397,0 33.3906188199842,34.76335701690396,0 33.39068438172762,34.76326669343344,0 33.39085924548965,34.76307473244081,0 33.39105882952373,34.76299335362361,0 33.39111888903347,34.76287143353034,0 33.39091096634964,34.76280610834375,0 33.39133985118369,34.76224834219416,0 33.39103499620554,34.76186481635304,0 33.39077693195055,34.76212470705241,0 33.39050816009119,34.76250474062923,0 33.3903967282194,34.7626623028496,0 33.39027632984055,34.76287668722961,0 33.39017902589337,34.7629435950243,0 33.39011468480468,34.76302991185359,0 33.39005278512082,34.76308607253733,0 33.38998126737228,34.76310810242273,0 33.3898083673462,34.76311942665553,0 33.38972922093261,34.76338417797269,0 33.38962905652087,34.76371920817405,0 33.38958524049607,34.76385201021294,0 33.38950450795571,34.76397705250964,0 33.38888699364415,34.7638228481924,0 33.38890702788423,34.76364176376325,0 33.38894460718223,34.76330229517999,0 33.38880736273271,34.76325209691871,0 33.3886440173854,34.76319382634182,0 33.38869175159856,34.76308640342483,0 33.38849616437601,34.76304683891055,0 33.3885146614254,34.76231553502023,0 33.38830925094064,34.76190325395306,0 33.38776522580858,34.76189992415377,0 33.3877804587388,34.76173043343877,0 33.38778317940947,34.76166846498798,0 33.38776315249772,34.76167119978001,0 33.38749838077718,34.76169762778778,0 33.38734020979143,34.76171522264646,0 33.38730235628784,34.7614906370682,0 33.38721680904936,34.76147561954039,0 33.38714511651119,34.76146826355097,0 33.38711079290107,34.76145966370672,0 33.38681129086534,34.76136560200866,0 33.38649413678637,34.76128587556889,0 33.38590766421123,34.76113845810077,0 33.38575803474602,34.76099707364394,0 33.3855813294651,34.76102997847464,0 33.38559624585601,34.76111709125036,0 33.3851013145467,34.76129443791535,0 33.38495047208029,34.76119270956397,0 33.3851149486598,34.76099355267075,0 33.38502129504142,34.76081521714012,0 33.3850868027848,34.76024047484388,0 33.38526373048646,34.76012832389004,0 33.38519441735398,34.76002316200489,0 33.3854427322965,34.7596519425204,0 33.38548642511781,34.75938097961144,0 33.38548188475808,34.75937634156734,0 33.38513127932394,34.7590540633158,0 33.38530468490805,34.75887862133914,0 33.38485860186461,34.75861849869305,0 33.3849030186819,34.75808146237456,0 33.38488488541361,34.75804182133515,0 33.3848817441021,34.75798651967668,0 33.3851111081113,34.75799430787058,0 33.3851109344894,34.75799525945659,0 33.38515506167231,34.75798690041008,0 33.38561792235652,34.75789921569753,0 33.385868887513,34.758274563452,0 33.38673923201426,34.75816071497516,0 33.3867662711195,34.75815717381369,0 33.38681887030636,34.75815030891484,0 33.38676660774437,34.75802932454485,0 33.38665398292301,34.75776863385085,0 33.38668751432449,34.75776344766722,0 33.38680735907686,34.75773158816931,0 33.38675937512002,34.75752742810084,0 33.3869866129309,34.75749434656605,0 33.38704052085018,34.7570255528961,0 33.38700445946368,34.75687141561274,0 33.38728882948534,34.75681478617027,0 33.38730040863322,34.75685622086791,0 33.38743511571212,34.75738426692862,0 33.38736112072154,34.75771342047612,0 33.38739633193121,34.75808052768249,0 33.38741271337274,34.7581828531027,0 33.38742432313918,34.75825534015945,0 33.3874489616852,34.75828084871388,0 33.38781232139727,34.75865698589811,0 33.38784615220553,34.7586987147507,0 33.38796527765611,34.7588456404884,0 33.38837991197025,34.75874989116245,0 33.3883769046804,34.75870272122106,0 33.38870375198548,34.75855933923585,0 33.38903014314835,34.75888482522278,0 33.38952402378602,34.75917424824846,0 33.38980649838289,34.75922942933834,0 33.3901128244726,34.75909347417414,0 33.39014612533278,34.75907868636393,0 33.39034358105593,34.75882083647986,0 33.39032848673094,34.75873773001036,0 33.39031780286639,34.75867895233243,0 33.39043835279256,34.75858947582092,0 33.39040423153435,34.75846333533199,0 33.39029088920035,34.75804436269741,0 33.39001804543561,34.75819053456421,0 33.38968970771215,34.75790663620833,0 33.38955330266229,34.75778869155928,0 33.38951713920579,34.7574827086065,0 33.38952982878071,34.75739657889799,0 33.38954112149015,34.75728745929684,0 33.38955823070879,34.7571051354164,0 33.38919727095645,34.75711685468591,0 33.38912345638246,34.75711925588102,0 33.38893084394102,34.75730326268548,0 33.38889531713399,34.75728721302998,0 33.38893207242472,34.75727081803702,0 33.38906536892438,34.75707408378489,0 33.38904337312715,34.75669359504616,0 33.38925830653103,34.75656852967505,0 33.38925080929987,34.75638511978604,0 33.38893643312903,34.75624970410555,0 33.38902486889039,34.75601348870156,0 33.38890197555101,34.75600919816966,0 33.38862780439501,34.75599961205211,0 33.38861842034716,34.75576659012718,0 33.38835337004484,34.75577072600765,0 33.38831579031955,34.75576511708831,0 33.38766803500069,34.75566086578673,0 33.38752595450764,34.75546853150152,0 33.38742455796839,34.75531729124874,0 33.38714138611833,34.75489491621639,0 33.3870727628675,34.75489876993535,0 33.3870382309325,34.75483814671775,0 33.38725003626389,34.75487537152102,0 33.38812535857059,34.75376844305573,0 33.38817959798874,34.75369748323804,0 33.38873929148206,34.75300945174254,0 33.38868443171938,34.75297858426399,0 33.38881869622463,34.75280398146185,0 33.38889893904666,34.75269559271112,0 33.38896444592152,34.75260472302229,0 33.38917911727681,34.75272309265836,0 33.38959338562753,34.75277948746711,0 33.38988909119335,34.75248606864496,0 33.39031555497009,34.75256140304361,0 33.39027009015435,34.75266173763188,0 33.39108984035765,34.753007357904,0 33.39104212435431,34.7533125705934,0 33.39103917243416,34.75333071198386,0 33.39102290596484,34.75342613839442,0 33.3909557736895,34.75343180234086,0 33.39086258764157,34.75397870366287,0 33.39059881984044,34.75391924970171,0 33.39046878137434,34.75428653996802,0 33.39063679556948,34.7543614134271,0 33.39048270544385,34.75472585831055,0 33.3908973212607,34.75478692697638,0 33.39085612274565,34.75520239652968,0 33.39192900266234,34.75536949669186,0 33.39204211807148,34.75575868997319,0 33.39215484819866,34.75573648019027,0 33.39230309828552,34.75610001727073,0 33.39277404895211,34.75596398828751,0 33.39275877568546,34.75589931204771,0 33.39269944800387,34.75560486401247,0 33.39281737851352,34.75558301545859,0 33.39280340331461,34.75553181181341,0 33.39278004197517,34.75541867229396,0 33.39270829593511,34.7551316174771,0 33.39266335112502,34.75497945764993,0 33.39261803927358,34.75483186666771,0 33.39261507124406,34.75476346646819,0 33.39262698321361,34.75472726341052,0 33.39265134071748,34.75468451711237,0 33.39269875446688,34.75464163516171,0 33.3928494852024,34.75455402317927,0 33.39290003485488,34.75451097418002,0 33.39293786576473,34.75447328479643,0 33.3930230021367,34.75435217965683,0 33.39304117046234,34.75432342493682,0 33.3930137267326,34.75428619499039,0 33.39295234063631,34.75427791037639,0 33.39271681777559,34.75427459014215,0 33.392496548692,34.75427168634258,0 33.39222206423781,34.75425591809895,0 33.39219188804707,34.75425077601851,0 33.39219626151948,34.75420346338085,0 33.39221810624756,34.7533035278316,0 33.39244059798483,34.75326380408392,0 33.39268339741668,34.7532101067664,0 33.39286692217095,34.75254841402349,0 33.39336318974647,34.75249347731203,0 33.39353054932503,34.75219296406124,0 33.39403762423357,34.7519067965213,0 33.3945409738509,34.7523416001794,0 33.39549926613284,34.75104649964803,0 33.39570632838016,34.7507550619159,0 33.39571503865567,34.75063671461415,0 33.39503341066668,34.75060439271502,0 33.39444652842293,34.75046094668716,0 33.39453893971893,34.75021874209808,0 33.3939938565302,34.74995510501915,0 33.39361957877146,34.75070180813282,0 33.39306362129943,34.75060385030348,0 33.39250771807722,34.75056233182017,0 33.39252521155635,34.7503984616537,0 33.39222959021498,34.75035131414683,0 33.39215037038682,34.75055527525813,0 33.39125452228578,34.75024086969076,0 33.39141748604614,34.74995128639232,0 33.39123214757471,34.74989496298941,0 33.39162844399587,34.74908817267564,0 33.39181113912374,34.74867295316891,0 33.39184859648527,34.74862923454347,0 33.3934788022284,34.74878658970255,0 33.393778058165,34.74802172974866,0 33.39299250193388,34.74768905821598,0 33.39330460306159,34.74676546243989,0 33.39336864571165,34.74657045139526,0 33.39363383609086,34.74666587300216,0 33.39383504790705,34.74676512028968,0 33.39408113697677,34.74688650247583,0 33.39463369272939,34.747033831571,0 33.39501421801076,34.74712534897242,0 33.39523010627357,34.74716265583273,0 33.39659315429159,34.74751972477656,0 33.39683694374443,34.74763760307555,0 33.39701787034255,34.74772508493727,0 33.39737022300673,34.74776525861314,0 33.39778790375826,34.74785451412912,0 33.3980087674134,34.74792250885864,0 33.39871926184527,34.74802899349933,0 33.39918299731725,34.74808889431151,0 33.3994450859994,34.7481013909746,0 33.39986082182385,34.74816290788775,0 33.40032110960552,34.74830107662759,0 33.40039512433366,34.74832329403233,0 33.4004744425886,34.74834710305415,0 33.4006924522327,34.74843648846412,0 33.40101316288926,34.74850836889683,0 33.40126001532943,34.74863735219029,0 33.40185254718189,34.74884374244179,0 33.40238262772256,34.7489986691147,0 33.40300490984092,34.74919473109797,0 33.40378849556144,34.7494033497443,0 33.40497145706637,34.74962751752281,0 33.40578948423113,34.74972199600795,0 33.4063770481858,34.74975959094576,0 33.40717875802188,34.74985407216514,0 33.40724028424703,34.74985591274749,0 33.40774709850868,34.74987107327574,0 33.40841142411292,34.74987056540072,0 33.40847461105366,34.74987784999962,0 33.40853431967717,34.74988473426817,0 33.40875509149602,34.74985762314625,0 33.40888177521747,34.74982424601708,0 33.40961126984855,34.74973018042129,0 33.41019111494033,34.74973131356471,0 33.41063652131575,34.74970085413478,0 33.41083436957892,34.74977518267853,0 33.41098034221514,34.74981944118836,0 33.41127217962121,34.74981604098171,0 33.4114910270237,34.74978892689495,0 33.4118443167547,34.7497934010283,0 33.41194226001728,34.74981392497567,0 33.41221309160527,34.74990720901889,0 33.41231252880367,34.74996216236443,0 33.41236892576296,34.74986938637593,0 33.41273990538087,34.75003253646086,0 33.41270976241633,34.7500744130302,0 33.41295641017951,34.75007783540364,0 33.41308951642669,34.7501047377884,0 33.41304828205234,34.74997208853931,0 33.41307980560865,34.74992632462847,0 33.41317602846638,34.74997938429225,0 33.41319426850389,34.75013526453448,0 33.41330558204606,34.75018019042912,0 33.41342569828116,34.75028993173586,0 33.4136614232694,34.75038697540116,0 33.41405422181188,34.75048209101556,0 33.4144229769612,34.75053760955969,0 33.41466732209588,34.75054461327839,0 33.41501881757384,34.75076220309315,0 33.4151040259099,34.75086656910357,0 33.41537706524703,34.75114724507214,0 33.41585304016124,34.75146376363901,0 33.41610418467737,34.75167783105557,0 33.41635265889313,34.75198872079388,0 33.41643944095206,34.75214556325272,0 33.41663303755524,34.75241565441603,0 33.41690816938949,34.75261709519111,0 33.41698466146454,34.75272506936075,0 33.41700815827126,34.7528252930485,0 33.41709094657545,34.75282843145687,0 33.41720347651376,34.75288214689345,0 33.41723127591553,34.75295611259821,0 33.41703543210937,34.75294162093286,0 33.41712327912211,34.75333043637509,0 33.41721116915205,34.75352740907773,0 33.41726126880221,34.75348678818415,0 33.41734592111953,34.75340331081955,0 33.41740302345914,34.75344900103585,0 33.41728751696527,34.75362599847016,0 33.41726370273656,34.75364300941778,0 33.41729567180881,34.75371335859137,0 33.41746430638993,34.75394256179157,0 33.4176277549596,34.75409301329618,0 33.41781555819395,34.75423690675967,0 33.41818462762237,34.75458777029515,0 33.41864093883375,34.75507607525998,0 33.41892768347102,34.75555402995857,0 33.41915952629813,34.7560165957667,0 33.41931922342862,34.75636038042614,0 33.4194001512566,34.75652236826332,0 33.41959250005683,34.75680310313977,0 33.41975257512342,34.75701003950418,0 33.42000602842349,34.75730242440392,0 33.42026926489871,34.75756509096311,0 33.42043081965635,34.75748754537836,0 33.42040795100186,34.75744855254666,0 33.42046007071286,34.75741756715707,0 33.42062486515449,34.75754925868448,0 33.42066894394095,34.75760168471169,0 33.42062334934339,34.7576380464679,0 33.42047330153131,34.75756822319747,0 33.42034570602623,34.75762804619244,0 33.42055541274861,34.75783043716508,0 33.42094016890615,34.75807201211758,0 33.42091395344082,34.75800101035789,0 33.42100191404404,34.75795519630493,0 33.42115049345315,34.75815012707101,0 33.42115934085468,34.7582017525688,0 33.42136478926407,34.75832314755952,0 33.42166702949799,34.75853763028818,0 33.42188256279768,34.75877207252586,0 33.42210608104047,34.75897071694644,0 33.4222363680249,34.75911244095685,0 33.42274767680624,34.75952292578748,0 33.42298570874581,34.75976132281485,0 33.42312077701815,34.75987387888971,0 33.42318204201019,34.7599987554961,0 33.42321395428517,34.76003466763057,0 33.42323773910075,34.76006143389826,0 33.4233026674224,34.7600950344021,0 33.42397034271139,34.76054647509438,0 33.42485053244562,34.76118183018151,0 33.42491350655979,34.76124667204055,0 33.42496639026331,34.76130112375796,0 33.42581463079753,34.7620266277376,0 33.4287809827491,34.76355787013546,0 33.43049940875181,34.76417637193099,0 33.43091766618684,34.76429253758531,0 33.43149981228682,34.76443652142154,0 33.43431262517382,34.76518211580272,0 33.43585355468267,34.76545553109933,0 33.43693152702451,34.76559881996551,0 33.43820213591423,34.76576770153414,0 33.43825549498845,34.76580283835187,0 33.43835410871362,34.76580053892811,0 33.43860468631972,34.76582667834528,0 33.43932457907775,34.76600190279304,0 33.43979389098531,34.76614658743975,0 33.44080733356539,34.76655904431541,0 33.44127934654028,34.76672351564553,0 33.44206857925926,34.76691624821922,0 33.44335393097941,34.76734379346746,0 33.44396214725036,34.76767527261157,0 33.4440288114941,34.76769499759839,0 33.44459384793713,34.76768559873534,0 33.44628412334716,34.76795872197614,0 33.44670417048063,34.76895682512807,0 33.44713654465298,34.76931926893753,0 33.44725926254069,34.76938731777739,0 33.44815272958255,34.7697338590385,0 33.44959558747426,34.77042011309499,0 33.45073030502495,34.77107106154669,0 33.4510887112104,34.77120526029174,0 33.45275263390879,34.77168489456727,0 33.45352643176366,34.77183249213776,0 33.45452235033566,34.77206447539604,0 33.4548806612709,34.77213622059899,0 33.45542059124782,34.77220914339374,0 33.45563257456593,34.77226579166078,0 33.45637462349093,34.77252580446531,0 33.45674309009928,34.77263361194356,0 33.4570206849563,34.77270544447128,0 33.45775080593293,34.77286971707749,0 33.45812594586715,34.77294559649278,0 33.4583530677871,34.77300222179648,0 33.45866257433324,34.7730490359329,0 33.4595241242251,34.77312203460281,0 33.45953844773355,34.77312324797977,0 33.45953923942085,34.77312318459426,0 33.45959646461441,34.77311857670952,0 33.45952626118297,34.77453029739928,0 33.46002537979117,34.77463209286717,0 33.46034476096437,34.77521283009217,0 33.45992435728463,34.77541843455869,0 33.46047360381121,34.77572010592601,0 33.460945180856,34.77598805443181,0 33.46070665813799,34.7763344834836,0 33.46125963644451,34.77666454091801,0 33.461621909069,34.77692415404162,0 33.46240792143439,34.77749475069163,0 33.46366097976913,34.77758816531544,0 33.46369460475823,34.77800142809487,0 33.46427876187729,34.77830924479277,0 33.46340248607284,34.77990771457031,0 33.46301425642397,34.78086833672333,0 33.46179994679294,34.78060484171583,0 33.4610240213033,34.78180860281585,0 33.46098585564815,34.7823525146998,0 33.46071607994682,34.78239884920347,0 33.46072582132188,34.78250454522096,0 33.46045098561684,34.78246404717711,0 33.46019521216535,34.78255941873443,0 33.45982944883492,34.78262877205883,0 33.4596512478902,34.78268231060687,0 33.46010253851293,34.7831790589318,0 33.45929892778464,34.78352572461242,0 33.45854471522892,34.78370227199532,0 33.45809681394073,34.78381724269271,0 33.4579459242827,34.78384424364958,0 33.45778710002922,34.78326331199193,0 33.45728912485634,34.78342755919103,0 33.4569918409204,34.783466437341,0 33.4568270347797,34.78345950268208,0 33.45694846740106,34.78390085841998,0 33.45726722881427,34.78443587635438,0 33.45813120643955,34.78507079843733,0 33.45810340619946,34.78583746440395,0 33.45779390622749,34.78615204931833,0 33.45730298356361,34.78593865365896,0 33.45677081238006,34.78654483761701,0 33.4567708331978,34.78654861371159,0 33.45512242961973,34.78559564370907,0 33.45408096324316,34.78514261702062,0 33.45411401573845,34.78532752534507,0 33.45339694880623,34.78560585810438,0 33.45338363123233,34.7856814311852,0 33.45233724530437,34.78600252175786,0 33.45196308875313,34.78621537638666,0 33.45132738476699,34.78630836323452,0 33.45117999709485,34.78613898179206,0 33.45114649845359,34.78587099849318,0 33.45108990973922,34.78556533899717,0 33.4510109095792,34.78534661451021,0 33.45046668823588,34.78542792934445,0 33.45047697125522,34.78563557998556,0 33.45033061160236,34.78565500240433,0 33.450234722517,34.7856968950278,0 33.45008362164669,34.78568612529079,0 33.4496158593604,34.7858189238781,0 33.44926317391385,34.78589866123544,0 33.44848272049651,34.78640576530418,0 33.44814824155776,34.78650410679627,0 33.44734902210861,34.78689175303021,0 33.44649898979316,34.78709282881891,0 33.44569637517994,34.78729361779713,0 33.44519190817072,34.78728094781364,0 33.44460491664713,34.78719115614874,0 33.44452366425443,34.78735113216496,0 33.44423710984243,34.78750701856977,0 33.44430941004675,34.78786482326721,0 33.44395792349044,34.78794352587138,0 33.44414822436323,34.78843154554347,0 33.44434771383243,34.78844533352179,0 33.4446112265227,34.78836695116087,0 33.44540884844042,34.78835919703368,0 33.4459240879828,34.78819279236644,0 33.44643476380946,34.78826834059358,0 33.44735455793296,34.7880762523438,0 33.44799869087608,34.78788517202506,0 33.44830312217398,34.78778243706607,0 33.44852059948934,34.78786873399771,0 33.44880795844474,34.78786283583192,0 33.44904379292976,34.78808938741987,0 33.4489712707049,34.78877675795779,0 33.44875801036429,34.78946948721323,0 33.44869469968693,34.78969230293394,0 33.44868446261447,34.78996814907489,0 33.4477467154803,34.79009741027882,0 33.44766015856951,34.78927514055069,0 33.44740840179318,34.78935832437099,0 33.44743369272172,34.78969694480137,0 33.44686592122572,34.7899119358232,0 33.44693805224281,34.79023586741906,0 33.44719562097947,34.79126739925324,0 33.44731908712266,34.79211689871084,0 33.44649753097796,34.79224659137892,0 33.44642739226378,34.79209974113945,0 33.44613871729366,34.79184336187772,0 33.44606226327104,34.79144318400994,0 33.44581795006917,34.79114577775947,0 33.44468342838037,34.79110497799778,0 33.44444039373878,34.79104457158873,0 33.44385162133461,34.79116930901898,0 33.44334028236482,34.7909545983956,0 33.44253197635139,34.79078182745673,0 33.44180972779737,34.7909560763809,0 33.44170204338319,34.79119755991355,0 33.44125071536092,34.7910888666633,0 33.44123613890013,34.79114204193406,0 33.44067262650433,34.79136065757692,0 33.44088405380842,34.79199735743587,0 33.4415837682913,34.79223999986512,0 33.44235052015164,34.79297683872272,0 33.44187535159823,34.79304394591717,0 33.44140107502029,34.79327858599407,0 33.44155115533172,34.7935559115862,0 33.44210287143828,34.7948370108864,0 33.44211897478634,34.79506987240999,0 33.44146701661477,34.79542774786496,0 33.44175226205874,34.79597019288791,0 33.44241354071016,34.79550195100174,0 33.44257301130187,34.79568116883434,0 33.44318080154338,34.79540108831043,0 33.44328633289597,34.79568265919975,0 33.44324531561602,34.79634887743266,0 33.44371719036924,34.79658825052099,0 33.44324870528038,34.79698224372942,0 33.44206694605523,34.79738700048116,0 33.44163144659116,34.79746622148487,0 33.44101427395716,34.79784848582986,0 33.44168606055066,34.79841813336662,0 33.44119169901042,34.7986078965024,0 33.44007684777145,34.79855881040026,0 33.43994985840737,34.79796675450639,0 33.44002327258466,34.79779895035289,0 33.43990775565721,34.79750106772176,0 33.43968997211359,34.79753454482967,0 33.43951460159142,34.79715923803359,0 33.43941208340033,34.79650988439219,0 33.43919862731557,34.79642484231429,0 33.43771246575819,34.7964097647921,0 33.43784184106798,34.79651962959551,0 33.43752243035776,34.79700704956724,0 33.43751795176635,34.79709696446726,0 33.43709748751794,34.79706919615291,0 33.43640299349743,34.79702332738496,0 33.43484867388145,34.79723729304766,0 33.4340415002377,34.79728920950477,0 33.43165547816068,34.79760416897403,0 33.43106597997947,34.79760217200855,0 33.43067528401129,34.7977261441147,0 33.42985264821465,34.79766367108932,0 33.42897101457638,34.79768721391378,0 33.42832264385623,34.79779574132418,0 33.42772821177566,34.79779783182905,0 33.42786630749477,34.79863912689758,0 33.42806944937662,34.79864658511218,0 33.42802647208745,34.79895729629649,0 33.42793364032384,34.79920688782692,0 33.42771458096395,34.79899516919615,0 33.42716946673227,34.7989562209879,0 33.42687567867378,34.79962332078095,0 33.42680548055723,34.80042039738384,0 33.42672166657258,34.80049833127411,0 33.42667792537083,34.8006619371484,0 33.42664159982635,34.80130361571439,0 33.42569781714722,34.80177275956444,0 33.42553820188115,34.80156083006921,0 33.42494945234201,34.80170999466385,0 33.42459915421748,34.80198908618471,0 33.42450950292776,34.80189541388147,0 33.42424293688332,34.80208022723289,0 33.42417494420353,34.80234607430335,0 33.42474539359102,34.8024911921491,0 33.42522772510717,34.80284093126598,0 33.4253442465621,34.80334313935211,0 33.42440427715022,34.80359568679349,0 33.42451380863579,34.80370154859524,0 33.42392121674289,34.80407138180119,0 33.42364883127051,34.8040886762809,0 33.42337981272476,34.80379539770096,0 33.42327594667615,34.80382844912734,0 33.42319382381433,34.80384834754362,0 33.42320002397371,34.80399251898744,0 33.42329206179992,34.80407357175326,0 33.42343639541512,34.80420383196314,0 33.42326862906823,34.80433517698523,0 33.42315693326319,34.80446880490675,0 33.42309884710011,34.80450505488717,0 33.42319852206869,34.80476755985977,0 33.42327639790922,34.80482678281674,0 33.42359409838662,34.80507913404007,0 33.42375488149532,34.80498823294084,0 33.42370839996571,34.80541751393599,0 33.4235677703202,34.80587974601983,0 33.42450580230484,34.80606719693461,0 33.42438498107523,34.80623826156651,0 33.42457797805636,34.80649606330447,0 33.42386315421711,34.80652615928003,0 33.42347936172294,34.8064396646268,0 33.4234379644354,34.80657533689789,0 33.42146122899634,34.80689017959017,0 33.42123536773553,34.80675666204656,0 33.42099583822296,34.80666033824203,0 33.42021075277583,34.80692022132998,0 33.41926220440654,34.80705493404552,0 33.41892713658198,34.80724753573897,0 33.41876708483958,34.80711093035598,0 33.4186221185565,34.80721715367515,0 33.41814384378934,34.80717879441314,0 33.41802047230917,34.80675917580257,0 33.41816246479461,34.80675011520217,0 33.41763607240025,34.80610042895075,0 33.41750826906861,34.80617516035401,0 33.4175675793667,34.80625782250692,0 33.41757339292018,34.80672356381456,0 33.41741839359037,34.80690125631111,0 33.41684490408607,34.80721753996843,0 33.41663946124162,34.80700965016839,0 33.4162307300602,34.8077111199108,0 33.41584674882807,34.80788358522223,0 33.41541337755838,34.80757229525445,0 33.41504165284161,34.80756586343821,0 33.41465141215305,34.80744994777069,0 33.41307490665914,34.80764663897506,0 33.41264787488967,34.8075054767968,0 33.41137360434276,34.80767158209556,0 33.41100155811667,34.80738886579329,0 33.41103809394803,34.80719174073264,0 33.4105580557671,34.80712810441774,0 33.40976767258083,34.80715062276504,0 33.40894015911034,34.80685140843121,0 33.40853800742016,34.80702691362762,0 33.4083502878899,34.80718709377731,0 33.40847140756241,34.80773449040216,0 33.40875330567786,34.80777470310458,0 33.40887420522418,34.8081250037008,0 33.40879295723943,34.80852262793217,0 33.40898917766924,34.80865050434894,0 33.40900806468661,34.80909690391408,0 33.40885107629683,34.80934297426437,0 33.40854893877375,34.80947123473895,0 33.4083265786229,34.80971061606136,0 33.40810390400789,34.80966698834065,0 33.40755637148933,34.81136040979921,0 33.40777094030954,34.81145458280567,0 33.4077079840345,34.81177638533745,0 33.40782282850282,34.81219070532742,0 33.40936078265374,34.81213224766122,0 33.40948541995252,34.81217089615853,0 33.41157341335234,34.8126274647284,0 33.4119333146092,34.8129826252387,0 33.41194157818331,34.8130617930461,0 33.41148014119391,34.81321545644608,0 33.41008577237981,34.81381794865483,0 33.41006939116667,34.81378258508197,0 33.4099019035257,34.81378439970179,0 33.40989399282643,34.81401182552166,0 33.4094528127162,34.81402396055309,0 33.40916265602587,34.81392647954679,0 33.40888661622208,34.81366726765747,0 33.40820005282615,34.81343363862789,0 33.40753431958967,34.81355880500334,0 33.40704402082952,34.81348337049747,0 33.40699723397206,34.81365523386345,0 33.40706508136906,34.81405442758228,0 33.4067085426906,34.81487677188002,0 33.40680467552636,34.81499630519478,0 33.40674150727882,34.81513280441438,0 33.40635123810784,34.81501180803708,0 33.40626150903588,34.81514327277946,0 33.40569567759657,34.81511337197296,0 33.40573830198964,34.81486739156902,0 33.40550328224137,34.81475638467073,0 33.40497003681302,34.81463717363288,0 33.40490678350262,34.81469786676168,0 33.40420204856928,34.81465795531869,0 33.40373034227655,34.81477958873728,0 33.40321553971394,34.81471426406254,0 33.40271312281252,34.81477021846467,0 33.40262343729892,34.81494884865767,0 33.4010584861334,34.81463494837888,0 33.40116239834507,34.81438555743841,0 33.40082725107717,34.81422744365157,0 33.40043076139472,34.81400367282725,0 33.40048995264196,34.81396151652776,0 33.40071656380026,34.81385017543978,0 33.40024853956798,34.81358265429434,0 33.39950474602765,34.81328668677375,0 33.39956384665263,34.81315693389899,0 33.39916556113295,34.81316731773813,0 33.39912475442109,34.81321114478132,0 33.3985856071862,34.81329574425216,0 33.39825273594469,34.81335998779204,0 33.39789519579018,34.81326589419733,0 33.39772365189172,34.8132980174107,0 33.39764411662996,34.81342273127705,0 33.39690188846576,34.8134031185901,0 33.39672165479147,34.81339835533416,0 33.39662269437759,34.81330254569075,0 33.39610753774594,34.81311472217141,0 33.39604565959932,34.81316583737821,0 33.39552299706912,34.81307837330602,0 33.39557922207064,34.81280235637476,0 33.39451743505654,34.81244822410416,0 33.39383464991298,34.81191821435204,0 33.39255037394977,34.8117873207794,0 33.3922833958882,34.81209035180078,0 33.39091180063637,34.81151775113868,0 33.39046354209056,34.81199292953069,0 33.38950671605426,34.81234297349432,0 33.38936520621786,34.81232842446466,0 33.38830137139622,34.81178457774745,0 33.38823065857693,34.81167709556862,0 33.38853228857654,34.81123337548637,0 33.38849195956175,34.81108376187487,0 33.38822662861847,34.81080525416198,0 33.38707431353507,34.80997800354042,0 33.38695517536157,34.8103983152598,0 33.38652359218185,34.81007420427093,0 33.38627361211759,34.80994800909162,0 33.38554433081059,34.81086239264997,0 33.3856171902786,34.81094568103594,0 33.38533700912083,34.81107845687141,0 33.3854382313991,34.81129792758021,0 33.38597368551292,34.81112199383222,0 33.38598331839746,34.81095263601004,0 33.38613112074333,34.81101168887842,0 33.38629967198199,34.81119527757539,0 33.38641707240383,34.8112722680758,0 33.38645968334817,34.81155091032843,0 33.3871115404995,34.81280587439091,0 33.38856278326004,34.8125406753391,0 33.38851551278966,34.81314104769734,0 33.3890674780672,34.8131998515551,0 33.38905243010244,34.8133808600443,0 33.38973695525625,34.81345212496857,0 33.38992965166609,34.81389016775719,0 33.3891862733745,34.81482966985479,0 33.38890716596966,34.81495618084506,0 33.38830035948174,34.81432394533879,0 33.38832190457455,34.81411605216682,0 33.38672273963186,34.81422542454779,0 33.38672506673333,34.8144046305087,0 33.38663604705537,34.81448532619728,0 33.38663073453649,34.81462421480881,0 33.38633971345787,34.81461402157947,0 33.3863727199321,34.81401685412221,0 33.38596853279554,34.81398483372249,0 33.38579714389898,34.81430033792456,0 33.3860430553196,34.81473566884502,0 33.3860301220333,34.81485574403845,0 33.38559876464836,34.81609521401315,0 33.38611383805446,34.81618989320838,0 33.38594906176638,34.81662008671651,0 33.38632563441427,34.81678731105212,0 33.38598519968827,34.8169507034766,0 33.38647047855379,34.81776760398344,0 33.38604141715015,34.81789240397424,0 33.38584467079912,34.81778768301503,0 33.38533840449224,34.81783904998404,0</coordinates>
						</LinearRing>
					</outerBoundaryIs>
				</Polygon>
			</MultiGeometry>
		</Placemark>
	</Document>
</kml>