<?xml version='1.0' encoding='UTF-8'?>
<kml xmlns="http://www.opengis.net/kml/2.2">
	<Document>
		<name>AGIOS EPIKTITOS</name>
		<Style id="PolyStyle70">
			<LabelStyle>
				<color>00000000</color>
				<scale>0.000000</scale>
			</LabelStyle>
			<LineStyle>
				<color>ff0055ff</color>
				<width>2.000000</width>
			</LineStyle>
			<PolyStyle>
				<color>00828282</color>
				<outline>1</outline>
			</PolyStyle>
		</Style>
		<Placemark id="ID_70019">
			<name>AGIOS EPIKTITOS</name>
			<snippet />
			<description>&lt;html xmlns:fo="http://www.w3.org/1999/XSL/Format" xmlns:msxsl="urn:schemas-microsoft-com:xslt"&gt;

&lt;head&gt;

&lt;META http-equiv="Content-Type" content="text/html"&gt;

&lt;meta http-equiv="content-type" content="text/html; charset=UTF-8"&gt;

&lt;/head&gt;

&lt;body style="margin:0px 0px 0px 0px;overflow:auto;background:#FFFFFF;"&gt;

&lt;table style="font-family:Arial,Verdana,Times;font-size:12px;text-align:left;width:100%;border-collapse:collapse;padding:3px 3px 3px 3px"&gt;

&lt;tr style="text-align:center;font-weight:bold;background:#9CBCE2"&gt;

&lt;td&gt;2&lt;/td&gt;

&lt;/tr&gt;

&lt;tr&gt;

&lt;td&gt;

&lt;table style="font-family:Arial,Verdana,Times;font-size:12px;text-align:left;width:100%;border-spacing:0px; padding:3px 3px 3px 3px"&gt;

&lt;tr&gt;

&lt;td&gt;DIST_CODE&lt;/td&gt;

&lt;td&gt;2&lt;/td&gt;

&lt;/tr&gt;

&lt;tr bgcolor="#D4E4F3"&gt;

&lt;td&gt;VIL_CODE&lt;/td&gt;

&lt;td&gt;205&lt;/td&gt;

&lt;/tr&gt;

&lt;tr&gt;

&lt;td&gt;VIL_CCD&lt;/td&gt;

&lt;td&gt;2205&lt;/td&gt;

&lt;/tr&gt;

&lt;tr bgcolor="#D4E4F3"&gt;

&lt;td&gt;VIL_NM_E&lt;/td&gt;

&lt;td&gt;AGIOS EPIKTITOS&lt;/td&gt;

&lt;/tr&gt;

&lt;tr&gt;

&lt;td&gt;VIL_NM_G&lt;/td&gt;

&lt;td&gt;ΑΓΙΟΣ ΕΠΙΚΤΗΤΟΣ&lt;/td&gt;

&lt;/tr&gt;

&lt;/table&gt;

&lt;/td&gt;

&lt;/tr&gt;

&lt;/table&gt;

&lt;/body&gt;&lt;script type="text/javascript"&gt;

				function changeImage(attElement, nameElement) {

				document.getElementById('imageAttachment').src = attElement;

				document.getElementById('imageName').innerHTML = nameElement;}

			&lt;/script&gt;&lt;/html&gt;

</description>
			<styleUrl>#PolyStyle70</styleUrl>
			<MultiGeometry>
				<Polygon>
					<extrude>0</extrude>
					<altitudeMode>clampToGround</altitudeMode>
					<outerBoundaryIs>
						<LinearRing>
							<coordinates> 33.38103819435963,35.33633459360284,0 33.38088739010741,35.33641617781563,0 33.38060436545239,35.33662397084608,0 33.38042082470956,35.33681059787611,0 33.38001422931612,35.33711756318085,0 33.3798708361558,35.33728389678339,0 33.37952881101243,35.33756744091527,0 33.3792917153204,35.33769677733768,0 33.37911997932829,35.33774829758412,0 33.37900438616065,35.33664454071755,0 33.37905570703857,35.33654942846044,0 33.3790321299423,35.33608352135268,0 33.37914811264312,35.33599245085702,0 33.37931556969235,35.33600458712095,0 33.37952129488388,35.33618785636603,0 33.38009643954402,35.33600145399524,0 33.37963038595466,35.33576942355968,0 33.37949721622647,35.3350916705289,0 33.37921703260021,35.33508774361077,0 33.37911692282342,35.33428092893173,0 33.37884506817286,35.33432589786951,0 33.37857651797734,35.33435728119218,0 33.37854706862073,35.33422427596965,0 33.37846149529243,35.33383777431065,0 33.37841300290963,35.33307569098327,0 33.37943877116164,35.33301954648591,0 33.37928646679712,35.3322215378257,0 33.37929811048937,35.33180286089527,0 33.37960940864144,35.33176017557157,0 33.37964527107449,35.33168492639658,0 33.37950510349988,35.33109297574877,0 33.37959637929632,35.33042894310132,0 33.37954836946843,35.33028505094788,0 33.37955622486529,35.33012477402537,0 33.3794441058325,35.32966691336791,0 33.37944775485606,35.32923515809068,0 33.37933980281892,35.32899644297358,0 33.37934364069481,35.32880346061864,0 33.37924738779274,35.32821475622949,0 33.38013707930379,35.32776944599227,0 33.37990945705092,35.3269714443471,0 33.37987958963996,35.32686673468818,0 33.37931924439724,35.32697175791778,0 33.37892293994685,35.32704603431834,0 33.37890943439658,35.32697197479376,0 33.37884293418239,35.32660731019787,0 33.37892233774777,35.32660184603,0 33.37874470990064,35.32581693367784,0 33.37862308226892,35.32471338059268,0 33.37864419905458,35.3242144369039,0 33.37868045253392,35.32403274084461,0 33.37867211021363,35.32394190765491,0 33.37882261091212,35.3238916641943,0 33.37887367264194,35.32360827561871,0 33.37890833152455,35.32350386100242,0 33.37893792683641,35.32327336102693,0 33.37890974664548,35.32320016228526,0 33.37898413900712,35.32313640034511,0 33.37881863884665,35.32304293818729,0 33.3788748344269,35.3229805412149,0 33.37897556271488,35.32274729174753,0 33.37914431292546,35.32276618370633,0 33.37920036949308,35.32252617860863,0 33.37902324660625,35.32237713392324,0 33.37884279581149,35.32220368750314,0 33.37885100802851,35.32212775891846,0 33.37882439775039,35.32194609655988,0 33.37877469341863,35.32184850463032,0 33.37884062195968,35.3215393487106,0 33.3788968027356,35.32145797153968,0 33.37903078732382,35.32144705421561,0 33.37918289179288,35.32133783200842,0 33.37912989070946,35.32125447963671,0 33.37914882081862,35.32113583647443,0 33.37919590259396,35.3210537864234,0 33.37924963214405,35.32101240621081,0 33.37926441175155,35.32087546283675,0 33.37914417046211,35.32085561490639,0 33.37910475886327,35.32084910887677,0 33.37907081095693,35.32080370765849,0 33.37898311265642,35.32077257149343,0 33.37897642264414,35.32067970230224,0 33.37903002865814,35.32048037216074,0 33.37895295451463,35.32028585572606,0 33.37895198950401,35.32010824756527,0 33.37889223303877,35.31984796575416,0 33.37890585106486,35.3197198459788,0 33.37890722281227,35.31970695023224,0 33.37930663718723,35.31943185248728,0 33.37935291153965,35.31937284490499,0 33.37936939001393,35.31929080334058,0 33.37929159357716,35.31923593018772,0 33.37926013395432,35.31920137104061,0 33.37919966598626,35.31909428637724,0 33.37919214619769,35.31899801979252,0 33.37920778447197,35.31889970837646,0 33.37919364994341,35.31880751330716,0 33.37936892871366,35.31870437093743,0 33.37951024415283,35.3185402298729,0 33.37970290901347,35.318460128354,0 33.37978388491714,35.31835093489499,0 33.37993360703364,35.31835831191455,0 33.38022134399388,35.31821578721585,0 33.38033466469374,35.31821437081821,0 33.38038508009814,35.31816281859314,0 33.38045115457457,35.31804007163063,0 33.38044693244349,35.31793295751633,0 33.3802929714098,35.3177954153205,0 33.38034581410567,35.31767606583745,0 33.38056075499073,35.31752747768699,0 33.38061116079475,35.3174650782583,0 33.38063005415739,35.31730167988879,0 33.3806614175876,35.31721624086273,0 33.38077633935679,35.31715245023656,0 33.38087550356835,35.31703510982435,0 33.38091098274757,35.31692593990944,0 33.380851232162,35.31668461932958,0 33.38097273252864,35.31657201190235,0 33.38132659123426,35.31637792402793,0 33.38131495671345,35.31631081194343,0 33.38128018646679,35.31627422213143,0 33.38126766521343,35.31613321366996,0 33.38143782150925,35.31584566596177,0 33.38162111489287,35.3154408257731,0 33.38159128236277,35.31537304642985,0 33.38171774524972,35.31526518183566,0 33.38186402130304,35.31511052639313,0 33.38192268204474,35.31502981775554,0 33.38190267358124,35.31483932228721,0 33.38195045006962,35.31459997636095,0 33.38200989794303,35.31447113179313,0 33.3820536903497,35.31441619347938,0 33.38210488974006,35.31431718337647,0 33.38209075914526,35.3142331243778,0 33.38195835188706,35.31414980859071,0 33.38191688226213,35.31401084936898,0 33.38194149801978,35.31376948356932,0 33.38201075447228,35.31350029642884,0 33.38196681681915,35.31337828814411,0 33.3820816011369,35.31315382035081,0 33.38209801337199,35.31299516981709,0 33.38199945288416,35.31283183662663,0 33.38191008131943,35.31277697100376,0 33.38189350318938,35.31273359061824,0 33.38146122155867,35.31246630927629,0 33.38135163320676,35.31239854884222,0 33.38123387835666,35.31228451133035,0 33.38123541046105,35.3121296557126,0 33.38124032531308,35.31206037677201,0 33.38117721325605,35.31188789843907,0 33.38108430174669,35.31175482834649,0 33.38103615670863,35.31164754337856,0 33.38096654779331,35.31163671453784,0 33.38085718246355,35.3116476402665,0 33.38078756419699,35.31162730274799,0 33.38071440317672,35.31132306756761,0 33.38063479046554,35.31123889179445,0 33.38041426752953,35.3110895905949,0 33.38011757370241,35.31101368133341,0 33.38007445850639,35.31097702812813,0 33.3799781532433,35.31073936594845,0 33.37979905110113,35.31057781536301,0 33.37952384844677,35.31043397530188,0 33.37927341583748,35.31017601763926,0 33.37930814794405,35.31008906300618,0 33.37946383443928,35.30998031130931,0 33.37961283630849,35.30980364374327,0 33.37960607144058,35.30963113454313,0 33.37947509727001,35.30955513511766,0 33.37933255184988,35.30951445978686,0 33.37922151860264,35.30950908518712,0 33.37918010528096,35.30952676572354,0 33.37911545286721,35.30949555729628,0 33.37901422753476,35.30931766457609,0 33.37884665908496,35.30906509515321,0 33.3787587695551,35.30898499751423,0 33.37876205112731,35.30894424596968,0 33.37889291196228,35.30887625812528,0 33.37889283252442,35.30877573879059,0 33.37885628512795,35.30865893768638,0 33.37875671411287,35.30847561055396,0 33.37869519336864,35.30820940259188,0 33.37860220196259,35.30796086903511,0 33.37844297116615,35.30777078147565,0 33.37876951371742,35.30789150527165,0 33.37915733366259,35.30796329419487,0 33.37946555532925,35.30796584822689,0 33.3797902968221,35.30790047331378,0 33.38013330881974,35.30789078116308,0 33.38046798844326,35.30782132421421,0 33.38064360231491,35.30777232896927,0 33.38106614726657,35.3077557983673,0 33.38145555974021,35.30774607793648,0 33.38218451369073,35.30754192152306,0 33.38223261440558,35.30759487133565,0 33.38314564454377,35.30755768568265,0 33.38338923503613,35.30755483151619,0 33.38359638840037,35.30757237338791,0 33.38403215036066,35.30751100025633,0 33.38412533808747,35.30766042095383,0 33.38419308068341,35.30776904323695,0 33.38463943636884,35.30739812267998,0 33.3847477984223,35.3072945948311,0 33.38475755983456,35.30724587057264,0 33.38478141734478,35.3072011558509,0 33.38461395205456,35.30697322683569,0 33.38465192481474,35.30695562568928,0 33.38458316236773,35.30679343634204,0 33.38467128246601,35.30666229618687,0 33.38490449162559,35.30639094320773,0 33.38531671595765,35.30624304071188,0 33.38555495083362,35.30611784022837,0 33.38566934154608,35.30590431458237,0 33.38565026468172,35.30580789126944,0 33.38554533734281,35.305628144488,0 33.38558876291374,35.30554072583538,0 33.38556234878179,35.30546238946423,0 33.38543648358585,35.30528303292009,0 33.38554246963294,35.30521186859195,0 33.38738307878704,35.30397596139488,0 33.39029142611957,35.30203146213829,0 33.3920900392039,35.30084024125951,0 33.39453846130832,35.29990941220963,0 33.39442896902683,35.29978721372106,0 33.39413382395966,35.29961351170849,0 33.39382190096065,35.29922245163676,0 33.39357645858838,35.29903241299142,0 33.39392773369057,35.29899142855592,0 33.39462684925272,35.29878175452389,0 33.3949218732804,35.29883318586346,0 33.3958763857101,35.29882983643899,0 33.39599929512357,35.29911233372504,0 33.39665551106217,35.29909559101193,0 33.39671846394449,35.29907109424986,0 33.39683764740312,35.2989405932034,0 33.397029823183,35.29888883824881,0 33.39719546178787,35.2988099296495,0 33.39723842489779,35.29869034808292,0 33.39691980198456,35.29823952428279,0 33.39685671306626,35.29812273085336,0 33.39670085912135,35.29803860650544,0 33.39674388451093,35.29797880057106,0 33.39671646475932,35.29795269471128,0 33.39652513784984,35.29777053740445,0 33.39650699873516,35.2977403385658,0 33.39644747031725,35.29764123627117,0 33.39641400547048,35.29753703687086,0 33.39646349687023,35.29743869492329,0 33.39659776758234,35.29736838542249,0 33.396728392657,35.29725964041772,0 33.39673376022529,35.2972175041916,0 33.39668230546102,35.29715471000808,0 33.39665704369444,35.2971377261941,0 33.39669127321414,35.29710591973181,0 33.39670651616238,35.29702164511423,0 33.39693104808323,35.29705253776139,0 33.3969860704199,35.29707541529052,0 33.39717280844018,35.29717877150124,0 33.397279121433,35.29710182697676,0 33.39725176073217,35.29679213626661,0 33.39726162793153,35.29674186653743,0 33.39731303560017,35.2967580937176,0 33.39738502482125,35.29678008786685,0 33.39745149092442,35.29680039381672,0 33.39788050613889,35.29668056493946,0 33.39806100429692,35.29657856347045,0 33.39829600788877,35.29630808533472,0 33.39839040484903,35.29626319416252,0 33.39855935629998,35.29621281756503,0 33.39870028371627,35.29630101520203,0 33.39831626809077,35.29667754965192,0 33.39821690916007,35.29673195310344,0 33.39824182777595,35.29679577955537,0 33.39820714101136,35.29690175682529,0 33.39809452663317,35.29695616866223,0 33.39816427052428,35.2971055423447,0 33.39838461386037,35.29708094021786,0 33.398508908157,35.29710666346008,0 33.39849056386665,35.29699121430863,0 33.39865956979686,35.29699245651932,0 33.39886002308513,35.29696107583455,0 33.39892908261548,35.29644620355703,0 33.39894542933984,35.29623156883882,0 33.39898164092794,35.29599790271958,0 33.39901630202188,35.29586883293344,0 33.39900958540927,35.29578190199198,0 33.39905567411382,35.29548710253138,0 33.39926780406077,35.29553721487434,0 33.39946497356041,35.29553843691046,0 33.39966863271231,35.29540517341705,0 33.39972324477658,35.29534400850627,0 33.39979444734352,35.29530184924494,0 33.40001121853654,35.29503409789212,0 33.40035559706599,35.29479885653105,0 33.40060237662438,35.29470767101322,0 33.40084256757541,35.29465724184485,0 33.400996552909,35.29456068794205,0 33.40107762165181,35.29444924424163,0 33.4012133466922,35.29432010184275,0 33.40198199197775,35.29419594140393,0 33.40250079393723,35.2943898157435,0 33.40259191600754,35.29438431694494,0 33.4028204707027,35.29430129004252,0 33.40282700605208,35.29421570869761,0 33.40291628224556,35.29403633842745,0 33.40294929633607,35.29392221059812,0 33.40294252244001,35.29378637765692,0 33.40296223817879,35.29363150772145,0 33.40312611496742,35.29349283557256,0 33.40328331281785,35.29330662341869,0 33.40336919796629,35.29305797796408,0 33.40381613536606,35.29268681398044,0 33.40402978728083,35.29261466368438,0 33.40421691687918,35.29253302361624,0 33.40436255829017,35.29238757017008,0 33.40457121774539,35.29229776321176,0 33.40490562531789,35.29205436673276,0 33.40479105502157,35.29182760230039,0 33.40447285829612,35.29174361821602,0 33.40589850240289,35.29069399062821,0 33.40717855827245,35.28975151434192,0 33.40841580602272,35.28884353582048,0 33.40948619407943,35.28805905204061,0 33.40998420935687,35.28768912271267,0 33.41011983752123,35.28774460423514,0 33.41017094735727,35.28762525352088,0 33.41064433678652,35.28869533637315,0 33.41152662473955,35.29068964261822,0 33.41347315590238,35.2950891690904,0 33.41542767976748,35.29470608147338,0 33.41552154259085,35.29481166624723,0 33.41588006408445,35.29507758481084,0 33.41604924801219,35.29518310665957,0 33.41597243524984,35.29533000130552,0 33.41597751936683,35.29538077005185,0 33.41592393911331,35.29536572015574,0 33.41582188313894,35.29540285531291,0 33.41586218175951,35.29550574044067,0 33.41582870189254,35.29550302432569,0 33.41570489124747,35.29554429397157,0 33.41566968087668,35.29549492222629,0 33.4155508667716,35.29551697703616,0 33.41534174001616,35.29559674061701,0 33.4154222008646,35.29569273125354,0 33.41558285587151,35.29566789719069,0 33.41560966669145,35.29569257578206,0 33.4157670245352,35.29570753954186,0 33.41589080620992,35.29564294141955,0 33.41600639600036,35.29572106277528,0 33.41607165072305,35.29570179765114,0 33.41619391431514,35.29576207386194,0 33.41627614674993,35.29593628103709,0 33.41622154100512,35.29644405718131,0 33.41577644983747,35.29656244060134,0 33.41584229655287,35.29702071618442,0 33.41598338994526,35.29741717797011,0 33.41565885243667,35.29756976721549,0 33.41561711337395,35.29765625343278,0 33.41556392141723,35.29767636291815,0 33.41513694070512,35.29783778735074,0 33.41516213860412,35.29791186785722,0 33.41519314307626,35.29793884145922,0 33.41544769107178,35.29816029349111,0 33.41530552254864,35.29820650853323,0 33.41518661053001,35.29833676445949,0 33.41507447253582,35.29859717098364,0 33.41525315885943,35.29865939071639,0 33.41537539894176,35.29854540214429,0 33.41550113672257,35.29858597202574,0 33.4155472156333,35.2984015446005,0 33.41571252059786,35.29834175165445,0 33.41594741866489,35.29839036557682,0 33.41614248767369,35.29832783586046,0 33.41614931877603,35.29850137312994,0 33.41611975320345,35.29866409382436,0 33.41638465945209,35.29890520596226,0 33.41642803638934,35.29920886883657,0 33.41634550399248,35.29933638302192,0 33.41626316073101,35.29961574761126,0 33.41576395184861,35.29981139924962,0 33.41583349949831,35.2998818433068,0 33.41562527789752,35.30001217320821,0 33.41582388803139,35.30013403070576,0 33.4158999568057,35.30012854387553,0 33.41596269055576,35.30003900904665,0 33.41614460484402,35.30003343380704,0 33.41633648810548,35.30006581244174,0 33.41652189560908,35.30020937248146,0 33.41660778893951,35.30012524062622,0 33.41682608406816,35.30011692324704,0 33.41693864609124,35.30019817642802,0 33.4169519839587,35.30028493649389,0 33.41689595466313,35.30044496871527,0 33.41602696584643,35.30119138645391,0 33.41641092361876,35.30140528283285,0 33.41649045735583,35.30152452680608,0 33.41650378808105,35.30160586425526,0 33.41657347670144,35.30178748297687,0 33.41650741132909,35.30185804030409,0 33.41652075992854,35.30195293526739,0 33.41667642199954,35.30211278974914,0 33.41662042036865,35.30229722553253,0 33.41669989417787,35.30236766009718,0 33.41673315882288,35.30251677081289,0 33.41689198073037,35.30255731172646,0 33.41700121802222,35.302622298335,0 33.41722941129076,35.3025895665915,0 33.41738829804075,35.30268162651422,0 33.41735228419706,35.3029772223916,0 33.41726999242873,35.30329726096004,0 33.41726687121906,35.30344640148889,0 33.41721739095183,35.30355490753134,0 33.41695278902088,35.30357140032469,0 33.41687016817174,35.30363112449839,0 33.41678451395652,35.30391049075123,0 33.41683765699265,35.30408398989118,0 33.41685109418487,35.30424938549839,0 33.41662301426985,35.30437702278922,0 33.41658342849284,35.3044638272299,0 33.41658697332283,35.30465363641281,0 33.41638544829895,35.30485717577245,0 33.41633592176699,35.30493042973523,0 33.41613092617446,35.30500381490849,0 33.41600532414657,35.30507984350901,0 33.41598884404453,35.30512866636587,0 33.41605631710798,35.30519028838858,0 33.41608027672725,35.3052121715566,0 33.41647452990117,35.30531504044732,0 33.41662780773778,35.30518981093929,0 33.41677054477964,35.30507319414087,0 33.41730151541005,35.30469370974848,0 33.41765879808734,35.30472323491445,0 33.41780109026243,35.30476649975567,0 33.41792055903634,35.30507281031556,0 33.41802468181504,35.30518863222648,0 33.41808222529134,35.30525264272581,0 33.4181563482547,35.30530788769327,0 33.4180480534497,35.30555889196695,0 33.41815268375353,35.3056633501763,0 33.4181299151801,35.30587651020917,0 33.41815874336559,35.30590009234438,0 33.41837350603083,35.30590598098762,0 33.41850933064997,35.30595307926482,0 33.41867731229742,35.30605343554181,0 33.41847847589361,35.30627821261898,0 33.41846700344756,35.30631464440447,0 33.41848604435395,35.30640568582887,0 33.41839400946812,35.30650154273777,0 33.41809547787626,35.30662253097545,0 33.41793754348102,35.30666043794265,0 33.41784619850969,35.30665242128025,0 33.41770971978773,35.30673920925801,0 33.41757320056513,35.30679463300127,0 33.41741624916987,35.30696001816193,0 33.41722408082435,35.30725830696275,0 33.41709834938966,35.30738757859724,0 33.41712968725832,35.30744353508564,0 33.41736338439996,35.30745278181326,0 33.41869559003165,35.30748469960783,0 33.41896155862965,35.30828071396282,0 33.41902851624811,35.30852077656832,0 33.41907135611408,35.30856188400919,0 33.4190789053028,35.30867451787727,0 33.41913255613706,35.30880397565842,0 33.41922900982961,35.30894553651202,0 33.41931384377303,35.30900819074153,0 33.41938488746229,35.30922531791119,0 33.41954147721781,35.30941876303687,0 33.41957364283161,35.30947674137996,0 33.41963703018726,35.30949827068878,0 33.41971691814674,35.30955418509133,0 33.41974502497818,35.30965533525103,0 33.41979525619234,35.3096836199656,0 33.42030699547265,35.30962382102276,0 33.42088514029172,35.30937645270152,0 33.42095851185125,35.3094829587345,0 33.42101286674601,35.30951798528624,0 33.42110499999337,35.30949834355,0 33.42119557568177,35.3095448049062,0 33.42126477723149,35.30960747253854,0 33.42133393376668,35.30963641448754,0 33.42136114753213,35.30968158215139,0 33.42142702546502,35.30971929682263,0 33.42148974190607,35.30985683879767,0 33.42151456434181,35.30996203813436,0 33.42153519889882,35.31000990847205,0 33.42165296294219,35.31008265069966,0 33.42183737236143,35.31014993779365,0 33.4219270575161,35.3101458121043,0 33.42203071906802,35.31013088148197,0 33.42209739295116,35.31014768474244,0 33.42225046059293,35.31015969028568,0 33.42226042434725,35.31022780564997,0 33.42238151180685,35.31032347641671,0 33.42242356345761,35.31038886570179,0 33.42252485749037,35.31045150431888,0 33.42273471657405,35.31047357654915,0 33.42286808352753,35.31051999791392,0 33.42287139480049,35.31053483375999,0 33.42226530560328,35.31080989114835,0 33.42221112815616,35.31091043834095,0 33.4222219043436,35.31097045923332,0 33.42241200137575,35.31098040813539,0 33.42258647862687,35.31100318648906,0 33.42265401871731,35.3110516895182,0 33.42284849244795,35.31126128476748,0 33.42288807582155,35.31132532684302,0 33.42349116403476,35.31126745647685,0 33.42357345667546,35.31127142995437,0 33.42356207353799,35.31137531164605,0 33.42361840234865,35.3116551773513,0 33.42361363008684,35.31177861461283,0 33.42364346994164,35.31194046613242,0 33.42368549996569,35.3119876436845,0 33.42373077805285,35.31200311575273,0 33.42394302934247,35.31196437715079,0 33.42396430082378,35.31196049517555,0 33.42406812280571,35.31200922082836,0 33.4240973146563,35.31223676477813,0 33.4239992035786,35.31243554523326,0 33.42398220097274,35.31246999584087,0 33.42394375287527,35.31250493626278,0 33.42383096509417,35.31260743196539,0 33.42373010466556,35.31278003513656,0 33.42376522484037,35.31301907791542,0 33.42393244057718,35.3131344561769,0 33.42394460131452,35.31313939002516,0 33.42408274784494,35.31319544065191,0 33.42416161769847,35.31325074089455,0 33.42416691210707,35.31332456370789,0 33.42423637929863,35.3134707390606,0 33.42426200258124,35.3138526366301,0 33.42415831290016,35.3140152943871,0 33.42416357824553,35.31406711117351,0 33.42394609764068,35.31425792741535,0 33.4238432332324,35.3143481783199,0 33.42394643726242,35.31451224949748,0 33.42398067790295,35.31456668324085,0 33.42401022764729,35.31464900387193,0 33.42396765841178,35.31489391191918,0 33.42394695606322,35.31489952794463,0 33.42371810106876,35.3149615972882,0 33.42357903317634,35.31506767492629,0 33.4236057328249,35.3152062044265,0 33.42371213194005,35.3154560500365,0 33.42378221964974,35.31581731529306,0 33.42361319843828,35.31583376717813,0 33.4234281662742,35.31627132951633,0 33.42322636240955,35.31656220137857,0 33.42309093217898,35.316915499593,0 33.42306142212428,35.31715731671329,0 33.42298203659172,35.31728235791292,0 33.42286279966498,35.31735038329734,0 33.42270763480173,35.31782051835555,0 33.42260501513368,35.31792384623314,0 33.42245598526862,35.31802178101736,0 33.42246284778762,35.3181983638434,0 33.4227053363778,35.31858936009827,0 33.42282149670644,35.31870064391679,0 33.42300724517423,35.31879556495883,0 33.42308008947938,35.31873573119812,0 33.42327559382084,35.31868937174936,0 33.42345141793882,35.31879788438815,0 33.42348481062225,35.31898259382821,0 33.42360110857381,35.3191943956316,0 33.42383343801214,35.31941967810084,0 33.42395290560292,35.31934675110665,0 33.42401992404275,35.3193058398884,0 33.42424334845876,35.31931202831237,0 33.42428502401719,35.31939433780823,0 33.42449209161119,35.31947223774443,0 33.42456405008322,35.31953464308753,0 33.42462044945599,35.31961835918391,0 33.42465545277805,35.31968711641128,0 33.4247409940046,35.31985514810257,0 33.42474444220564,35.31995954101622,0 33.42470654809087,35.32007075020103,0 33.42463392233899,35.32018605910333,0 33.42492514184794,35.32025765237487,0 33.42510892960032,35.32039306486026,0 33.42524310992798,35.32053936884697,0 33.42533263141531,35.32068706916702,0 33.42547877523651,35.32111536825952,0 33.42545764927166,35.32139332472103,0 33.42552755974685,35.32171594107323,0 33.42559557235024,35.32185823651724,0 33.42631991227446,35.3217328413363,0 33.42658276404095,35.32161871190408,0 33.42677256123774,35.32130806040045,0 33.42715120189487,35.32119653518053,0 33.42770168149497,35.32094927010902,0 33.42773979086225,35.32099533150776,0 33.42778277322844,35.32097766579414,0 33.42792199721754,35.32117819438357,0 33.42800805588214,35.32120929718389,0 33.42831105089373,35.32141916328308,0 33.42855606069883,35.32156129235078,0 33.42898472379352,35.32173578762174,0 33.4291072188486,35.3217993945159,0 33.42919154967647,35.32177762273114,0 33.42927593873024,35.32179787983684,0 33.42943159704357,35.32191839843797,0 33.4295525332083,35.32204979625981,0 33.42983224352395,35.32216341884631,0 33.43009551816168,35.32235162464128,0 33.43049595843879,35.32244886099625,0 33.43063333312838,35.32250567289451,0 33.4307443356323,35.32262758910202,0 33.43146711900792,35.32257130924528,0 33.43194492893066,35.3224054418992,0 33.43214517403654,35.32247032638951,0 33.43223145835334,35.32265734277933,0 33.43231746269252,35.32264912486834,0 33.43238516238075,35.32256500026939,0 33.4323817201652,35.32247145383424,0 33.43248742577318,35.32236153211886,0 33.43245430667701,35.32233580375177,0 33.43240274054694,35.32213655163091,0 33.43240431597552,35.32208231858925,0 33.43251014769014,35.32205916692121,0 33.43259761983301,35.32192214749585,0 33.43276949021239,35.32181216094992,0 33.43281420947623,35.32185143498405,0 33.43296300813456,35.32180112582385,0 33.43297782217626,35.32175094750949,0 33.43332886884832,35.32200549464696,0 33.43327944946846,35.32214654528275,0 33.43329126656671,35.3223105858812,0 33.43336917180402,35.32242032897252,0 33.43341551535593,35.32243926472262,0 33.43374300930781,35.32242131854473,0 33.43382408037382,35.32243344138106,0 33.43397955592766,35.32242379852449,0 33.43406398091409,35.32246710111673,0 33.43407731954031,35.32253894570682,0 33.43400024664305,35.32299863509579,0 33.43388139315169,35.32316687083698,0 33.4338649420994,35.32322925338016,0 33.43381869265748,35.32327539557005,0 33.4341167275956,35.32347033805691,0 33.43401929974431,35.32358432008014,0 33.43434206825848,35.32372500531181,0 33.43472086358505,35.32371785267497,0 33.43555128651219,35.32373736684968,0 33.43571178587997,35.32376703408752,0 33.43594827359712,35.32372748038161,0 33.43616964434079,35.32353338028475,0 33.43641599390833,35.32345178709873,0 33.43684311292582,35.32368184297583,0 33.43723215980506,35.32385272479701,0 33.43748541669679,35.32396396269531,0 33.43770543440052,35.32359549898707,0 33.43834688894662,35.32370029860309,0 33.43846733982916,35.32366837336814,0 33.43876347901146,35.32366807156572,0 33.43879145383296,35.32326130390476,0 33.43971667080635,35.32328713631163,0 33.43991299251178,35.32363488047881,0 33.44010577455787,35.32397635012369,0 33.44023012896828,35.32382725144469,0 33.44061402393482,35.32378500836497,0 33.44109198843795,35.32381966210163,0 33.44103954497595,35.32424486687495,0 33.44098461739875,35.32438385127938,0 33.44092546636453,35.32443412823365,0 33.44087057936778,35.32459989306118,0 33.4407441466895,35.32472556071155,0 33.44071998308632,35.32494987827628,0 33.44056106619678,35.32520111600252,0 33.44053671781585,35.32530491732886,0 33.44058801752173,35.32546052961368,0 33.4406636533466,35.32550397134899,0 33.44101892244345,35.32543497585866,0 33.44117008431289,35.32545155584072,0 33.44127633797343,35.32548324877451,0 33.44171531999215,35.32539742446269,0 33.44199076668126,35.32522138610627,0 33.44237464064443,35.32516072520479,0 33.44287060977246,35.32495097507403,0 33.44303399507185,35.32494745516384,0 33.44317497090594,35.32498078227778,0 33.44331584710156,35.32495050437693,0 33.44332594551738,35.32487851994958,0 33.44328498019463,35.32480324075077,0 33.4433235106056,35.32462912233211,0 33.44347624492908,35.32434775912406,0 33.44347409903939,35.32428248251956,0 33.44353324727781,35.32423220523492,0 33.44363532820321,35.32420866279669,0 33.44353916074689,35.32409661919262,0 33.44349400228655,35.32395271875961,0 33.44349380650276,35.32382885581513,0 33.44357525976081,35.32367645160649,0 33.4436629245331,35.32357760383014,0 33.44379358886872,35.3235490096501,0 33.44387912344637,35.32339492722343,0 33.44395267370082,35.32341158763581,0 33.44411153063021,35.32313021642776,0 33.44410524374418,35.32302979345813,0 33.44407657356945,35.32298128332341,0 33.44410907334328,35.32286910282667,0 33.4441477953165,35.32281717323247,0 33.44403885470862,35.32237707429726,0 33.44434288231439,35.32220267244342,0 33.44435295280906,35.3221139486447,0 33.44425069060553,35.32202199788679,0 33.44392363130347,35.32183822605868,0 33.44371117710415,35.32180330167515,0 33.44363141307292,35.32173141256337,0 33.44349211243737,35.32146207471082,0 33.44338580262232,35.32139188633308,0 33.44308968091148,35.32139889474781,0 33.44291399835217,35.32136895218494,0 33.44275482543598,35.32144946332432,0 33.44253224519245,35.32146810997743,0 33.44240758174129,35.32141467859736,0 33.44236868653574,35.32135613623338,0 33.44236855372838,35.32127077146165,0 33.44245611364339,35.321106644002,0 33.44251732236771,35.32106808198679,0 33.44254780900633,35.32097431613835,0 33.44291501728055,35.32071783486578,0 33.44309259845905,35.32065738908375,0 33.44348271702881,35.32068543099706,0 33.44363798926594,35.32072376458125,0 33.44373396546489,35.32071696760049,0 33.44378287262336,35.32064828840596,0 33.44381305260001,35.32036203283236,0 33.44396392275939,35.32019951157594,0 33.44380221191443,35.3199636746295,0 33.44378165641053,35.31988000546742,0 33.44367940642221,35.31979307567467,0 33.44379344725802,35.31966828955605,0 33.44394896379968,35.31949812204354,0 33.44400187457563,35.31939629634265,0 33.4442049455407,35.31926804881501,0 33.44421376200745,35.31914411120891,0 33.44419261676828,35.31907109037061,0 33.44404011348545,35.31888330983842,0 33.44403902436524,35.31882832296775,0 33.44410987806866,35.31867477281713,0 33.44410180260066,35.3186337459067,0 33.44392233499949,35.31849195306327,0 33.44391123743461,35.31843943933811,0 33.44394408708943,35.31831629774657,0 33.44432506197124,35.31797775571103,0 33.44423384994874,35.31792122421034,0 33.4441347172295,35.31792132967212,0 33.44408555567263,35.31786064962198,0 33.4440984151792,35.31776050868116,0 33.44426844522064,35.31763639978583,0 33.44420810351123,35.31747149919967,0 33.44406783359256,35.31741994397383,0 33.44398873109447,35.31742167033124,0 33.44390869735953,35.31746771509273,0 33.44375737853673,35.31739401190175,0 33.44390518883507,35.31714928056306,0 33.44403611004344,35.31698992228768,0 33.44438293968659,35.31659150648989,0 33.44442572637318,35.31642157225822,0 33.44448165322454,35.31632877147269,0 33.44464675078657,35.31625309013673,0 33.44464761176708,35.31616527172153,0 33.44462148122745,35.31610538781855,0 33.44444105179532,35.31598411442922,0 33.44429477182018,35.31592928251352,0 33.44405017029725,35.31575226820281,0 33.44379884033631,35.31575253557991,0 33.4437664346426,35.3155227704089,0 33.4437732360169,35.31539144890223,0 33.44421993066126,35.31546073410651,0 33.44433098715686,35.31540480607276,0 33.44451601749516,35.3152716531996,0 33.444778163841,35.31514826491397,0 33.4448232160516,35.31514493447744,0 33.44507513370675,35.31488695966151,0 33.44515789642053,35.31467102158688,0 33.44528801749169,35.31464051599432,0 33.4455984542466,35.31466234030569,0 33.44577857894254,35.31459402754728,0 33.44596039362577,35.31433120211688,0 33.44598618494651,35.31418098347969,0 33.44611627976371,35.31413488245593,0 33.44620739287648,35.31413150054887,0 33.4462694065052,35.31409039808607,0 33.44639251691809,35.31406071849933,0 33.44656286748089,35.3141426056354,0 33.44665783051431,35.31404319592074,0 33.44679508599699,35.31409228866313,0 33.446883951979,35.31393789867352,0 33.44681667062147,35.31381732648117,0 33.44671544059,35.313755882582,0 33.44667423572131,35.31366236510314,0 33.44671115042487,35.31357943320439,0 33.4468492203736,35.31351362587882,0 33.44684414485604,35.31347095384655,0 33.44670763853681,35.31326592370199,0 33.44657376107518,35.31282780595135,0 33.44660955855392,35.31267511378812,0 33.44637192323199,35.31246855208092,0 33.44639462498888,35.31241333494142,0 33.44655078436686,35.31203348974796,0 33.44650612704017,35.31189824327618,0 33.44631238613097,35.31182820344944,0 33.44630266643262,35.31170592759109,0 33.44634697160632,35.31162262057305,0 33.44645483884783,35.31158867961251,0 33.44654363248717,35.31153654628226,0 33.44673401300407,35.3114921085349,0 33.44681982579654,35.3115596630356,0 33.44695928846424,35.31143462304915,0 33.44704493233406,35.31139810465145,0 33.44699717164747,35.31130709205549,0 33.44732982669037,35.31091645374497,0 33.44746943489747,35.31088247738913,0 33.44747536524806,35.31062488914755,0 33.447449887022,35.3105728795819,0 33.44748144633137,35.31046096646829,0 33.4475955721035,35.31037237905573,0 33.4475954700411,35.3103099350452,0 33.44750021159081,35.31028922431141,0 33.44741430653424,35.31016443075306,0 33.44742048520894,35.3100603498322,0 33.44750857812751,35.30957891350936,0 33.44743840066131,35.30936563978914,0 33.44748280095282,35.3093421750174,0 33.44775587129504,35.30940171848412,0 33.44785720902706,35.30925850630232,0 33.44778406072047,35.30917012356309,0 33.44778065728393,35.30902962837708,0 33.44793247004875,35.30869642624709,0 33.44792916089451,35.30861317148599,0 33.44795107716471,35.3084284161388,0 33.44816689860843,35.30841777171949,0 33.44827828884489,35.30859977869685,0 33.44939503739275,35.30827851925343,0 33.44939480468406,35.30813801953074,0 33.45003566036951,35.30795257656544,0 33.45013412518801,35.30799409689806,0 33.45037534858373,35.30799122567749,0 33.45047921127708,35.30807116556984,0 33.4506134939546,35.3081745178553,0 33.45070576771727,35.30823691044092,0 33.45078780814406,35.30830397776251,0 33.45088227992861,35.30831972859752,0 33.45099720429722,35.30831680055535,0 33.45102342707981,35.30834755314258,0 33.45108834119505,35.30838012640088,0 33.45113499919054,35.30838193988069,0 33.45109461997769,35.30873270465779,0 33.45094684161997,35.30882241598209,0 33.45112480029041,35.30908805378878,0 33.45133076789538,35.30909062034765,0 33.45135363428325,35.30915588812494,0 33.45141757502029,35.30928546964862,0 33.4514665715952,35.30932552401385,0 33.45156229384691,35.30940656687276,0 33.45173112810485,35.30965822237884,0 33.45186329793207,35.30975974412897,0 33.45205244851211,35.30991157106538,0 33.45222562065662,35.31003449996208,0 33.45228135568972,35.31002044554275,0 33.45222579363829,35.31013710343998,0 33.4522429128191,35.31016693343664,0 33.45229082130372,35.31023497012718,0 33.45219087812254,35.31035074659234,0 33.4520727066726,35.31045441718277,0 33.45200444955756,35.31046568710057,0 33.45193398720605,35.31051800200151,0 33.45186928545217,35.31061414890458,0 33.4520720420005,35.31073517912967,0 33.45221311373164,35.31071543171359,0 33.45241909813343,35.3107263917215,0 33.45246460371601,35.31071887798753,0 33.45254767359576,35.31071971639713,0 33.45268190642127,35.31069344645885,0 33.45300290626064,35.31075371079368,0 33.45351876685483,35.31097418726817,0 33.45356658572551,35.31098905633329,0 33.45356891887572,35.3110217006929,0 33.45352234311888,35.31106839249299,0 33.45349854106483,35.31112531778183,0 33.45338486540274,35.31119447275802,0 33.45337011068892,35.31121780781563,0 33.45332464976196,35.31125050696402,0 33.45324640766795,35.31141382963221,0 33.4531782742142,35.31149785670966,0 33.45325930049558,35.31163488069091,0 33.45319464615671,35.31175714626433,0 33.45320047933253,35.31184202013777,0 33.4532995992646,35.31191093259275,0 33.45333274367969,35.31199577618689,0 33.45329307377076,35.31208909792558,0 33.4533147740445,35.31213571125987,0 33.45331032248819,35.31219541229901,0 33.45335592255191,35.31224293114585,0 33.45335256109739,35.31227371658998,0 33.45330908605645,35.31240563943113,0 33.45327382816661,35.31251262564356,0 33.45332204915713,35.31265892955478,0 33.45321297111986,35.31277046225529,0 33.4532290999806,35.31285126929435,0 33.45330657081649,35.31296040546628,0 33.45366078724059,35.31282237865564,0 33.45382063128911,35.31278724372098,0 33.45396183295612,35.31276086778676,0 33.45415502328335,35.31352521333024,0 33.45427588894336,35.31407337657411,0 33.45431626570179,35.31430706955497,0 33.45418568782539,35.31431377232519,0 33.45419908998703,35.31435963155193,0 33.45428722960572,35.31447093895095,0 33.45435923677728,35.31449925361242,0 33.45427445087057,35.31478988594397,0 33.45460861631367,35.31538804762878,0 33.45487499729189,35.31531128379273,0 33.45498700011503,35.31535047499342,0 33.45508625945784,35.31572827459203,0 33.45509195530151,35.31594016197923,0 33.45529511892692,35.31629599504619,0 33.45508468021626,35.31635958936292,0 33.45491683243696,35.31639255042771,0 33.45489561718062,35.31645373961367,0 33.45514104231236,35.31658670939751,0 33.45544235169608,35.31667155400909,0 33.4557062745944,35.31671275285528,0 33.45591697461746,35.31679988648443,0 33.45549977861228,35.31751687981713,0 33.45549478396013,35.31771130276104,0 33.45545497483789,35.31780964988953,0 33.4555404289316,35.31790566833582,0 33.45560990117668,35.3180082575422,0 33.45591419008456,35.31827004147037,0 33.4562185328432,35.31856240612633,0 33.45625899140248,35.31883978739819,0 33.45640053943409,35.3190056417785,0 33.45653406406795,35.31915621379098,0 33.45661409925896,35.31920199416998,0 33.45672087369423,35.31929580219787,0 33.45674763965991,35.31936130467,0 33.4567531851774,35.31948362768953,0 33.45669205806676,35.31958418475761,0 33.45658900973147,35.31965401282514,0 33.45636053819344,35.31980882947391,0 33.45627089402967,35.31985333494573,0 33.45614929333497,35.3200199749682,0 33.45608350438889,35.32015463915334,0 33.45587447697618,35.32066964319282,0 33.45585605660668,35.3207862148028,0 33.45588508342288,35.32092909250049,0 33.45598713455984,35.32120369874825,0 33.45605842995151,35.3213160029363,0 33.45618724711868,35.32140465263467,0 33.45623473717829,35.32145593450176,0 33.45624162193248,35.32152113890898,0 33.45620144017597,35.32177925916456,0 33.4562186120268,35.32191937641817,0 33.45626989765034,35.32220652809171,0 33.4562903700337,35.32229669153897,0 33.45642138398266,35.32267532516888,0 33.45642661537922,35.32276273113671,0 33.45639294486746,35.3228709947355,0 33.45638292355029,35.32295009445922,0 33.45644594154342,35.32316785659814,0 33.45653127699559,35.32356319360836,0 33.45666380177013,35.32383498717929,0 33.45668601711323,35.32395428614859,0 33.45665918925843,35.32410278004829,0 33.4566358442627,35.32430815616954,0 33.45668699386844,35.32451483373367,0 33.45667355402795,35.32457451103,0 33.45665158671562,35.32459812426499,0 33.45658387618694,35.32460375394565,0 33.4565026911619,35.3246482483609,0 33.45646220365021,35.324731545398,0 33.45641861294173,35.32497718186812,0 33.45641880676246,35.32508818215204,0 33.45643756802622,35.32516863431745,0 33.45641562107424,35.32520334690155,0 33.45599929240035,35.32528985748871,0 33.45587412407941,35.32535521551381,0 33.45583190290637,35.32541492641214,0 33.4557612059926,35.32565227035766,0 33.45576641411488,35.32572718882152,0 33.45575127388633,35.32578270628451,0 33.45569396005302,35.32592568488877,0 33.45560601178756,35.32597712400626,0 33.45553494549154,35.32600079404803,0 33.45541305851107,35.32600648566753,0 33.45529794099357,35.32601078159033,0 33.45519469592626,35.32602755093187,0 33.45516933570129,35.32604839233701,0 33.45515419163045,35.32610252253021,0 33.455130754755,35.32625656203418,0 33.4550700167085,35.32637873158227,0 33.4550058420495,35.32647176733479,0 33.45490102737731,35.32656068887987,0 33.45478609727926,35.32667459559678,0 33.45476587369662,35.32672873132307,0 33.4547826565877,35.32690823729217,0 33.45478394585665,35.32692202430225,0 33.45485088100392,35.32728517686567,0 33.45457802569095,35.3280352755455,0 33.4544792396599,35.32821133108134,0 33.45427144045741,35.32837939180872,0 33.45410642560901,35.32845807843108,0 33.45392153986955,35.3285043063002,0 33.45381255095268,35.32850984513661,0 33.45361099544444,35.32846676700553,0 33.453581453616,35.3285750728414,0 33.45358195155269,35.32886740676904,0 33.45349304324983,35.32902720969168,0 33.45356304246818,35.32940066843959,0 33.45361621288276,35.32959008284729,0 33.45372220042029,35.32976049104744,0 33.45379201005771,35.33002297011752,0 33.45375952652014,35.33034241025305,0 33.45376350269812,35.33073759890853,0 33.45383025563982,35.33114354229851,0 33.4538967296385,35.33138437115794,0 33.45402587168246,35.33157369836814,0 33.45406240128614,35.33168734280917,0 33.45435665570722,35.33184941216055,0 33.4544332018408,35.33218496737055,0 33.45445738135621,35.33280208981139,0 33.45440527894446,35.33323794430215,0 33.45434944381039,35.33342477807521,0 33.45429669573841,35.33348438822753,0 33.45428699077264,35.33360349822651,0 33.45432040316443,35.33382541766974,0 33.45433876448232,35.33416085615836,0 33.45434944983328,35.33435606779562,0 33.45438771328974,35.33469171537889,0 33.45404475469335,35.33468417952518,0 33.45374678687854,35.33456637616181,0 33.45311562183695,35.33466282650666,0 33.45284739943265,35.33479145000858,0 33.45279101454955,35.33490796210639,0 33.45276116682066,35.33524168036276,0 33.45265269150676,35.33529519791507,0 33.45210315292539,35.33564493650138,0 33.45192784099331,35.33568513052565,0 33.45176745942915,35.33574971181787,0 33.45166765552731,35.33592607786364,0 33.45159000648787,35.33599395526758,0 33.4513472246845,35.336253184256,0 33.45127453476231,35.33631766551289,0 33.45058504133444,35.33658891909665,0 33.45052670476239,35.33659559391872,0 33.45037221343338,35.33661326942794,0 33.44998638242171,35.33662679355345,0 33.44942075381489,35.33658978274742,0 33.44874618265001,35.3366446365113,0 33.44853953192759,35.33667779950931,0 33.44814352883532,35.33678880245937,0 33.44811194181234,35.3367841314784,0 33.44789923318305,35.33662439590569,0 33.44771102117693,35.33652109316218,0 33.44714952478765,35.3363758525108,0 33.44645946988241,35.33617664140711,0 33.44618610463831,35.33607149283882,0 33.44585944261093,35.33588950202907,0 33.44592201139611,35.33577481723891,0 33.44596688578671,35.33560990491119,0 33.44604508116495,35.33542305830181,0 33.44623575564449,35.33515074243663,0 33.44624716490068,35.33513198249509,0 33.44624298829864,35.3350755568917,0 33.44604488343455,35.33486817719974,0 33.44593640488218,35.33476623955671,0 33.44561100915127,35.33447441512831,0 33.44549873853169,35.33439063561927,0 33.44527455087223,35.33429563519458,0 33.44513382919375,35.33426402771642,0 33.44488404235669,35.33424782837002,0 33.44470463910909,35.33426213515721,0 33.44472038051287,35.33417153652348,0 33.4447237693702,35.33415203465328,0 33.44454535084635,35.33406611975074,0 33.44448848225796,35.33415644683917,0 33.44446559028113,35.33417180921035,0 33.44413491929425,35.33439372019239,0 33.44398208591622,35.33441617672402,0 33.44355456040312,35.33441026107584,0 33.44326462617833,35.33457405496562,0 33.44308194042807,35.33456150877902,0 33.44281898918847,35.33458514165387,0 33.44255991176782,35.3346002769909,0 33.44245503317554,35.33463648128808,0 33.44234808171391,35.33463102278152,0 33.44192512712891,35.33460943597882,0 33.44199552715769,35.33489280975059,0 33.44210109937807,35.33513313255233,0 33.44171490971043,35.33521901421688,0 33.44154912169508,35.33527602843395,0 33.44139434906938,35.3353454573246,0 33.44125537280943,35.33545835277248,0 33.44069217251371,35.3356861198648,0 33.44006014607562,35.33587575639647,0 33.43997940716067,35.33589204776586,0 33.43936217529476,35.33601658762015,0 33.43833603381542,35.33613834779229,0 33.43790695684341,35.33625366369577,0 33.43756061316576,35.33636131988076,0 33.43726915573843,35.33636331006413,0 33.43725094403636,35.336357969523,0 33.43699850783293,35.33628394245972,0 33.43680220653986,35.33617508145134,0 33.4366556158025,35.33612618984694,0 33.43635589663098,35.33609636770019,0 33.4357703391382,35.33600034415669,0 33.43558933336553,35.33593556337892,0 33.4354549524532,35.33578412170166,0 33.43539582521252,35.33566258671124,0 33.43534675737953,35.33547108452686,0 33.43534041729096,35.3353078558466,0 33.43537869315901,35.33507462478607,0 33.43546170099166,35.33485134324933,0 33.4355771902536,35.33459971283109,0 33.43566005012442,35.33427649143241,0 33.43566880539212,35.33418088947415,0 33.43566958470696,35.33417238134291,0 33.4356659196368,35.3340770756239,0 33.43556454977168,35.3339060238308,0 33.43537030708297,35.33370517815747,0 33.4351927027931,35.33354506825928,0 33.43504673114973,35.33347865341295,0 33.43453603840223,35.33338407236113,0 33.43447801225824,35.33337869602357,0 33.43435540480502,35.33341820916308,0 33.43431729112527,35.33342639712602,0 33.43420290216761,35.33341835947437,0 33.43416627319194,35.33340511559828,0 33.43387785401966,35.33330082868778,0 33.43376005076495,35.33326289181623,0 33.43332209085183,35.33316954993253,0 33.43309641925406,35.33308279321312,0 33.43255549395909,35.33288898111598,0 33.43241776409974,35.33283203673001,0 33.43209098852937,35.33278478799922,0 33.43200988315235,35.33289358655365,0 33.43169469406222,35.33283137587452,0 33.43141040553649,35.33234240687505,0 33.43126919060143,35.33216723008725,0 33.43118124472308,35.33213198112516,0 33.43055421303684,35.33202114163272,0 33.43030887218331,35.33209340272215,0 33.43021262309016,35.33205000627849,0 33.43015496265351,35.33205114076034,0 33.42990392295433,35.33207362151092,0 33.42973435906696,35.33212938909718,0 33.42956702873423,35.33216661904537,0 33.42916643803748,35.33223853879041,0 33.42909513829147,35.3322394850247,0 33.4288048721976,35.33224333348361,0 33.42853124403495,35.33228807512119,0 33.42770092491802,35.33214612645875,0 33.42702895837197,35.33201514589227,0 33.42675750323722,35.33199686015023,0 33.42642048795559,35.33200273192558,0 33.42611968837465,35.3320271046404,0 33.42596586072558,35.33201427039164,0 33.42562889040609,35.33205350312029,0 33.42514262123746,35.33208360273662,0 33.4248531029567,35.33208757247893,0 33.42450026571542,35.33210272002718,0 33.42436913535813,35.33214732499324,0 33.42436477411655,35.33214732858392,0 33.42414068228639,35.33214753087395,0 33.42397009632176,35.33219183305151,0 33.42382006989043,35.33223079621034,0 33.42352406565805,35.33234291478934,0 33.42329676836975,35.33249022136108,0 33.42326852289114,35.33240076460999,0 33.42285929659987,35.33259839700499,0 33.42281131498821,35.33259843952885,0 33.42267799755821,35.33250661169598,0 33.42265151546556,35.33249164328278,0 33.42253019016113,35.33256427974791,0 33.42250438115988,35.33257973109858,0 33.42240514569681,35.33260625725783,0 33.42234887922327,35.33259613855343,0 33.42226179696805,35.33242809741399,0 33.42225597501294,35.33240505438607,0 33.42205719744955,35.33222389251505,0 33.42189324249856,35.3321021857713,0 33.42157880278678,35.33203585924279,0 33.42142236489534,35.33196820696396,0 33.42110048283725,35.33190273348811,0 33.42086468328223,35.33187650173854,0 33.42073225758865,35.33182577473158,0 33.42049975761496,35.33179072710055,0 33.42008853586385,35.33172736256238,0 33.41985767361352,35.33167943102413,0 33.41931750944519,35.33169752315959,0 33.41878151261244,35.3317420455604,0 33.41833077464376,35.33182716759062,0 33.41807939524322,35.33190788145219,0 33.41805021481985,35.33196274061835,0 33.41770343097461,35.33234948967922,0 33.4178025106472,35.33275497855296,0 33.41787285519406,35.33277711916433,0 33.41788115206237,35.33279677100842,0 33.41753067638444,35.33298367233967,0 33.41752815341619,35.33298501778531,0 33.4171501195938,35.33300228333346,0 33.41712445729411,35.33298806983296,0 33.41714589286944,35.33293043075183,0 33.41714907537407,35.33283009904336,0 33.41700973747638,35.33254278837258,0 33.41676078810664,35.33258502783112,0 33.41665976650093,35.33250715419872,0 33.41644703822836,35.33240700396244,0 33.41636738634762,35.33221793821043,0 33.41571858472247,35.33202324396871,0 33.41547369880188,35.33200582220858,0 33.41511462293097,35.33196409002367,0 33.41487888935684,35.33199004384017,0 33.41411118021227,35.33196830373588,0 33.41389863395705,35.33201321857405,0 33.41364055909012,35.33203444305693,0 33.41345949491585,35.33211932705271,0 33.41333957599448,35.33214586243184,0 33.4131353097026,35.33219822629365,0 33.41293189703021,35.33227228108505,0 33.41290037876415,35.33238139599668,0 33.4127621888672,35.33285981515418,0 33.41283540824416,35.33321090588212,0 33.41279737448766,35.33379788744858,0 33.41279723577593,35.33380002777569,0 33.41271304096973,35.33395465599147,0 33.41239396817558,35.33420182616288,0 33.41220047380168,35.33435171513447,0 33.41190639380561,35.33459674096715,0 33.41117827952873,35.33519827572583,0 33.4110006410716,35.33539093834987,0 33.41075910301972,35.33541350031556,0 33.41069921111738,35.33542959946053,0 33.41068021162259,35.33543470717102,0 33.41054998366599,35.33550111086866,0 33.4103312168086,35.33550512466907,0 33.41024407190207,35.33551738521091,0 33.40981481126773,35.3356535770524,0 33.40962360052912,35.33575300625732,0 33.40954268974698,35.33564333934331,0 33.4094193052807,35.3355685406129,0 33.40930021060986,35.33552857330758,0 33.40915343007873,35.33544334263137,0 33.40909239623135,35.33525757483751,0 33.40907018519339,35.33515079433695,0 33.40907208304134,35.3349539754856,0 33.40913494583064,35.33477787023077,0 33.40907575367886,35.33445060894692,0 33.40881398791391,35.33420464867719,0 33.40877320834473,35.33416633049491,0 33.40871763489113,35.33413862547567,0 33.40850210079461,35.33401448077407,0 33.40831510617401,35.33396911733872,0 33.40829875804107,35.33388810598253,0 33.40812125963406,35.33385605496562,0 33.40784207473641,35.33374638631989,0 33.40750327217203,35.33362455389045,0 33.4064666054099,35.33330901256149,0 33.40633650504501,35.33326027381595,0 33.40578663855023,35.33313156703085,0 33.40531625942806,35.33308456013857,0 33.40434774682871,35.33313966364608,0 33.40425156721062,35.33313973470594,0 33.40401997935123,35.33319096129416,0 33.40380460712841,35.33320776761219,0 33.40378154944371,35.33318003643086,0 33.40367288642433,35.33315622273365,0 33.40358712731758,35.33318939647067,0 33.40339930674202,35.33312586013463,0 33.40326533333975,35.33309217487933,0 33.40312443074856,35.33307562781168,0 33.40282510962565,35.33312690127854,0 33.40264230044287,35.33319029975551,0 33.40249605884221,35.33324590194685,0 33.40225361411331,35.33328159372238,0 33.40214794942215,35.333279449353,0 33.40206257123496,35.3332462131399,0 33.40198673060736,35.33326513633494,0 33.40191092938064,35.33332068746143,0 33.40162930087399,35.3334518597686,0 33.40159007712143,35.33350849340575,0 33.40154945452843,35.33352517119865,0 33.40144913601706,35.33345420771987,0 33.40132154500378,35.33348019150768,0 33.40127716176292,35.33351759609853,0 33.40122046533015,35.33352780661463,0 33.40116075229933,35.33360425173819,0 33.40111335930732,35.33362315480077,0 33.40101710322282,35.3335499682251,0 33.40096847003897,35.3335293439191,0 33.4008531986554,35.33355896394635,0 33.40078011203947,35.33362117100192,0 33.40072594325154,35.33363785827096,0 33.40067446314837,35.33363345443986,0 33.40059200255523,35.33379889130809,0 33.40033333882559,35.33387121872308,0 33.39993915857792,35.33389591394095,0 33.39953682591451,35.33389841512138,0 33.39917100552244,35.33383762363145,0 33.39883503868734,35.3338256463473,0 33.39879844378987,35.33380791361297,0 33.39878485234813,35.3337646358521,0 33.39867785836184,35.3337869082726,0 33.39857632479191,35.33385135306867,0 33.3985370218366,35.3338336219722,0 33.39847346541685,35.33394354815082,0 33.39840303012092,35.33395136622383,0 33.39830817100906,35.33391924295276,0 33.3982715101628,35.33383491428255,0 33.39822542630383,35.33381163765409,0 33.39824571863253,35.33378387528472,0 33.39819017212564,35.33377725379894,0 33.39817521432725,35.33372287828157,0 33.39824010512191,35.33359297257584,0 33.39818586976616,35.33354528390889,0 33.39819937906022,35.33350864645306,0 33.39810526701362,35.33347666477718,0 33.39784428644324,35.33333796099937,0 33.39779691054078,35.33337462152169,0 33.39773997690445,35.33333581282437,0 33.39767564397155,35.33324671570648,0 33.39748921750181,35.3331643927316,0 33.39742178352945,35.33314099219123,0 33.39733764703163,35.33311179660959,0 33.39696488288413,35.33311051263809,0 33.39666582702427,35.33319327652431,0 33.39638526330445,35.33330335909284,0 33.3963542854005,35.33335746630892,0 33.39637252626892,35.33341294448856,0 33.39625661239182,35.3334858974649,0 33.39613879102701,35.33363911105905,0 33.39604271415099,35.33371493729785,0 33.39592247876042,35.3337700452437,0 33.39589797641344,35.33373539655666,0 33.39537812860468,35.33363961719858,0 33.39533430728086,35.33366989063663,0 33.39526796181192,35.33363054188384,0 33.39516353298032,35.3336340065178,0 33.39515929343172,35.33363281524194,0 33.39497782350869,35.33358183269861,0 33.39495703747707,35.33351579584765,0 33.39493962485255,35.3335085056553,0 33.3948922058234,35.33354360130478,0 33.39475820721982,35.3334575595653,0 33.39413154605,35.33354697045627,0 33.39397119777964,35.33358471702411,0 33.39363882771485,35.33366627680407,0 33.39368249834541,35.33374089433099,0 33.39366152405594,35.33378939600706,0 33.39356402893814,35.33377853011888,0 33.39356820513125,35.33381180776693,0 33.39364369321551,35.33386915691123,0 33.39351379319201,35.33399492627974,0 33.39342993606819,35.33396403429642,0 33.39337608165537,35.33398444442351,0 33.39320553276811,35.33418355418167,0 33.39299579224362,35.33413682584893,0 33.39295799873859,35.33410757211122,0 33.39291830182928,35.33411844367665,0 33.39291525224966,35.3341860726491,0 33.39287712354047,35.33420778981014,0 33.39274860006554,35.33414598665849,0 33.39258137510046,35.33413709154252,0 33.39253957247426,35.33421614412806,0 33.39252197875576,35.33424941768086,0 33.3924622926903,35.33423723022006,0 33.39244562110746,35.33421620397252,0 33.39242228599546,35.33418677333468,0 33.39238747216217,35.33418407856291,0 33.392353258092,35.33421626309602,0 33.39231642915244,35.33425090693305,0 33.39222040662317,35.33436346083833,0 33.392186228019,35.33437159482373,0 33.39214936725231,35.33435618647431,0 33.39211007617778,35.33426165372053,0 33.39207491287391,35.33421643961009,0 33.39206275642466,35.33420080869608,0 33.39200119894042,35.33417963860275,0 33.39191997280635,35.33421653818124,0 33.39181501508801,35.33426421840289,0 33.39168014208704,35.33428469292467,0 33.39162204478104,35.33432364460343,0 33.39158779244568,35.33446791905514,0 33.39161976754829,35.33451352311086,0 33.39161815478893,35.33453902001246,0 33.39132931478033,35.33474115667526,0 33.39048212721745,35.33501073521128,0 33.39023158977143,35.33502229663031,0 33.39008833387544,35.33505526149879,0 33.38988199526508,35.33505002223131,0 33.38970018336345,35.33500316746927,0 33.38957565856934,35.33492742818412,0 33.38945583943729,35.33480394059803,0 33.38931577045394,35.3345612513668,0 33.38930173610108,35.33443445109407,0 33.38932767042241,35.33429184636203,0 33.3892670577071,35.33428612043429,0 33.38915748635584,35.33427418299259,0 33.38910415145174,35.33460130184523,0 33.38913959188862,35.33485540059272,0 33.38902601061791,35.33517198066368,0 33.38878319378134,35.33550727232404,0 33.38859871892824,35.3356004641926,0 33.38805962242093,35.33577072070437,0 33.38799378734982,35.33573836457399,0 33.38765695947355,35.3359749301165,0 33.38749981771937,35.33604866039168,0 33.3874327398113,35.33611982049256,0 33.38723415600484,35.33620847292348,0 33.38721105192742,35.33632428747523,0 33.38700639940664,35.33640455458549,0 33.386968763674,35.33643678189703,0 33.38678295540359,35.3365026447913,0 33.38672890062142,35.33648724473511,0 33.38663222630039,35.33642356291959,0 33.38656417904874,35.33632581230945,0 33.38654540506499,35.33623265164265,0 33.38658523670285,35.33606211827137,0 33.38658604399464,35.33604869968247,0 33.38657539948677,35.33604803515797,0 33.3865749556584,35.33604099416478,0 33.38656646117236,35.33593004902318,0 33.38656355107521,35.33589203669193,0 33.38654773710157,35.33578336297007,0 33.38650787008699,35.33560592212125,0 33.38608296076914,35.33534217666462,0 33.38594525233399,35.33520098751092,0 33.38573057267348,35.33519024598556,0 33.38556557260454,35.33511834895169,0 33.38540196702351,35.33498191897583,0 33.38535904536831,35.33494799387897,0 33.38532589792244,35.33495480483523,0 33.38531877456465,35.33488182818098,0 33.38526944596602,35.33484820650229,0 33.38511689231504,35.3348215603888,0 33.38499737376808,35.33484813130843,0 33.38482378320136,35.33483867066094,0 33.38475335567311,35.33482327946351,0 33.38443720890611,35.33474476982725,0 33.38430780834184,35.33467055941087,0 33.38417237740541,35.33462040669118,0 33.38414819602782,35.33462259814811,0 33.38404041499221,35.33463236531765,0 33.38398883991036,35.33462806284714,0 33.38397766195334,35.33462713027738,0 33.38396301216827,35.33463217941731,0 33.38388786115978,35.33465808101914,0 33.38354470402181,35.3346224582318,0 33.38346092851315,35.33456137934934,0 33.38303210091123,35.33467480988145,0 33.38301306574198,35.33470346709902,0 33.38268808805702,35.33491821140375,0 33.3825980385534,35.33494440994571,0 33.38250230139771,35.33495201760361,0 33.38238318677447,35.33499334101465,0 33.38232290684497,35.33499686042667,0 33.38225728228507,35.33495790245435,0 33.38220590102407,35.33497423190391,0 33.38210953397311,35.33512075068786,0 33.38214636494857,35.33515492694537,0 33.38214142915673,35.33519975512698,0 33.38206999465417,35.33533403015382,0 33.3819809117968,35.33556252626235,0 33.38165116712712,35.33572765602999,0 33.38126570289704,35.3361625202262,0 33.38103819435963,35.33633459360284,0</coordinates>
						</LinearRing>
					</outerBoundaryIs>
				</Polygon>
			</MultiGeometry>
		</Placemark>
	</Document>
</kml>