<?xml version='1.0' encoding='UTF-8'?>
<kml xmlns="http://www.opengis.net/kml/2.2">
	<Document>
		<name>AGIOS DIMITRIOS</name>
		<Style id="PolyStyle70">
			<LabelStyle>
				<color>00000000</color>
				<scale>0.000000</scale>
			</LabelStyle>
			<LineStyle>
				<color>ff0055ff</color>
				<width>2.000000</width>
			</LineStyle>
			<PolyStyle>
				<color>00828282</color>
				<outline>1</outline>
			</PolyStyle>
		</Style>
		<Placemark id="ID_70534">
			<name>AGIOS DIMITRIOS</name>
			<snippet />
			<description>&lt;html xmlns:fo="http://www.w3.org/1999/XSL/Format" xmlns:msxsl="urn:schemas-microsoft-com:xslt"&gt;

&lt;head&gt;

&lt;META http-equiv="Content-Type" content="text/html"&gt;

&lt;meta http-equiv="content-type" content="text/html; charset=UTF-8"&gt;

&lt;/head&gt;

&lt;body style="margin:0px 0px 0px 0px;overflow:auto;background:#FFFFFF;"&gt;

&lt;table style="font-family:Arial,Verdana,Times;font-size:12px;text-align:left;width:100%;border-collapse:collapse;padding:3px 3px 3px 3px"&gt;

&lt;tr style="text-align:center;font-weight:bold;background:#9CBCE2"&gt;

&lt;td&gt;5&lt;/td&gt;

&lt;/tr&gt;

&lt;tr&gt;

&lt;td&gt;

&lt;table style="font-family:Arial,Verdana,Times;font-size:12px;text-align:left;width:100%;border-spacing:0px; padding:3px 3px 3px 3px"&gt;

&lt;tr&gt;

&lt;td&gt;DIST_CODE&lt;/td&gt;

&lt;td&gt;5&lt;/td&gt;

&lt;/tr&gt;

&lt;tr bgcolor="#D4E4F3"&gt;

&lt;td&gt;VIL_CODE&lt;/td&gt;

&lt;td&gt;340&lt;/td&gt;

&lt;/tr&gt;

&lt;tr&gt;

&lt;td&gt;VIL_CCD&lt;/td&gt;

&lt;td&gt;5340&lt;/td&gt;

&lt;/tr&gt;

&lt;tr bgcolor="#D4E4F3"&gt;

&lt;td&gt;VIL_NM_E&lt;/td&gt;

&lt;td&gt;AGIOS DIMITRIOS&lt;/td&gt;

&lt;/tr&gt;

&lt;tr&gt;

&lt;td&gt;VIL_NM_G&lt;/td&gt;

&lt;td&gt;ΑΓΙΟΣ ΔΗΜΗΤΡΙΟΣ&lt;/td&gt;

&lt;/tr&gt;

&lt;/table&gt;

&lt;/td&gt;

&lt;/tr&gt;

&lt;/table&gt;

&lt;/body&gt;&lt;script type="text/javascript"&gt;

				function changeImage(attElement, nameElement) {

				document.getElementById('imageAttachment').src = attElement;

				document.getElementById('imageName').innerHTML = nameElement;}

			&lt;/script&gt;&lt;/html&gt;

</description>
			<styleUrl>#PolyStyle70</styleUrl>
			<MultiGeometry>
				<Polygon>
					<extrude>0</extrude>
					<altitudeMode>clampToGround</altitudeMode>
					<outerBoundaryIs>
						<LinearRing>
							<coordinates> 32.80491268783796,34.91978479787979,0 32.80480777815521,34.91920327659239,0 32.80471624818269,34.91874777069672,0 32.80458255023911,34.91857515118221,0 32.80403539986972,34.91878931087719,0 32.80428279813194,34.91910116642413,0 32.80428235105379,34.9191733186236,0 32.80383733864634,34.91921584846992,0 32.8035495510076,34.91889827111265,0 32.80325309280664,34.9188914733073,0 32.80317845663803,34.91897441186497,0 32.8028492071821,34.9188231675795,0 32.80287698509744,34.91869007832355,0 32.80192781054696,34.91853621617486,0 32.80127971769058,34.9187277359373,0 32.80103703112116,34.91874336009034,0 32.80088878367095,34.91874273326142,0 32.80072734230195,34.91869764911998,0 32.8005921242558,34.91876923046826,0 32.79984402582372,34.91878826038705,0 32.79998017610115,34.91856682721698,0 32.79968042303518,34.91801053005044,0 32.7995602075728,34.91783796239014,0 32.79976447615416,34.91750026155994,0 32.80022030368994,34.91680285852619,0 32.80031540107583,34.91668115746687,0 32.80053376215648,34.9162436098461,0 32.80062492569664,34.9156723176602,0 32.80045719857291,34.91555505275188,0 32.80013453115527,34.91543157978414,0 32.80019190672571,34.91487679531237,0 32.79996326278646,34.91480367305573,0 32.79974097572998,34.91479162971744,0 32.79959315663691,34.91472439922009,0 32.79946589529413,34.91460175406453,0 32.79910297882924,34.91445035656293,0 32.79921182740283,34.91428431022914,0 32.7980977732794,34.91356914052945,0 32.79741783962152,34.91391238660727,0 32.79740851359541,34.91388257129391,0 32.79676567902436,34.91324154752922,0 32.79740526464153,34.91332752649151,0 32.79772937463581,34.91321790151603,0 32.79840393968043,34.91309866676249,0 32.79868752152018,34.91300551519615,0 32.79881648126054,34.91285620615374,0 32.79898638469897,34.91262381776019,0 32.79914197966041,34.91252457687684,0 32.79949311434507,34.91240396002359,0 32.8000542670617,34.91210107611783,0 32.80036565964994,34.91186928264169,0 32.80058195838767,34.91175919252035,0 32.80100095316288,34.91156115793762,0 32.80132733575947,34.91108521363345,0 32.80152422038791,34.91084738495822,0 32.80170730959951,34.91065944885148,0 32.80189696704394,34.91049929111012,0 32.80211340314843,34.9103669987019,0 32.8023564816389,34.91028477011373,0 32.80263991197342,34.91021381236774,0 32.80280645001273,34.91040776870055,0 32.80301034192264,34.9105974286957,0 32.80316580840812,34.91072261108821,0 32.80343387207841,34.9108000639415,0 32.8038732464,34.91080994684572,0 32.80444449931453,34.91081234935731,0 32.80466339075811,34.91094583046663,0 32.80481435010368,34.91101073686815,0 32.80506315943433,34.91104391796348,0 32.8053949720217,34.91107744603225,0 32.80600391291802,34.911096845918,0 32.80676932949654,34.91128483366321,0 32.80779815813486,34.9115140866995,0 32.80814930636172,34.9115798246253,0 32.80840882082796,34.91109829653883,0 32.8091221735748,34.91124002376748,0 32.80943214171118,34.91123576503632,0 32.81011303016233,34.911177541328,0 32.810510695688,34.91115699260946,0 32.81126658309316,34.91095476800831,0 32.81126434514724,34.91132107801747,0 32.81185767156466,34.91125693209513,0 32.81199260107326,34.91122974074938,0 32.81209437221673,34.91111360703423,0 32.8122158964517,34.91107525832741,0 32.81227727854534,34.9109534046062,0 32.81250686490166,34.91087110061381,0 32.81272691192458,34.9112494297416,0 32.81268577968836,34.91136581521477,0 32.81280007819174,34.91140513904573,0 32.81336050298827,34.91121319570571,0 32.81373798528559,34.9111870011783,0 32.81400230654697,34.91093277725277,0 32.81420693021627,34.91163295802691,0 32.81449595255955,34.911750703863,0 32.81470943644183,34.91210125140534,0 32.81468190944862,34.91219549369094,0 32.81460042448131,34.91230061156229,0 32.81450612841018,34.91229467411989,0 32.81453260552025,34.91237248621734,0 32.8145051513563,34.91245562644151,0 32.81439016628903,34.91252730641795,0 32.81438935761732,34.91266050727643,0 32.81449706071378,34.91267760436171,0 32.81481253031139,34.91287871164155,0 32.81497969530601,34.91309031231797,0 32.81530881034483,34.91326372161834,0 32.81569139607534,34.91350950926562,0 32.81586739057595,34.91348580678238,0 32.81589714668917,34.9135176303032,0 32.81599451143504,34.91362176058719,0 32.81599323427655,34.91383266749437,0 32.81614696399648,34.91403865907616,0 32.81636868031306,34.91414502338436,0 32.81661684376169,34.91433475082822,0 32.81705203571224,34.91479720862499,0 32.81724066706509,34.91480353119193,0 32.81755517924454,34.91516558361646,0 32.81829043467275,34.91503538882789,0 32.81855265307712,34.91513081214004,0 32.81903842718608,34.91502734544009,0 32.81945441430737,34.91532320260561,0 32.81958304047023,34.91522382608174,0 32.81947716787278,34.91490147558454,0 32.81953344457426,34.9145076383648,0 32.81982377399831,34.91440891535486,0 32.82004486321389,34.91462072869673,0 32.82027796354268,34.91507679982417,0 32.82059886648332,34.91549992632655,0 32.82129003790129,34.91485335625001,0 32.8215662707657,34.91486002805831,0 32.82292626904642,34.91504870357745,0 32.82447635000104,34.91530229880754,0 32.82581486804823,34.91550492295126,0 32.82915729932525,34.91603238988115,0 32.82822286171492,34.91681905024157,0 32.82711732397204,34.91775434794217,0 32.82589839169456,34.91878199215304,0 32.82467011789418,34.91986614776004,0 32.82307562396221,34.92120798225795,0 32.82298996598877,34.92131182669484,0 32.82244947846169,34.92154274835438,0 32.82206956101459,34.92196857830643,0 32.82156881282392,34.92231621290478,0 32.82143273714889,34.92253212106921,0 32.82131054592321,34.92268148099807,0 32.82108059269707,34.92281930242137,0 32.82095910009599,34.92285211069206,0 32.82046774277429,34.92275575666531,0 32.81975343868005,34.92387399930744,0 32.81875351292136,34.92541844419468,0 32.81865722898884,34.92573996590227,0 32.81887093370648,34.92606275408806,0 32.81874846529248,34.92625651483207,0 32.81800878774757,34.92710268010405,0 32.81698740242511,34.92661007357682,0 32.81666352581671,34.92667534698118,0 32.81632007326121,34.92663508660517,0 32.81611729374243,34.92673415975683,0 32.8159880801123,34.92692788764554,0 32.81581521615426,34.92704590962887,0 32.81567293099631,34.92714305359425,0 32.81547418680924,34.92712836048631,0 32.81537286757772,34.92716402067668,0 32.81518337418713,34.92729089744437,0 32.81547402251157,34.92771113669036,0 32.81565933880653,34.92812442403027,0 32.81580872322213,34.92811760043798,0 32.81591825287678,34.92811259758691,0 32.81596491458167,34.92815729752166,0 32.81603240547381,34.92828524424163,0 32.81600931954011,34.92834019965208,0 32.81580728880638,34.92835440398605,0 32.81569487481581,34.92836230679151,0 32.81550106855426,34.92852991162135,0 32.81512291739434,34.92864491276998,0 32.81467827038028,34.92860977976353,0 32.81407246814772,34.92847407680591,0 32.81306010694971,34.9286919088782,0 32.81270883758605,34.92881811176256,0 32.81166388600649,34.92885263693738,0 32.8113968136655,34.9295397629964,0 32.81092506764803,34.92952670716535,0 32.81028968753663,34.92981823299708,0 32.80980408354583,34.9298661649202,0 32.80939115946038,34.93015306172661,0 32.8094326911095,34.92997562497072,0 32.80948767039874,34.92980379368223,0 32.80913762308219,34.92973018286182,0 32.80911808436509,34.92961909605976,0 32.80889569053647,34.92961262030699,0 32.80868507440456,34.9298837087566,0 32.80845754316198,34.92961634291013,0 32.80828246862399,34.92958786533777,0 32.80784514309831,34.92945838442338,0 32.80764950680774,34.9294853171891,0 32.80747463650898,34.9294235342935,0 32.80720143673693,34.92891176917591,0 32.80693870687125,34.92888846812195,0 32.80671611232707,34.92891528894324,0 32.80642645821373,34.92888632439129,0 32.80612989166228,34.92888508262664,0 32.80598934142742,34.92872353714763,0 32.80587595962498,34.92852880434333,0 32.80566082610692,34.92843909739489,0 32.80548578895973,34.92840506119882,0 32.80539871717766,34.92831589136085,0 32.80540700136366,34.9280661651368,0 32.80536085138532,34.92789946330227,0 32.80540830599355,34.92785526162872,0 32.80559661536891,34.92792265431214,0 32.80638794279894,34.92748194867759,0 32.80659784350178,34.92732742058283,0 32.80704990125239,34.92725160728094,0 32.8073811574371,34.92709203582939,0 32.80741622091653,34.92687017110871,0 32.80698021283153,34.9265297834876,0 32.80647515959102,34.92645551570811,0 32.8056345553923,34.92614672979253,0 32.8053657839009,34.92601239647166,0 32.80503518369024,34.92606651158202,0 32.80458367937381,34.9260535150171,0 32.80407849749319,34.92600143766754,0 32.80401257698092,34.92576250007037,0 32.80420861772387,34.92566897018909,0 32.80417024280528,34.92533579301383,0 32.80396086135612,34.92540706556281,0 32.80396130877404,34.92533491434114,0 32.8038331131357,34.92535657541384,0 32.80379343119212,34.92523430348683,0 32.8029590026053,34.9250198786829,0 32.80286557868006,34.92486962701325,0 32.80265681627162,34.92484099562883,0 32.80239513686509,34.92465118286954,0 32.80232825860016,34.92456764696149,0 32.8023900558517,34.92438475027431,0 32.80260738410788,34.92411925428955,0 32.80256096487535,34.92399695296572,0 32.8026626825695,34.92389747690623,0 32.80257565158274,34.92380275490792,0 32.80258944319993,34.92375286111388,0 32.80280514585111,34.92374822009991,0 32.80288502198933,34.92390951410881,0 32.80311421207487,34.92390493048308,0 32.80345700435821,34.92405623192342,0 32.80371995807736,34.9240406880004,0 32.80388875989394,34.92399144639482,0 32.80419871802628,34.92400385063785,0 32.80461056904968,34.9238890250225,0 32.80484817463571,34.92361251048035,0 32.80491041324253,34.92335745940931,0 32.80504661663957,34.9231304706524,0 32.80520922421671,34.92299239680515,0 32.80537795411448,34.92295425240415,0 32.80555411433409,34.92280513464783,0 32.80622273993125,34.92258037637009,0 32.80672855554388,34.92252699111106,0 32.80716724498006,34.92242892113965,0 32.80726868064541,34.92237384195961,0 32.8074506495701,34.92128120009217,0 32.80715390330769,34.92131326150818,0 32.80690358314722,34.92146762195429,0 32.8065730043542,34.92152174225721,0 32.80598782909703,34.92133058162283,0 32.80578756326129,34.92101892847501,0 32.80563307164723,34.9209350262113,0 32.80544446985787,34.92091758535104,0 32.80524881698879,34.9209500653509,0 32.8051697627713,34.92065557043864,0 32.80506870421281,34.92064959589377,0 32.80491268783796,34.91978479787979,0</coordinates>
						</LinearRing>
					</outerBoundaryIs>
				</Polygon>
			</MultiGeometry>
		</Placemark>
	</Document>
</kml>