<?xml version='1.0' encoding='UTF-8'?>
<kml xmlns="http://www.opengis.net/kml/2.2">
	<Document>
		<name>AGIRDA</name>
		<Style id="PolyStyle70">
			<LabelStyle>
				<color>00000000</color>
				<scale>0.000000</scale>
			</LabelStyle>
			<LineStyle>
				<color>ff0055ff</color>
				<width>2.000000</width>
			</LineStyle>
			<PolyStyle>
				<color>00828282</color>
				<outline>1</outline>
			</PolyStyle>
		</Style>
		<Placemark id="ID_70011">
			<name>AGIRDA</name>
			<snippet />
			<description>&lt;html xmlns:fo="http://www.w3.org/1999/XSL/Format" xmlns:msxsl="urn:schemas-microsoft-com:xslt"&gt;

&lt;head&gt;

&lt;META http-equiv="Content-Type" content="text/html"&gt;

&lt;meta http-equiv="content-type" content="text/html; charset=UTF-8"&gt;

&lt;/head&gt;

&lt;body style="margin:0px 0px 0px 0px;overflow:auto;background:#FFFFFF;"&gt;

&lt;table style="font-family:Arial,Verdana,Times;font-size:12px;text-align:left;width:100%;border-collapse:collapse;padding:3px 3px 3px 3px"&gt;

&lt;tr style="text-align:center;font-weight:bold;background:#9CBCE2"&gt;

&lt;td&gt;2&lt;/td&gt;

&lt;/tr&gt;

&lt;tr&gt;

&lt;td&gt;

&lt;table style="font-family:Arial,Verdana,Times;font-size:12px;text-align:left;width:100%;border-spacing:0px; padding:3px 3px 3px 3px"&gt;

&lt;tr&gt;

&lt;td&gt;DIST_CODE&lt;/td&gt;

&lt;td&gt;2&lt;/td&gt;

&lt;/tr&gt;

&lt;tr bgcolor="#D4E4F3"&gt;

&lt;td&gt;VIL_CODE&lt;/td&gt;

&lt;td&gt;114&lt;/td&gt;

&lt;/tr&gt;

&lt;tr&gt;

&lt;td&gt;VIL_CCD&lt;/td&gt;

&lt;td&gt;2114&lt;/td&gt;

&lt;/tr&gt;

&lt;tr bgcolor="#D4E4F3"&gt;

&lt;td&gt;VIL_NM_E&lt;/td&gt;

&lt;td&gt;AGIRDA&lt;/td&gt;

&lt;/tr&gt;

&lt;tr&gt;

&lt;td&gt;VIL_NM_G&lt;/td&gt;

&lt;td&gt;ΑΓΙΡΔΑ&lt;/td&gt;

&lt;/tr&gt;

&lt;/table&gt;

&lt;/td&gt;

&lt;/tr&gt;

&lt;/table&gt;

&lt;/body&gt;&lt;script type="text/javascript"&gt;

				function changeImage(attElement, nameElement) {

				document.getElementById('imageAttachment').src = attElement;

				document.getElementById('imageName').innerHTML = nameElement;}

			&lt;/script&gt;&lt;/html&gt;

</description>
			<styleUrl>#PolyStyle70</styleUrl>
			<MultiGeometry>
				<Polygon>
					<extrude>0</extrude>
					<altitudeMode>clampToGround</altitudeMode>
					<outerBoundaryIs>
						<LinearRing>
							<coordinates> 33.2704476221158,35.27619432657725,0 33.27061513332364,35.27581540156329,0 33.27090187096198,35.27550715548964,0 33.27123825534461,35.27528042943709,0 33.27141892934304,35.27505907888663,0 33.27163609574481,35.27473858136063,0 33.27176373263677,35.27457018846225,0 33.27185820779213,35.27446019398089,0 33.27218796769271,35.2742185198832,0 33.27293034340799,35.27365777225667,0 33.27331809550687,35.27336857306636,0 33.27358154612976,35.27321516781983,0 33.2737687212113,35.27321387368828,0 33.27399078430847,35.27301019276346,0 33.27443977261127,35.2728093049764,0 33.27476656491054,35.27265425264348,0 33.27496332094279,35.27256089729828,0 33.27510085158547,35.27245906449092,0 33.27519040281587,35.27224718793911,0 33.2752318091719,35.27225263546106,0 33.27527815631171,35.27231921170091,0 33.27523991510146,35.27261260813843,0 33.27526130695022,35.27290059128955,0 33.27523304459059,35.27311113052257,0 33.27514015510352,35.27337326681722,0 33.27511983436429,35.2742725055126,0 33.27520421277435,35.27447628951926,0 33.27529679747743,35.27483357393508,0 33.27531656857591,35.27505227851407,0 33.27552169789095,35.27560520603239,0 33.27553150164734,35.27621705900077,0 33.27554111353573,35.276816996056,0 33.27551122635016,35.27707730158535,0 33.27553751740306,35.2774081268736,0 33.27563972955075,35.27801556239492,0 33.27561815546945,35.27818367532756,0 33.27571401024076,35.27826505461413,0 33.27584276805405,35.27868810916849,0 33.27595506399655,35.27896337430037,0 33.27600624676862,35.27911388494062,0 33.27630203866887,35.27945293284704,0 33.27648371405431,35.2798665112027,0 33.2765283338826,35.27991262311583,0 33.2768073446052,35.28078991919583,0 33.27691623534259,35.28128753516509,0 33.27698210065248,35.28186377344832,0 33.27707124792478,35.28216072265751,0 33.27711550523016,35.28298371140768,0 33.27712369363336,35.28315047812494,0 33.27706273657473,35.28346974043093,0 33.27698748919896,35.28386384292434,0 33.27697929613241,35.28420115889579,0 33.2770031625475,35.28470714377414,0 33.27744828973094,35.28470860067663,0 33.27797095727858,35.28465791942349,0 33.27805570520494,35.28464970145376,0 33.27825780774429,35.2846674221243,0 33.27861731751122,35.28462678059161,0 33.27927334822505,35.2846242601003,0 33.27989955453715,35.28463667065469,0 33.27986495327424,35.28420197989519,0 33.27985548241833,35.28350122496965,0 33.27986028533237,35.28347059210281,0 33.27996827477521,35.28278202421527,0 33.2801689600558,35.2822360141726,0 33.28032818141276,35.28179866324556,0 33.28055702887384,35.28124043478081,0 33.28056380588849,35.2808886166731,0 33.28049474334752,35.27968778900357,0 33.28052636891947,35.27933190293974,0 33.28067564836758,35.27888096353522,0 33.2808860369846,35.27886132626312,0 33.28206723714737,35.27862393993546,0 33.28285413711443,35.27849103350547,0 33.28332793883727,35.27839471353993,0 33.28447100240867,35.27822249544104,0 33.28527278039414,35.27815206182287,0 33.28597352381259,35.27804627967546,0 33.28604636053983,35.27818621031488,0 33.28704366211818,35.27794737218301,0 33.28749259319244,35.27790129203215,0 33.28748096219932,35.27800045104881,0 33.28743290134473,35.27807107501351,0 33.28729207284413,35.27814032023822,0 33.28712144101109,35.27817559801821,0 33.28707669843789,35.278220414587,0 33.28703354219722,35.2784771379559,0 33.28691591402849,35.27851650364254,0 33.28690430175263,35.27856540235137,0 33.2869340953623,35.27863468678282,0 33.28682303060129,35.27885743574328,0 33.28674182257667,35.27896608621998,0 33.28674675422872,35.27907475784538,0 33.28679972480627,35.27918479926903,0 33.28676326671602,35.27922690094189,0 33.28656282440763,35.27923092824942,0 33.28639211060049,35.27948626334173,0 33.28637882298921,35.27958678002861,0 33.28630922539905,35.27965060670953,0 33.28629923589355,35.27979187519836,0 33.28616996165658,35.27996571703806,0 33.28594296467967,35.28010557688013,0 33.28586179767055,35.28009333142504,0 33.28572262883738,35.28014355712622,0 33.28552042454083,35.28043420037312,0 33.28548557452235,35.28060127183666,0 33.28546725808376,35.28086071850723,0 33.28544074127704,35.28089467215445,0 33.28525682754861,35.28098835397047,0 33.28522863204031,35.28107935912055,0 33.28530804866224,35.28134697886634,0 33.28528482832898,35.28142575855976,0 33.28530295531865,35.28168249710343,0 33.2852118443562,35.28167975721215,0 33.28505779885496,35.28163353415312,0 33.28502299831437,35.28166612630685,0 33.28504931716769,35.28216873364808,0 33.28512053181975,35.28222037006454,0 33.28508565188476,35.28246622855267,0 33.28509555911806,35.28255452443527,0 33.28504250638692,35.28266318127577,0 33.28517005357331,35.28269717285809,0 33.28535062554636,35.282690425666,0 33.28541522277293,35.28271625111047,0 33.28549968158811,35.28279369957671,0 33.28554610299858,35.28269726561073,0 33.2855411690612,35.28259538681958,0 33.28570352710839,35.28256554090704,0 33.28578796050908,35.28271362604615,0 33.28577467703909,35.28279784201178,0 33.28572328494912,35.28290242458007,0 33.28605466473292,35.28273270710967,0 33.28629155970985,35.28273140667535,0 33.28676695112355,35.28289588260917,0 33.2870634186191,35.2830861246376,0 33.28761311329493,35.28347261245032,0 33.28776565155562,35.28357986027582,0 33.28791471090174,35.28368584704028,0 33.28807866979248,35.28382579646109,0 33.28825756860988,35.28387609737135,0 33.28846291456752,35.2841043506651,0 33.28850431168992,35.28416412803675,0 33.28878420512827,35.28440054704935,0 33.28905418159846,35.28457583575243,0 33.28883210241023,35.28484746307821,0 33.28862830655591,35.28493571253286,0 33.28856203779588,35.28494520714165,0 33.28856202501395,35.2849818834938,0 33.2885934923521,35.28500905719683,0 33.28878731895938,35.28501589222013,0 33.28876066893369,35.28545600046636,0 33.28881532373595,35.28550219649927,0 33.28882685470882,35.28570595603309,0 33.28876384945504,35.28586351381939,0 33.28860142885222,35.28606995184958,0 33.2885549668451,35.28629543151418,0 33.2886195587439,35.2863552138835,0 33.28911654239655,35.28641509118372,0 33.28914636991789,35.28638928905436,0 33.28939817031703,35.28643960235215,0 33.2895505614329,35.28651162852871,0 33.28968311746807,35.28644102143725,0 33.28990844002197,35.28639760112112,0 33.2899829756913,35.28644515963025,0 33.29003096447363,35.28662175861566,0 33.29014190521245,35.28680380417916,0 33.29037380118045,35.28694104823271,0 33.29078954880923,35.28720873329377,0 33.29085744491726,35.28730247506585,0 33.29095020299948,35.28735818721518,0 33.29110916678588,35.28762581877672,0 33.29123697617741,35.28766445530709,0 33.29124112298818,35.28766570815827,0 33.29168029801001,35.28791693938106,0 33.29203989834085,35.28753023731336,0 33.29246936381359,35.28732732366381,0 33.29263554618944,35.28728419357905,0 33.29284121056063,35.28724916214946,0 33.29378889816535,35.28714345235143,0 33.29396001183854,35.28711178575945,0 33.29401920675091,35.28724195638732,0 33.29374684430103,35.2875187517206,0 33.29370816971607,35.28756325487989,0 33.29350817414753,35.2879287474142,0 33.29346206126122,35.28810003788433,0 33.29343901909908,35.28812903262433,0 33.29311237270704,35.28835928285567,0 33.29306956009385,35.28849213298398,0 33.29268363161946,35.28890075033145,0 33.29266057571824,35.28897830235022,0 33.2925873298828,35.28908956573797,0 33.29256344753858,35.28918465249711,0 33.29257575852399,35.2892864895901,0 33.29254277961429,35.28954680434844,0 33.29249662988425,35.28983611500881,0 33.29240859620752,35.28987453918936,0 33.2920359056462,35.28998507089685,0 33.29196675218105,35.29015972804685,0 33.29198563460785,35.29029798494018,0 33.29214108464603,35.29040389592522,0 33.29222331851722,35.29051990871302,0 33.29222247109504,35.29060623239479,0 33.292115981028,35.29072572967119,0 33.2921076778736,35.29073504836693,0 33.29203474527343,35.29094703092359,0 33.29200487086084,35.29113448117328,0 33.29184412365942,35.29126621291059,0 33.29179274106846,35.29134363026807,0 33.2917943811337,35.29139932352653,0 33.2916584741989,35.29157588654978,0 33.29146627033669,35.29162746713872,0 33.2914015659671,35.2919371643604,0 33.29231096860291,35.29257306100403,0 33.29319388743528,35.29317362671307,0 33.29416295841392,35.29383532974578,0 33.29539047259649,35.29466822231274,0 33.29700565975953,35.29576740285891,0 33.29900855357106,35.29713013968917,0 33.29962318327311,35.29756218406396,0 33.29886163613926,35.29797900565829,0 33.29878450211496,35.29802122304854,0 33.2982487160175,35.29831447160051,0 33.29644918167897,35.29930665253462,0 33.29453713134559,35.30035844283339,0 33.29406076485787,35.3006159623555,0 33.29320079004696,35.30057784596664,0 33.29207951387127,35.30053153838227,0 33.29123318163971,35.30049931063356,0 33.28849400259565,35.30039496339737,0 33.28838625638861,35.30052534349227,0 33.28834151377364,35.30053619911863,0 33.28815424535461,35.30063396105702,0 33.28802499852883,35.30063936531781,0 33.287965300747,35.30078198130172,0 33.28796188222733,35.30109168987433,0 33.28791540125069,35.30134569565628,0 33.28793193197295,35.30146252013034,0 33.28771303623751,35.3019718606371,0 33.28731672405672,35.30281396170725,0 33.28704978070549,35.30328389679232,0 33.28697356596842,35.30326078602499,0 33.28679451523323,35.30352427010764,0 33.28647449679925,35.3041232368339,0 33.28632527649275,35.30436499209798,0 33.28599869700871,35.30476155759515,0 33.28572488490839,35.30522867374874,0 33.28477777211413,35.3068443764141,0 33.28412051080147,35.30669521001474,0 33.28392834632712,35.30653487429819,0 33.28361682436124,35.30651305998268,0 33.28300041169059,35.30646127758148,0 33.28290434347397,35.30634986479382,0 33.28281159058596,35.30624660615869,0 33.28268234862512,35.30620581987211,0 33.28202947115784,35.30618390830804,0 33.28161522656182,35.30612674010143,0 33.28114467053427,35.30600164008393,0 33.28074033894093,35.30600424149796,0 33.28040563185735,35.30595252711302,0 33.28023002031464,35.30586282421414,0 33.27978928660573,35.30575945866502,0 33.27934857451188,35.30560447579527,0 33.27922594964255,35.30560987249846,0 33.27912984692228,35.3055935432243,0 33.27895750889123,35.30560028296365,0 33.27832121774357,35.30554847295534,0 33.27808760424092,35.30547776626157,0 33.27808271926597,35.30528895121866,0 33.27796150070637,35.30526560564048,0 33.27775826436015,35.30522646418242,0 33.27755836323188,35.30518796552341,0 33.27640325109958,35.30497176067983,0 33.27512309183175,35.30473257192715,0 33.2748748051968,35.30468266016018,0 33.27480716733526,35.30466906333036,0 33.27436781080566,35.30463519100817,0 33.27410128329721,35.30452178531812,0 33.27387088874942,35.30454194110956,0 33.27376726306741,35.30445287248213,0 33.27326375596052,35.30436636288265,0 33.27288366637696,35.30428798895281,0 33.27257768008207,35.30410846531172,0 33.2724197941748,35.303938436024,0 33.27190813865395,35.30371297255837,0 33.27178815323143,35.30344852695738,0 33.27186556251545,35.30332309909173,0 33.27109396524927,35.30300175956675,0 33.27098045409178,35.30294236155458,0 33.27099365102309,35.30288435976153,0 33.27111230565077,35.30256199396952,0 33.27118985484026,35.30217756018285,0 33.27085593997862,35.30193866675558,0 33.27080670048061,35.30170797063671,0 33.27064211596331,35.30176186928128,0 33.27014348686898,35.30181969075148,0 33.26915289298565,35.30178424325822,0 33.26912468954998,35.30218893086145,0 33.27013461938983,35.30297172689023,0 33.27025778437739,35.30342638336909,0 33.27013102146025,35.30352481236801,0 33.2697903282583,35.30363260444413,0 33.26944481231185,35.30353534608594,0 33.26926544335581,35.30353527774992,0 33.26881771375484,35.30376983198131,0 33.26802603323221,35.304042020922,0 33.26791407256643,35.30414719857163,0 33.26781038223901,35.30417953445955,0 33.26767374415578,35.3042725609498,0 33.26729190929396,35.30437088602267,0 33.26683775142711,35.30432888679825,0 33.26674067642141,35.30430456539273,0 33.26677693275247,35.30421419785115,0 33.26693508545226,35.30391883190176,0 33.26688904838683,35.30385136339363,0 33.26639706159674,35.30378371609925,0 33.26609096027242,35.30382406237388,0 33.2653604313373,35.30364704466975,0 33.26490298307674,35.30361178139242,0 33.26469239533543,35.30353813914933,0 33.2640758662496,35.30332253835299,0 33.26368979621755,35.30329520719197,0 33.26360863109527,35.30325034579275,0 33.26309834151507,35.30313466518821,0 33.26303201297182,35.30320934725035,0 33.25981295024866,35.30364700714493,0 33.25967619486433,35.30250930618688,0 33.25949517078479,35.3006917185391,0 33.25935351916793,35.29945892791656,0 33.25928607087963,35.29875390103147,0 33.25926113550208,35.29863566903415,0 33.25925141708712,35.29854741136857,0 33.25916029030774,35.29854193607699,0 33.25910913177655,35.29811272626824,0 33.25909177175553,35.29796707061691,0 33.25894859118092,35.2967657737552,0 33.25928096189877,35.29682151519497,0 33.2594744448433,35.29683245136471,0 33.25982502225116,35.29686650829468,0 33.25999237313706,35.29639612099903,0 33.26008841257548,35.29621855433348,0 33.26022911687885,35.29602067172557,0 33.26054036713013,35.29550831841933,0 33.26097729982383,35.29499466649179,0 33.26126357011432,35.29473176916007,0 33.26137937963068,35.29465860805112,0 33.26208892249619,35.29451791838338,0 33.26227921406421,35.29434581355783,0 33.26221148431586,35.29423325262209,0 33.26214380345044,35.29404747866681,0 33.26211744654697,35.29389154908807,0 33.2621439711048,35.29379258756551,0 33.26221849670051,35.2936272118836,0 33.26176541697311,35.29356871381555,0 33.26168771141189,35.29354020721797,0 33.2614332450492,35.29323096989984,0 33.26121178628659,35.2930261461592,0 33.26116717370062,35.29296918235672,0 33.26116398320448,35.29279428162135,0 33.26113756396796,35.29273461403925,0 33.26089791768759,35.29252571325922,0 33.26071779860001,35.29232768506196,0 33.26057722304968,35.29234795898584,0 33.26025794872797,35.29251457715072,0 33.26014878463858,35.29254571133426,0 33.26005949318981,35.29253346788613,0 33.25999336252332,35.29250903298482,0 33.25992892900447,35.29242223233162,0 33.25997696191609,35.29230972324272,0 33.26007790070976,35.2922135064323,0 33.26022347529915,35.2921390033424,0 33.26034261832584,35.29202381452976,0 33.26036582930384,35.29193569870522,0 33.26041717530854,35.29181369977023,0 33.2606967989466,35.29158740594644,0 33.26073163390211,35.2914247261537,0 33.26081438346714,35.29132714537511,0 33.26090702715592,35.29126753192136,0 33.26096495915358,35.29118756437926,0 33.26119495650553,35.29097887406211,0 33.26144968238697,35.29088408161098,0 33.26154729928328,35.29080413256395,0 33.26161264373847,35.29071604525956,0 33.26173891537023,35.29054582110629,0 33.26196106178904,35.29013006108786,0 33.26214219616698,35.29008194773191,0 33.26219723012302,35.29002134213855,0 33.26245330244108,35.28992195841949,0 33.26263447187848,35.28981787836369,0 33.26293606286517,35.28970840837528,0 33.26321587086635,35.28955773240182,0 33.26319978497321,35.28950409102465,0 33.26245372612127,35.28926979791576,0 33.26247851902566,35.28905216317845,0 33.26247865671068,35.28884073566393,0 33.26240122865529,35.28834633435027,0 33.2622571224413,35.28832528411422,0 33.26220696101452,35.28818612484289,0 33.26214555097366,35.28784874628484,0 33.26200616771811,35.28785645762369,0 33.26189915022776,35.28766752534565,0 33.26178926453245,35.28751667895892,0 33.26172867545316,35.28737596010892,0 33.26180648606281,35.28728116193516,0 33.26203604143399,35.28712191528269,0 33.26220205503328,35.28698673763445,0 33.2622409916258,35.28689036849486,0 33.26230761429415,35.28650174456568,0 33.26238198044062,35.28586827123483,0 33.26236992597258,35.28545240589642,0 33.26255024851784,35.28517654139736,0 33.26269912508113,35.28514395861229,0 33.26281858471571,35.28514867476331,0 33.26291905863204,35.28518991551309,0 33.26296547900205,35.28524901109568,0 33.26293692175178,35.28542466966076,0 33.26306652937051,35.28587012322075,0 33.26314523239535,35.28585772028453,0 33.26349425899919,35.28567597920228,0 33.26361853951244,35.2855571054513,0 33.26374281518408,35.2854460032998,0 33.26421236977416,35.28507387142822,0 33.26465872567125,35.28470607184609,0 33.26470413758548,35.28466172542635,0 33.26504599270287,35.28432789897603,0 33.26537692245444,35.28449405990438,0 33.26583802146533,35.28465500247304,0 33.26587176918955,35.28465238009794,0 33.26595392858555,35.28431509600459,0 33.26605042121233,35.28419127635403,0 33.26619030294854,35.28406483908872,0 33.26656646745665,35.2838330847005,0 33.26665649950571,35.28375933256529,0 33.26655216405978,35.28346596419709,0 33.26645716472314,35.28319884234884,0 33.26628536470717,35.28293167946909,0 33.26670376947804,35.28280033489788,0 33.26600322270901,35.28194182663678,0 33.26576186037414,35.28187529333461,0 33.26563293038159,35.28181422929434,0 33.26526947236705,35.28132870103503,0 33.26617241871417,35.28103757301918,0 33.26643703340157,35.28092650351024,0 33.26703577354468,35.28058372508864,0 33.26764606846834,35.28026806418215,0 33.26814060152684,35.27998489388978,0 33.26907705568595,35.27887484990984,0 33.26957172558656,35.27832322438501,0 33.2696461915968,35.27820800858281,0 33.27001201880358,35.27742855794279,0 33.27016598252528,35.27706254732579,0 33.27037108991665,35.27689450301877,0 33.27043396279034,35.27681046623177,0 33.27040268594963,35.27656234201418,0 33.27044506251394,35.27621528135324,0 33.2704476221158,35.27619432657725,0</coordinates>
						</LinearRing>
					</outerBoundaryIs>
				</Polygon>
			</MultiGeometry>
		</Placemark>
	</Document>
</kml>