<?xml version='1.0' encoding='UTF-8'?>
<kml xmlns="http://www.opengis.net/kml/2.2">
	<Document>
		<name>AGRIDIA</name>
		<Style id="PolyStyle70">
			<LabelStyle>
				<color>00000000</color>
				<scale>0.000000</scale>
			</LabelStyle>
			<LineStyle>
				<color>ff0055ff</color>
				<width>2.000000</width>
			</LineStyle>
			<PolyStyle>
				<color>00828282</color>
				<outline>1</outline>
			</PolyStyle>
		</Style>
		<Placemark id="ID_70504">
			<name>AGRIDIA</name>
			<snippet />
			<description>&lt;html xmlns:fo="http://www.w3.org/1999/XSL/Format" xmlns:msxsl="urn:schemas-microsoft-com:xslt"&gt;

&lt;head&gt;

&lt;META http-equiv="Content-Type" content="text/html"&gt;

&lt;meta http-equiv="content-type" content="text/html; charset=UTF-8"&gt;

&lt;/head&gt;

&lt;body style="margin:0px 0px 0px 0px;overflow:auto;background:#FFFFFF;"&gt;

&lt;table style="font-family:Arial,Verdana,Times;font-size:12px;text-align:left;width:100%;border-collapse:collapse;padding:3px 3px 3px 3px"&gt;

&lt;tr style="text-align:center;font-weight:bold;background:#9CBCE2"&gt;

&lt;td&gt;5&lt;/td&gt;

&lt;/tr&gt;

&lt;tr&gt;

&lt;td&gt;

&lt;table style="font-family:Arial,Verdana,Times;font-size:12px;text-align:left;width:100%;border-spacing:0px; padding:3px 3px 3px 3px"&gt;

&lt;tr&gt;

&lt;td&gt;DIST_CODE&lt;/td&gt;

&lt;td&gt;5&lt;/td&gt;

&lt;/tr&gt;

&lt;tr bgcolor="#D4E4F3"&gt;

&lt;td&gt;VIL_CODE&lt;/td&gt;

&lt;td&gt;367&lt;/td&gt;

&lt;/tr&gt;

&lt;tr&gt;

&lt;td&gt;VIL_CCD&lt;/td&gt;

&lt;td&gt;5367&lt;/td&gt;

&lt;/tr&gt;

&lt;tr bgcolor="#D4E4F3"&gt;

&lt;td&gt;VIL_NM_E&lt;/td&gt;

&lt;td&gt;AGRIDIA&lt;/td&gt;

&lt;/tr&gt;

&lt;tr&gt;

&lt;td&gt;VIL_NM_G&lt;/td&gt;

&lt;td&gt;ΑΓΡΙΔΙΑ&lt;/td&gt;

&lt;/tr&gt;

&lt;/table&gt;

&lt;/td&gt;

&lt;/tr&gt;

&lt;/table&gt;

&lt;/body&gt;&lt;script type="text/javascript"&gt;

				function changeImage(attElement, nameElement) {

				document.getElementById('imageAttachment').src = attElement;

				document.getElementById('imageName').innerHTML = nameElement;}

			&lt;/script&gt;&lt;/html&gt;

</description>
			<styleUrl>#PolyStyle70</styleUrl>
			<MultiGeometry>
				<Polygon>
					<extrude>0</extrude>
					<altitudeMode>clampToGround</altitudeMode>
					<outerBoundaryIs>
						<LinearRing>
							<coordinates> 33.00534914306392,34.94020382675803,0 33.00520999337459,34.94033793596675,0 33.00498639476935,34.9405547625523,0 33.0043218475716,34.94140353312587,0 33.00429917636493,34.94146969848589,0 33.00430237171292,34.94148870246235,0 33.00420906658123,34.94146898770061,0 33.00421235845774,34.94127793257178,0 33.00414074362746,34.94105335106867,0 33.00386138376083,34.94096827454081,0 33.00351577863178,34.94082971254755,0 33.00338993729402,34.94077103258144,0 33.00377967403642,34.94063033203898,0 33.0038676362912,34.94056297751533,0 33.00392455004266,34.94048229258301,0 33.00408652760047,34.94001884409849,0 33.00399962834586,34.93991373042241,0 33.0039131640108,34.93983395335793,0 33.00384619776813,34.93974136078729,0 33.00380683156497,34.93966469570957,0 33.00379969023771,34.93962559159495,0 33.00380695780819,34.93960124175074,0 33.00384332188614,34.93950335716509,0 33.00396979205141,34.93921897134345,0 33.00398557799887,34.93914281021026,0 33.003623539509,34.93908145891049,0 33.00354104311136,34.9390688222908,0 33.0033105450672,34.93890815302564,0 33.00332748976269,34.93902278291342,0 33.00329499064393,34.93901252364096,0 33.00326444289067,34.93899095848312,0 33.00314834594257,34.93887231168466,0 33.00306210903069,34.93882211285191,0 33.00267396093296,34.93861002285396,0 33.00255970844144,34.93858590285255,0 33.00247392492506,34.93859352357404,0 33.00240344554378,34.93862428202306,0 33.00222330883958,34.93874392058224,0 33.00207094655016,34.9388121620626,0 33.00175622270677,34.93890867487014,0 33.00162436543148,34.93893482378598,0 33.00147068194173,34.9389318464892,0 33.00137178767873,34.93897695645818,0 33.00129245278821,34.93901117137146,0 33.00120262182154,34.93902722508329,0 33.00089230221883,34.9390229522331,0 33.00081646846133,34.93900749131468,0 33.00069748375806,34.93899205133604,0 33.00058559048562,34.93898880043982,0 33.00021856349553,34.93892863792679,0 32.99997452140094,34.93872076129944,0 32.9996178388057,34.93836040666812,0 32.99948460916571,34.93836302124127,0 32.9995031898513,34.93821207745911,0 32.99940952043014,34.93822663705129,0 32.99923350487866,34.9381195976022,0 32.99900322111585,34.93808051050627,0 32.99869706657469,34.9381093202382,0 32.99860037624086,34.9379728794191,0 32.99855889430102,34.93783449749315,0 32.99840759450124,34.9378548275177,0 32.99821653021753,34.93791650209764,0 32.99809394367116,34.93796059133251,0 32.99800372700786,34.93801364667557,0 32.99784210406076,34.93790960362334,0 32.99774167833323,34.93780867958076,0 32.99765217955635,34.93767521828573,0 32.99768497174307,34.93757464284979,0 32.99766781375492,34.93735551211689,0 32.99748103560967,34.93723956009908,0 32.99763225400209,34.93723995527012,0 32.99747306168442,34.93711282144225,0 32.99709195235945,34.9369726754468,0 32.99727987210179,34.93679256900066,0 32.99685551368239,34.93666415168455,0 32.99667189162037,34.93666367082873,0 32.9964659693923,34.93684372803924,0 32.99588380649671,34.9369436349331,0 32.99556966192638,34.93717669772663,0 32.99529614336714,34.93714637209695,0 32.99511280814787,34.93707187367407,0 32.99469918353967,34.93696124093424,0 32.99431694835778,34.93660642147159,0 32.99424507879667,34.93657070403507,0 32.99390318878923,34.93653131255989,0 32.99373392345897,34.93654270712689,0 32.99366184650097,34.93656028051533,0 32.99360772400905,34.93658974296489,0 32.99324445173036,34.93649404201908,0 32.99299238638941,34.9360063599497,0 32.9924849282472,34.93595468354285,0 32.99201291650693,34.93604520822681,0 32.99175656853643,34.93622808466003,0 32.99154950221882,34.93634793367293,0 32.99137611261926,34.93649254270726,0 32.99132891204805,34.93659307756972,0 32.99127820334769,34.93666991877812,0 32.99110494090137,34.93678196029494,0 32.9909751156594,34.9368349047575,0 32.99078620740222,34.93703815389313,0 32.99077826093254,34.93722761199212,0 32.99074928272866,34.93727194428112,0 32.99064816651907,34.93734864975789,0 32.99057210233035,34.93746391067065,0 32.99051769848474,34.93756442661355,0 32.99040219278962,34.93763813347843,0 32.9903480108618,34.93768239786928,0 32.99031184290536,34.93772374932728,0 32.99030438499969,34.93778886315384,0 32.99032010520649,34.93793944229421,0 32.99031261230853,34.93801343797749,0 32.99026549083325,34.93809324836543,0 32.99021849792626,34.93814049252129,0 32.98999537275425,34.93811325003927,0 32.98974311720452,34.93816882694151,0 32.98962037311954,34.93825139537481,0 32.98919489484268,34.93840716718083,0 32.98917354865381,34.93834197694697,0 32.98910537415291,34.93828258146257,0 32.98895814062163,34.93818448548569,0 32.98891538069726,34.9380718677404,0 32.98876613383007,34.93785164912919,0 32.98865473006773,34.93779805914429,0 32.98853599646928,34.93777701566012,0 32.98845318559599,34.93777679237181,0 32.98839555539988,34.93778255878212,0 32.9883449601711,34.93782979285701,0 32.98827266974386,34.93790065329145,0 32.98823296962511,34.9379242310506,0 32.98797372417722,34.93792649350485,0 32.98787986436088,34.93798841381624,0 32.98782192813118,34.93807115545365,0 32.98776733287451,34.93821903885885,0 32.98767348395946,34.93827799868907,0 32.98762310072326,34.93827194131573,0 32.98750492091741,34.93811174922801,0 32.98734878300588,34.93800929643992,0 32.98702826894806,34.93802619522889,0 32.98659706186288,34.93781186505277,0 32.98649651990178,34.93774349882811,0 32.98648229554908,34.93769905097842,0 32.98649721737345,34.93756882469417,0 32.98645794273666,34.93748582138115,0 32.9863861112192,34.93744121744317,0 32.9862997472252,34.93742914109207,0 32.98611257118205,34.93741679177798,0 32.98602266637428,34.93738990330792,0 32.98596165901086,34.93733940676605,0 32.98594031675153,34.93727421595337,0 32.98592549149778,34.93717397710497,0 32.98595095431052,34.9371089124996,0 32.98600175058549,34.93701135038645,0 32.98600192889775,34.93696694109317,0 32.98597337357493,34.9369046908411,0 32.98589095359539,34.93680676716185,0 32.98569780975466,34.93648649719737,0 32.98556074591526,34.93632091936512,0 32.98546114332895,34.93601866629803,0 32.98540031595874,34.93592376106456,0 32.98518478972228,34.93579882997469,0 32.98501950449108,34.93571548351586,0 32.98494415765941,34.93565014521419,0 32.98487261307827,34.935534487288,0 32.98484267749881,34.93546134902002,0 32.98483216136478,34.93539026574386,0 32.98482188274654,34.93525997066162,0 32.98481181758628,34.93507638440936,0 32.98477254583473,34.93499338051811,0 32.98466282465228,34.93490903270887,0 32.98453481843098,34.93481116451255,0 32.98440240339179,34.93471330733248,0 32.98429766637708,34.93463091685094,0 32.98419239311448,34.93449768601942,0 32.98412785574605,34.93438393508558,0 32.98415240147593,34.93425812101088,0 32.98421255537567,34.93407214238933,0 32.9845662999013,34.9339218694836,0 32.98470711181324,34.93383632551539,0 32.98480804168295,34.93374387949997,0 32.98490809712683,34.93359553602756,0 32.98500988739797,34.93352404657644,0 32.98522367326486,34.93341877310235,0 32.98534412509959,34.93332138642403,0 32.9854094129418,34.93321363729167,0 32.98541954847336,34.93311718915267,0 32.98536349089721,34.93301250112152,0 32.98513856512459,34.93290119940192,0 32.98504519058453,34.93283013659732,0 32.98493735976763,34.93269412512062,0 32.98486851517102,34.93245741515523,0 32.98482689640792,34.93237016968727,0 32.98480306148012,34.93221161546401,0 32.98482080733216,34.93206065474129,0 32.98486488239142,34.93196203659782,0 32.9849539363131,34.93187868716743,0 32.98511425499836,34.93177001961757,0 32.98525000174615,34.93172499040934,0 32.98565133986683,34.9316486046343,0 32.98572843121796,34.93138150405011,0 32.98558057014057,34.93096609571998,0 32.98551346774138,34.93083489150276,0 32.98546026930075,34.93071275918327,0 32.98524722220754,34.93074311647475,0 32.98526092435095,34.93098572854213,0 32.98507740905157,34.93102806562327,0 32.98497105135066,34.93084561672247,0 32.98503095256024,34.93077948108188,0 32.98492482889079,34.93073805407815,0 32.98481835729334,34.93073800836629,0 32.9848118704898,34.93068680675923,0 32.98471022465525,34.93064085220245,0 32.9848008443228,34.93050031491168,0 32.98475354907961,34.93044293513658,0 32.98491843120447,34.93024150587306,0 32.98483070046646,34.93020423579539,0 32.98501003114941,34.92995466147406,0 32.9849071518572,34.9298825859421,0 32.98490453719725,34.92973796063162,0 32.98428774388954,34.92980303658854,0 32.98371929015451,34.92972057386125,0 32.98369719378832,34.92963539307347,0 32.98338756011486,34.92964452776854,0 32.98339002278824,34.92946567369097,0 32.9833229694973,34.92938549416726,0 32.98324058417696,34.92916423375163,0 32.9830658289001,34.92913951280397,0 32.98301573783328,34.92904043320422,0 32.98313943444462,34.92871317864163,0 32.98278566588044,34.92860158410708,0 32.98240480802974,34.92856410992098,0 32.98253685481599,34.92796090602937,0 32.98266823995567,34.927772653952,0 32.98248917743667,34.92755794882321,0 32.98246621212527,34.92741410111634,0 32.98232622591135,34.92732364848773,0 32.98236160882433,34.92678496186979,0 32.98242766452947,34.92656054830397,0 32.98265143128173,34.92622883379455,0 32.98299565869735,34.92592053803461,0 32.98302953427103,34.92580517930546,0 32.98305235739049,34.92563186550441,0 32.98300561567452,34.92543079839096,0 32.98333883809696,34.92514765563894,0 32.98361183195711,34.92483672059187,0 32.9835770334327,34.92479489993042,0 32.98365408073828,34.92448100664263,0 32.9836344325906,34.92418345060828,0 32.98372756783905,34.92380872847754,0 32.98390909774697,34.92380542003558,0 32.98418384361913,34.92358107523339,0 32.9843788602294,34.92336952542426,0 32.98455783028508,34.92330194124906,0 32.98492775630831,34.92336305752514,0 32.98528162431583,34.92351295800528,0 32.98557341550776,34.92334862273997,0 32.98572520008047,34.92315534050208,0 32.9857056182033,34.92302124457083,0 32.98576403506721,34.9227618513965,0 32.98575882343775,34.92252011174452,0 32.98590217211376,34.92242326607874,0 32.98630269334549,34.92244863694111,0 32.98642054392665,34.92225124211453,0 32.98662238024389,34.9220039833956,0 32.98718840181007,34.92239135334287,0 32.98707180725781,34.92259481032298,0 32.98718797542368,34.92272636789911,0 32.98739357403451,34.92248172339141,0 32.9876113157636,34.92249717843747,0 32.98761142122172,34.92269843294022,0 32.98787199941266,34.92272981130174,0 32.98826921239768,34.92270627946808,0 32.98845581783461,34.92246183144591,0 32.98857629430614,34.9223594420037,0 32.98863899412568,34.92214750320793,0 32.98872977842314,34.9220703574473,0 32.98879338270896,34.9219632407526,0 32.98910154247272,34.92200215058661,0 32.98935797346095,34.92211669672015,0 32.98960737049037,34.92177628332055,0 32.98966933348606,34.92176002122562,0 32.98989100181507,34.92191730413728,0 32.99006678036314,34.92198666639054,0 32.99039369722563,34.92206535951825,0 32.9911596312139,34.92216929597378,0 32.99151022285558,34.92198230741745,0 32.99161113063796,34.92173875264358,0 32.99179706489459,34.92167247977856,0 32.9919530763453,34.92126308243552,0 32.99223994956215,34.92098468602041,0 32.99236114150602,34.92056349504396,0 32.99236106001872,34.92042721626151,0 32.99239783083576,34.92014004866368,0 32.99260800004242,34.91953806740922,0 32.99262302849423,34.91923323195375,0 32.99264096594968,34.91917149521522,0 32.99257619490377,34.91906775625475,0 32.9925835435109,34.91903522373121,0 32.9926267285112,34.91890511700479,0 32.9926057544567,34.91881673583727,0 32.9926741127722,34.91867471448206,0 32.99262389770887,34.91860686995941,0 32.99258856610182,34.91833778251057,0 32.99268959311483,34.91804568144108,0 32.99259239016568,34.91792128581338,0 32.9924050804149,34.9178233030144,0 32.99218461994103,34.91764289190014,0 32.99187799033964,34.91758588994031,0 32.99154307295299,34.91745842776408,0 32.99111714065919,34.91745436251687,0 32.99091102085472,34.91749850522449,0 32.99020112253174,34.91701881345941,0 32.98971607505124,34.9169451301936,0 32.98995670274582,34.9165098023778,0 32.99011629974149,34.91603710728592,0 32.98943092745746,34.91599678765139,0 32.98947945587233,34.91560464628981,0 32.98921407495799,34.91551152043039,0 32.98898980306198,34.91561633424707,0 32.98877013747183,34.91552328366823,0 32.98877869564673,34.9154490418107,0 32.98845483045819,34.91535343171614,0 32.98847299022398,34.91481383015673,0 32.98848137276,34.91456472862495,0 32.988549732628,34.91453970027471,0 32.98860947699677,34.91471801176936,0 32.98941449674775,34.91487077781901,0 32.98942202021234,34.91469341099997,0 32.98967025239389,34.91468183352269,0 32.98982928277852,34.91465284578975,0 32.99060764289642,34.91499354667897,0 32.99133050611933,34.91492429855963,0 32.99162610588135,34.91512621316208,0 32.99170792243729,34.91525480567796,0 32.99198937364353,34.9153837125465,0 32.99230771432123,34.91560841989892,0 32.99234772308363,34.91569189582415,0 32.99206006191417,34.91615397381326,0 32.99225731714411,34.91634891223677,0 32.99254744964261,34.91633928046393,0 32.99263092085286,34.91624084374799,0 32.99327906867057,34.91627729232616,0 32.99364905420452,34.91617841339597,0 32.99457027746388,34.91622974553299,0 32.9945584689204,34.91653207732339,0 32.9948328120261,34.91655910908246,0 32.99543248296798,34.91674350653448,0 32.99555821674458,34.91681415528172,0 32.99576006553801,34.91702182371671,0 32.99616173171422,34.91717866516768,0 32.99654078782817,34.91726835274807,0 32.9968163224035,34.91710068156313,0 32.99692339686332,34.91695553890114,0 32.99713108246793,34.91678751279192,0 32.99750303711258,34.9167815715082,0 32.99765158866303,34.91680343891153,0 32.99777331412999,34.91689225291857,0 32.99794039021214,34.91688364621281,0 32.99797315088692,34.91704586997759,0 32.99788722313109,34.9170916752042,0 32.99818762497215,34.91728626588201,0 32.99835637928762,34.91756233979458,0 32.99842456155773,34.91815515846322,0 32.99878662690153,34.91843449911333,0 32.99909024119276,34.91863582671557,0 32.99924032303858,34.9186750530173,0 32.99952724738995,34.91888202513314,0 32.99955504235361,34.91902834519254,0 32.99965649142963,34.91914324938703,0 32.99918826648748,34.91934888365218,0 32.99903449363931,34.91935507631757,0 32.99883199163325,34.91946365659103,0 32.99845975354521,34.91982151779948,0 32.99838135354764,34.91982830642393,0 32.99834115094232,34.91978303015664,0 32.99810752811715,34.91980048221944,0 32.99842131705551,34.92018774981686,0 32.99854113123629,34.92044346908285,0 32.99863739197946,34.92055655673603,0 32.99864408668492,34.92068447653434,0 32.99865133562449,34.92078616804266,0 32.99869974938532,34.92089701411876,0 32.99874169605394,34.92094957120653,0 32.99882572775624,34.92103329507389,0 32.9988762408442,34.92107753371047,0 32.99898016685771,34.92121313821501,0 32.99918061089004,34.92144911052106,0 32.99920074957979,34.92146229601464,0 32.99922409624176,34.92145891216196,0 32.99935369281174,34.92140154439851,0 32.99942072309354,34.92137949371976,0 32.99947930612914,34.92140778116555,0 32.9995203945171,34.9214434260657,0 32.9996009734166,34.92153459346553,0 32.99965817425937,34.92158277559412,0 32.99982490486816,34.92165844370369,0 32.99988613130468,34.92170065279046,0 32.99995580907063,34.92181302089979,0 33.00002455126255,34.92188177280938,0 33.00007804020374,34.92190468017306,0 33.00018504883073,34.92195544643747,0 33.00027609623197,34.92203201545235,0 33.00032285248749,34.92210673206404,0 33.00034831414872,34.92219544717486,0 33.00034712153329,34.9222762504219,0 33.00034216732655,34.92236871830668,0 33.00034224658089,34.92247917800843,0 33.00035257849862,34.92254080219094,0 33.00038155328539,34.92257540205899,0 33.00044180982324,34.92260229901014,0 33.00053330213832,34.92261832443821,0 33.00058663392122,34.92261638339472,0 33.00075996816634,34.92257464037949,0 33.00100401746823,34.92246313865406,0 33.00104187466948,34.92246344392454,0 33.00107271105153,34.92247216959224,0 33.00109304081833,34.92249210925504,0 33.00127016486864,34.92282126187837,0 33.00137512973438,34.92292947314405,0 33.00165845120193,34.92317224980617,0 33.00171464571917,34.92318852902473,0 33.0017737764656,34.92319353206825,0 33.00182881586449,34.9231874456362,0 33.00186411311379,34.92317290938951,0 33.00190214460333,34.92312305739551,0 33.00193774579177,34.92304988608988,0 33.00198985376213,34.9228930230577,0 33.00202380909813,34.9228358550068,0 33.00208300628375,34.92279395509922,0 33.00215580151535,34.92277311976142,0 33.00227439462811,34.92276278079611,0 33.00242344292725,34.92277987462162,0 33.00276844494356,34.92287861996125,0 33.00310423909296,34.92298024014701,0 33.00315198499005,34.92300888486365,0 33.00318926818219,34.92304592133635,0 33.00323022927519,34.9230949910154,0 33.0032385651,34.92310497694032,0 33.00325413292688,34.92316500788674,0 33.00323860677631,34.92327452147698,0 33.00325034769957,34.92337284747442,0 33.00323485862818,34.92348010115085,0 33.00321180509343,34.92362968211057,0 33.00316850056316,34.92375366722017,0 33.00311505285633,34.92383387056324,0 33.0029618916105,34.92393717483226,0 33.00290938935532,34.92399043584028,0 33.00288433888358,34.92404957446342,0 33.00287980902348,34.92411735920289,0 33.002940401256,34.92441896582398,0 33.0029345734289,34.9245192943533,0 33.00291616857359,34.92464202394823,0 33.00285013184224,34.924801920101,0 33.0028644833789,34.92485177836741,0 33.0029486026633,34.92498330895877,0 33.0030020175186,34.92508832081119,0 33.00300777273392,34.9251590232482,0 33.00300317519473,34.92523062287207,0 33.002974160253,34.92532266773424,0 33.00291064472575,34.92541823353818,0 33.00282655999834,34.92550797558883,0 33.00276505085214,34.92555260545011,0 33.00267719354612,34.92558869562839,0 33.00258332882427,34.92560115374295,0 33.00250209194576,34.92559934715358,0 33.00241072092924,34.92559077180481,0 33.00232446724186,34.92560135818083,0 33.00223959798585,34.92564916308785,0 33.00213959308935,34.92574960593507,0 33.00190239773277,34.92593980720714,0 33.0017256920575,34.92611793870233,0 33.00168805898872,34.92618810994799,0 33.00168402539373,34.92622481660069,0 33.00170290831204,34.9262500160657,0 33.00173566724008,34.9262683788173,0 33.00209882922989,34.92633852037716,0 33.0025102674175,34.92644937696205,0 33.00270724685875,34.92640869981197,0 33.00275538017333,34.92641362599698,0 33.00278944086416,34.92643476035936,0 33.00284764251821,34.92650145828406,0 33.00289910095115,34.92659810484767,0 33.00291867428727,34.92666610893446,0 33.0029309558257,34.92675949140364,0 33.00291174604973,34.92688370203609,0 33.00291568950816,34.92706747288241,0 33.00296011713584,34.92728453468475,0 33.00299296834371,34.92738375164957,0 33.00308712758175,34.92752589267898,0 33.00313679298713,34.92765069831648,0 33.00316155636811,34.92784489192948,0 33.00317316028688,34.92798068796863,0 33.00316038641814,34.9281332405826,0 33.00317818420324,34.92818042953491,0 33.00325631074524,34.92829191921201,0 33.003368428168,34.9286963736652,0 33.00345563645482,34.92887686357246,0 33.00366049646107,34.92920660381848,0 33.00369818064728,34.9292335430716,0 33.0037503548523,34.929245302543,0 33.00379587574738,34.92924230114325,0 33.00412891993263,34.92911937643837,0 33.00430312339499,34.92908354903254,0 33.00440310015333,34.92908574316104,0 33.00448554849982,34.92910058864425,0 33.00454950761115,34.92913093770541,0 33.00467562391239,34.92928036529518,0 33.00475709481978,34.92948058425649,0 33.00486456496103,34.9294390912961,0 33.0049476677899,34.92955517790114,0 33.00533141219592,34.92933282096435,0 33.00540328463969,34.92941883486065,0 33.00548634509406,34.92977531762141,0 33.00558630821205,34.92977335153952,0 33.00567105669948,34.92986175439223,0 33.00580356192581,34.93002869634545,0 33.00617025422196,34.93020166702871,0 33.00634564650476,34.93066138887465,0 33.00603220510779,34.93067760818509,0 33.00575710434605,34.93087146502047,0 33.00545935773333,34.9309314054726,0 33.00550617947153,34.93102119022249,0 33.00546462138256,34.93122682910077,0 33.00543981493733,34.93134032940342,0 33.00543734036983,34.93137749941898,0 33.0054422351913,34.93142558101453,0 33.00537652935621,34.93143089881767,0 33.00541524511792,34.93154122232191,0 33.00549238074242,34.93163671632523,0 33.00553248784538,34.93167999976664,0 33.00554884515377,34.93171170440564,0 33.00558785846221,34.93189480094024,0 33.00565734327851,34.93193930353215,0 33.00550669242119,34.9321297536812,0 33.00549033288471,34.93237794377248,0 33.00545053087392,34.93251712490007,0 33.0053295702021,34.93270515852426,0 33.00524266183278,34.93284234945396,0 33.0050022296582,34.93301477492875,0 33.00505226581937,34.93303313334923,0 33.00497741631321,34.93316036990194,0 33.00501661007411,34.93329650615828,0 33.00497075565915,34.93345039702159,0 33.00504252380377,34.93380092991829,0 33.00503215517298,34.93384610320318,0 33.00500258020723,34.9338854449755,0 33.00486721044403,34.93401937168489,0 33.00477595019658,34.93412322995827,0 33.00464342910499,34.93422105822351,0 33.00457969544092,34.93430113085508,0 33.00454482085284,34.9343761516209,0 33.00450078788333,34.93455729537975,0 33.0045307851528,34.93456501147453,0 33.00462726381138,34.93449279816794,0 33.00493594618329,34.93467438697828,0 33.00491159007092,34.93484336878024,0 33.0051395960947,34.93489748708586,0 33.00526047127185,34.93483916159927,0 33.00534980978229,34.93485694396895,0 33.00544422027905,34.93496631301987,0 33.00580180793469,34.93531059249378,0 33.00640384120827,34.93569293048198,0 33.00721503280806,34.93634574578458,0 33.00724549156056,34.93656216018481,0 33.00745907210873,34.93671314074621,0 33.00763691385315,34.93696525904935,0 33.00762489600157,34.93702750045139,0 33.00799317128918,34.93732652954555,0 33.0079541317203,34.93737307962747,0 33.00783510123939,34.93762534197719,0 33.00762107440656,34.93799643224577,0 33.00755129956357,34.93811550023599,0 33.00752941069906,34.93818755527536,0 33.00751194717494,34.9383158164501,0 33.0075180644658,34.93841511839482,0 33.00754323552039,34.93851392877483,0 33.00761249122299,34.93873190368372,0 33.00761762583738,34.93880954143931,0 33.0076063675118,34.93887293480965,0 33.00760233907546,34.93888436979171,0 33.00752509246905,34.93887340591151,0 33.00737033580148,34.93906294705534,0 33.00719356040525,34.93929396712532,0 33.0071935844903,34.93929399146268,0 33.00725559810006,34.93935698560766,0 33.00712603892198,34.93947675188892,0 33.00698802661293,34.93956231438933,0 33.00685077357054,34.93965916087753,0 33.0066148297057,34.93995689244385,0 33.00630231906521,34.94009487217224,0 33.00609192051401,34.94022291488868,0 33.00591205282691,34.94026694273754,0 33.00560342335864,34.9402534177724,0 33.00558791986814,34.94019799543903,0 33.00534914306392,34.94020382675803,0</coordinates>
						</LinearRing>
					</outerBoundaryIs>
				</Polygon>
			</MultiGeometry>
		</Placemark>
	</Document>
</kml>