<?xml version='1.0' encoding='UTF-8'?>
<kml xmlns="http://www.opengis.net/kml/2.2">
	<Document>
		<name>ALASSA</name>
		<Style id="PolyStyle70">
			<LabelStyle>
				<color>00000000</color>
				<scale>0.000000</scale>
			</LabelStyle>
			<LineStyle>
				<color>ff0055ff</color>
				<width>2.000000</width>
			</LineStyle>
			<PolyStyle>
				<color>00828282</color>
				<outline>1</outline>
			</PolyStyle>
		</Style>
		<Placemark id="ID_70521">
			<name>ALASSA</name>
			<snippet />
			<description>&lt;html xmlns:fo="http://www.w3.org/1999/XSL/Format" xmlns:msxsl="urn:schemas-microsoft-com:xslt"&gt;

&lt;head&gt;

&lt;META http-equiv="Content-Type" content="text/html"&gt;

&lt;meta http-equiv="content-type" content="text/html; charset=UTF-8"&gt;

&lt;/head&gt;

&lt;body style="margin:0px 0px 0px 0px;overflow:auto;background:#FFFFFF;"&gt;

&lt;table style="font-family:Arial,Verdana,Times;font-size:12px;text-align:left;width:100%;border-collapse:collapse;padding:3px 3px 3px 3px"&gt;

&lt;tr style="text-align:center;font-weight:bold;background:#9CBCE2"&gt;

&lt;td&gt;5&lt;/td&gt;

&lt;/tr&gt;

&lt;tr&gt;

&lt;td&gt;

&lt;table style="font-family:Arial,Verdana,Times;font-size:12px;text-align:left;width:100%;border-spacing:0px; padding:3px 3px 3px 3px"&gt;

&lt;tr&gt;

&lt;td&gt;DIST_CODE&lt;/td&gt;

&lt;td&gt;5&lt;/td&gt;

&lt;/tr&gt;

&lt;tr bgcolor="#D4E4F3"&gt;

&lt;td&gt;VIL_CODE&lt;/td&gt;

&lt;td&gt;302&lt;/td&gt;

&lt;/tr&gt;

&lt;tr&gt;

&lt;td&gt;VIL_CCD&lt;/td&gt;

&lt;td&gt;5302&lt;/td&gt;

&lt;/tr&gt;

&lt;tr bgcolor="#D4E4F3"&gt;

&lt;td&gt;VIL_NM_E&lt;/td&gt;

&lt;td&gt;ALASSA&lt;/td&gt;

&lt;/tr&gt;

&lt;tr&gt;

&lt;td&gt;VIL_NM_G&lt;/td&gt;

&lt;td&gt;ΑΛΑΣΣΑ&lt;/td&gt;

&lt;/tr&gt;

&lt;/table&gt;

&lt;/td&gt;

&lt;/tr&gt;

&lt;/table&gt;

&lt;/body&gt;&lt;script type="text/javascript"&gt;

				function changeImage(attElement, nameElement) {

				document.getElementById('imageAttachment').src = attElement;

				document.getElementById('imageName').innerHTML = nameElement;}

			&lt;/script&gt;&lt;/html&gt;

</description>
			<styleUrl>#PolyStyle70</styleUrl>
			<MultiGeometry>
				<Polygon>
					<extrude>0</extrude>
					<altitudeMode>clampToGround</altitudeMode>
					<outerBoundaryIs>
						<LinearRing>
							<coordinates> 32.91484451431331,34.77732369215844,0 32.91476280140333,34.77752878670761,0 32.91468130204808,34.77768947989679,0 32.91443873109688,34.77777194204554,0 32.91439732216288,34.77798826800717,0 32.91365800618301,34.77785262504428,0 32.91297990561993,34.7775784181739,0 32.91275835017422,34.77748887616227,0 32.91247590213675,34.77747129325734,0 32.91207933868034,34.77740337540539,0 32.91143439792015,34.77722917298416,0 32.91091010721906,34.77714417841691,0 32.91076219901635,34.77712703878638,0 32.91049971543887,34.77715391515731,0 32.90989348495329,34.77731841453475,0 32.90942564576826,34.77669520934057,0 32.90924431898776,34.77663354869369,0 32.90853209583167,34.77646466152703,0 32.90820975303442,34.77635257646342,0 32.90802156888338,34.77631864406914,0 32.90760434318476,34.77635055174333,0 32.90719400891618,34.77634917770053,0 32.90706603559948,34.77638204920204,0 32.90677784998174,34.77616461826272,0 32.90651364308093,34.77654116048581,0 32.90656270090709,34.7761416950399,0 32.90664550138258,34.77572013898467,0 32.90665955527508,34.77559807842621,0 32.9063719486716,34.77526408713652,0 32.90638160440823,34.77511595657159,0 32.90638382238068,34.77508193623637,0 32.90660922590189,34.77477737856076,0 32.90675723097105,34.77445238096252,0 32.90688621674268,34.77427328814024,0 32.90714354511253,34.77404596850393,0 32.90729302075484,34.77383506477539,0 32.90732880114205,34.77358854687339,0 32.90736463080049,34.77333196327132,0 32.90752449212498,34.77307579304155,0 32.9077108122468,34.77281467920407,0 32.90789534522185,34.7725032234068,0 32.90789986568419,34.77241095954415,0 32.90784713785923,34.77238226038176,0 32.90777778256028,34.7724273296157,0 32.90766280277444,34.77265344888291,0 32.90751935800807,34.77287947339465,0 32.90736792635179,34.77307526925873,0 32.90726980660453,34.77318064300143,0 32.90717002210574,34.77321050899406,0 32.90711732885848,34.77317509816596,0 32.9071971256411,34.77307469746451,0 32.90752659610654,34.77264795926872,0 32.90759304728653,34.77236631024062,0 32.90759630838485,34.77211632753508,0 32.90746632138401,34.77167295043054,0 32.90748507696006,34.77158073434959,0 32.90776174671249,34.77113871876748,0 32.9077396292974,34.77108831030339,0 32.90758923896127,34.77107270733011,0 32.90759607681186,34.77050898616188,0 32.90764960079481,34.77037494065097,0 32.90796969097246,34.76978542238781,0 32.9081241382029,34.76938829814709,0 32.908180014057,34.76918882604564,0 32.90821662922281,34.76877117297597,0 32.90822203793083,34.76849770773592,0 32.90805677150188,34.76820018350178,0 32.90806245292611,34.7678713524493,0 32.90811027068287,34.76765675221669,0 32.90832268702348,34.76746115803517,0 32.90876499391818,34.76723780866108,0 32.90931166336109,34.76687722381563,0 32.90957017080069,34.76681768429868,0 32.90981212252309,34.76681849027907,0 32.90993161043617,34.76691452316392,0 32.91011322153908,34.7671462213972,0 32.91016311692738,34.7671522664692,0 32.91019412719247,34.76713081471294,0 32.91020319107717,34.76709327279107,0 32.91015503152288,34.76696224397805,0 32.90998568804006,34.76666638698048,0 32.90982737027309,34.76661049185004,0 32.90964671339673,34.7665494893799,0 32.90965709055367,34.76650590146049,0 32.90972632581439,34.76648432042245,0 32.90977509872228,34.76648951564398,0 32.91009611873579,34.76653588454393,0 32.91019752233704,34.76658823427795,0 32.91034509238055,34.76676321680559,0 32.91050217491919,34.76707245550953,0 32.91052029288038,34.76710942697584,0 32.91058120026458,34.76712808601721,0 32.91061583785578,34.76711310030165,0 32.91063046953856,34.76703093734879,0 32.91064839683601,34.76669040149084,0 32.91069395398235,34.7665210934139,0 32.91075470720653,34.76615385514764,0 32.91080095908167,34.76584193616759,0 32.91091578711798,34.76564265730751,0 32.91134230911872,34.76531689972899,0 32.9114291799864,34.76501350361582,0 32.91142743375229,34.76495477476307,0 32.91140351835935,34.76485570465412,0 32.91122185938667,34.76458329636897,0 32.91122439072935,34.7644809587668,0 32.91131406961227,34.76443595549512,0 32.91155049908572,34.76473371201231,0 32.91170808125178,34.76494060387636,0 32.91177105972234,34.76495087932648,0 32.91178350290536,34.7649005867302,0 32.91174139293788,34.76477964483721,0 32.91155545577264,34.76455084670715,0 32.91153368786033,34.76442829417336,0 32.91156428957476,34.76440658394226,0 32.91172004856402,34.76456984819294,0 32.91193798595115,34.76490780929715,0 32.91201106550152,34.76493154084886,0 32.91206033506872,34.76483439066314,0 32.91207972591081,34.76460962856815,0 32.91198985765932,34.76427544642198,0 32.91197389647517,34.76421331418823,0 32.91239685378647,34.7637818393214,0 32.91249113333647,34.7636261136164,0 32.91258620345465,34.76330764371244,0 32.91270328731648,34.76306139307265,0 32.91275080454979,34.76290551281532,0 32.91273482761017,34.76242728519676,0 32.91282500604857,34.76227825683196,0 32.91305627330917,34.76196359254152,0 32.91306029802156,34.76155254177793,0 32.91311367765101,34.76144533822301,0 32.91332980001173,34.76131853739593,0 32.91345806049303,34.76128204815144,0 32.91337501251343,34.76121801766634,0 32.91302810264538,34.7610641916981,0 32.91281561803672,34.76086047492965,0 32.91266783405191,34.76073079540679,0 32.91262547071935,34.76063131198629,0 32.91257048360278,34.76050387412526,0 32.91217567015199,34.76046904592619,0 32.91205389617284,34.76042552012498,0 32.91176338519951,34.76044374487458,0 32.91136344363707,34.76026512873808,0 32.91096754162528,34.76046032581536,0 32.91077025923995,34.76041655238613,0 32.91046227712989,34.76044430231408,0 32.90983118577034,34.76001572629671,0 32.90953561722581,34.75987578295543,0 32.90881050635264,34.75967692555555,0 32.90812731285987,34.75921462386374,0 32.90768192495452,34.75882498371036,0 32.9070237206427,34.75799854130477,0 32.90706150387518,34.75738524855759,0 32.90691145449851,34.75718347741822,0 32.90626715824617,34.75709509406465,0 32.90602388069551,34.75695531490112,0 32.90577553205283,34.7566621634947,0 32.90566153098654,34.75621130907622,0 32.90545928198448,34.755994986601,0 32.90573903697061,34.75579463227201,0 32.90575701277558,34.75567967618441,0 32.90644838048529,34.7544263657152,0 32.90659362242381,34.7535843311931,0 32.90663040892119,34.75358779308164,0 32.90664269729757,34.75358895006698,0 32.90674012607762,34.75358080517006,0 32.90695397562546,34.7535407003498,0 32.90704671273182,34.75351447996899,0 32.90710554744677,34.7534978450718,0 32.90718704004811,34.75348334135104,0 32.90736486827281,34.75346817169653,0 32.90739720543753,34.75346541256981,0 32.90756584615885,34.75343916745668,0 32.90768915029408,34.7534458840472,0 32.90792706607478,34.75345893076533,0 32.90799965921339,34.75346893419034,0 32.90824641638753,34.75350293969751,0 32.90832792075948,34.7534795864489,0 32.90832823427028,34.75347954702048,0 32.9086171231917,34.75327437453311,0 32.9086172040783,34.75327431780156,0 32.90861728278145,34.75327426016692,0 32.90907842669475,34.75294159361066,0 32.90914468748538,34.75290515990164,0 32.90914410598781,34.75289060352297,0 32.90917734171937,34.75261354070452,0 32.90916360987106,34.75254127268213,0 32.90918149852487,34.75247300099713,0 32.9092543456854,34.75234299381954,0 32.90935941461391,34.75220416811817,0 32.90944540640209,34.7521317408286,0 32.90933949996118,34.75206571449457,0 32.90897691380256,34.75184800897915,0 32.9088172928742,34.75174904127712,0 32.90907417007494,34.75129962700052,0 32.9091306503439,34.75113132695514,0 32.90927600769837,34.75090556435484,0 32.90929995494469,34.75087162852702,0 32.90933524228035,34.75071881417466,0 32.9094310589602,34.75053529768177,0 32.90954846681391,34.7503104253239,0 32.90980970083142,34.74982800999202,0 32.90984664151127,34.74974245047206,0 32.91003064446249,34.74955363861784,0 32.91068774918944,34.74905310524121,0 32.91070357276244,34.7490426517385,0 32.91106806249208,34.74880185951498,0 32.91114990353643,34.74866609822772,0 32.91113057221224,34.74833077429274,0 32.91112068079335,34.74819906212855,0 32.91106686312384,34.74804192001379,0 32.91103761869709,34.74771186055865,0 32.91099365591363,34.74763106166689,0 32.91096826243234,34.74750796065891,0 32.91083073482268,34.74720481088276,0 32.91082565598731,34.74716249869729,0 32.9107807673504,34.74705244830013,0 32.91076379662465,34.74701084045747,0 32.91074112011748,34.7468976043121,0 32.91073222187436,34.74672764814959,0 32.91074346783991,34.74663803722108,0 32.91074734868224,34.74660710988961,0 32.91078437833917,34.74648937590475,0 32.91083030092499,34.74640024019371,0 32.91094903641753,34.74616977100006,0 32.91102978357542,34.74601303543938,0 32.91115229643759,34.74571140440635,0 32.91126312040977,34.74543854760931,0 32.91135132748354,34.74529825096676,0 32.91138100776408,34.74519605088668,0 32.91139008271912,34.74516480548338,0 32.91139011560369,34.74516469192263,0 32.91151350600299,34.7449184886318,0 32.91156146852217,34.74482278963062,0 32.91159412419383,34.74477404855964,0 32.9116756544382,34.74470821058116,0 32.9117750864016,34.74462791699399,0 32.91197279002989,34.74450533542585,0 32.91208383300734,34.74446390494673,0 32.91213879062315,34.74444244825754,0 32.91228195648807,34.74438655331291,0 32.91320647621216,34.74409339647474,0 32.91314280075553,34.74403464402777,0 32.91305621462687,34.74395475475347,0 32.91324552060325,34.74369355122853,0 32.91308859901451,34.74354448745591,0 32.91312376191104,34.7435248614913,0 32.91377030537578,34.74316400266053,0 32.91416201427177,34.74303202441128,0 32.91438611055374,34.74275699977294,0 32.91438966254285,34.7427247108598,0 32.91440273498912,34.74260587348678,0 32.91459238289853,34.74225361547521,0 32.91459255226058,34.74225352725029,0 32.91466130474836,34.74221745280089,0 32.91468096516024,34.74218043254972,0 32.91497919551629,34.74161887091278,0 32.91510499412385,34.74145722843773,0 32.91526535253739,34.7413534668739,0 32.91551309286078,34.74112303853574,0 32.91570052486252,34.74086505971592,0 32.91590508718119,34.74081245454146,0 32.91642290965988,34.74035795726022,0 32.9166039813968,34.74046405775307,0 32.9166567953878,34.74040502172221,0 32.91671832328919,34.74036939098658,0 32.91685464080108,34.74029044896801,0 32.91692415129497,34.7402516414008,0 32.91694574219304,34.74023958639378,0 32.91719259861971,34.7400978988405,0 32.91740208819918,34.74018184049697,0 32.91742345646882,34.74019040178846,0 32.91745683245748,34.74020377603005,0 32.91760449623246,34.74019103282509,0 32.91764097966594,34.74022146486082,0 32.91768815505126,34.74019934682366,0 32.91787172134788,34.74011328425399,0 32.91801719334686,34.74004508176356,0 32.91806314820747,34.74004118049186,0 32.91810250997999,34.74000782206171,0 32.91814084304397,34.73994786335983,0 32.91816455608581,34.73988097065979,0 32.91819538043726,34.73983958070697,0 32.91828483381785,34.73980525251856,0 32.91834236288625,34.73972828153461,0 32.91836810073524,34.73964877593067,0 32.91837867759291,34.73961609945365,0 32.91840426009801,34.7395701255823,0 32.91841230624576,34.73955566694402,0 32.91848615674342,34.73942294931987,0 32.91848710030356,34.7394195712552,0 32.9185540338223,34.73917981514095,0 32.91855743516928,34.7391668002397,0 32.91855932033211,34.73915868830207,0 32.91856103516337,34.73915055010799,0 32.91856257747552,34.73914238926184,0 32.91856394726771,34.73913420666514,0 32.91856514344444,34.73912600592297,0 32.91856616600395,34.73911778883835,0 32.91856701385078,34.73910955901631,0 32.91856768916812,34.73910131735989,0 32.91856818976754,34.73909306837488,0 32.91856851455707,34.7390848120606,0 32.91856866571553,34.73907655382725,0 32.91856864324295,34.73906829367491,0 32.9185684449518,34.73906003520794,0 32.91856807193149,34.73905178113146,0 32.91856752527234,34.73904353324912,0 32.91856680387972,34.73903529426461,0 32.91856590775015,34.73902706778381,0 32.91856483906686,34.7390188547096,0 32.91856359673431,34.73901065864715,0 32.91856218074991,34.73900248230078,0 32.91856059220488,34.73899432657277,0 32.91855883109479,34.73898619597038,0 32.91855689960293,34.73897809139658,0 32.91855479554258,34.73897001555424,0 32.91855252218635,34.73896197205147,0 32.91855102872851,34.73895707428677,0 32.91855007844141,34.73895396178894,0 32.91854746648828,34.73894598837397,0 32.91854468523323,34.73893805360879,0 32.91854173794971,34.73893016019996,0 32.91853862354313,34.73892231085114,0 32.91853534310374,34.73891450736593,0 32.91852905679318,34.73890064942396,0 32.91852532084195,34.73889298626256,0 32.91852142321645,34.73888537888378,0 32.91851736500701,34.73887782909132,0 32.91851314839677,34.73887033778805,0 32.91850877338141,34.73886290948131,0 32.91850424214407,34.73885554507399,0 32.91849955577509,34.73884824636971,0 32.91849471645498,34.73884101697586,0 32.91848972418199,34.73883385869528,0 32.91848458223136,34.73882677243165,0 32.91847929059869,34.73881976269225,0 32.91847385256095,34.7388128285778,0 32.91846826702086,34.73880597549635,0 32.91846253943944,34.73879920255008,0 32.9184566676282,34.73879251424481,0 32.91845065704732,34.73878591058419,0 32.91844450660123,34.73877939517335,0 32.91843821956425,34.73877296981736,0 32.91843179811957,34.73876663541913,0 32.91842524335745,34.73876039378234,0 32.91841855745839,34.73875424851427,0 32.91841174260558,34.73874820051783,0 32.91840480098219,34.73874225069593,0 32.9183977347687,34.73873640265585,0 32.91839054614832,34.73873065730055,0 32.9183832373033,34.73872501643434,0 32.91837580932477,34.73871948095949,0 32.91836826657819,34.7387140535832,0 32.91836061015378,34.73870873610917,0 32.9183528422347,34.73870352944029,0 32.91834496500236,34.73869843628242,0 32.91831397336018,34.73868395958384,0 32.91829554688722,34.73867582050354,0 32.9182769508913,34.73866794814082,0 32.91825819192267,34.73866034430287,0 32.91823927434576,34.73865301259845,0 32.91822020471166,34.73864595393336,0 32.91821299111834,34.73864340785548,0 32.9182009884768,34.73863917191706,0 32.91818163219317,34.73863266655385,0 32.91816214131717,34.73862644145321,0 32.91814252239899,34.73862049842245,0 32.9181227798048,34.73861483926732,0 32.91810292117768,34.73860946489442,0 32.91808295197581,34.73860437711026,0 32.91806287765643,34.73859957862287,0 32.91804270586353,34.73859506943732,0 32.91802244096233,34.73859085226093,0 32.91801631584377,34.73858969966981,0 32.91801018745019,34.7385885461747,0 32.91798945157832,34.73858464418909,0 32.91796897516275,34.73858119491088,0 32.91794842856619,34.73857804216447,0 32.91793838113642,34.7385766489398,0 32.91792781834144,34.73857518505269,0 32.91790715103867,34.73857262538292,0 32.91790691191139,34.73857259907926,0 32.91820398928491,34.73848633388469,0 32.91892349179591,34.73848837990369,0 32.91906934986912,34.73839448459515,0 32.91982441705329,34.7374939022441,0 32.91993678638881,34.73740177414355,0 32.92058742217434,34.7373098808832,0 32.92086906850184,34.73726052768952,0 32.92120023224103,34.73702637454869,0 32.9213260147351,34.73699639104075,0 32.92178375064068,34.73695845463771,0 32.92170045775465,34.73775989431187,0 32.92183374775648,34.73934390899142,0 32.92198426193386,34.74004193431323,0 32.92225877186356,34.74058090544418,0 32.92237403514213,34.74072036097289,0 32.923469649116,34.74190783456942,0 32.92392246184652,34.74235240941729,0 32.92436542370284,34.74271517831414,0 32.92453510603397,34.74279138352712,0 32.92473472635935,34.74283696527846,0 32.92530595466022,34.74288993191494,0 32.92589819635985,34.74297723017288,0 32.92687309706396,34.74319535128393,0 32.92695784687527,34.74331238988109,0 32.92833790975054,34.74334201338159,0 32.92849210451892,34.74335374103728,0 32.92859122554881,34.7434337880685,0 32.92861177165296,34.7435320535862,0 32.92839711226829,34.74412363352612,0 32.92817650928161,34.74458339450084,0 32.92819126275273,34.7446954274447,0 32.92878439093572,34.74486527020705,0 32.92906657284982,34.74491891884719,0 32.92933868324691,34.74494104304548,0 32.9298131033842,34.74492467812881,0 32.93024298027726,34.74485547258906,0 32.93044526188115,34.74486665197251,0 32.93060450281086,34.74494667127026,0 32.93066890966959,34.74508025829136,0 32.93068452562265,34.74519545916756,0 32.93061024797349,34.74535594175829,0 32.93044849329361,34.74544270840575,0 32.93031055267905,34.74557401365541,0 32.93027182267061,34.74570561267456,0 32.93034463692725,34.74580772909227,0 32.93076875939352,34.74601842076916,0 32.93085788437758,34.74618467640335,0 32.93079489663973,34.74634377723261,0 32.93045460520743,34.74659796521939,0 32.93038442836045,34.74661862006657,0 32.92973834409921,34.74662343335849,0 32.92947284232103,34.74664849207677,0 32.9293805761059,34.74668925876657,0 32.92938944352041,34.74674012008013,0 32.93029970118478,34.74717862501537,0 32.93034061268069,34.74723453386677,0 32.93039614853607,34.74743297904304,0 32.93046580936433,34.74759621921591,0 32.93060971910788,34.74771868693165,0 32.9308088897914,34.74778472260719,0 32.93130155880846,34.74786652283053,0 32.93134356550316,34.74789225270315,0 32.93135348691367,34.74792747313502,0 32.93131090192747,34.74811081075952,0 32.93133366221507,34.74821256115712,0 32.93144945763962,34.74836577902124,0 32.93148233812367,34.74843175773304,0 32.93145810943573,34.74849827313049,0 32.93085250956513,34.74902240228702,0 32.93068473732257,34.7491855739542,0 32.93086567958782,34.74932821556273,0 32.93090258006821,34.74938917103508,0 32.930907448078,34.7494400497792,0 32.93086520952367,34.74949649808406,0 32.93125584953575,34.74953748978437,0 32.93161341186227,34.74958853012368,0 32.93215382759967,34.74946632781197,0 32.93279564707838,34.74927818735109,0 32.93283207019034,34.74952309944101,0 32.93285034726532,34.74980826904552,0 32.93277062446339,34.75001679610897,0 32.9326207074147,34.75024095085382,0 32.93259734207916,34.75035836544774,0 32.93257359693145,34.75061781463065,0 32.93279711555356,34.7506028260274,0 32.9332432738846,34.75053146536282,0 32.93354197025729,34.75051651026997,0 32.93372329143536,34.75054735354792,0 32.93385346519857,34.7505927121174,0 32.93446173691323,34.75102641932218,0 32.93571902768165,34.75050243332851,0 32.93577917190282,34.75050246055383,0 32.93580315162034,34.75053379098966,0 32.93583976260696,34.75072731422929,0 32.93589052134047,34.75087498918693,0 32.93597346031114,34.75098185279994,0 32.93606660175973,34.75101769169213,0 32.93636427635691,34.75104356279496,0 32.93678802120445,34.7511757651521,0 32.93714611722911,34.75109986687652,0 32.93719720003953,34.75112002744861,0 32.93735453953316,34.75156869900486,0 32.93741438245546,34.75170129918097,0 32.93740000635948,34.75184393325964,0 32.93728842254188,34.75196582148553,0 32.93711571342584,34.75207313382577,0 32.93672426375431,34.75225081437045,0 32.93659874096335,34.75233241727177,0 32.93652416312224,34.75249068552479,0 32.93653699894192,34.75257180509888,0 32.93656981245908,34.75268426367711,0 32.93682996968575,34.7529031401909,0 32.93687208103054,34.75290316383182,0 32.93735182427758,34.75270986443984,0 32.93745907664598,34.75272502811655,0 32.9378265828926,34.7529344606576,0 32.93858273888314,34.75378083275107,0 32.93880556556828,34.75413794647434,0 32.9388592465241,34.75478539971648,0 32.9382912556417,34.75492773747283,0 32.93813667736482,34.75498359760159,0 32.93800605079357,34.75509039434633,0 32.93769984794122,34.75557679165402,0 32.93761361391514,34.75584101081625,0 32.93756340505355,34.75601834994883,0 32.93756685164339,34.75631511909845,0 32.93797099247607,34.75671536562623,0 32.93808255431858,34.75678816423929,0 32.93818956131199,34.75681886026661,0 32.93899980906382,34.75675436976513,0 32.93960959233947,34.75682369610771,0 32.94054394075545,34.75681586514945,0 32.9407766405286,34.75684121683673,0 32.9412378437238,34.75698483795659,0 32.94138217031809,34.75705603032319,0 32.94157731529778,34.75729575936897,0 32.94188864002647,34.75764306750252,0 32.94200879558515,34.75776519831965,0 32.94211098568143,34.75784197143578,0 32.94259512826554,34.75810210077963,0 32.94278049817041,34.75823996865954,0 32.94313899695447,34.75862320912007,0 32.94323605931827,34.75876606339057,0 32.94336198546874,34.75903100992763,0 32.94339399966196,34.75908198996545,0 32.9436589428745,34.75909227324294,0 32.94391989735723,34.75909247394016,0 32.94428328143041,34.75914031466762,0 32.94439051459353,34.75915443193069,0 32.94467038225683,34.75924648528157,0 32.94486593314213,34.75934295487198,0 32.94507540822657,34.75951168003415,0 32.94525677518721,34.75968486886594,0 32.94533085848622,34.75979245396872,0 32.94536561712988,34.75987467854068,0 32.94554874596616,34.7603078813506,0 32.9455857018356,34.7604098452802,0 32.94570192134307,34.76053707923677,0 32.94583193913293,34.76073652734302,0 32.94610560768121,34.76095555926176,0 32.94627512410774,34.76104917001988,0 32.94633959757007,34.76104694208804,0 32.94644982967687,34.76096988124139,0 32.94661090650401,34.76073889518046,0 32.94678322481516,34.76052787581831,0 32.94701702199252,34.76003796925332,0 32.94737523065334,34.76017099491505,0 32.94790701623563,34.76039098326977,0 32.94814982787145,34.7599061040312,0 32.94837801812795,34.75975336685156,0 32.94864940909172,34.75962718475304,0 32.9490871467818,34.75958623569009,0 32.94899524721069,34.7590142086118,0 32.94946070661918,34.75837190062472,0 32.94951590266733,34.75829897436535,0 32.94956897619053,34.75834480424263,0 32.94947459815705,34.75861238988661,0 32.95078468259736,34.75946744555425,0 32.9509046789121,34.759543821826,0 32.95111405882096,34.75992907082484,0 32.95114867256854,34.75994816329253,0 32.95199777384305,34.76019619073618,0 32.95205680875814,34.76018678198243,0 32.95193358843471,34.76044158796144,0 32.95187959070617,34.76075469538685,0 32.95184797034013,34.76081675675891,0 32.95168112091802,34.76088261919055,0 32.95082540887124,34.76130789173686,0 32.9507965710749,34.76152588457896,0 32.95099500730538,34.76179607276996,0 32.95102708424964,34.76185597709539,0 32.95099901533041,34.76189914228863,0 32.95084258449639,34.76196769591432,0 32.9501141153242,34.76211168874125,0 32.94993528943906,34.76225072915097,0 32.94987086082246,34.76247733410209,0 32.95008970553245,34.76275314463629,0 32.95002499819121,34.76314321454809,0 32.94925002481152,34.76352972622086,0 32.94862938564933,34.76416663711857,0 32.94843157913708,34.76436962695584,0 32.94851741637483,34.76459599627702,0 32.94862699836958,34.76470690266548,0 32.94887006251804,34.76495290241332,0 32.94907530764533,34.76548211283867,0 32.94862258088546,34.76570638415443,0 32.94841254400857,34.76581043141199,0 32.94816932462739,34.76608002141002,0 32.94810053053002,34.76606948735984,0 32.94805905226507,34.7660159931032,0 32.94807746019136,34.76563899392846,0 32.94773322904799,34.76518689197512,0 32.94754606384803,34.76505893267501,0 32.94740620212139,34.76507917959179,0 32.94684133674173,34.76543217877624,0 32.94675156298096,34.76544740852285,0 32.94660147619094,34.76542285906156,0 32.94612545833813,34.76505128185023,0 32.94607519548472,34.76509417463724,0 32.94607052605151,34.76520262845897,0 32.94639242488291,34.76551865488661,0 32.94655473702856,34.765606942486,0 32.94696334518358,34.76566669162575,0 32.94699025134636,34.76571325668099,0 32.94695876218451,34.76575620577809,0 32.94652663334789,34.76582207233504,0 32.94626538022407,34.76592804324418,0 32.94605821747732,34.76606688596502,0 32.94536094576723,34.76696424788003,0 32.94534681125211,34.7669824384583,0 32.94522960807925,34.76706473168567,0 32.94459234752976,34.76727804667902,0 32.94419096863056,34.76745935028043,0 32.94380283478994,34.76748229425591,0 32.94307364261273,34.76817568127373,0 32.94295227905126,34.76825451684336,0 32.94274139306579,34.76829348451799,0 32.94191016783751,34.76849243020772,0 32.94121759300046,34.76848346178085,0 32.94076658004973,34.76856818887842,0 32.94035611811269,34.76845676246758,0 32.94014967618645,34.76843720219338,0 32.93992493245492,34.76831600438666,0 32.93990246647551,34.76821263433673,0 32.93997212785062,34.76803723151571,0 32.94008554986929,34.76787229002816,0 32.94028847509041,34.76775066165214,0 32.94032427613124,34.76767845764535,0 32.94015186473272,34.76751954165194,0 32.93961028472877,34.76778993560177,0 32.93940357917194,34.76782718769446,0 32.93897009018962,34.76818054632985,0 32.93883227523185,34.76820767699051,0 32.93871587626035,34.76811607405675,0 32.93835782419939,34.76750550683031,0 32.93783668793996,34.76697364225415,0 32.93775195532835,34.76680293678861,0 32.93766997060149,34.76649106002755,0 32.93750637109046,34.76623402958535,0 32.93736450509591,34.76579112128906,0 32.93729567224556,34.76578919008283,0 32.93724114287028,34.76585100593039,0 32.93729311185619,34.76633496126989,0 32.93745116578378,34.76688466517447,0 32.93734038259554,34.76693081447243,0 32.93682542605557,34.76641790195372,0 32.93670570126612,34.76614723062482,0 32.93665580471681,34.76611092260896,0 32.93662233924646,34.76612975928346,0 32.93664856688925,34.76631922701311,0 32.93680355407486,34.76663304807475,0 32.93697994383815,34.76683158114938,0 32.9369983641171,34.76690739105702,0 32.93694606508407,34.76693822284657,0 32.93684817096537,34.76690521283767,0 32.93669056308291,34.76670501532655,0 32.93649595791419,34.76638762981803,0 32.93638745688391,34.76639246361161,0 32.93642568251394,34.76669215676632,0 32.93637106307924,34.76677291009145,0 32.93615851418863,34.76672233315168,0 32.93580457924215,34.76657146488571,0 32.93554270271996,34.76636406135852,0 32.93549089812563,34.76628986969555,0 32.9352901370851,34.766394279629,0 32.93537849960194,34.76667863071285,0 32.93552194619122,34.7667840922377,0 32.93626766843703,34.76702224109891,0 32.93684722445066,34.76710664864152,0 32.93710552490657,34.76718835478413,0 32.937619782022,34.76740685259021,0 32.93784863579508,34.76754011833178,0 32.93806457057268,34.76775942976531,0 32.93819288089399,34.76798019639021,0 32.93818976946545,34.76819884269123,0 32.93800796479745,34.76870963686173,0 32.93803510751033,34.7691504738011,0 32.93824814704571,34.76954366820897,0 32.93856731696533,34.76999399909937,0 32.9386769289725,34.77019921359274,0 32.93922935160933,34.77073805552163,0 32.94000709480839,34.77172521746383,0 32.94020337839429,34.77213557468315,0 32.94021417421816,34.77295341395052,0 32.94012870914167,34.7733853027531,0 32.94004439029098,34.77357099207838,0 32.93977325995164,34.77399887576286,0 32.93964317016685,34.77415687899194,0 32.93942590388546,34.77421820387291,0 32.93940820879911,34.77443336218268,0 32.93944475828106,34.77464868540009,0 32.93952765549725,34.77476773302494,0 32.93968783708376,34.77486807572056,0 32.93982949074554,34.77491498935234,0 32.93931100874404,34.77522204283876,0 32.93926082912545,34.77524844144519,0 32.93880985179737,34.77552535273031,0 32.93844469377267,34.77576718753179,0 32.93839092246267,34.77581855894246,0 32.93832254074614,34.77594351100431,0 32.93831599032966,34.77581391002371,0 32.93823112674384,34.7756384183091,0 32.93804210193993,34.77560691083705,0 32.9374321911276,34.77551372405451,0 32.93719252684325,34.77562930859501,0 32.93708689515783,34.77570407983645,0 32.93697690095554,34.77595259184161,0 32.93677367357714,34.77590484063447,0 32.93663749124855,34.77602516266844,0 32.93645109620561,34.77619981194297,0 32.9363333646718,34.7761876654405,0 32.93624728162966,34.77628016618839,0 32.93613799105513,34.77637406548823,0 32.93614792178787,34.77615322084445,0 32.93569821360203,34.77615034826571,0 32.93495583012019,34.77614655897081,0 32.93441511219873,34.77614192472314,0 32.93335719507427,34.77606351532721,0 32.93306103501287,34.77604491615735,0 32.93306156446654,34.77631733257771,0 32.93219032313045,34.77677843630141,0 32.93191129127601,34.77691450212553,0 32.93171283947553,34.77699191931352,0 32.93153954040316,34.77703260407216,0 32.9311833765387,34.7768680335702,0 32.93096792249145,34.77676280574304,0 32.9308756618741,34.77664618547043,0 32.93081351563136,34.77657825392716,0 32.93047913117786,34.77633570653369,0 32.93012520769951,34.77607395489362,0 32.92980152158673,34.7758343838788,0 32.92956855573227,34.77565841842654,0 32.92899363961368,34.77571696879468,0 32.92845451603212,34.77575354363915,0 32.92811182794036,34.7757627620279,0 32.92798355892722,34.77571523420426,0 32.92750442298939,34.77551786607882,0 32.92736304885188,34.77560134905812,0 32.92691912217405,34.77588854579744,0 32.92671864079461,34.77601748836378,0 32.92660233880721,34.77608190702003,0 32.92647729332655,34.77610801359859,0 32.92638469468311,34.77606501564064,0 32.92629213108934,34.77601465449929,0 32.92622276713401,34.77596436684564,0 32.92614114618093,34.7758639757215,0 32.92602967169275,34.775660413113,0 32.92592341896466,34.77548484484318,0 32.92590938370822,34.77543326280895,0 32.92592947785465,34.77533466870894,0 32.92595125893397,34.77525669565284,0 32.9259214659945,34.77517998121085,0 32.92590715106007,34.77514311986481,0 32.92523980506758,34.77462682545411,0 32.92496593405827,34.77427451103015,0 32.92471848909577,34.7745011451941,0 32.92447556828529,34.77465543397924,0 32.92316748427164,34.77517114730916,0 32.92291643103014,34.77528241461194,0 32.92240217582043,34.77547946101708,0 32.92220909373491,34.77557551557756,0 32.92208400931364,34.77563774277211,0 32.9219328041059,34.7763144060531,0 32.92106550360553,34.77621724532717,0 32.92046718718823,34.77613760216499,0 32.92030389549926,34.77652560316793,0 32.92016994117114,34.77640305824125,0 32.92000818189513,34.77646913912523,0 32.91929408048934,34.77668883791795,0 32.91874769254243,34.77700343497808,0 32.91837535580353,34.77749620923863,0 32.91779109683251,34.77728893534486,0 32.91761622536131,34.77728281520228,0 32.91729293791183,34.77736502015852,0 32.91646398296693,34.7776842302255,0 32.91561690218657,34.77757599446686,0 32.91537604557826,34.77730323455575,0 32.91503404564284,34.77708009392963,0 32.91484451431331,34.77732369215844,0</coordinates>
						</LinearRing>
					</outerBoundaryIs>
				</Polygon>
			</MultiGeometry>
		</Placemark>
	</Document>
</kml>