<?xml version='1.0' encoding='UTF-8'?>
<kml xmlns="http://www.opengis.net/kml/2.2">
	<Document>
		<name>ALEKTORA</name>
		<Style id="PolyStyle70">
			<LabelStyle>
				<color>00000000</color>
				<scale>0.000000</scale>
			</LabelStyle>
			<LineStyle>
				<color>ff0055ff</color>
				<width>2.000000</width>
			</LineStyle>
			<PolyStyle>
				<color>00828282</color>
				<outline>1</outline>
			</PolyStyle>
		</Style>
		<Placemark id="ID_70506">
			<name>ALEKTORA</name>
			<snippet />
			<description>&lt;html xmlns:fo="http://www.w3.org/1999/XSL/Format" xmlns:msxsl="urn:schemas-microsoft-com:xslt"&gt;

&lt;head&gt;

&lt;META http-equiv="Content-Type" content="text/html"&gt;

&lt;meta http-equiv="content-type" content="text/html; charset=UTF-8"&gt;

&lt;/head&gt;

&lt;body style="margin:0px 0px 0px 0px;overflow:auto;background:#FFFFFF;"&gt;

&lt;table style="font-family:Arial,Verdana,Times;font-size:12px;text-align:left;width:100%;border-collapse:collapse;padding:3px 3px 3px 3px"&gt;

&lt;tr style="text-align:center;font-weight:bold;background:#9CBCE2"&gt;

&lt;td&gt;5&lt;/td&gt;

&lt;/tr&gt;

&lt;tr&gt;

&lt;td&gt;

&lt;table style="font-family:Arial,Verdana,Times;font-size:12px;text-align:left;width:100%;border-spacing:0px; padding:3px 3px 3px 3px"&gt;

&lt;tr&gt;

&lt;td&gt;DIST_CODE&lt;/td&gt;

&lt;td&gt;5&lt;/td&gt;

&lt;/tr&gt;

&lt;tr bgcolor="#D4E4F3"&gt;

&lt;td&gt;VIL_CODE&lt;/td&gt;

&lt;td&gt;225&lt;/td&gt;

&lt;/tr&gt;

&lt;tr&gt;

&lt;td&gt;VIL_CCD&lt;/td&gt;

&lt;td&gt;5225&lt;/td&gt;

&lt;/tr&gt;

&lt;tr bgcolor="#D4E4F3"&gt;

&lt;td&gt;VIL_NM_E&lt;/td&gt;

&lt;td&gt;ALEKTORA&lt;/td&gt;

&lt;/tr&gt;

&lt;tr&gt;

&lt;td&gt;VIL_NM_G&lt;/td&gt;

&lt;td&gt;ΑΛΕΚΤΟΡΑ&lt;/td&gt;

&lt;/tr&gt;

&lt;/table&gt;

&lt;/td&gt;

&lt;/tr&gt;

&lt;/table&gt;

&lt;/body&gt;&lt;script type="text/javascript"&gt;

				function changeImage(attElement, nameElement) {

				document.getElementById('imageAttachment').src = attElement;

				document.getElementById('imageName').innerHTML = nameElement;}

			&lt;/script&gt;&lt;/html&gt;

</description>
			<styleUrl>#PolyStyle70</styleUrl>
			<MultiGeometry>
				<Polygon>
					<extrude>0</extrude>
					<altitudeMode>clampToGround</altitudeMode>
					<outerBoundaryIs>
						<LinearRing>
							<coordinates> 32.68497166352826,34.72802436807265,0 32.68468762934538,34.72825961293493,0 32.68453407618878,34.72842155814612,0 32.6843960886136,34.72859837887145,0 32.68438758721601,34.72864174428404,0 32.68431860774834,34.72877916132717,0 32.68415686145843,34.72907460056202,0 32.68411486109198,34.72915973043153,0 32.68395734080805,34.72922433990394,0 32.68395634234901,34.72922474928223,0 32.68348288919221,34.72933690426999,0 32.6832919439691,34.72939321819965,0 32.68294556044473,34.72949749627584,0 32.68271632909704,34.72953897883176,0 32.68240577004461,34.72959345177672,0 32.68217816221328,34.72961543529374,0 32.68212238703692,34.72957003359819,0 32.68223512704781,34.72931091995488,0 32.68227638645948,34.72912946654742,0 32.68240987533255,34.72905456769494,0 32.68250778094296,34.72899777109485,0 32.68258819731791,34.72871654288107,0 32.68268545307723,34.72835736925304,0 32.6827357000042,34.72815889419606,0 32.68279790142489,34.72794219109606,0 32.68229131425795,34.72794565679909,0 32.6820329234067,34.72793821803845,0 32.68204387386714,34.72785780542334,0 32.68208678517831,34.7276531941425,0 32.68195084702199,34.72766224246857,0 32.68188837773562,34.72767986973713,0 32.68188720597914,34.72768020021874,0 32.68171586968348,34.72787682702739,0 32.68154888662134,34.72808323052069,0 32.68149538841674,34.72815820329738,0 32.68149514471091,34.72815854431484,0 32.68133399774515,34.72818087220185,0 32.6809835601853,34.72823635323002,0 32.68051801340282,34.72828025951259,0 32.68019854064262,34.72834199631198,0 32.67987293734515,34.72843296143645,0 32.67975452379856,34.72846770269633,0 32.67961614155209,34.72840967581452,0 32.67962408431844,34.7283365627819,0 32.67960893268116,34.72819383119058,0 32.67953877428067,34.72809836556787,0 32.67952631352291,34.72798978667265,0 32.67956940784339,34.72776201187531,0 32.67962911367835,34.72767941546502,0 32.67938403321509,34.72766960279129,0 32.67896627715697,34.72764425590382,0 32.67831954944536,34.7276274647331,0 32.67780875032371,34.72760284803622,0 32.67767753121887,34.7275741183317,0 32.67747553955245,34.72753038738019,0 32.67717474450081,34.7274678511953,0 32.67688545429932,34.72744560864973,0 32.67634205280513,34.72743544534009,0 32.67624610954505,34.7274288458909,0 32.67599331799883,34.72746165864599,0 32.67590893559881,34.72748803906903,0 32.6757212519463,34.72750412382202,0 32.67563261652422,34.72750731700904,0 32.67536021085773,34.72740225057998,0 32.67522611257464,34.72736374951858,0 32.67479529870573,34.72730905866427,0 32.67466833373847,34.72730351460345,0 32.67451380726834,34.72723320505395,0 32.67442565870184,34.72717299874319,0 32.67400435827197,34.72684280543599,0 32.67379301134386,34.72667221825773,0 32.67357726428032,34.72649794816088,0 32.67339686525365,34.72633605850032,0 32.67325295256911,34.72623044564627,0 32.67317950187571,34.72618006954841,0 32.67289846902522,34.72604569042525,0 32.67248649514252,34.72584721980807,0 32.67241881920034,34.72581394241167,0 32.67219681988635,34.72568475146672,0 32.67203094803716,34.72555463579118,0 32.67186215088324,34.72542084665805,0 32.67178263337383,34.72539116450004,0 32.67152182486548,34.72531541288884,0 32.6712372968154,34.72525172860642,0 32.67100126389057,34.72521878022922,0 32.67057345204444,34.72515921376817,0 32.6703698985967,34.72512765551092,0 32.67019742395549,34.7250877262293,0 32.67008237970187,34.72506882924553,0 32.66991755381268,34.72499480078699,0 32.66968079272494,34.72486552559439,0 32.66947360607276,34.72473153079348,0 32.66931339155783,34.72463436173826,0 32.66908537036513,34.72452098208238,0 32.66893945817172,34.72448363104357,0 32.6687404043826,34.72444355895618,0 32.66850163818965,34.72438254926796,0 32.66838233755154,34.72434168124708,0 32.66817180312095,34.72425887374516,0 32.66808646563987,34.72421818538272,0 32.66785623051224,34.72419989279467,0 32.66768786429397,34.72420143668882,0 32.66743356295153,34.72423910091111,0 32.66713761904703,34.72431434011841,0 32.66705471321595,34.72434072206328,0 32.66685101486713,34.72441498034566,0 32.66685033584528,34.72441522819413,0 32.66653913637852,34.72455256570954,0 32.66645897419715,34.72460578591737,0 32.66633699459744,34.7247185260597,0 32.66624003642688,34.72484237305196,0 32.66614476347632,34.72493940514235,0 32.66598112226426,34.72509215757999,0 32.66579115596682,34.72521185032295,0 32.66554213800929,34.72532878984881,0 32.6652513794823,34.72549549574445,0 32.66498285076289,34.7256695449962,0 32.66498271501881,34.72566963296629,0 32.6648479289368,34.72572012187713,0 32.66471917460617,34.72575479303605,0 32.66447872161085,34.72572058936436,0 32.66418370719281,34.72567633946142,0 32.66399788569557,34.72564364663855,0 32.66369257986301,34.72559324442263,0 32.66328984789805,34.72553744377261,0 32.66293295466325,34.72547457134954,0 32.66286366262291,34.72545957036628,0 32.66270925548302,34.72537583422037,0 32.66244454250791,34.72523420319923,0 32.6623372584349,34.72516778895262,0 32.66222808644062,34.72515379307455,0 32.66208786192125,34.72514450585147,0 32.66164834887782,34.72525919697392,0 32.6613805773833,34.72531872299007,0 32.6609517367325,34.72539079483249,0 32.66077116146738,34.72544225246776,0 32.66057724629395,34.72549973500679,0 32.66052902373548,34.72543485574656,0 32.6604283292205,34.72528190870274,0 32.66029101619742,34.72509096916117,0 32.66008515077982,34.72479114787059,0 32.65986173138876,34.72447050388995,0 32.6597580358343,34.72432363728101,0 32.65961366918444,34.72409120453073,0 32.65948540228236,34.72387714606081,0 32.65937755910547,34.72369489860695,0 32.65926561537945,34.72347117316693,0 32.65919327229178,34.72328180140013,0 32.65916172838094,34.72316214483568,0 32.65911759688749,34.72295341638853,0 32.65907770967912,34.72258133296101,0 32.6590290721752,34.72238233397091,0 32.658930808479,34.72223881273091,0 32.65883067204413,34.7221969748699,0 32.65874520347605,34.72220496945717,0 32.65860920110172,34.72224343789257,0 32.65860825668685,34.72224370478366,0 32.65775246551958,34.72291585344868,0 32.65752392578754,34.72302402143645,0 32.65752274104047,34.72302458242198,0 32.65746135661286,34.72301014598426,0 32.65737653525282,34.72293354178428,0 32.65725077449686,34.72240268125451,0 32.65723095917357,34.72186676038616,0 32.65731070674924,34.72126652158156,0 32.65730544773132,34.7210606268935,0 32.65740903131801,34.72091736913342,0 32.65741025159564,34.72091692183304,0 32.65762143137254,34.72083956683097,0 32.65777852876383,34.72084606426061,0 32.65815319986069,34.72099193180748,0 32.65874100047428,34.72141250709397,0 32.65893583106269,34.72160306141692,0 32.65893673772011,34.72160214987097,0 32.65903512915547,34.72150321829898,0 32.6590863628401,34.72143268511775,0 32.65912720280983,34.72136209669022,0 32.65915823237069,34.72121742915703,0 32.65915896146016,34.7211251672783,0 32.65920953144948,34.72097416662046,0 32.65929741066531,34.7208705736956,0 32.65940983405422,34.72078534994247,0 32.6594109230406,34.72078496716037,0 32.65955707681447,34.72073357304582,0 32.65973941181358,34.72068091139046,0 32.65999580048963,34.72062972000809,0 32.66010640691464,34.72060993050507,0 32.6601075957999,34.72060941277583,0 32.66021593410822,34.72056224118882,0 32.66030641878021,34.72045758565435,0 32.66037170957303,34.72025194994198,0 32.6603705491473,34.72006955710373,0 32.66032561290703,34.72000065462818,0 32.66026117918873,34.71993271822291,0 32.6601267650524,34.71984080234912,0 32.66000252673925,34.71977683577086,0 32.65980819987863,34.71970283659866,0 32.65962809856222,34.71963749666035,0 32.65933511512819,34.71955116488482,0 32.65913813952109,34.71948358828251,0 32.65895300825353,34.71942864247922,0 32.65774118321278,34.71902691510509,0 32.65706221866315,34.71891604584372,0 32.65626866845198,34.7190470711509,0 32.65610502312155,34.71900387453245,0 32.65599620771067,34.71893841762223,0 32.65595921523519,34.71886207274537,0 32.65596656386113,34.71834886025178,0 32.65608635842109,34.71787292431225,0 32.65641642258664,34.71714997077345,0 32.65659298830131,34.71684354881965,0 32.65669952938931,34.71675952880133,0 32.65688124252697,34.71667309985855,0 32.65688154086731,34.71667302768014,0 32.65795930075117,34.71641107900306,0 32.65814066675729,34.71636976729611,0 32.65861320271134,34.71622287979221,0 32.65897945957032,34.71607983344268,0 32.65918471440496,34.71601406179357,0 32.65918541345651,34.71601371037494,0 32.65941916683278,34.71589613334982,0 32.65951489681969,34.71579136406397,0 32.65952845726612,34.71568849346338,0 32.65947113115695,34.71559342976047,0 32.65924257980743,34.71547755833124,0 32.65898481608819,34.71540154770974,0 32.65847845942122,34.7152933256625,0 32.65789331844855,34.71523869866019,0 32.65774484851291,34.71519828549757,0 32.65763519082282,34.71510657069497,0 32.65763141100894,34.71497976185813,0 32.65780614251752,34.71473900095334,0 32.65803306297724,34.71457380011291,0 32.6580338234314,34.71457364719536,0 32.65841766717175,34.71449660660522,0 32.65841869976801,34.71449611279309,0 32.65899414096378,34.71422082808802,0 32.65899544671868,34.71422027553879,0 32.65916311988373,34.71414938926175,0 32.65924713866951,34.71409252097986,0 32.65931173471277,34.71398407600768,0 32.65929826414168,34.71389626721289,0 32.65922007251466,34.71375312939389,0 32.65912608091807,34.71363798107514,0 32.65899951717471,34.71354004784877,0 32.6588636946363,34.7133459915031,0 32.65880766000947,34.71315154726665,0 32.65886188779766,34.71297353807689,0 32.65886313480549,34.71297319720871,0 32.65900429808543,34.71293458777655,0 32.65924596052032,34.71298586851809,0 32.65941722875113,34.71300082852102,0 32.65956731641767,34.71300748520733,0 32.65975304314487,34.71298508785924,0 32.65991772056939,34.7129380106633,0 32.65991791801432,34.71293778043938,0 32.65997776074233,34.71286814521621,0 32.65998696851487,34.71277811815832,0 32.65994374397941,34.7126913189558,0 32.65978667096143,34.71249277630156,0 32.65961824209503,34.71229768047099,0 32.65946273413668,34.71208042734663,0 32.65927372438038,34.71180099462685,0 32.65901585810226,34.71147051727228,0 32.65890136930726,34.71131515741531,0 32.65873055975211,34.71111497932092,0 32.65864271502895,34.71105046057545,0 32.6585069837985,34.71104440010245,0 32.65800176638313,34.71115557608461,0 32.6576933949616,34.71117706106638,0 32.65734015449082,34.71115026822718,0 32.65714873398986,34.71110120928204,0 32.6567226123398,34.71100215003067,0 32.65653554800041,34.71098827396299,0 32.65608815492739,34.71114812725626,0 32.65586964452679,34.71116498610313,0 32.65563277191886,34.71113796613012,0 32.65521561364415,34.7110301457745,0 32.65506669108461,34.71092891162044,0 32.65501133040766,34.7108307539004,0 32.65518140466734,34.71063079093409,0 32.6552483080533,34.7104586029702,0 32.65528811274395,34.71016523184907,0 32.65530321108542,34.70984082367166,0 32.65528248728656,34.70974665025734,0 32.65520611410161,34.70965456763142,0 32.65504876203158,34.70965881889662,0 32.654525956066,34.70984445755064,0 32.65416399505883,34.70997493468371,0 32.65397892228359,34.70997394228847,0 32.65379426257276,34.70992202250491,0 32.65359194156063,34.70976560034985,0 32.65349118381069,34.70963773577888,0 32.65345528325341,34.7095000331101,0 32.65361054843647,34.70899156855184,0 32.65367056831904,34.70880117117411,0 32.65365978673598,34.7085166479443,0 32.65354184992719,34.70853761970129,0 32.65308722439545,34.70866120799581,0 32.65289543263127,34.70864577409126,0 32.6528085807932,34.708598497195,0 32.65265723877844,34.70843564613331,0 32.65261924026101,34.70828060654254,0 32.65265532983167,34.70813316656825,0 32.65276082459101,34.7080329096722,0 32.65276177304035,34.70803268791015,0 32.65313664670185,34.70794490808911,0 32.65350409559959,34.70781364994796,0 32.65350541442998,34.70781308757785,0 32.65413873159914,34.70754339065553,0 32.65413880160766,34.70754335569709,0 32.65451978468087,34.70734738782065,0 32.65458192229767,34.70721449051869,0 32.65457549860385,34.70692999045807,0 32.65447195804915,34.70678900333041,0 32.65429357481769,34.70673403440734,0 32.65372198820477,34.70675977539039,0 32.65302749330691,34.70688207674095,0 32.65268252677931,34.70693063489777,0 32.65240743216841,34.70696876493734,0 32.65195805368256,34.70698435313041,0 32.6514345578337,34.70699593880718,0 32.65105434700818,34.7070875122298,0 32.65081939163721,34.70717577324189,0 32.65081809494905,34.70717625992329,0 32.65074965618619,34.70754677706795,0 32.65067410584487,34.70771920917375,0 32.65058249578407,34.70781158380289,0 32.65058175251805,34.70781233349367,0 32.65046428425569,34.70777569186103,0 32.6501420878146,34.70770553823866,0 32.64986711959164,34.70777237907181,0 32.64986675461765,34.70777246816961,0 32.64951701877245,34.70795224618535,0 32.64915734918517,34.70815468266584,0 32.64915627247375,34.70815528895623,0 32.64908377064525,34.70814543629974,0 32.64895053381953,34.70808794918729,0 32.64888675139097,34.7079456872527,0 32.64914192863083,34.70757177415559,0 32.64932534433211,34.70709655553161,0 32.64977287337291,34.70655653330308,0 32.65012733105702,34.7061863072788,0 32.65041592560556,34.70592925958718,0 32.65067419078922,34.70564366407412,0 32.65080296409919,34.70531006442,0 32.65077730153214,34.70517747088487,0 32.65061454486767,34.70505469433619,0 32.65044581688644,34.70499856384312,0 32.65026531074471,34.70503639966817,0 32.65026451974725,34.70503656507058,0 32.64995565748088,34.70527851958117,0 32.64972587695078,34.70547217474194,0 32.64943382950446,34.70564246193129,0 32.64943333051211,34.70564275347206,0 32.64907030876333,34.7057707235969,0 32.64873110340129,34.70587283423794,0 32.64831464072247,34.70579912086853,0 32.64800918976107,34.70562206185317,0 32.64762943838536,34.7053893786417,0 32.64741333964345,34.7053524776578,0 32.64720932113855,34.70540954219295,0 32.6472082752529,34.70540983484563,0 32.64699786748276,34.70563932189977,0 32.64678650308082,34.70598574032145,0 32.64684193464129,34.70642455685213,0 32.64685227560678,34.70660326811222,0 32.64680038382097,34.70669713785847,0 32.64680035741987,34.70669718555963,0 32.64664638442544,34.70676131653474,0 32.64616736560566,34.70663853153799,0 32.64585375617084,34.70649715411252,0 32.64550847537578,34.70616612086691,0 32.64521773948434,34.70590107047535,0 32.64482432966258,34.7058953224107,0 32.64428187350711,34.70593929019515,0 32.6440854792958,34.70589852036038,0 32.64393327569775,34.7058002432467,0 32.64365973622368,34.70557137463849,0 32.64335116657384,34.70534953348101,0 32.64313791207093,34.70523287697768,0 32.64278004116708,34.70515874115446,0 32.64220306140252,34.70514837443183,0 32.64118827467897,34.70510955362467,0 32.64063021237708,34.70516611308463,0 32.64029708390548,34.70518747208482,0 32.63997258089506,34.70513601814717,0 32.63986970835614,34.7049632412647,0 32.63990920288941,34.704552796307,0 32.63996438584055,34.704185490425,0 32.63978320491859,34.70378046010521,0 32.63968467746005,34.70356796558008,0 32.63888747318256,34.70295422622988,0 32.63871008736928,34.70280742858971,0 32.63813110199654,34.70251926081649,0 32.6375652497109,34.70229115976758,0 32.63719808403941,34.7022028945226,0 32.63693058936611,34.70214517476654,0 32.63640409141093,34.70210102781942,0 32.63601820211773,34.70208015263123,0 32.63569200797296,34.70198085860103,0 32.63557000479338,34.70190518984956,0 32.63548029307118,34.70176969984438,0 32.63544088336236,34.70159323990217,0 32.63554170327529,34.70148505005955,0 32.63559515783861,34.70137944543376,0 32.63603193687245,34.70051653607428,0 32.6360264780052,34.70040042265964,0 32.63597598309468,34.70032099419936,0 32.63588379664934,34.70025980131131,0 32.63599167366588,34.70015249305192,0 32.63599211681578,34.7001527431803,0 32.63611420042374,34.70022151194232,0 32.63761951202715,34.70139071612769,0 32.63963358264013,34.70295500526193,0 32.64069350908668,34.70381525066038,0 32.64098436186815,34.70405529022851,0 32.64098524247503,34.70405434538254,0 32.64107340075093,34.70395973573648,0 32.64149482820323,34.70295856888423,0 32.64211838047557,34.7014156433089,0 32.64213197181832,34.70138201256209,0 32.64254473371265,34.7005473755443,0 32.64227915368755,34.69858042044091,0 32.64363932456267,34.69591538317753,0 32.64364065327012,34.69591477947413,0 32.64568228187184,34.69498740651288,0 32.64835689895445,34.68972821558224,0 32.64668827166848,34.6869354307325,0 32.64461646320539,34.68346755511095,0 32.64433362893843,34.68072039199604,0 32.6459625809774,34.67813799332249,0 32.64742348821442,34.67243403736034,0 32.64744388090749,34.67235441174609,0 32.64806425285992,34.66974231212966,0 32.64806554328725,34.6697421391666,0 32.64837765965625,34.6697002704108,0 32.64904672845501,34.67093364466973,0 32.64901676057491,34.67106480353639,0 32.64926765002607,34.67160342694652,0 32.64936335150882,34.67227251691251,0 32.64937578948057,34.67244471375447,0 32.6493839446081,34.67255764190258,0 32.64964723211362,34.67261088249362,0 32.64998187224427,34.6732016399535,0 32.64993756929614,34.67351201525614,0 32.65000061942976,34.67378631905559,0 32.65015927683073,34.67386270263408,0 32.65024317796921,34.67414143736308,0 32.65012133521117,34.67435431071263,0 32.64962267891323,34.67466646485025,0 32.64957480208424,34.67477405293515,0 32.64981191634504,34.67483577468791,0 32.6499800728682,34.67502869540953,0 32.6503420802257,34.67514504229068,0 32.65062282935661,34.67497835317678,0 32.65088192014304,34.67522786432461,0 32.65094172975834,34.67525839712217,0 32.6511740085994,34.67527263365997,0 32.65143290658794,34.67522446226177,0 32.65161650302199,34.6751241008564,0 32.65189955159276,34.67531765734184,0 32.65227012967858,34.67534344774707,0 32.65259297437052,34.67545956895604,0 32.65304220045446,34.67544696484714,0 32.65328735471978,34.67580640519187,0 32.65353824475822,34.67577975619879,0 32.65364681103452,34.67591625614615,0 32.6541494071222,34.67608514116298,0 32.65442865353367,34.67610394629678,0 32.6548134401278,34.67598743881504,0 32.6551806455447,34.67578454746691,0 32.65528860449908,34.67567297582254,0 32.65551691359927,34.6752083056284,0 32.6559314284811,34.67529041213814,0 32.65586227294182,34.67544749827744,0 32.65584593109167,34.67585509976617,0 32.65598012426303,34.67605213882353,0 32.65589507490758,34.67623717977247,0 32.65613331473878,34.67648440599464,0 32.6562211014389,34.67660784673003,0 32.65648347957495,34.67645182793517,0 32.65779603902232,34.67737368705313,0 32.65773844370887,34.67755456671151,0 32.65792812011654,34.6776720964457,0 32.65814083359303,34.67752227116412,0 32.65834395235062,34.67726669598547,0 32.65862014622737,34.67701583698467,0 32.65852056347447,34.67673486544135,0 32.65907212061783,34.67654800108912,0 32.65929105912196,34.67658701315823,0 32.65938708372131,34.67660412278138,0 32.66022202948029,34.67681644598139,0 32.66027191415562,34.6768268257231,0 32.66056702144758,34.67666655686707,0 32.66061523866448,34.67628400970369,0 32.66101709323032,34.67596247083389,0 32.66167067797473,34.67572629475944,0 32.66193346980743,34.67584283938075,0 32.66212035783406,34.67603056142559,0 32.66220805326046,34.67640968352091,0 32.66220744660112,34.67645428389615,0 32.66132271645183,34.67638112848742,0 32.66125869792291,34.6763988060306,0 32.66122795235859,34.67645531941253,0 32.66129145599831,34.677003406005,0 32.6613833604148,34.6772933290115,0 32.66124214194134,34.67752599647036,0 32.66127521397944,34.67763198769781,0 32.66130801906025,34.67777221060553,0 32.66119656828287,34.67805171995832,0 32.66115796771405,34.67864906022995,0 32.66114982239121,34.6792061028419,0 32.6610404984941,34.67969414142524,0 32.66082793995624,34.68037458815645,0 32.66075780338605,34.68066987676712,0 32.66078669253926,34.68082875287874,0 32.66093926785275,34.68106920273535,0 32.66096700372541,34.68109722905317,0 32.66118541538286,34.68090867283497,0 32.66154575312689,34.68059936094585,0 32.66163851521434,34.68030108049787,0 32.66187484698769,34.6799506525193,0 32.66207595259246,34.67976809641247,0 32.66231081585662,34.67960439308287,0 32.66232988920516,34.67957279260369,0 32.66261272455321,34.67905824049026,0 32.6630875769137,34.67855657319259,0 32.66372260821176,34.67828605296499,0 32.6639967299435,34.67830434428498,0 32.6643548504593,34.67806965592027,0 32.66474549575537,34.67839309944339,0 32.66519779274778,34.67824162989668,0 32.6654034364724,34.67840682466814,0 32.66571676213313,34.67856232795511,0 32.66605964511993,34.67864276935714,0 32.66638212996163,34.67868549324391,0 32.66664234870169,34.67875182228866,0 32.66693829840745,34.6790132202126,0 32.66706301346549,34.67894207702749,0 32.66728453880176,34.67866288443149,0 32.66768812954624,34.67838806692581,0 32.66732305030499,34.67796903492667,0 32.66734454132181,34.67786657835727,0 32.66794169523038,34.6782458000501,0 32.66800759182055,34.67828717313495,0 32.66825046959595,34.67792261715498,0 32.66850918053891,34.67765045577234,0 32.6688014184595,34.67785712528052,0 32.66921770568366,34.67807812069454,0 32.66976183788399,34.67835790524224,0 32.67048436081758,34.6783590988092,0 32.67124293394392,34.67789382563721,0 32.67124384443309,34.67831094573089,0 32.67155240795367,34.67854846584124,0 32.67165831675172,34.67876783193377,0 32.67207400829619,34.67906745125853,0 32.6722665390679,34.67932487821701,0 32.67261583223748,34.67964808170095,0 32.6728467220807,34.6797621092879,0 32.6731885349172,34.67998270281719,0 32.67333609881702,34.68016809540344,0 32.67337497958489,34.68049310120847,0 32.67336496207533,34.68071870155195,0 32.67338826484906,34.6809171235025,0 32.67392765715542,34.68074214088499,0 32.67395852408485,34.68049613468959,0 32.67439249897539,34.68057360689303,0 32.67450571512369,34.68038273266063,0 32.67460548376036,34.67978834861341,0 32.67524363937414,34.67968567194246,0 32.67564523801734,34.67966724063618,0 32.67604025557858,34.67996673824441,0 32.67632890609806,34.68010499282291,0 32.67654822533045,34.68010954687889,0 32.67675617835263,34.6799772830768,0 32.67672435450802,34.67980958827636,0 32.67647043960219,34.67945953889068,0 32.67674848360329,34.67936182695783,0 32.67720576681663,34.67963771053527,0 32.67757100849071,34.67950284002096,0 32.67781680707292,34.67983233107621,0 32.67796008733225,34.68003820982074,0 32.67779108676839,34.6804886417623,0 32.67790885342069,34.68078328219088,0 32.67926500602933,34.68042102976822,0 32.67932077727914,34.68070509282112,0 32.68018103732318,34.68078473973056,0 32.68068205251006,34.6802129289672,0 32.68070519583397,34.67989166401479,0 32.68098091817438,34.6800982205291,0 32.68156953444056,34.67997816117212,0 32.6814463383608,34.6803946441101,0 32.68146034018777,34.68072977532182,0 32.68119468445936,34.68137459763108,0 32.68159930881331,34.68150317815675,0 32.68164225686873,34.6818418771948,0 32.68148144489745,34.68230603249327,0 32.68176519977573,34.68308714126827,0 32.68174028338047,34.6831005640085,0 32.68137261113747,34.68300978274968,0 32.68107030168284,34.68303216259639,0 32.68104086228033,34.68309355230347,0 32.68095164952467,34.68393758068925,0 32.68140673260916,34.68396385265612,0 32.68178237234846,34.68409570214687,0 32.68328460705843,34.68466753647565,0 32.68376788909808,34.68479651247548,0 32.68426231824922,34.68509307255739,0 32.68448821811853,34.68532329978306,0 32.68514300636914,34.68576085461152,0 32.68545085980038,34.68610090414069,0 32.68552380582071,34.68685345092835,0 32.68527805477463,34.68705733573501,0 32.68534814282844,34.68714129748369,0 32.685440221282,34.68725160009819,0 32.68554920927158,34.68724039931377,0 32.68597692683877,34.68719644029749,0 32.68619592014851,34.68723781926937,0 32.68618462091086,34.68767379318187,0 32.68610903466139,34.68912908054806,0 32.6858318610475,34.69038208120185,0 32.68564642109522,34.6913068529235,0 32.6855172353804,34.69146389630756,0 32.68549686240344,34.69148866298124,0 32.6854418101004,34.69163028592116,0 32.68550011798664,34.69181646354102,0 32.6854975322783,34.69215784856975,0 32.68547039989147,34.69270773767339,0 32.68540405215138,34.69297671707024,0 32.68525323959199,34.6934804398256,0 32.68502677641965,34.69366133392165,0 32.68501335857172,34.69421900995074,0 32.68500250957615,34.69443883747887,0 32.6850050910263,34.69470438343335,0 32.68498926980056,34.69497362651009,0 32.68490072797784,34.69521362814395,0 32.68486698856867,34.69534852498631,0 32.68472636159437,34.69571953469774,0 32.68466520622117,34.69590888044759,0 32.68465888682005,34.69613644608631,0 32.68465213543698,34.69642090947293,0 32.68461732718389,34.69677055572145,0 32.6846166137063,34.69686454185226,0 32.6846108403762,34.6970200373862,0 32.68462289534385,34.69724769921181,0 32.68466214032615,34.69752481651531,0 32.6847149355587,34.6978323519316,0 32.68466382932307,34.69790795022885,0 32.68455707866528,34.69805153833754,0 32.68439965198355,34.69821382588452,0 32.68417745227715,34.6984364681296,0 32.68407561094858,34.69853835399533,0 32.68410684597794,34.69865990326301,0 32.68419806067986,34.69874762713644,0 32.68443561564549,34.69892336437575,0 32.68480067706715,34.69924770715298,0 32.68506048440641,34.69951839193024,0 32.68542771383343,34.69955442557045,0 32.68545595560694,34.69955611660471,0 32.68604739182152,34.69959154235477,0 32.68684402661993,34.69964950566344,0 32.68737881573901,34.69984373880557,0 32.68900085566374,34.69998970808746,0 32.69029853553107,34.69990062871781,0 32.69023115731824,34.70019946805672,0 32.68954532621697,34.70084817234889,0 32.68979550256102,34.70132216745563,0 32.68941090817688,34.70139798205559,0 32.68924486335146,34.70131335804727,0 32.68892788634229,34.70166514666055,0 32.68870464134676,34.70191290835994,0 32.68889186663594,34.70252632222503,0 32.68949088388975,34.70215227706105,0 32.68998337076409,34.70201787002659,0 32.6902387525105,34.70208641440478,0 32.6905739412645,34.70236672274584,0 32.69065378250311,34.70257368335137,0 32.69070885578147,34.70297746784914,0 32.69098572397343,34.70327909633858,0 32.69112948151305,34.70311409741841,0 32.69132246988084,34.70297576765244,0 32.69154967577421,34.70292647920647,0 32.69182596061719,34.70330496073348,0 32.69212986712401,34.70349383724917,0 32.69243999475966,34.70362990541947,0 32.69295137769682,34.70368772698805,0 32.6932236842632,34.70382600381219,0 32.69355647568384,34.70404144270959,0 32.69399889419629,34.70437271965185,0 32.69419775651809,34.70460909952927,0 32.69434849837217,34.70467230550159,0 32.69451607631167,34.70471636846814,0 32.69415875410039,34.70507729678574,0 32.69421331471111,34.70532049723588,0 32.69443193192084,34.70571427377019,0 32.69449503192707,34.70589429001726,0 32.69453727798709,34.70616737911256,0 32.69451655600674,34.7067729273432,0 32.69463381476827,34.70724938785153,0 32.69372604653506,34.70740122341054,0 32.69341508676337,34.70749283364846,0 32.69350182854588,34.70774285284956,0 32.69333700771693,34.70822121980125,0 32.69320292627319,34.70836696496772,0 32.69308835514211,34.7085960032689,0 32.69287652454366,34.70889776105585,0 32.69243560391113,34.70912182353983,0 32.69263782422677,34.70955212514622,0 32.69252041515998,34.70962474314191,0 32.69269828417101,34.71007821665966,0 32.69222755058248,34.71051177695305,0 32.69216606776011,34.71064790442557,0 32.692201027812,34.71134691042192,0 32.69213715280315,34.71206039209016,0 32.69244911011024,34.71263267791495,0 32.69259753852004,34.71298450526849,0 32.69321999355445,34.71326551237689,0 32.69234734391859,34.71355894418645,0 32.69238485014293,34.71366063049464,0 32.69239704546592,34.71417483040178,0 32.69231591183463,34.71477341700941,0 32.69223846084228,34.71488949785875,0 32.6921862161017,34.71487093090253,0 32.69201164734521,34.71503976517965,0 32.69202084387689,34.71515461893521,0 32.69186947981511,34.7151871316102,0 32.69161643366889,34.71534225744622,0 32.6912261751033,34.71552331010596,0 32.69108760776975,34.71599015963144,0 32.69132644986231,34.7161915475006,0 32.69161975508882,34.71638232999842,0 32.6916288440883,34.71662573787519,0 32.69167122181159,34.71679720920991,0 32.69173495858706,34.71703188312599,0 32.69167787627693,34.71736508617005,0 32.69180724486174,34.71758206897614,0 32.69197980352509,34.71786236708211,0 32.69227230386203,34.71816130374869,0 32.69197229864658,34.71886281407646,0 32.6917410993902,34.71912301957607,0 32.6915421732982,34.71944648281312,0 32.69116980521852,34.71960681786882,0 32.69100430207826,34.71984031757433,0 32.69096002776696,34.71992121181997,0 32.69092660134324,34.72001117436126,0 32.69060074123455,34.71979318342478,0 32.69036404150767,34.71933228681844,0 32.69005750844986,34.71944788921216,0 32.68945698377325,34.71946283334092,0 32.68959509325954,34.71996829235522,0 32.6892655687405,34.72023700115394,0 32.68901347591527,34.72037090695341,0 32.6884345733483,34.72041299744298,0 32.68815149768162,34.72031239357639,0 32.68796633022934,34.72025736100331,0 32.68748655933405,34.72018278266263,0 32.68744214480425,34.72028170184777,0 32.68759340644358,34.72048978821804,0 32.6879636078012,34.72061788136489,0 32.688156155452,34.72114164853312,0 32.68851646414728,34.72113448865462,0 32.68865871692694,34.72109015314722,0 32.6888011058808,34.72102779123001,0 32.6889868872447,34.72100170669546,0 32.68933505719953,34.72115672207388,0 32.68973794548388,34.72129399166298,0 32.69003214551669,34.72136760865656,0 32.69030397099191,34.72151321673211,0 32.6907381209304,34.7218489370029,0 32.69080999795274,34.72245320172842,0 32.69097252677804,34.72261627528795,0 32.69104785976339,34.72276087557501,0 32.69120035285887,34.72280672306466,0 32.69139549788746,34.72298799004938,0 32.69151483710138,34.72308774817777,0 32.69184172729616,34.7231705411556,0 32.6918739363264,34.72324281280606,0 32.69157830666408,34.7233584744406,0 32.69135902608154,34.72348353906982,0 32.69115106704638,34.72355458109567,0 32.69087699737278,34.72370640473297,0 32.69074423495569,34.72394007171511,0 32.69066653088076,34.72411092729927,0 32.69051254337715,34.7242633659547,0 32.6904242598089,34.72438910054646,0 32.69029163102874,34.72460474076107,0 32.69008299017199,34.72476591120891,0 32.68995063097768,34.72494550036375,0 32.68990553848134,34.72513454973993,0 32.68979555491107,34.7252421452428,0 32.68963112256093,34.72533143472736,0 32.68941217271855,34.72541143063704,0 32.68919295103911,34.7255274786131,0 32.68913727941761,34.72567140675189,0 32.68920210129568,34.72576187360746,0 32.68903725950604,34.72590524006212,0 32.68878412918228,34.72617434053167,0 32.6886079605171,34.726371728332,0 32.6882242300725,34.72658607593082,0 32.68764385336713,34.7268174354912,0 32.68751277972196,34.72682577321959,0 32.68720696407708,34.72684222435243,0 32.68698821249824,34.72689517696919,0 32.68660515850043,34.72701938831072,0 32.68622114612151,34.72726978106909,0 32.68596909493463,34.72739466671204,0 32.68568360886879,34.7276095127732,0 32.68531044045598,34.72786897228072,0 32.68524150447335,34.72784887994592,0 32.68519828338991,34.72783971576313,0 32.68497166352826,34.72802436807265,0</coordinates>
						</LinearRing>
					</outerBoundaryIs>
				</Polygon>
			</MultiGeometry>
		</Placemark>
	</Document>
</kml>