<?xml version='1.0' encoding='UTF-8'?>
<kml xmlns="http://www.opengis.net/kml/2.2">
	<Document>
		<name>AMMADIES</name>
		<Style id="PolyStyle70">
			<LabelStyle>
				<color>00000000</color>
				<scale>0.000000</scale>
			</LabelStyle>
			<LineStyle>
				<color>ff0055ff</color>
				<width>2.000000</width>
			</LineStyle>
			<PolyStyle>
				<color>00828282</color>
				<outline>1</outline>
			</PolyStyle>
		</Style>
		<Placemark id="ID_70474">
			<name>AMMADIES</name>
			<snippet />
			<description>&lt;html xmlns:fo="http://www.w3.org/1999/XSL/Format" xmlns:msxsl="urn:schemas-microsoft-com:xslt"&gt;

&lt;head&gt;

&lt;META http-equiv="Content-Type" content="text/html"&gt;

&lt;meta http-equiv="content-type" content="text/html; charset=UTF-8"&gt;

&lt;/head&gt;

&lt;body style="margin:0px 0px 0px 0px;overflow:auto;background:#FFFFFF;"&gt;

&lt;table style="font-family:Arial,Verdana,Times;font-size:12px;text-align:left;width:100%;border-collapse:collapse;padding:3px 3px 3px 3px"&gt;

&lt;tr style="text-align:center;font-weight:bold;background:#9CBCE2"&gt;

&lt;td&gt;1&lt;/td&gt;

&lt;/tr&gt;

&lt;tr&gt;

&lt;td&gt;

&lt;table style="font-family:Arial,Verdana,Times;font-size:12px;text-align:left;width:100%;border-spacing:0px; padding:3px 3px 3px 3px"&gt;

&lt;tr&gt;

&lt;td&gt;DIST_CODE&lt;/td&gt;

&lt;td&gt;1&lt;/td&gt;

&lt;/tr&gt;

&lt;tr bgcolor="#D4E4F3"&gt;

&lt;td&gt;VIL_CODE&lt;/td&gt;

&lt;td&gt;455&lt;/td&gt;

&lt;/tr&gt;

&lt;tr&gt;

&lt;td&gt;VIL_CCD&lt;/td&gt;

&lt;td&gt;1455&lt;/td&gt;

&lt;/tr&gt;

&lt;tr bgcolor="#D4E4F3"&gt;

&lt;td&gt;VIL_NM_E&lt;/td&gt;

&lt;td&gt;AMMADIES&lt;/td&gt;

&lt;/tr&gt;

&lt;tr&gt;

&lt;td&gt;VIL_NM_G&lt;/td&gt;

&lt;td&gt;ΑΜΜΑΔΙΕΣ&lt;/td&gt;

&lt;/tr&gt;

&lt;/table&gt;

&lt;/td&gt;

&lt;/tr&gt;

&lt;/table&gt;

&lt;/body&gt;&lt;script type="text/javascript"&gt;

				function changeImage(attElement, nameElement) {

				document.getElementById('imageAttachment').src = attElement;

				document.getElementById('imageName').innerHTML = nameElement;}

			&lt;/script&gt;&lt;/html&gt;

</description>
			<styleUrl>#PolyStyle70</styleUrl>
			<MultiGeometry>
				<Polygon>
					<extrude>0</extrude>
					<altitudeMode>clampToGround</altitudeMode>
					<outerBoundaryIs>
						<LinearRing>
							<coordinates> 32.70888486689288,35.18364433099089,0 32.70876334788796,35.18374098857277,0 32.70861797423272,35.18392144197283,0 32.70855911881456,35.18402604265864,0 32.708560988092,35.18408708252838,0 32.70862945462081,35.18420098278603,0 32.70854061888809,35.18432728456513,0 32.70833083489793,35.18442159475273,0 32.70824518733821,35.18443011849248,0 32.70824514231295,35.18443012108818,0 32.7082399281431,35.18442919991984,0 32.70823988096061,35.18442919169363,0 32.70820048500158,35.18442223535341,0 32.70820043892348,35.18442222532702,0 32.70815909806543,35.18440402747736,0 32.70815905640166,35.18440401115185,0 32.70812629059022,35.18435632312941,0 32.70813911426018,35.18430207463178,0 32.70819323517718,35.18426161064167,0 32.70824140559091,35.18422409878912,0 32.70825247076723,35.18421548105002,0 32.70826087275798,35.18419967456648,0 32.7082609533195,35.18418880662116,0 32.70826068035868,35.18418837960306,0 32.70825167272077,35.18417426907578,0 32.70824184978645,35.18416432644474,0 32.70822021287302,35.18414242356489,0 32.70817481821152,35.18411571578353,0 32.70811998388817,35.18408212650942,0 32.70810783537167,35.18407468504704,0 32.7080309742617,35.18406070300799,0 32.70803092818385,35.18406069298154,0 32.70795420494746,35.18402751418144,0 32.70795416328394,35.18402749785584,0 32.70792910948141,35.18398815818004,0 32.70785874624803,35.18388056543131,0 32.70778540114154,35.18378096083466,0 32.70766300579012,35.18372272549501,0 32.70753387505751,35.18365245183955,0 32.70745409068535,35.18363845426306,0 32.7074540435034,35.18363844603655,0 32.70719420121203,35.1835859319343,0 32.70719415403016,35.18358592370768,0 32.70693110838665,35.18357100035646,0 32.70693106118214,35.18357099843943,0 32.70673221910129,35.18357400012916,0 32.70673217188708,35.18357400091622,0 32.70644253704434,35.18359494990354,0 32.70644249091833,35.18359495339733,0 32.70633579003152,35.18360284245724,0 32.70633574390549,35.18360284595098,0 32.70620942418691,35.1836121845491,0 32.70620937915555,35.18361218894685,0 32.70614980687979,35.18362629280564,0 32.70604309443341,35.18368737840507,0 32.70587654350669,35.18379858138831,0 32.70569239059542,35.18391689845756,0 32.70547340116185,35.18400062777592,0 32.70535141630815,35.18402401707288,0 32.7053513723647,35.18402402417716,0 32.70492924768851,35.18403310115855,0 32.70492920047727,35.18403310104352,0 32.70452468247154,35.18403426197906,0 32.70452463743986,35.18403426637619,0 32.70408707740939,35.184144895564,0 32.70396605905203,35.1841634921981,0 32.70384208477559,35.1841860755712,0 32.70376709768418,35.18418169708626,0 32.70376705597236,35.18418169428006,0 32.70346402059769,35.18403290915246,0 32.70322905338416,35.18391249657351,0 32.70322901392736,35.18391247754751,0 32.70306658946623,35.18386845275748,0 32.70306654448377,35.18386844363323,0 32.70274699562093,35.18390860753187,0 32.70274695058922,35.18390861192832,0 32.70277657309605,35.18385614402509,0 32.70305504776591,35.18336290052083,0 32.70323467078049,35.18304710468637,0 32.70331231614729,35.18295869302456,0 32.70342150056594,35.18283489579508,0 32.70353915358739,35.18265801791067,0 32.70369965802561,35.18241823530598,0 32.70388115060041,35.18204855752249,0 32.70390408951472,35.18179333620768,0 32.7039209428583,35.18154378330887,0 32.70390092955961,35.18130660479283,0 32.70389021918487,35.18115169246928,0 32.70386990576309,35.18091921218216,0 32.70385901440991,35.18077275540934,0 32.70374997178215,35.18055827354436,0 32.70382236548123,35.18045221914269,0 32.70385395936367,35.18041355975679,0 32.70395583933608,35.18027803407334,0 32.70396159628354,35.18019942197792,0 32.70396239452928,35.17997926939574,0 32.70375281154575,35.17967548369003,0 32.70342819007522,35.17940511292316,0 32.70291739092358,35.17992054921339,0 32.70261403069096,35.1798232065405,0 32.7026146443628,35.17965472339808,0 32.70226028193185,35.17928767825344,0 32.70244320370951,35.17910438965968,0 32.70248211263675,35.17892569489549,0 32.70247792777818,35.17880631527838,0 32.70240277428653,35.17865407934972,0 32.70248578699965,35.17857624841361,0 32.70252903719422,35.17855437857363,0 32.70257324176006,35.17850770009996,0 32.70258727304854,35.17844818644261,0 32.70257673284716,35.17837904321528,0 32.70268097723894,35.17820490849964,0 32.70270363677128,35.17814683480405,0 32.70278507042017,35.17807189056001,0 32.70282334957093,35.17799258759607,0 32.70297600532135,35.17780155840352,0 32.70300030488279,35.17776759023472,0 32.70302641790232,35.17770952494163,0 32.70303012440657,35.17764006152309,0 32.70303025230602,35.17752278822078,0 32.70308003112152,35.17738578786435,0 32.70334239227039,35.17712864724366,0 32.70321963806717,35.17699303053593,0 32.70289200076844,35.17704047102384,0 32.70268230905825,35.17683632627508,0 32.70246913155023,35.17673464708206,0 32.70227261807587,35.17656782030062,0 32.70177954058732,35.17664303502245,0 32.70134190990726,35.17699984043574,0 32.70107716907594,35.17712359826569,0 32.70080903009867,35.17736257095412,0 32.70056414193818,35.17754652873978,0 32.70020654953218,35.17743627404806,0 32.70034369438531,35.17711989389491,0 32.70037315125593,35.17665514220668,0 32.70066320272941,35.17650075406635,0 32.70103369344099,35.17646830745372,0 32.70132325547129,35.17634455952743,0 32.70151623716352,35.17613588754004,0 32.70155706009069,35.17608337985753,0 32.70165867057971,35.17607464864372,0 32.70178233194942,35.17601849592163,0 32.70202360199992,35.17585228514412,0 32.70216611410109,35.17576923291589,0 32.70228665383767,35.17571178840808,0 32.70239458026568,35.17568510814264,0 32.70257131796831,35.17564448267922,0 32.70268551280537,35.17561268498671,0 32.7027261863422,35.17560123700788,0 32.70284353924085,35.17556046538888,0 32.70291719328626,35.17550418880946,0 32.7030049849721,35.17542741661298,0 32.70321831727325,35.17520724395398,0 32.70340817884408,35.17499471137913,0 32.70357462690686,35.17477442236245,0 32.7036249370819,35.17469114362666,0 32.70366277680765,35.174598851029,0 32.7037526799814,35.17445523576734,0 32.70382447524206,35.1743952313022,0 32.7038767177367,35.1743526426799,0 32.70394849483174,35.17430668367906,0 32.70408203507971,35.17424187947474,0 32.70426082393971,35.17415547633447,0 32.70435686739634,35.17410143490569,0 32.70444852269229,35.17404195627695,0 32.70456447510088,35.17396625308445,0 32.70474473056841,35.17381974216727,0 32.70484159824574,35.17373549650787,0 32.70466741303132,35.17374476648481,0 32.70458137304168,35.17374975053403,0 32.70445704988803,35.1738167348315,0 32.70437562670602,35.17378849364839,0 32.70427550791086,35.17375116123945,0 32.70421636747347,35.17364550909615,0 32.70415941213716,35.17353734465426,0 32.70389376959679,35.17330125669979,0 32.70356796070118,35.17291267743008,0 32.70295580508141,35.17241814004964,0 32.70296960010124,35.17233507847866,0 32.70287870212515,35.17228499741302,0 32.70265314330528,35.17215979949027,0 32.70265672854288,35.17210164105945,0 32.70265710166539,35.17199915659432,0 32.70272210147137,35.1717500281126,0 32.70291193297845,35.17153422943595,0 32.70276968882066,35.1713447076166,0 32.7026586469992,35.17116340905917,0 32.70277661272802,35.17099985136809,0 32.70272764630973,35.17094235088992,0 32.70267748241176,35.17085828143659,0 32.70261086567139,35.17078827575288,0 32.70248264697568,35.17071098778565,0 32.70236703502373,35.17064340356531,0 32.70232605202442,35.1706163312164,0 32.70227671160099,35.17057123648373,0 32.70224849149658,35.17050284832602,0 32.70223410200003,35.17041372413415,0 32.70225086306746,35.17033651638032,0 32.70230499975097,35.17027882742184,0 32.70237688276828,35.17024041067525,0 32.70244055949211,35.17016656859492,0 32.70238627523838,35.17009488943116,0 32.70223863959556,35.17007512131485,0 32.70216187661118,35.17006280338303,0 32.70205570599382,35.17001402812222,0 32.70198205644527,35.16995805488803,0 32.7018936888548,35.16988749140822,0 32.70177590511594,35.1697828952556,0 32.70174844746204,35.16964748896208,0 32.70179739032899,35.16956220644018,0 32.70183709147552,35.1694939727394,0 32.70184828344363,35.16947160683945,0 32.70188978167371,35.16933926646381,0 32.7019218946848,35.16924645545085,0 32.70190993143265,35.16918479648236,0 32.70187776820934,35.16914158991135,0 32.70180119763991,35.16908915096828,0 32.70180438483546,35.16904603139227,0 32.70183688816358,35.1689963487805,0 32.70184702071978,35.16893729965231,0 32.70184895862506,35.1684927093082,0 32.70181280532527,35.16827061660832,0 32.70168713945021,35.1681006720634,0 32.70156656922916,35.16792786627848,0 32.70150892072927,35.16776269703729,0 32.70141790094842,35.16770522758856,0 32.70120597255956,35.16765311168012,0 32.70124566463905,35.16763525641246,0 32.7013321434862,35.16752775248268,0 32.70119500471367,35.16728953961831,0 32.70105954055665,35.16717166117902,0 32.70080318238266,35.16703507839483,0 32.70047014014678,35.16689630708363,0 32.70041506935144,35.16685607487445,0 32.70034907637588,35.16662881138176,0 32.70042579102387,35.16641449698414,0 32.70040462186968,35.16627049210028,0 32.70079729532204,35.1662085304987,0 32.70082959021303,35.16635259163832,0 32.70101693039344,35.16622334822154,0 32.70128939867937,35.16624071879383,0 32.70115266290739,35.16588336259293,0 32.70113134304086,35.16582764228809,0 32.70108326126794,35.16553373782643,0 32.7010428445689,35.16516526957115,0 32.70106152527188,35.16488984714251,0 32.70110645375119,35.16465820372391,0 32.70079222727799,35.16447656947289,0 32.70088690174548,35.16425609021628,0 32.70092379463426,35.16376798516364,0 32.70146439569625,35.16388529621598,0 32.70158539708613,35.16369768499023,0 32.70180560392359,35.16357058904391,0 32.70181798247826,35.16324876037687,0 32.70173186436759,35.16321558960701,0 32.70209301405292,35.16289825532169,0 32.70198146569491,35.16271219438633,0 32.70175340833773,35.16255827713153,0 32.70126048899883,35.16272763720244,0 32.70108201307677,35.16260670507083,0 32.70116981401479,35.16197427970027,0 32.70122197778007,35.16166356424951,0 32.70140332169572,35.16140260629516,0 32.70113512117987,35.16128667485501,0 32.70068844837608,35.16104981099881,0 32.70071213268356,35.16055072741878,0 32.70134971988035,35.16057850992453,0 32.7015986657683,35.16060432288562,0 32.70170620901664,35.16043846601526,0 32.70169749344409,35.16027202087447,0 32.70173741689007,35.16026403901881,0 32.701811889159,35.1600789188285,0 32.7019118875266,35.16003305108693,0 32.70211327582849,35.15975582595944,0 32.70212578019947,35.15941763064058,0 32.70202387439817,35.15927526439276,0 32.70203525241973,35.1590870971424,0 32.70219685949329,35.15879875887025,0 32.7024246566266,35.15854348947787,0 32.70265682193724,35.15859103687253,0 32.70305086224957,35.15831478304603,0 32.70295376966,35.15797330640023,0 32.70281511921944,35.15785803422167,0 32.70283978019553,35.15766993368128,0 32.70297725108756,35.15749877123145,0 32.70253570537221,35.15746653193523,0 32.70263548690875,35.15700602240877,0 32.7026606343322,35.15647583523927,0 32.70263648164585,35.15643044182092,0 32.70271724310407,35.15629172696318,0 32.70293110687452,35.15612095115133,0 32.70300872885736,35.15595766973031,0 32.70296372114565,35.15575830657037,0 32.70315044099996,35.15566377278373,0 32.70351913232885,35.1556656355445,0 32.70372592437169,35.1555521078919,0 32.70394787366723,35.15563233696451,0 32.70423541727023,35.15582474014212,0 32.70448041753877,35.15593236218922,0 32.70452861070943,35.15570619117977,0 32.70471859313077,35.15541321232659,0 32.70483889937395,35.15507761015944,0 32.70465768487107,35.15488028908328,0 32.7045458954265,35.15428231649036,0 32.70459936548733,35.15423893984681,0 32.70470449185851,35.15395031240462,0 32.70498861053751,35.15415633647665,0 32.70561475748931,35.15437499253645,0 32.70593086764526,35.15430020114376,0 32.70574978173518,35.15453116104707,0 32.70587253308916,35.15455087437599,0 32.70606884592438,35.15450548660125,0 32.70640990044574,35.154649051261,0 32.70655875882189,35.15473163677466,0 32.70681732862876,35.15480113337975,0 32.70693929087192,35.1549272279631,0 32.70742414694352,35.15494057318494,0 32.7075462500026,35.15504757402216,0 32.70782519798347,35.15505715557087,0 32.70797438243085,35.15509609429678,0 32.70812870911055,35.15533692388487,0 32.70821113851769,35.15541917244888,0 32.708301188148,35.15537051983244,0 32.70838391851495,35.15541185531687,0 32.70845542587981,35.15542164896002,0 32.70857310814723,35.15543776789391,0 32.7087670934179,35.15538876545441,0 32.70927008578064,35.15544579903288,0 32.70933734290386,35.15532801389038,0 32.70925001432065,35.155168565563,0 32.7090072205972,35.1550855738954,0 32.70905349738228,35.15481321313754,0 32.70930917330367,35.15465093735461,0 32.7096027264286,35.15460243111296,0 32.70971450871195,35.15444852153578,0 32.70988552260166,35.15451298020039,0 32.71020251422892,35.15428740510298,0 32.71048523915567,35.15420703963647,0 32.71070178383579,35.15409908226183,0 32.71087883270096,35.15409542243054,0 32.71103345394846,35.15413254052428,0 32.71113983256803,35.15396042915183,0 32.71113510899107,35.15385136997518,0 32.71116863308068,35.15380610490728,0 32.71125174442887,35.1537883461906,0 32.71131802708573,35.15380230639173,0 32.71160677914315,35.15365381933844,0 32.71217407043772,35.15324321527639,0 32.71272877888671,35.15303698677866,0 32.71303891308888,35.15298855475878,0 32.71332870959167,35.15269923107727,0 32.71364042003099,35.15243727274645,0 32.71365302279742,35.1522283486427,0 32.71371477193193,35.1521059895809,0 32.71401327488892,35.15213473080883,0 32.71461659036272,35.15208774806889,0 32.71503446793761,35.15168093118967,0 32.71525472021919,35.15152705421552,0 32.71526832901205,35.1515488829907,0 32.71577043753663,35.15155006188571,0 32.71627251145424,35.15156121623454,0 32.71670204523859,35.15147242546324,0 32.71818169301775,35.15122338888113,0 32.71883456956375,35.15103117005743,0 32.71941654510341,35.15093150894782,0 32.72042568551455,35.15109986362447,0 32.72065208112446,35.1510817520143,0 32.72090972523593,35.151057386825,0 32.721193859703,35.15114528224616,0 32.7216105089277,35.15124985009777,0 32.72205878851279,35.15129689851126,0 32.7221767284282,35.15134314950864,0 32.72307007025319,35.1518769676212,0 32.72288403461757,35.15245101556045,0 32.72288291493177,35.15260547900526,0 32.72292100754444,35.152691985309,0 32.72313058800959,35.15277933068433,0 32.72314425307304,35.1531837415217,0 32.72252782722931,35.15351238051944,0 32.72217834347975,35.15364696657212,0 32.72228044563138,35.15406089707832,0 32.72212953982043,35.15427368746433,0 32.72199466552355,35.154563791583,0 32.72202554831803,35.15488196699309,0 32.72191365756021,35.15505405997408,0 32.72196745908388,35.15526331035934,0 32.72193782101601,35.15553575578456,0 32.72197048468147,35.15560860717837,0 32.72185942058507,35.15566712542645,0 32.72175411588309,35.15569386888392,0 32.72168061791409,35.15591158226721,0 32.72166197700197,35.15619316872486,0 32.72156180784076,35.15627445497335,0 32.72153348752424,35.15636518081175,0 32.72154349684786,35.1565106106354,0 32.72137755498763,35.15726851023942,0 32.7216106468199,35.15792841544878,0 32.72174719848952,35.15816987370977,0 32.72180231834979,35.15819740197497,0 32.72190696690417,35.15826151999892,0 32.72200753328794,35.15812571587975,0 32.72216279117733,35.15807650128423,0 32.72230069557698,35.15813169474104,0 32.72245565966682,35.15812336664144,0 32.72308529178777,35.15826728461465,0 32.72339528179838,35.15824153932991,0 32.7236554513251,35.15822009468645,0 32.72383208076305,35.15827547568156,0 32.72403126766299,35.15827190480367,0 32.72415329868874,35.1582270684929,0 32.7242466234727,35.15832747345615,0 32.72432311730827,35.15845959910798,0 32.72440626348106,35.15843728930573,0 32.72450021242224,35.15845137553838,0 32.72458437105614,35.15828823123336,0 32.72462319565027,35.15827479216182,0 32.72502928345378,35.15873109051724,0 32.72514358118311,35.15899060808509,0 32.72516413657686,35.15920878109686,0 32.72505120183608,35.15952625420494,0 32.72489762494478,35.16010703410545,0 32.72491857532666,35.16027069040256,0 32.72489935850533,35.16063405273688,0 32.72436885268366,35.16054968913105,0 32.72426822580671,35.16069458023684,0 32.72399695497924,35.16072051509318,0 32.72388578331073,35.16079266406776,0 32.7237971366281,35.16081040437841,0 32.72360795591746,35.1609594062073,0 32.72349694827047,35.16100883809955,0 32.72316903030129,35.16121622261323,0 32.72312371957452,35.16136138335621,0 32.72304567688177,35.16144277900641,0 32.72287937762665,35.16148739843498,0 32.72257200636994,35.16191295457225,0 32.72244647468496,35.16243935072985,0 32.72231238102687,35.16262042139737,0 32.72265420053453,35.1627856477573,0 32.72278770011403,35.16268635218813,0 32.72307528300369,35.16270138633127,0 32.72335871321261,35.16252558838228,0 32.72358577078226,35.16249489386787,0 32.72368443204565,35.16262258504679,0 32.72376175092597,35.16264113641648,0 32.72383304614383,35.16272780454105,0 32.72400994870653,35.16274684052182,0 32.72397053495542,35.16284205487229,0 32.72400343148723,35.16288310477174,0 32.72401930495342,35.16298313235908,0 32.72432305353259,35.16305730518017,0 32.7244124578571,35.16293507500436,0 32.72487154561018,35.16295094290162,0 32.72488660411445,35.16316454585535,0 32.72511323587194,35.16319290906235,0 32.72527202828906,35.16342084216745,0 32.72517745493786,35.1634930722945,0 32.72492253608188,35.16355089185025,0 32.72464332830084,35.16390844241396,0 32.72444883662112,35.16402561667667,0 32.72421621220287,35.16406082785168,0 32.72412107779917,35.1642102896239,0 32.72404306736129,35.16428714289168,0 32.72395457490074,35.16428216746788,0 32.72388799297479,35.16430910100178,0 32.72383836210558,35.16428614369323,0 32.72378798062507,35.16436767404123,0 32.72373235875317,35.16440829229304,0 32.72356678280036,35.16435296344247,0 32.72331146583694,35.16446529715643,0 32.72321652265523,35.16458749760121,0 32.72311120906427,35.16461424305402,0 32.7228938613133,35.16483125208927,0 32.72276618521533,35.16488969158782,0 32.72262122049592,35.16504345046074,0 32.72234423304376,35.16509206842617,0 32.7222594312823,35.16534152934099,0 32.72217618283811,35.16537746836006,0 32.72199920459462,35.16536751473251,0 32.72173186400325,35.16561153724037,0 32.72163810779463,35.16557018826895,0 32.72139368702084,35.16570528705846,0 32.72098203497534,35.16595385068482,0 32.72095954407386,35.16598214970458,0 32.72087082605213,35.16609378468173,0 32.72086297083057,35.16625345403911,0 32.72084734786183,35.16637210262616,0 32.72080677181895,35.16647594319921,0 32.72072883602218,35.16657340496551,0 32.72047911246656,35.16671512665703,0 32.7204936440257,35.16672409936566,0 32.72035882287132,35.16684114593757,0 32.71947941152806,35.16730471080307,0 32.71935533607009,35.16744083760964,0 32.71932173718648,35.1675803811292,0 32.71940406295065,35.16770860752023,0 32.71941719954511,35.1678929696144,0 32.71939023242209,35.16811577994299,0 32.71931536092345,35.168454282037,0 32.71924824790316,35.1687214842396,0 32.71913828299764,35.16890821468807,0 32.71912884974405,35.16920839570351,0 32.7193708297179,35.16928687165908,0 32.71955053140053,35.16946611009249,0 32.71946666317086,35.16954892844751,0 32.71945103260963,35.16970639641983,0 32.71947901770123,35.16984029916316,0 32.71924956477458,35.17002941384389,0 32.71916218458761,35.17009735436037,0 32.71897959308124,35.1708098689948,0 32.71886149130451,35.17111843314648,0 32.71944474136728,35.17156124007029,0 32.71906371539318,35.17168421369274,0 32.71882144849535,35.17164437853759,0 32.71876694916296,35.1716708631159,0 32.71865353065834,35.17183379438572,0 32.71818409809011,35.17216440798548,0 32.7179478294739,35.17229403537249,0 32.71779569575898,35.17230517477659,0 32.71788681962799,35.17271583710239,0 32.71789353858147,35.17278721106966,0 32.71780164176958,35.17297700282333,0 32.71779443280607,35.17346743787218,0 32.71779247531811,35.17373495846436,0 32.71768620469187,35.1739098164931,0 32.71759945819232,35.17438499467108,0 32.71765716541956,35.1744150069447,0 32.71781678229322,35.17437120586461,0 32.71786007449283,35.17439222636296,0 32.71806366847298,35.1747707450692,0 32.71825387119083,35.17500056825568,0 32.71838499760688,35.17538764604915,0 32.7183261962982,35.1760026775281,0 32.71845895178443,35.17616682158759,0 32.71834895151065,35.17635652288929,0 32.7184525738536,35.17654430236557,0 32.71821858854075,35.17685526880303,0 32.71812753593902,35.17692913383687,0 32.7180152919784,35.17742499750801,0 32.71775040371589,35.17800036567225,0 32.71773117086551,35.17815484207174,0 32.71785381851767,35.17871131458363,0 32.71778695478491,35.17894284326045,0 32.71786104850683,35.17920776898718,0 32.71784877312852,35.17940092432735,0 32.71788402048205,35.1795318902637,0 32.71794721023142,35.1798027036841,0 32.71794564418651,35.18001671975731,0 32.71807513764011,35.1801332879968,0 32.71760170229903,35.18046994864419,0 32.71756705194444,35.18049458867566,0 32.71750203363548,35.18054082295927,0 32.7174963072369,35.18072161189837,0 32.71777136682835,35.18105567192196,0 32.71738709972254,35.18119842890229,0 32.71752045505787,35.18138686341557,0 32.71729242494122,35.18150566466529,0 32.71707678913501,35.18165659950063,0 32.71689032536083,35.18183663073446,0 32.71681984254648,35.18183628207887,0 32.71681979973123,35.18183628107738,0 32.71678773492053,35.18179993297869,0 32.71671453525219,35.18176338230323,0 32.71628246644533,35.18177813099635,0 32.71628242581654,35.18177813270397,0 32.71610738289558,35.18160355276972,0 32.71597259866518,35.18155464695464,0 32.71597255589712,35.181554632432,0 32.71583462553268,35.18153465483864,0 32.71583457944271,35.18153464842069,0 32.71531221960709,35.18183364832166,0 32.71514373992606,35.18196551149952,0 32.71506112113883,35.1820109440837,0 32.71486735328591,35.18199068618613,0 32.71486730719261,35.18199068066923,0 32.71481127542337,35.1820169425586,0 32.71483953069635,35.18217149503389,0 32.71483288941974,35.18227520767074,0 32.71460141564221,35.18258047042963,0 32.7144953358952,35.18261854962554,0 32.71438661629296,35.18262283273337,0 32.71438657017727,35.18262283352605,0 32.71421845906005,35.18270403143864,0 32.71404361801192,35.18290100308047,0 32.71397873464948,35.18293204632294,0 32.71370383338994,35.18314782313865,0 32.71365399334199,35.18313793327233,0 32.71365394726077,35.1831379241494,0 32.71364564651231,35.18306791555793,0 32.71360752519836,35.18306290649947,0 32.71360747910769,35.18306290008071,0 32.71356888457149,35.18311578751889,0 32.7135305593215,35.18313728893953,0 32.71353051971714,35.18313731138079,0 32.71351057051103,35.18305276814588,0 32.71348433757248,35.18302368561682,0 32.71340512595678,35.18301123560324,0 32.71340507986933,35.18301122828299,0 32.71328136982464,35.18304921691707,0 32.71316031163639,35.18312582123977,0 32.7130980290156,35.18320271791925,0 32.71281484283673,35.18334607017165,0 32.71239647328695,35.18348874928022,0 32.71193146023097,35.1835805286049,0 32.71165882317426,35.18349473930954,0 32.71165877820692,35.18349472568153,0 32.71140944150945,35.18343800094836,0 32.71140939433359,35.18343799092062,0 32.71141292232918,35.18335838975986,0 32.71134627964075,35.18323018662483,0 32.71124058476412,35.18322242424117,0 32.71124053756927,35.18322241962166,0 32.71118144234462,35.18326555387834,0 32.71117157130517,35.18340785369109,0 32.71120874145484,35.18354797342212,0 32.71120516019653,35.18363481266333,0 32.71112821650752,35.18370680852012,0 32.71107547193197,35.18369208188337,0 32.71107542695825,35.1836920700579,0 32.71096765731721,35.18356124739961,0 32.7110248676741,35.1833757556582,0 32.71100762943042,35.1833225898033,0 32.71082310043452,35.18324447960379,0 32.71082305876762,35.18324446418055,0 32.71047072548635,35.18320652004675,0 32.71047067828837,35.18320651632833,0 32.71001212397144,35.18322593778565,0 32.71001207894049,35.18322594218482,0 32.70944689145081,35.1833509851158,0 32.70919530125136,35.1834475383552,0 32.70888486689288,35.18364433099089,0</coordinates>
						</LinearRing>
					</outerBoundaryIs>
				</Polygon>
			</MultiGeometry>
		</Placemark>
	</Document>
</kml>