<?xml version='1.0' encoding='UTF-8'?>
<kml xmlns="http://www.opengis.net/kml/2.2">
	<Document>
		<name>ANAFOTIDA</name>
		<Style id="PolyStyle70">
			<LabelStyle>
				<color>00000000</color>
				<scale>0.000000</scale>
			</LabelStyle>
			<LineStyle>
				<color>ff0055ff</color>
				<width>2.000000</width>
			</LineStyle>
			<PolyStyle>
				<color>00828282</color>
				<outline>1</outline>
			</PolyStyle>
		</Style>
		<Placemark id="ID_70195">
			<name>ANAFOTIDA</name>
			<snippet />
			<description>&lt;html xmlns:fo="http://www.w3.org/1999/XSL/Format" xmlns:msxsl="urn:schemas-microsoft-com:xslt"&gt;

&lt;head&gt;

&lt;META http-equiv="Content-Type" content="text/html"&gt;

&lt;meta http-equiv="content-type" content="text/html; charset=UTF-8"&gt;

&lt;/head&gt;

&lt;body style="margin:0px 0px 0px 0px;overflow:auto;background:#FFFFFF;"&gt;

&lt;table style="font-family:Arial,Verdana,Times;font-size:12px;text-align:left;width:100%;border-collapse:collapse;padding:3px 3px 3px 3px"&gt;

&lt;tr style="text-align:center;font-weight:bold;background:#9CBCE2"&gt;

&lt;td&gt;4&lt;/td&gt;

&lt;/tr&gt;

&lt;tr&gt;

&lt;td&gt;

&lt;table style="font-family:Arial,Verdana,Times;font-size:12px;text-align:left;width:100%;border-spacing:0px; padding:3px 3px 3px 3px"&gt;

&lt;tr&gt;

&lt;td&gt;DIST_CODE&lt;/td&gt;

&lt;td&gt;4&lt;/td&gt;

&lt;/tr&gt;

&lt;tr bgcolor="#D4E4F3"&gt;

&lt;td&gt;VIL_CODE&lt;/td&gt;

&lt;td&gt;122&lt;/td&gt;

&lt;/tr&gt;

&lt;tr&gt;

&lt;td&gt;VIL_CCD&lt;/td&gt;

&lt;td&gt;4122&lt;/td&gt;

&lt;/tr&gt;

&lt;tr bgcolor="#D4E4F3"&gt;

&lt;td&gt;VIL_NM_E&lt;/td&gt;

&lt;td&gt;ANAFOTIDA&lt;/td&gt;

&lt;/tr&gt;

&lt;tr&gt;

&lt;td&gt;VIL_NM_G&lt;/td&gt;

&lt;td&gt;ΑΝΑΦΩΤΙΔΑ&lt;/td&gt;

&lt;/tr&gt;

&lt;/table&gt;

&lt;/td&gt;

&lt;/tr&gt;

&lt;/table&gt;

&lt;/body&gt;&lt;script type="text/javascript"&gt;

				function changeImage(attElement, nameElement) {

				document.getElementById('imageAttachment').src = attElement;

				document.getElementById('imageName').innerHTML = nameElement;}

			&lt;/script&gt;&lt;/html&gt;

</description>
			<styleUrl>#PolyStyle70</styleUrl>
			<MultiGeometry>
				<Polygon>
					<extrude>0</extrude>
					<altitudeMode>clampToGround</altitudeMode>
					<outerBoundaryIs>
						<LinearRing>
							<coordinates> 33.46348240851682,34.79372411724228,0 33.46348980288687,34.79379184644731,0 33.46354142294462,34.79405332588142,0 33.46376626361396,34.79389447253994,0 33.46388322025003,34.79376248210186,0 33.46392354434126,34.79350550308094,0 33.46409235327655,34.793141545202,0 33.46422820415489,34.79299382241728,0 33.46442599203064,34.79305884026306,0 33.4650021501923,34.79289377579256,0 33.46514916265711,34.7927562308634,0 33.46515154405969,34.79275609916562,0 33.46545794751527,34.79250074732042,0 33.46577155694158,34.79223844941088,0 33.46591991394237,34.79225082099527,0 33.46602048633716,34.79212236809441,0 33.46599005070663,34.79198675442799,0 33.46591701005387,34.79180447629946,0 33.46587476277777,34.79159041598149,0 33.46550147059273,34.79165761026608,0 33.46546973050729,34.79138417536668,0 33.46547661854254,34.79123611944863,0 33.46550212527161,34.79118570304183,0 33.46550062749464,34.79118517691529,0 33.46564081049571,34.79101525401605,0 33.46570079652667,34.7908803480961,0 33.46581290975197,34.79056358453433,0 33.46602357092059,34.79021825618968,0 33.46655828773752,34.78957629183757,0 33.46671070432814,34.78938045281431,0 33.46681587460949,34.7893140850998,0 33.46700973283343,34.78909434079232,0 33.46682340260127,34.78894729545487,0 33.46644670980153,34.78907275187478,0 33.46644176759769,34.78907410585936,0 33.46635045540384,34.78866658977005,0 33.466275192691,34.78865406219879,0 33.46631722732698,34.78836027220101,0 33.4667435975668,34.78840669428256,0 33.46710916038876,34.78857679895732,0 33.46778457934154,34.78867974770135,0 33.46785007878844,34.78895126927191,0 33.46809536594846,34.78934347329535,0 33.46819241668856,34.78953835383184,0 33.46846627274084,34.78932621511433,0 33.46856958644448,34.78949732437925,0 33.46879936718562,34.78940936687803,0 33.46884783417937,34.78949625293507,0 33.469837958959,34.78925760232961,0 33.47050218867004,34.78907825262232,0 33.4703728965187,34.78883864244028,0 33.47036796059728,34.78853258721039,0 33.47041146158985,34.78830814044702,0 33.47128787375782,34.78832322008015,0 33.47138079884875,34.78782127882037,0 33.47175585877094,34.7871373577953,0 33.47137609172146,34.78699394815413,0 33.47136643707263,34.78692154420107,0 33.47105601150886,34.7867816772404,0 33.47081948348804,34.78663389831835,0 33.47063376764356,34.78648210935292,0 33.47042980571366,34.78637233053303,0 33.47033569306467,34.78607530524571,0 33.47028896160629,34.78598398150141,0 33.47023316205209,34.78592319420213,0 33.46987143280013,34.78569964340293,0 33.46956913310892,34.78536148188346,0 33.46948517436146,34.78522455015858,0 33.46947059854497,34.78509878748809,0 33.46952097700354,34.78501852735409,0 33.46968215479019,34.78491877588419,0 33.46975112665878,34.78485750686007,0 33.46981046594123,34.78472764673305,0 33.46986520608244,34.78460161745853,0 33.46987809599324,34.78442999754556,0 33.46980830420856,34.78434638795829,0 33.4697571699135,34.78429320777371,0 33.46974259277759,34.78416744602417,0 33.46971918523185,34.78411415882321,0 33.4696541873033,34.78406103208754,0 33.46954770709787,34.78402712918673,0 33.46940883776634,34.7839857248316,0 33.46936640512762,34.783837194356,0 33.46938782650179,34.78353972265478,0 33.46939893628431,34.78335285889938,0 33.46927918787508,34.78312456063146,0 33.46954394790698,34.78336373813462,0 33.46968804405723,34.7835118763401,0 33.47021405226707,34.78418468874073,0 33.4707879127215,34.78433116476324,0 33.47107507184437,34.78444443513668,0 33.47167789941907,34.78480811713441,0 33.471830114146,34.78475796284605,0 33.47229797815486,34.78495440689593,0 33.47235781449622,34.78491223569614,0 33.47273885703302,34.78528058592814,0 33.47270685745895,34.785341712162,0 33.47322224107915,34.7856395713012,0 33.47307536031447,34.78596824804337,0 33.47347278970576,34.7860689289514,0 33.47402463468179,34.78630572468305,0 33.47405609446357,34.78625195694194,0 33.47470329774443,34.78633837527207,0 33.47550324022593,34.78632783141784,0 33.47551157838689,34.78645732983478,0 33.47589097312554,34.78631540233933,0 33.47627814548347,34.78590478081891,0 33.4769402957641,34.78618389639858,0 33.47660071239177,34.78682342876764,0 33.47612960788209,34.78744402050363,0 33.47670732687103,34.78770997908419,0 33.47655384639576,34.78811550626119,0 33.47721325700863,34.78840004410045,0 33.47698806095418,34.78871366088227,0 33.47695231630489,34.78869428819529,0 33.47676075942306,34.78859221581796,0 33.47668790882432,34.7885564981861,0 33.47661648030829,34.78853852356117,0 33.47653597350165,34.78849483005192,0 33.47650301918473,34.78848391181031,0 33.47607750364578,34.78913444213541,0 33.47590556740541,34.78931587202812,0 33.47542133111438,34.78990974639003,0 33.47563024944125,34.79003949598094,0 33.47549567894816,34.79020163250239,0 33.47543652209902,34.79027290492019,0 33.47586010693556,34.79060492072863,0 33.47499329077779,34.79132860053149,0 33.47568008374635,34.79202824294685,0 33.4756839399941,34.79205337016283,0 33.47566782987671,34.79208473229851,0 33.47469509517595,34.79269553158511,0 33.47479049343627,34.79279907390448,0 33.4741363336808,34.79322717133654,0 33.47406784297014,34.79325553444895,0 33.47401840756567,34.79326695361735,0 33.47395366043841,34.7932870971073,0 33.47371806108971,34.79354814691948,0 33.47322115239144,34.79413281004933,0 33.47318989525634,34.79415513693692,0 33.47387695577032,34.79463608790301,0 33.47418131770229,34.79483868468409,0 33.47411294601356,34.79492987735714,0 33.4746466116312,34.79520248558515,0 33.47500866993929,34.79534965871037,0 33.47526018670683,34.7954404306842,0 33.47559543783901,34.79550910140248,0 33.47535680717902,34.79617226579225,0 33.4753303317012,34.79626654520752,0 33.47601495421543,34.79680824637399,0 33.47605107857677,34.79683682970138,0 33.47601506845542,34.79686671920733,0 33.47573416034088,34.79709988071875,0 33.4756101802861,34.79722118083551,0 33.47537445955771,34.79735928760009,0 33.47452984816442,34.79785089486079,0 33.47442333057032,34.79790758025676,0 33.47373192324551,34.79816370811307,0 33.473608957603,34.79822279066526,0 33.47338445540247,34.79832046869416,0 33.47311426505267,34.79842448801884,0 33.47301982931646,34.79848087281623,0 33.47215220834129,34.79918596792466,0 33.47211798887626,34.79921428531864,0 33.47203043757756,34.79923638855234,0 33.47190213443128,34.79928883109267,0 33.47147512018785,34.79960779633928,0 33.47159712987839,34.79968303526161,0 33.47146836353221,34.79984758129395,0 33.47121720619653,34.80016730836627,0 33.47119826083383,34.80021759592269,0 33.47117853923774,34.80033716538767,0 33.47119132366777,34.8005788740561,0 33.4718582938497,34.80084189859281,0 33.47164332016189,34.8012067514566,0 33.47164196272212,34.80123800266783,0 33.47245019837767,34.80168304727709,0 33.47259075188269,34.80149437683738,0 33.47275076564888,34.80152558545503,0 33.47299851180617,34.80162893103847,0 33.47296057785252,34.80170751694928,0 33.47299770627296,34.80172074561606,0 33.47353239775521,34.80199578998074,0 33.47342231289365,34.80218442049095,0 33.47359766577627,34.80226901147728,0 33.47363942207922,34.80225900067168,0 33.47458050393296,34.80192030917058,0 33.47463669252998,34.80191266753599,0 33.47500795464533,34.80208953959951,0 33.47560490800784,34.80235748168197,0 33.47583348246785,34.80239173469761,0 33.47582986415042,34.80248912579741,0 33.4760260480201,34.80251483407317,0 33.47621002765545,34.80253894374628,0 33.47621236048146,34.80260271916515,0 33.47602638072762,34.80268619593784,0 33.47597377085474,34.80270980956794,0 33.47547914361655,34.80279747873918,0 33.47543058982085,34.80280694070627,0 33.47542923328618,34.80305679900907,0 33.47543956964627,34.8036112418922,0 33.47552598682191,34.80372593601664,0 33.47563511035921,34.80446779286428,0 33.47569957909197,34.80487272650413,0 33.47577835788034,34.80537791975628,0 33.47586128598444,34.80591747332862,0 33.47534584512563,34.80599433300987,0 33.47494599539842,34.80603181590489,0 33.47483920409853,34.80604293280279,0 33.47466556147061,34.80606897870537,0 33.47437339847983,34.80611838585033,0 33.47428282703557,34.80613394175629,0 33.47398217801906,34.80618864728334,0 33.47396987601643,34.80626075859358,0 33.47397035664026,34.80626491419061,0 33.47397612430051,34.80631481110165,0 33.4740054410258,34.80670644189185,0 33.4743094373583,34.80678146836849,0 33.47419952362237,34.80735756545543,0 33.4738691622022,34.80734445262789,0 33.47385697987474,34.80741842313098,0 33.47384515185279,34.80749930634188,0 33.47396862642027,34.80787361780812,0 33.47396900792192,34.80787477558149,0 33.47443119296533,34.80782352126095,0 33.47478501076245,34.80779112800663,0 33.47489680512795,34.80783900206612,0 33.4749378019336,34.80758869448429,0 33.47504890069749,34.80759689669084,0 33.47505007516259,34.8075387308259,0 33.47505586993375,34.80686202979425,0 33.47528742933241,34.80685744322811,0 33.47555033424048,34.80686004355881,0 33.47583572808016,34.80758086253623,0 33.47594545541242,34.80785732329846,0 33.47582705211117,34.8084184179015,0 33.47538712750585,34.80831186102489,0 33.47528554388517,34.80904493926614,0 33.47528434542284,34.80905359151393,0 33.47533452823851,34.80908108160126,0 33.47547942719389,34.80929575186293,0 33.47561597962558,34.80972168756647,0 33.47530313911847,34.80982862689781,0 33.47484177621826,34.81011270576869,0 33.47501514426153,34.81033275615536,0 33.47491725976958,34.81065788749868,0 33.47478594173614,34.81067430953841,0 33.47480580114019,34.81075553340373,0 33.47595451568308,34.81044526842898,0 33.47574750103536,34.81093846086787,0 33.47604306420099,34.81126539226418,0 33.47615053219369,34.81138426454198,0 33.47604343717238,34.81145738870654,0 33.4752992962869,34.81196548182486,0 33.47502042746635,34.81198249027677,0 33.47524212858156,34.8122391332306,0 33.47547862991874,34.8122731277188,0 33.47577181892799,34.81218787962648,0 33.47596476470405,34.81233929080594,0 33.47604516216855,34.81234400276617,0 33.47612856636295,34.81234889131051,0 33.47618678766936,34.81240289081363,0 33.47636231082685,34.81222754343954,0 33.47649387635656,34.81221690960724,0 33.47691393841831,34.81218496734209,0 33.47743064573125,34.81212021229271,0 33.47772151743936,34.81250162591555,0 33.47789282612453,34.81254585061947,0 33.4780282477747,34.81207888135252,0 33.47818371272829,34.81212835841237,0 33.4783867744179,34.81219607549959,0 33.47859642713173,34.81238931055304,0 33.47867907399315,34.81249510986861,0 33.47872225981159,34.81268726323626,0 33.47931208538794,34.81271784679647,0 33.47909127983804,34.81329869058386,0 33.4788215025275,34.81396720823965,0 33.4785753049106,34.81453762565015,0 33.47841754632896,34.81493533143531,0 33.47834188114518,34.81515509819197,0 33.47826815346864,34.81555530482307,0 33.47820847115112,34.81584173627459,0 33.4781864658717,34.81593852429982,0 33.4781375203757,34.81604057534735,0 33.47798729941176,34.81624344515343,0 33.47779123104171,34.81651044597075,0 33.4777470772394,34.81663210789065,0 33.47771251055519,34.81679167214044,0 33.47767161663408,34.81695909206206,0 33.4776464500494,34.81706111355121,0 33.47761498779875,34.81718668022864,0 33.4775550890213,34.81736458457716,0 33.47749197291011,34.81751895850026,0 33.47734992304513,34.81784734044999,0 33.47732792149533,34.81794674246802,0 33.47732976325805,34.81807749421861,0 33.47733956332708,34.8182239260147,0 33.47735756923733,34.81851156026113,0 33.47736578338581,34.81865799375902,0 33.47738044020252,34.8188554128881,0 33.47738081773823,34.81904761999482,0 33.47741920255796,34.81921007725601,0 33.47746980587546,34.81942424115197,0 33.47750101278265,34.81973956454686,0 33.47724860992487,34.81973359387742,0 33.47675137878372,34.81968379670242,0 33.476759297411,34.81982254566467,0 33.4769810829463,34.81981594414638,0 33.4769742010749,34.82020700574076,0 33.4770665244364,34.82048440565718,0 33.47685255649503,34.82057929565253,0 33.47690737860854,34.82123518035823,0 33.47640243900628,34.82116016258295,0 33.47606221501526,34.8211090789049,0 33.47548479749288,34.82102237961775,0 33.4750782117785,34.82093097040381,0 33.47463623879953,34.821142134072,0 33.47460378770337,34.82109768786938,0 33.4741977113481,34.82127321106402,0 33.47394604585963,34.82132099459955,0 33.4735397054234,34.82136008221272,0 33.47332387148273,34.82133663444014,0 33.47300723177609,34.82126289724259,0 33.47277695352621,34.82121277503737,0 33.47263671079494,34.82122482141897,0 33.47252175551779,34.82129615295061,0 33.47211602768951,34.82165555699254,0 33.47184648483675,34.82176267999785,0 33.4713973839882,34.82201239719029,0 33.47161326916173,34.82205957507602,0 33.47113624891457,34.82276311868409,0 33.47185248271177,34.82302913377698,0 33.47225432002848,34.82250957364575,0 33.47313632293943,34.82294442616617,0 33.47282434701937,34.82343421325143,0 33.47390759526664,34.82377388857331,0 33.47436813012012,34.82385633284919,0 33.47485368990348,34.82386162683854,0 33.47507680291152,34.82392361980199,0 33.47518832543648,34.82421742439851,0 33.47524671699764,34.82437125478645,0 33.47475053339239,34.82445495375062,0 33.4744882324846,34.824588765892,0 33.47448845532747,34.82470443732121,0 33.47411815771217,34.82479093477109,0 33.47347052569447,34.82467314206659,0 33.4725746774057,34.82453490550601,0 33.47203164771498,34.82457416471466,0 33.47196066452999,34.82507550196927,0 33.47329539747098,34.82525469638098,0 33.47312723278986,34.82571760331462,0 33.47372098262363,34.82586512716437,0 33.47354279272083,34.8267254865351,0 33.47271190914201,34.82671470117789,0 33.47230538888921,34.82667073910253,0 33.47231710365618,34.82715713842466,0 33.47283184149765,34.82736409078792,0 33.47271004196908,34.82762228482456,0 33.47243379138041,34.82799338665798,0 33.47298466597423,34.82828333625783,0 33.47310720749232,34.82841367896429,0 33.47260763314188,34.82861897714365,0 33.47209313808542,34.82854549328894,0 33.47212174138177,34.82845351174884,0 33.47150994386952,34.82828227551526,0 33.47137020525878,34.82856718617165,0 33.47090964915878,34.82848472988815,0 33.47075263113709,34.82914633853409,0 33.46992150683973,34.82901986381426,0 33.46986496861906,34.82955973902558,0 33.4697211113546,34.82957178433153,0 33.4697069077851,34.82966967996358,0 33.46962844602603,34.83002865971576,0 33.46971481533678,34.83005227760998,0 33.46959319686439,34.83041427790528,0 33.46969755060687,34.83043490661507,0 33.46966202959825,34.83067519347154,0 33.4689390063527,34.83065831492212,0 33.46893589013494,34.83091932161312,0 33.46827403177143,34.83091125923122,0 33.46824925517085,34.83112780539113,0 33.46813416712445,34.83113684806938,0 33.46797292247651,34.8314722029112,0 33.46768532326384,34.83155857633497,0 33.46740231453014,34.83218771341858,0 33.46721285100007,34.83282859513776,0 33.46707346514586,34.83331815023296,0 33.46705966674479,34.83363849106738,0 33.46656681435964,34.83361241143074,0 33.46654779960987,34.83372954475059,0 33.46649606001249,34.83404826057902,0 33.46659210286327,34.83406397307356,0 33.46667274848944,34.83465868588671,0 33.46660495422803,34.83508848220472,0 33.46640525317252,34.83635349518489,0 33.46632583645466,34.83689494962446,0 33.46564889708939,34.83680372248158,0 33.46540971719927,34.83670090256792,0 33.46554550715224,34.83644847052425,0 33.46535320468983,34.83633086231153,0 33.46541951674637,34.83594777973479,0 33.46541856954993,34.8354266795431,0 33.46514605183373,34.83541228467028,0 33.46513813555661,34.83597390613022,0 33.46479638188958,34.83596143745465,0 33.46480340538786,34.83614003946833,0 33.46460025852528,34.83619921271658,0 33.46335392068645,34.83619153187963,0 33.46338680830333,34.83584716029649,0 33.46292218518644,34.83582194729863,0 33.46246455909893,34.83539646649294,0 33.46205472172976,34.8352423763241,0 33.46200061079566,34.83534007281898,0 33.46192654595575,34.83531168641386,0 33.46206038138576,34.83495760453438,0 33.4614607402714,34.83489934069588,0 33.46141802822493,34.83516178276235,0 33.46110217730043,34.83513775171178,0 33.4603123783136,34.83497597537286,0 33.46045055686866,34.83373698407446,0 33.46046610011753,34.83359761089973,0 33.46009556025928,34.83357432686353,0 33.46003056475129,34.83343500410694,0 33.45967082953905,34.83342060399941,0 33.45958127365191,34.83363129309414,0 33.45854119091929,34.83333296237743,0 33.45812715128327,34.83311693565939,0 33.45794417802671,34.83339298377889,0 33.45767219701124,34.83374027308827,0 33.45761531060948,34.83381291079742,0 33.45716344614291,34.83454644773593,0 33.4574572411659,34.83466000949615,0 33.45738610894225,34.83490214210849,0 33.45849186534321,34.8351530625761,0 33.45875614575596,34.83531750705227,0 33.45871444695782,34.8354579043937,0 33.45808780381583,34.83548101692899,0 33.45687120497967,34.83533802599691,0 33.45678388884199,34.83477673627153,0 33.45713340258965,34.83429223032473,0 33.45655805063977,34.83400610241382,0 33.45648910557255,34.83408550961586,0 33.45579318288787,34.83398664903449,0 33.45570238669512,34.83427355241582,0 33.45466363169908,34.83424017078974,0 33.45404360079811,34.83378729218008,0 33.45397466775923,34.83387686800183,0 33.45354033369688,34.83381227437506,0 33.45346403128816,34.83392016495436,0 33.4527779903537,34.83382534461851,0 33.45282923941937,34.83374585483382,0 33.45300908789527,34.83346689810176,0 33.45291178710296,34.83336023387489,0 33.45271016838772,34.83325072163359,0 33.45206655212827,34.83374671635995,0 33.45149810247887,34.83418477513789,0 33.45105897827676,34.83420764121043,0 33.45097767175251,34.83427485495537,0 33.45109664126272,34.83460626833154,0 33.45059598435468,34.83472073204516,0 33.45043001041065,34.83431207811422,0 33.45009220636633,34.83443652951662,0 33.44979891923466,34.83462805311508,0 33.44969983456856,34.83454688753237,0 33.44931611901771,34.83423256327781,0 33.44905622400796,34.8340208022015,0 33.44874877873445,34.83385621450626,0 33.44857147456347,34.83375060270191,0 33.44780617205003,34.83329474090851,0 33.44683551680635,34.83280920946769,0 33.44645492733903,34.83226238860699,0 33.44630099632553,34.83227383744324,0 33.44608889458003,34.83212879518484,0 33.44574828620757,34.83199658406471,0 33.44569697083838,34.83199240818789,0 33.44492022390497,34.8318719456637,0 33.44437076448268,34.83161865970124,0 33.44356446313167,34.83118511148182,0 33.44333323029783,34.83098367128665,0 33.44277623678695,34.8302720041975,0 33.44240092881872,34.82979709979985,0 33.44219669189633,34.82934880874372,0 33.44178468298835,34.82947758767583,0 33.4414562943908,34.82948357089968,0 33.44103893049387,34.82948118319969,0 33.44027631656445,34.82963006051422,0 33.43982040862831,34.82788163861805,0 33.43963907517988,34.82786489975619,0 33.43850703417811,34.82802401927657,0 33.43796260673434,34.82767197142375,0 33.43850563514497,34.82708611016499,0 33.43872540329529,34.82650059587227,0 33.43792256469845,34.82605008329242,0 33.43797418211844,34.82509942858535,0 33.43750537030374,34.82497156237331,0 33.43724464427317,34.82493301366545,0 33.43713584968822,34.82491692889673,0 33.4366924644174,34.82464093289762,0 33.43642741607931,34.82463838182363,0 33.43653635177335,34.8243622462143,0 33.43678122738017,34.82374151394351,0 33.43702593772461,34.82345297326194,0 33.43723392513021,34.82290466209798,0 33.43723987842915,34.82288896727689,0 33.43751618524156,34.82303301382252,0 33.43786063238697,34.82275861701,0 33.43723141309957,34.82242928859435,0 33.43714046443508,34.82238168645099,0 33.43650237678572,34.82200445623702,0 33.43645768143219,34.82186682885492,0 33.43675294636627,34.82171589501803,0 33.43680895936205,34.82177612773689,0 33.4372266348086,34.82152502001692,0 33.43784042716533,34.82115600115977,0 33.4377365167025,34.82090739040957,0 33.43827758807931,34.82067821345761,0 33.4385431609725,34.82045727951713,0 33.43857078273854,34.82013809259452,0 33.43909622077521,34.82027882061922,0 33.4391914112976,34.81998839730868,0 33.43965186300278,34.82003508072052,0 33.43946285556307,34.81976985783736,0 33.43933052889144,34.81969056408413,0 33.43951970690809,34.81943606084405,0 33.43938391116362,34.81925525165907,0 33.43922086104907,34.81906471674586,0 33.43914314139202,34.81906927102627,0 33.43891029975869,34.81914277489427,0 33.43884439927367,34.81922335664206,0 33.43872761402736,34.81931080155373,0 33.43859806661939,34.81920248845017,0 33.43811843335947,34.81940727246837,0 33.43801562468002,34.81936654750852,0 33.43804731747119,34.81926248861689,0 33.43810753695187,34.8187652552118,0 33.43909000911142,34.8188236908285,0 33.43912932843387,34.81841962733418,0 33.43930024700938,34.8183976388927,0 33.43914698577288,34.81784039460904,0 33.43919198072458,34.81753047558431,0 33.4394021859833,34.81745060217643,0 33.44014620767184,34.81736019970334,0 33.44012880225942,34.81683226146492,0 33.4412024945849,34.81638464618822,0 33.44181443762346,34.81616572177623,0 33.44221295395751,34.8158134196342,0 33.4418233513781,34.81549149884314,0 33.44209787954915,34.8152071132175,0 33.44275541861234,34.81502368862574,0 33.44291622391184,34.81514053027782,0 33.44317686145239,34.81506619005359,0 33.44365720986525,34.81503019008045,0 33.44356730445006,34.81485926923781,0 33.44363198489867,34.814751392665,0 33.44339894090468,34.81443910313798,0 33.44397850975749,34.81409938746196,0 33.44404326782598,34.81400618772508,0 33.44461104442792,34.81368119031426,0 33.44485891634289,34.81344053844813,0 33.44540395785626,34.81330154553901,0 33.44544052597141,34.81348244551886,0 33.44596170532677,34.81331907401647,0 33.44611532214352,34.81320658015417,0 33.4464372971436,34.81350325695871,0 33.44640315452787,34.81377248552337,0 33.44650972557655,34.81373295192031,0 33.44710661289358,34.81440596583253,0 33.44689425989453,34.81463181353732,0 33.44683056114575,34.81492072200671,0 33.44767040188648,34.81553901974866,0 33.44816338378435,34.81564484667568,0 33.44832647320969,34.8150864672868,0 33.44875536285381,34.81540781033937,0 33.44887345662567,34.81530462616256,0 33.44884916923223,34.81520196716091,0 33.44933531461574,34.8151414599594,0 33.44966906560523,34.81516982241474,0 33.45005003393396,34.8151872613866,0 33.4501961294017,34.81543801336747,0 33.45029877559601,34.81540308113784,0 33.45041001211932,34.81554716306922,0 33.45064947958901,34.81545832327154,0 33.45069695717322,34.81508434944245,0 33.45076332252471,34.81468203446354,0 33.45075056314283,34.81443707146243,0 33.45138656742836,34.81442843165474,0 33.45166885051857,34.81450905426878,0 33.45174461181549,34.81443338511776,0 33.45131513540093,34.81390098120347,0 33.45108164675118,34.81368824756495,0 33.45070712301906,34.81345404786138,0 33.45003751467571,34.81288483452511,0 33.45061262208977,34.81288584682918,0 33.45158944304796,34.8132183306619,0 33.4517176828853,34.81298854935306,0 33.45120634424195,34.81280825972372,0 33.45140305188802,34.81256251893736,0 33.45153333031755,34.81270652927676,0 33.45190363424806,34.81216801537075,0 33.45119594321107,34.81159894970171,0 33.45118840226989,34.81094476114033,0 33.45162782885952,34.81074872965164,0 33.45162483832204,34.81020059194341,0 33.45133031442806,34.81004233957605,0 33.45090840533114,34.8099068657632,0 33.45068551548298,34.81013077602453,0 33.44997130422264,34.80953427894113,0 33.44950896775079,34.80931794302789,0 33.4494641742231,34.808778006704,0 33.4494063222029,34.80875916828954,0 33.44957668516251,34.80858230257624,0 33.44954416146338,34.80826487999071,0 33.4496707444296,34.80826381284985,0 33.45052895749781,34.80834349776876,0 33.45147637025289,34.80848339770464,0 33.45145434084273,34.80798632075274,0 33.4508898991843,34.80792786233142,0 33.45059200597361,34.80785885388254,0 33.45011568682573,34.80766302758939,0 33.45021555597732,34.80755430333952,0 33.44993244496732,34.80736094887953,0 33.45011267199339,34.80710851638685,0 33.44995034385302,34.8070995559417,0 33.44994616762047,34.80704220690476,0 33.45028541385173,34.80690072843507,0 33.45034267646508,34.80677303932003,0 33.45103844165686,34.80682464043589,0 33.45091301523271,34.80649685324587,0 33.45143606477739,34.80605193310022,0 33.45251354664356,34.80595869800565,0 33.45251704418654,34.8058917597716,0 33.45273706519117,34.8058526984502,0 33.45274881308845,34.80588133698537,0 33.4525908207992,34.80595841064383,0 33.45264315659931,34.80634383246988,0 33.45348655061326,34.80590741928772,0 33.45350389983549,34.80589813824242,0 33.45382373742648,34.8057197755447,0 33.45438082630986,34.8056319051821,0 33.45459951082483,34.80559594195832,0 33.45483970731817,34.80557005544702,0 33.4551115690882,34.80553221945648,0 33.45460951019324,34.80390216575412,0 33.4545006755426,34.80352472253532,0 33.45448067473983,34.80347112325535,0 33.45423957092186,34.8027153575187,0 33.45437521016914,34.80268852620904,0 33.4541310010514,34.80198028253277,0 33.45493617802869,34.80182202354485,0 33.45508883998787,34.80179540094708,0 33.45543664494001,34.80173664071184,0 33.45597614331852,34.80164658703019,0 33.45601713055826,34.80163946887475,0 33.45617636885861,34.80163531769776,0 33.45799718535501,34.80158663932085,0 33.45834856395356,34.80147373892966,0 33.45842917089099,34.80145499802165,0 33.45841472934906,34.80113960261,0 33.45841072344221,34.8009454278854,0 33.45841113507818,34.8007199175243,0 33.4584181689297,34.80046118279954,0 33.45842891021891,34.80029948574843,0 33.45843345185623,34.80013659959813,0 33.45843288624674,34.79989525625641,0 33.45842371081553,34.79983581510532,0 33.45841674446039,34.79973302853601,0 33.45836868971455,34.79931994444151,0 33.45836321324974,34.79923043508121,0 33.45836371488926,34.79906854038782,0 33.45839377201438,34.79879400574688,0 33.45844006688455,34.79842806711576,0 33.45842830827713,34.79840278522948,0 33.45840239613038,34.79838468349797,0 33.4575613089477,34.79824044914228,0 33.45745292718536,34.79820460573068,0 33.45681885494515,34.79799298267126,0 33.45662417982786,34.79792833479311,0 33.45621434787691,34.79778587169968,0 33.45623282807857,34.79773726846361,0 33.45618218470673,34.79769538681163,0 33.45612663096905,34.79763833323933,0 33.45619662552196,34.79760901182039,0 33.45613442047354,34.79742148324542,0 33.45618315646247,34.79735896003988,0 33.45595624897027,34.7972525470001,0 33.4557211628784,34.79733902628347,0 33.45551006258219,34.7970105716073,0 33.45560580324657,34.79698987838172,0 33.45566618401971,34.79687034296481,0 33.45556945399009,34.79640182307899,0 33.45539625793194,34.79632132106195,0 33.45537246644418,34.79627289322977,0 33.4554579056047,34.7961237903917,0 33.45527129878717,34.79570077807853,0 33.45515988116311,34.79540362757213,0 33.45508683643427,34.79495431500214,0 33.45506613105936,34.79475385798182,0 33.45497078914598,34.79452780478964,0 33.45481321391686,34.79439254721214,0 33.45443957194229,34.79418047079518,0 33.45460259217547,34.79387905941769,0 33.45490725347014,34.79366768345907,0 33.45482048272341,34.79357420928954,0 33.45526628683661,34.79336230492891,0 33.45578366059802,34.79300090061889,0 33.45586395628387,34.79294863319354,0 33.45615091906342,34.7929252517384,0 33.4567433966514,34.79276734878187,0 33.45703913560634,34.79268896285843,0 33.45754887881435,34.7926286221272,0 33.45752865268724,34.79245199256672,0 33.45763962880601,34.79243405750599,0 33.45819233447218,34.79173894701049,0 33.45877761226284,34.79099809968544,0 33.45882677267556,34.79094971300594,0 33.4588716671575,34.79090468586287,0 33.45853717904927,34.79068949137488,0 33.45863015642689,34.79046106907145,0 33.45853783936229,34.790298876605,0 33.45885871978164,34.79020852488162,0 33.45903496725168,34.79015971845172,0 33.45921209500691,34.79011323869175,0 33.45932102781695,34.79010283691349,0 33.45946913103827,34.79015147632699,0 33.45952097452926,34.79016067010995,0 33.45966549989902,34.79029309264326,0 33.45998448866315,34.79056522133694,0 33.4602130999213,34.79073465170527,0 33.46049944985594,34.79096412145716,0 33.46080200073354,34.79121794853454,0 33.4607402079738,34.79132281361714,0 33.46075603882983,34.79135124848788,0 33.46118923376262,34.79155278361804,0 33.46115824828779,34.79159330845806,0 33.46181402959639,34.79190040571955,0 33.4618804176155,34.79193061106081,0 33.46192278019758,34.79207976985926,0 33.46191848826701,34.79214487434406,0 33.46186724709781,34.79276409714068,0 33.46206586633974,34.79280384447179,0 33.46242261268034,34.79289634665861,0 33.46254072513372,34.7931610255805,0 33.46260345226144,34.7932733321251,0 33.46268844282979,34.79323538171231,0 33.4630683751248,34.79336384457195,0 33.46313047563182,34.79345011127955,0 33.46334364814955,34.7936160823302,0 33.46348240851682,34.79372411724228,0</coordinates>
						</LinearRing>
					</outerBoundaryIs>
				</Polygon>
			</MultiGeometry>
		</Placemark>
	</Document>
</kml>