<?xml version='1.0' encoding='UTF-8'?>
<kml xmlns="http://www.opengis.net/kml/2.2">
	<Document>
		<name>ANGOLEMI</name>
		<Style id="PolyStyle70">
			<LabelStyle>
				<color>00000000</color>
				<scale>0.000000</scale>
			</LabelStyle>
			<LineStyle>
				<color>ff0055ff</color>
				<width>2.000000</width>
			</LineStyle>
			<PolyStyle>
				<color>00828282</color>
				<outline>1</outline>
			</PolyStyle>
		</Style>
		<Placemark id="ID_70467">
			<name>ANGOLEMI</name>
			<snippet />
			<description>&lt;html xmlns:fo="http://www.w3.org/1999/XSL/Format" xmlns:msxsl="urn:schemas-microsoft-com:xslt"&gt;

&lt;head&gt;

&lt;META http-equiv="Content-Type" content="text/html"&gt;

&lt;meta http-equiv="content-type" content="text/html; charset=UTF-8"&gt;

&lt;/head&gt;

&lt;body style="margin:0px 0px 0px 0px;overflow:auto;background:#FFFFFF;"&gt;

&lt;table style="font-family:Arial,Verdana,Times;font-size:12px;text-align:left;width:100%;border-collapse:collapse;padding:3px 3px 3px 3px"&gt;

&lt;tr style="text-align:center;font-weight:bold;background:#9CBCE2"&gt;

&lt;td&gt;1&lt;/td&gt;

&lt;/tr&gt;

&lt;tr&gt;

&lt;td&gt;

&lt;table style="font-family:Arial,Verdana,Times;font-size:12px;text-align:left;width:100%;border-spacing:0px; padding:3px 3px 3px 3px"&gt;

&lt;tr&gt;

&lt;td&gt;DIST_CODE&lt;/td&gt;

&lt;td&gt;1&lt;/td&gt;

&lt;/tr&gt;

&lt;tr bgcolor="#D4E4F3"&gt;

&lt;td&gt;VIL_CODE&lt;/td&gt;

&lt;td&gt;443&lt;/td&gt;

&lt;/tr&gt;

&lt;tr&gt;

&lt;td&gt;VIL_CCD&lt;/td&gt;

&lt;td&gt;1443&lt;/td&gt;

&lt;/tr&gt;

&lt;tr bgcolor="#D4E4F3"&gt;

&lt;td&gt;VIL_NM_E&lt;/td&gt;

&lt;td&gt;ANGOLEMI&lt;/td&gt;

&lt;/tr&gt;

&lt;tr&gt;

&lt;td&gt;VIL_NM_G&lt;/td&gt;

&lt;td&gt;ΑΓΓΟΛΕΜΙ&lt;/td&gt;

&lt;/tr&gt;

&lt;/table&gt;

&lt;/td&gt;

&lt;/tr&gt;

&lt;/table&gt;

&lt;/body&gt;&lt;script type="text/javascript"&gt;

				function changeImage(attElement, nameElement) {

				document.getElementById('imageAttachment').src = attElement;

				document.getElementById('imageName').innerHTML = nameElement;}

			&lt;/script&gt;&lt;/html&gt;

</description>
			<styleUrl>#PolyStyle70</styleUrl>
			<MultiGeometry>
				<Polygon>
					<extrude>0</extrude>
					<altitudeMode>clampToGround</altitudeMode>
					<outerBoundaryIs>
						<LinearRing>
							<coordinates> 32.94583977844071,35.09435357231937,0 32.94608713716016,35.09468910766601,0 32.94664621347943,35.09514237850277,0 32.9469043290121,35.09540074864986,0 32.94715241471067,35.09561053668271,0 32.94727259598763,35.09567166609471,0 32.94767301522144,35.0957876793418,0 32.94787157172925,35.09590452137881,0 32.94795901186705,35.09626642152241,0 32.94823437708725,35.09670588747184,0 32.94895560990047,35.0971735256852,0 32.94906482141357,35.09735467368991,0 32.94926340501916,35.09746720737948,0 32.94930462391851,35.09762231910784,0 32.94947720385074,35.09769172335901,0 32.94985403207512,35.09777896264795,0 32.95008932718799,35.09788299540607,0 32.95035554122914,35.09810336235293,0 32.95035802037387,35.09872331575915,0 32.9504868107757,35.0992144952931,0 32.95050159000157,35.09942549420141,0 32.95045929197914,35.09951146993357,0 32.95044309709981,35.09961905057484,0 32.95046873641255,35.09974397797726,0 32.95058334660482,35.09989069817536,0 32.95060282574981,35.10022225844789,0 32.95071162271116,35.10049811797673,0 32.95094614423721,35.10077865888997,0 32.95114473763157,35.10089119034451,0 32.95145878788168,35.10096101644552,0 32.95175033125258,35.1013794920637,0 32.95196082915265,35.10162270472492,0 32.95225091850627,35.10191914075343,0 32.95250183268367,35.1020490454615,0 32.95290824368533,35.10214119137839,0 32.95305628706733,35.10225735345824,0 32.95354781485099,35.10247838530048,0 32.95404671753476,35.10271263354965,0 32.95412256996972,35.10283742950696,0 32.95460505455176,35.10392377180232,0 32.95489798785972,35.10449375408171,0 32.95502081293544,35.10480019969642,0 32.95510761820172,35.1049024862861,0 32.9552246389622,35.10500210317569,0 32.95516698234749,35.10513980775158,0 32.9551594302261,35.10534612921582,0 32.95525470716003,35.10579635402862,0 32.9554433812059,35.10630702934451,0 32.95561395576741,35.10652539860902,0 32.95606867911958,35.10691279735524,0 32.95668569405012,35.10738700526004,0 32.9570674018241,35.10756895133279,0 32.95721411404798,35.10756938540292,0 32.95727705582588,35.10763607873348,0 32.95723369665129,35.10788372005864,0 32.95710240236012,35.10795221522518,0 32.95662570357989,35.10792497439323,0 32.95603853423569,35.10799642512125,0 32.9557252897749,35.10792102339441,0 32.95537027410446,35.10775452051745,0 32.9551546495719,35.10762355863415,0 32.95485565153942,35.10770016231506,0 32.95463571749496,35.10766937271183,0 32.95436389815426,35.10752218640025,0 32.95425471685824,35.10732812984628,0 32.95421942594372,35.10701374638725,0 32.95412544133664,35.10692908449385,0 32.9539980246709,35.10690388771464,0 32.95381367193835,35.106850946195,0 32.95357937444803,35.10670961444769,0 32.95298942459836,35.1067130197925,0 32.95289095126215,35.10680682937584,0 32.95284137870499,35.10701394106336,0 32.95255227303856,35.1075007069975,0 32.95237238643452,35.10795515447638,0 32.9522866612435,35.10836576433552,0 32.95231198276935,35.10871052644598,0 32.95228525821896,35.10887771428659,0 32.9522543570269,35.10921496260418,0 32.95214351327523,35.10948629969169,0 32.95221903782268,35.10983655133236,0 32.95214853562914,35.11029228261116,0 32.95205557909989,35.11059962900325,0 32.95205273704304,35.11086149782146,0 32.95206542715297,35.11108936161793,0 32.95227383311816,35.11078809480135,0 32.95240521056677,35.11059513082598,0 32.95298403593542,35.11038676378246,0 32.95310999380442,35.11052208108463,0 32.953128804367,35.1105568485892,0 32.95334626766469,35.11063171537899,0 32.95344172348683,35.11052539273632,0 32.95392332842808,35.11049678296971,0 32.9538766796163,35.11078766423252,0 32.95368321766897,35.11110132220637,0 32.95346887605769,35.11135033613985,0 32.95316899530438,35.11159918145485,0 32.95283124402347,35.11186294496736,0 32.95252144874589,35.112065458571,0 32.95227352800244,35.11220309324334,0 32.95209262164276,35.11229158553311,0 32.9525132021011,35.11304213706106,0 32.95278052873507,35.11291193620596,0 32.95300494597377,35.11286326338766,0 32.9532030295717,35.11277243991989,0 32.95324050910928,35.11281719772887,0 32.95263400435544,35.11324333331046,0 32.95288012723041,35.11347576974043,0 32.95347480015009,35.11378498962887,0 32.95391900029338,35.11348287472895,0 32.95419053803093,35.11331060442107,0 32.95437190900843,35.11321316538947,0 32.95451901700326,35.11322432065149,0 32.95528951514694,35.1139176445631,0 32.95522368105842,35.11396248258522,0 32.95611083006663,35.11481809187936,0 32.9563919156606,35.11462601343368,0 32.95769907184597,35.11571970408851,0 32.95802902613735,35.11546790513262,0 32.95855455692531,35.1158494151631,0 32.95889764647477,35.1157518686461,0 32.95934004030906,35.11596873231613,0 32.9593919791074,35.11608668038765,0 32.95908129818143,35.11618500634366,0 32.95887447632992,35.11635159275413,0 32.95892957795064,35.11640083026108,0 32.9589377861745,35.11652514117316,0 32.95989876528398,35.11730299352993,0 32.96007454973255,35.11725543725478,0 32.96018411804474,35.1171515388611,0 32.96034807086519,35.11689679269101,0 32.96048083538485,35.11676569884026,0 32.96067152870761,35.11656891712747,0 32.96094973470319,35.11636444545606,0 32.9612470770797,35.11618329154161,0 32.96146182644356,35.1160398067538,0 32.96167168315187,35.11586634632541,0 32.96187427302882,35.11575945062386,0 32.96203647227554,35.11557596348757,0 32.96211930335976,35.11552909350706,0 32.96230244447894,35.11552764615023,0 32.96257040612247,35.11574612930339,0 32.9634893225306,35.11491099646722,0 32.96354921449419,35.11499711094935,0 32.96358889409998,35.11522087017421,0 32.96353133335082,35.11538777342,0 32.96345460998071,35.11553134144516,0 32.96343254763586,35.11574485466355,0 32.96341832528859,35.11598381345566,0 32.96346745356121,35.11616636303867,0 32.96349018297425,35.11627486277531,0 32.96362935250512,35.11634626388982,0 32.96383827156388,35.11644648213807,0 32.96371999821729,35.11667677253362,0 32.96359591998439,35.11691386400707,0 32.96354983830256,35.11707180072536,0 32.96358532231621,35.11735307581532,0 32.96355741569659,35.11745841166777,0 32.96349001529981,35.11756537258329,0 32.96343101929958,35.11767478242341,0 32.96352043424999,35.11770623884651,0 32.96363526019589,35.11773584502318,0 32.96391890451297,35.11824464166271,0 32.96450276864873,35.11799247954893,0 32.96500057380889,35.11862471490734,0 32.96475079892785,35.11869631636205,0 32.96446919213154,35.11891923222652,0 32.96441785973,35.11906101981987,0 32.96437956718511,35.11912938955394,0 32.96431117273688,35.11916041760863,0 32.96423178403514,35.11917973846993,0 32.96415282258157,35.11929803515024,0 32.96405237965445,35.11937222301159,0 32.96399514558386,35.11940804248717,0 32.9638335780312,35.11967909169402,0 32.96363942227138,35.11989892900282,0 32.96358361786676,35.1199923181686,0 32.96407672651855,35.12035080107714,0 32.96374127838721,35.12058429078481,0 32.96383602127473,35.12062968976223,0 32.96364721415086,35.1208611487203,0 32.96348055262289,35.12094891938612,0 32.96326438142422,35.12079054032323,0 32.96327736840673,35.12101897777336,0 32.96330825497632,35.12123960090259,0 32.96332429889379,35.12150921295598,0 32.96325005454612,35.12178184441696,0 32.9631850786562,35.12178760003045,0 32.96286593927795,35.12216181219613,0 32.96251317676395,35.12264363601535,0 32.96227713815537,35.12296177211866,0 32.96224092806317,35.12306012717232,0 32.96219813131717,35.12319751029528,0 32.96214495291244,35.12329786926474,0 32.96209057872689,35.12333144059432,0 32.96205216613774,35.12341120963337,0 32.96178934976334,35.1240117425562,0 32.96156152393041,35.12431416010123,0 32.96123126245843,35.124358393434,0 32.96100406723455,35.12451458708347,0 32.96061996663456,35.1250345499664,0 32.96063258870299,35.1251090303104,0 32.96089090258448,35.12524005716988,0 32.96138865587746,35.12537710118474,0 32.96177994512404,35.12543939090706,0 32.96247155456577,35.12564877726401,0 32.96284632370708,35.12579077184835,0 32.96326534393075,35.12617748965961,0 32.96392813601476,35.12631765956527,0 32.96433490460193,35.12654482058401,0 32.96485198103055,35.12667640070788,0 32.96464309020238,35.12697557621791,0 32.96422001852603,35.12733873792622,0 32.96378175587032,35.12757522400042,0 32.96336496419831,35.12793840259079,0 32.96288938307354,35.12807398844156,0 32.96170364396631,35.12875796013433,0 32.9604831029287,35.12948575331873,0 32.96170021234413,35.13028010480904,0 32.96164545193561,35.13057714036999,0 32.96132111789667,35.13065113847603,0 32.96120727659264,35.13078777364639,0 32.96113069674477,35.13103822799022,0 32.96102285518081,35.13124207211284,0 32.96039437275559,35.13181136464129,0 32.96008768052173,35.13216710036186,0 32.96007706382033,35.13243842165574,0 32.96015331933035,35.13298910080361,0 32.9599561321081,35.13348212408138,0 32.95985181246187,35.1335981116023,0 32.95956046970073,35.13373871190829,0 32.95939154262192,35.13382159577543,0 32.95828722843687,35.13384418946323,0 32.95805664472709,35.13405800768616,0 32.95752947142418,35.13375150760086,0 32.95759291838753,35.13363023184549,0 32.95626891910604,35.13281743122169,0 32.95602374919569,35.13277018803587,0 32.95601003050393,35.13302857711599,0 32.95585190958356,35.13321676157641,0 32.95566240489447,35.13338676466316,0 32.95552572608887,35.13370681179532,0 32.95542086513139,35.13394425642155,0 32.9552347925925,35.13404965977601,0 32.95469648745273,35.1341307577152,0 32.95405662820029,35.13441054100169,0 32.95333650528715,35.13505446780461,0 32.95335426092508,35.13530778195477,0 32.95366489409594,35.13549219485002,0 32.95361697682291,35.13565744692681,0 32.9528704298241,35.13587229876293,0 32.95266751933165,35.13622574005178,0 32.95257908856646,35.13630300479038,0 32.95225176091103,35.1363356207903,0 32.95180135915113,35.13645314919197,0 32.95133413525767,35.13681613236194,0 32.95078236825967,35.1370884095214,0 32.9503207932456,35.13759354389391,0 32.94986083589086,35.13787968291427,0 32.94982895945134,35.13789951420456,0 32.94971731933325,35.13805106482173,0 32.94942073617362,35.13860188515643,0 32.94912142387927,35.13878127871786,0 32.94877414452312,35.13888840798329,0 32.94816245932643,35.13896207496921,0 32.94808839385222,35.13909547767145,0 32.94695628405233,35.13920797067068,0 32.94691125241868,35.13921268243653,0 32.94511343251403,35.13909602359179,0 32.9449232586249,35.13908368177202,0 32.94485205594079,35.1389457953821,0 32.94408179718427,35.13834218730199,0 32.94348660034833,35.13786029735977,0 32.94305910769197,35.13751418215287,0 32.94388302002212,35.13695134638294,0 32.94336164956744,35.1359496949896,0 32.94307831835264,35.13614616915526,0 32.94230957086948,35.13600246558185,0 32.94200191893064,35.13583617577856,0 32.94214762058713,35.13556527686617,0 32.94315185008987,35.13425496184883,0 32.94348173166336,35.1338146170188,0 32.94302189444996,35.13356385894367,0 32.94281429220153,35.13352855306179,0 32.94262318171045,35.13343596023845,0 32.94244705485258,35.13326074215426,0 32.94220771856755,35.13306532918347,0 32.94213310940575,35.1326970800888,0 32.94184963096346,35.13257220032688,0 32.94164585922796,35.13240889792397,0 32.94139385988763,35.13214410665003,0 32.94127104000015,35.13202638727944,0 32.94119915920891,35.13177281873578,0 32.94108844581946,35.13149246124452,0 32.94114469925186,35.13125929063855,0 32.9413524888657,35.13089724515298,0 32.94134159030063,35.13079587199655,0 32.94126092375544,35.13068895112676,0 32.94109058548212,35.1306697576867,0 32.94087081102216,35.13045840108212,0 32.94073524830883,35.1302886402137,0 32.94069047374218,35.13014182664111,0 32.94042076378724,35.12984764407103,0 32.94027658905751,35.12943250961329,0 32.94043593856828,35.12901564687864,0 32.94042346052549,35.12890493514,0 32.94036154451477,35.12895674650334,0 32.94031714354382,35.1290832824227,0 32.93987944166425,35.12932194117283,0 32.93958311474744,35.12952370122484,0 32.93936032618232,35.12961634850388,0 32.93867655903216,35.12900885977156,0 32.93853134872086,35.128820399007,0 32.93771303893664,35.1288818556969,0 32.9374855593716,35.12893581678131,0 32.93544567174165,35.12816940091965,0 32.93526987679662,35.12827818922027,0 32.93512137503787,35.12845106581269,0 32.93430020904498,35.12877783930136,0 32.93407379165236,35.12895180359865,0 32.93394522202945,35.1290260691565,0 32.9336873512126,35.12898392269138,0 32.93314487481977,35.12871553310238,0 32.93238790016508,35.12850246634884,0 32.93329089451836,35.12698923362715,0 32.9338779184516,35.12640304995905,0 32.93408195551086,35.12615434516706,0 32.93446956185009,35.12586888169664,0 32.93543928476017,35.12499987670452,0 32.93574538189797,35.1247901570418,0 32.9352719085314,35.12434598355726,0 32.93515154459612,35.12440294237047,0 32.93474861876628,35.12414566490288,0 32.93442946821597,35.12402198876008,0 32.9337889620712,35.12389996831175,0 32.93296386625634,35.12368669019963,0 32.93285857434451,35.12353224301741,0 32.93280242728883,35.12332245572335,0 32.93274663381037,35.12311398645302,0 32.9326096333586,35.12285617574041,0 32.93339433728426,35.12252557585455,0 32.93342423638314,35.12204119457689,0 32.93381878803022,35.12140277719585,0 32.93370245318871,35.12066434449758,0 32.93353366868811,35.12030802658433,0 32.93330205148614,35.11959572507428,0 32.93348194161564,35.11954708649239,0 32.93356046478655,35.11950191573354,0 32.93406829591737,35.11926506089111,0 32.93465399568375,35.11912307245713,0 32.93469213552662,35.11884688923092,0 32.93457262640391,35.11878974117918,0 32.93456860129039,35.11866482428961,0 32.93475846978797,35.11844967709297,0 32.93476784614491,35.1184156421856,0 32.93473594898053,35.11833984255644,0 32.93463023010613,35.11829030627828,0 32.93453393088751,35.11819537456723,0 32.93419804636579,35.11811105325341,0 32.93406467253259,35.11806521527442,0 32.93375346054704,35.1176289649171,0 32.93374938366379,35.11751540211349,0 32.93379655681507,35.11727709949541,0 32.93376463708741,35.11720508190277,0 32.93356227462098,35.11713631703427,0 32.93351183169742,35.11708695067697,0 32.93350761867004,35.11700367156508,0 32.9336053054085,35.11679959260765,0 32.93361052400805,35.11666713590338,0 32.93356988607197,35.11649289533074,0 32.9334783017864,35.11637527142763,0 32.93327658257429,35.1161702510141,0 32.93317628080511,35.11594662430826,0 32.93306284710352,35.11557533649713,0 32.93297129180507,35.11545392898967,0 32.93279215854616,35.11534360260192,0 32.93272800988754,35.11527148661501,0 32.93274255341367,35.11511634568167,0 32.93277986167954,35.11501805401866,0 32.93279452773853,35.11483642518601,0 32.93274490553138,35.11461295506501,0 32.93269538454633,35.11436677482803,0 32.93251731560451,35.11402935256881,0 32.93228933970437,35.11352901811175,0 32.93217939524564,35.11339998096844,0 32.93201861980683,35.11330484794071,0 32.93198672827076,35.11322904752983,0 32.93198722442146,35.11312306801807,0 32.93212596106018,35.11300617688721,0 32.93214023884558,35.1129078120944,0 32.9321405760079,35.1128358995144,0 32.93207185404111,35.11275619702047,0 32.93143705515795,35.1125725124543,0 32.93144228247246,35.11244005305339,0 32.93159099251536,35.11216043731438,0 32.93158200657959,35.11211120347684,0 32.93152239693094,35.11205424209862,0 32.93153786369622,35.11170228943552,0 32.93145185596826,35.11138028919348,0 32.93119398709915,35.11136433504987,0 32.93113935078959,35.11122789977041,0 32.93158626412074,35.11120282226197,0 32.9317884383038,35.11130944244279,0 32.93188970024494,35.11132490089387,0 32.93186166026373,35.11042777805462,0 32.93160362982758,35.11044588812558,0 32.9312723851595,35.1103615684464,0 32.93117539265666,35.11041803731965,0 32.93099120529548,35.11040609887749,0 32.93038503721141,35.11001432249316,0 32.93029425265723,35.10973016436159,0 32.93023487186269,35.10962399530905,0 32.92993415168254,35.10892660617883,0 32.92994747724,35.10880878405901,0 32.92996378153464,35.10866463252114,0 32.92991820382153,35.10848004304647,0 32.9300348075186,35.10837547182924,0 32.92996678879852,35.10802544773973,0 32.92993232998113,35.10794583677681,0 32.92963575115444,35.10763960955853,0 32.92893021243782,35.1070585905148,0 32.92862502917534,35.1069367755991,0 32.92823977378843,35.10656029973034,0 32.92825980256571,35.10641726111376,0 32.92879233872915,35.10674968499208,0 32.9299584989418,35.10731944822609,0 32.93007070814065,35.10732616542489,0 32.92997096250722,35.10713822386963,0 32.92959741656573,35.10673952936762,0 32.92928943889489,35.10638874143612,0 32.92922145572321,35.10603235917816,0 32.9291140754447,35.10582213222042,0 32.92904592826844,35.10550072993365,0 32.92895411025349,35.10527465067593,0 32.9286120143457,35.10477429125233,0 32.92846202391888,35.10457346915133,0 32.92778795219818,35.10389396352496,0 32.92681380708305,35.10283506530942,0 32.92610127345246,35.10211090607876,0 32.9260173986946,35.1018435112688,0 32.92606030348617,35.10177368697853,0 32.92562365576451,35.10163236232985,0 32.92544604244693,35.10154592945324,0 32.92524162638515,35.10139898959142,0 32.92486387884654,35.10107976774731,0 32.92450580493212,35.10069382627681,0 32.92395977421216,35.09995746793166,0 32.92369079317405,35.09955591327708,0 32.92352907712206,35.09938366764855,0 32.92376493000987,35.09942894992934,0 32.92447818256143,35.09918320511076,0 32.92508709128912,35.09890532028039,0 32.92565356801289,35.09859867652565,0 32.92589050885711,35.09841499370743,0 32.92618510393142,35.09831417639041,0 32.92647462093708,35.09846774849001,0 32.92674506093618,35.0985640172566,0 32.92679904137106,35.09860553018765,0 32.92687125880745,35.09888242837796,0 32.92695132121536,35.09913708977463,0 32.92701924523217,35.09950301512281,0 32.92731146315817,35.09990463853843,0 32.92749244682226,35.10009602132359,0 32.92771229961435,35.10025254684381,0 32.92800220005887,35.10032661447264,0 32.92819115266793,35.10047032160431,0 32.9285658816473,35.1006114401135,0 32.92911857131836,35.10076584389875,0 32.92925756142196,35.1008362478985,0 32.92960479929742,35.10106313730384,0 32.92997209205208,35.10114062632739,0 32.93025741014152,35.10136731762099,0 32.93061272145723,35.10152426815547,0 32.93094076407936,35.10171929311105,0 32.9314072958896,35.10209283835231,0 32.93148398257054,35.10224572343635,0 32.93160718383265,35.10238285639193,0 32.93174229331524,35.10245642560601,0 32.9318267950268,35.10259343558091,0 32.93201977963794,35.10270534794902,0 32.93234720556038,35.10303392920758,0 32.93256827703423,35.10293286521371,0 32.93312729065059,35.10339573827483,0 32.93351373976382,35.10351779745026,0 32.93362437318515,35.10386159276321,0 32.9338946312654,35.10400236526748,0 32.93412586311567,35.10421297812692,0 32.93482753167099,35.10396395459765,0 32.93480133926506,35.10376988986486,0 32.93503072585947,35.10354482396565,0 32.93476163603746,35.10315283095623,0 32.93516154165874,35.10287741969088,0 32.93524743434546,35.10271550520044,0 32.93553519150383,35.10242066047055,0 32.93461537302503,35.10131429497081,0 32.9344121389266,35.10090978527354,0 32.93424249430555,35.10077250916253,0 32.93399595434398,35.10052687089212,0 32.93364597974478,35.10005511921109,0 32.93278784806824,35.0990093535577,0 32.93266527301854,35.09873866239676,0 32.93278142935516,35.09872630718253,0 32.93278322696981,35.09834152735014,0 32.932653314703,35.09798494993344,0 32.93250777665111,35.09766012315432,0 32.93237331376139,35.09744981520721,0 32.93243927738738,35.09741186101672,0 32.93241845188496,35.09689980244819,0 32.93275147827995,35.09685315378743,0 32.93280218803093,35.09676745207877,0 32.93304558566671,35.09685408186084,0 32.93327329651736,35.09698518096253,0 32.93343099447805,35.09719238269943,0 32.93357823915564,35.09715150413393,0 32.93312434724077,35.09656176359982,0 32.93317910174441,35.09643791163462,0 32.93270433602945,35.09617565050975,0 32.93340221491171,35.0958948254796,0 32.93321504243151,35.0956733741098,0 32.93347345812752,35.09574297640463,0 32.93373198992067,35.09578756578765,0 32.93391846112522,35.09578189851651,0 32.93411269873249,35.09574186157498,0 32.93416625894036,35.09567949482029,0 32.9345990881765,35.09607508275028,0 32.93511583949789,35.09646467097637,0 32.93542027172916,35.09674229128366,0 32.93600505189108,35.09748507754266,0 32.93645911828425,35.09804300815327,0 32.93665159810266,35.0982630347795,0 32.93730289476584,35.09885337891573,0 32.93749926168569,35.09907023590926,0 32.93778024272089,35.09940183814071,0 32.93820400377265,35.09982292552407,0 32.93846265994986,35.09996047299235,0 32.93882412959823,35.1004640454832,0 32.93927440534279,35.10101241291311,0 32.93958843011693,35.10089254397379,0 32.93946942328287,35.10068229135874,0 32.93985373511706,35.10042589634643,0 32.94028075554471,35.10098372956673,0 32.9403865389248,35.10154692846007,0 32.94058689402993,35.10174153185311,0 32.94068227832027,35.10204075203095,0 32.94067660490791,35.10243506320879,0 32.94094697313692,35.10255356150192,0 32.94101673373115,35.10253151626191,0 32.94116682628411,35.10271642294661,0 32.94128669780135,35.10273905152984,0 32.94144545729392,35.10272046186174,0 32.94162407786794,35.10259063010859,0 32.941637671563,35.10300408035101,0 32.9421483679391,35.10304063312596,0 32.94233503013726,35.10284404284978,0 32.94265768079998,35.10253020864217,0 32.94297634396592,35.10224180233728,0 32.94333743082614,35.10198532232142,0 32.94345409480675,35.10186165879756,0 32.9434854876405,35.10176635264439,0 32.94347058599547,35.10163910407527,0 32.94336304756996,35.10145751115363,0 32.94325485983801,35.10141901711052,0 32.94302629695119,35.10146919612738,0 32.94294515734511,35.10144032808365,0 32.94282988106619,35.10125871030956,0 32.942652784661,35.10105464145078,0 32.94264555112717,35.10094331624556,0 32.94270820928292,35.10078132682313,0 32.94285610737268,35.10059733802559,0 32.942976844006,35.10042916417922,0 32.94309425958061,35.10014013981687,0 32.94354232202822,35.09947687865677,0 32.94362861342729,35.09922273834263,0 32.94373760520121,35.09908314835807,0 32.94376472594443,35.09907687178133,0 32.94384972098444,35.0991089338779,0 32.94392200103213,35.09853038085598,0 32.94391875163111,35.09839362775317,0 32.94389592246586,35.09830769628218,0 32.94390774790247,35.09826003321758,0 32.94402040697174,35.09816497627165,0 32.94410593335616,35.09807937606035,0 32.94410615017614,35.09803167426983,0 32.94402880859766,35.09801871863214,0 32.94376557275526,35.09803699196248,0 32.94367283988703,35.09800490637598,0 32.94359204780168,35.09789971714758,0 32.94345693516506,35.0978261619812,0 32.94337595591445,35.09776231223602,0 32.94335311323064,35.09767955903141,0 32.9433961129712,35.09758428890539,0 32.94349750881663,35.09741287656014,0 32.94351020081605,35.09717441175357,0 32.94368581577335,35.09685058224442,0 32.94360580441461,35.09657367139109,0 32.94366811198168,35.09648800117003,0 32.94378046530513,35.09645972279417,0 32.9439197915943,35.09645697040215,0 32.94395105254139,35.09639028386129,0 32.94393620700876,35.09625031451416,0 32.94387450911082,35.09620242541495,0 32.94367724966203,35.09617956062631,0 32.9435631623836,35.095737182112,0 32.94355586995088,35.09563857668363,0 32.943657176439,35.09548624342882,0 32.94373077224664,35.09547057047373,0 32.94379244430613,35.0955248200145,0 32.94385776776712,35.09562678213819,0 32.94391949699526,35.09566831269282,0 32.9439582510094,35.09565570991958,0 32.94395840984755,35.09562072973448,0 32.94382361843016,35.0954772127779,0 32.94379319391413,35.09535945872504,0 32.94384772986681,35.09528012263072,0 32.94399124334475,35.09520742148823,0 32.94416932235593,35.09519206601004,0 32.9446062565518,35.09526972400389,0 32.94467634232714,35.09517453606692,0 32.94470396458624,35.09505695744237,0 32.94469285614991,35.09494562056503,0 32.94476674203327,35.09486634515859,0 32.94490654087515,35.09475864925271,0 32.94495734803238,35.09464750276717,0 32.94487132023885,35.09435061909163,0 32.9448026678336,35.09411369719191,0 32.9448300816603,35.09361439215543,0 32.94479878992791,35.09337790006691,0 32.94474568366402,35.09319453367479,0 32.94477479678847,35.09312074817174,0 32.94495497814887,35.09302674140974,0 32.9449653249505,35.0931242863179,0 32.94505115239478,35.09322797253498,0 32.94514402241125,35.09347377700448,0 32.94515062839967,35.09349126291738,0 32.9454618365511,35.09384089681985,0 32.94583977844071,35.09435357231937,0</coordinates>
						</LinearRing>
					</outerBoundaryIs>
				</Polygon>
			</MultiGeometry>
		</Placemark>
	</Document>
</kml>