<?xml version='1.0' encoding='UTF-8'?>
<kml xmlns="http://www.opengis.net/kml/2.2">
	<Document>
		<name>ANOGYRA</name>
		<Style id="PolyStyle70">
			<LabelStyle>
				<color>00000000</color>
				<scale>0.000000</scale>
			</LabelStyle>
			<LineStyle>
				<color>ff0055ff</color>
				<width>2.000000</width>
			</LineStyle>
			<PolyStyle>
				<color>00828282</color>
				<outline>1</outline>
			</PolyStyle>
		</Style>
		<Placemark id="ID_70508">
			<name>ANOGYRA</name>
			<snippet />
			<description>&lt;html xmlns:fo="http://www.w3.org/1999/XSL/Format" xmlns:msxsl="urn:schemas-microsoft-com:xslt"&gt;

&lt;head&gt;

&lt;META http-equiv="Content-Type" content="text/html"&gt;

&lt;meta http-equiv="content-type" content="text/html; charset=UTF-8"&gt;

&lt;/head&gt;

&lt;body style="margin:0px 0px 0px 0px;overflow:auto;background:#FFFFFF;"&gt;

&lt;table style="font-family:Arial,Verdana,Times;font-size:12px;text-align:left;width:100%;border-collapse:collapse;padding:3px 3px 3px 3px"&gt;

&lt;tr style="text-align:center;font-weight:bold;background:#9CBCE2"&gt;

&lt;td&gt;5&lt;/td&gt;

&lt;/tr&gt;

&lt;tr&gt;

&lt;td&gt;

&lt;table style="font-family:Arial,Verdana,Times;font-size:12px;text-align:left;width:100%;border-spacing:0px; padding:3px 3px 3px 3px"&gt;

&lt;tr&gt;

&lt;td&gt;DIST_CODE&lt;/td&gt;

&lt;td&gt;5&lt;/td&gt;

&lt;/tr&gt;

&lt;tr bgcolor="#D4E4F3"&gt;

&lt;td&gt;VIL_CODE&lt;/td&gt;

&lt;td&gt;226&lt;/td&gt;

&lt;/tr&gt;

&lt;tr&gt;

&lt;td&gt;VIL_CCD&lt;/td&gt;

&lt;td&gt;5226&lt;/td&gt;

&lt;/tr&gt;

&lt;tr bgcolor="#D4E4F3"&gt;

&lt;td&gt;VIL_NM_E&lt;/td&gt;

&lt;td&gt;ANOGYRA&lt;/td&gt;

&lt;/tr&gt;

&lt;tr&gt;

&lt;td&gt;VIL_NM_G&lt;/td&gt;

&lt;td&gt;ΑΝΩΓΥΡΑ&lt;/td&gt;

&lt;/tr&gt;

&lt;/table&gt;

&lt;/td&gt;

&lt;/tr&gt;

&lt;/table&gt;

&lt;/body&gt;&lt;script type="text/javascript"&gt;

				function changeImage(attElement, nameElement) {

				document.getElementById('imageAttachment').src = attElement;

				document.getElementById('imageName').innerHTML = nameElement;}

			&lt;/script&gt;&lt;/html&gt;

</description>
			<styleUrl>#PolyStyle70</styleUrl>
			<MultiGeometry>
				<Polygon>
					<extrude>0</extrude>
					<altitudeMode>clampToGround</altitudeMode>
					<outerBoundaryIs>
						<LinearRing>
							<coordinates> 32.7511271479046,34.77113394955178,0 32.75098551747246,34.77118879769809,0 32.75034015641945,34.77211826754497,0 32.75010412763991,34.77220598204262,0 32.75002945905092,34.77230553912026,0 32.74997371404649,34.77258835201084,0 32.74961056033123,34.7725755612846,0 32.74942943226259,34.7725025698183,0 32.74921144203664,34.77191876442075,0 32.74932092444358,34.77164730640698,0 32.74919683445809,34.77110279229042,0 32.74887589915618,34.77081823064712,0 32.74815196075991,34.77044853342995,0 32.74793108878593,34.77028654479052,0 32.74781134823837,34.77009172498945,0 32.74784033884691,34.76978658432448,0 32.74857949561105,34.76891307006833,0 32.74866868010948,34.76865816645254,0 32.74824709220214,34.768339833013,0 32.74742136669312,34.76810287078513,0 32.74734514702097,34.76811759032932,0 32.74725298951424,34.76813538587505,0 32.74709042049054,34.76830113947769,0 32.74697983776709,34.76873355611341,0 32.74664941055877,34.76885412067125,0 32.74638732238549,34.76881959361095,0 32.74595825585948,34.76861222436305,0 32.74574435108437,34.76841696258472,0 32.74567109174258,34.76831116124821,0 32.74584719088987,34.7681343741807,0 32.74628595052558,34.7679088570966,0 32.74639486021039,34.7677206528352,0 32.74620300443894,34.76725352152407,0 32.7459156109632,34.7669857610689,0 32.74530529430519,34.76672758796778,0 32.74487494294711,34.76670892461988,0 32.74451166333136,34.7667183223183,0 32.7440318988099,34.76703799715131,0 32.74385060264247,34.76699274482827,0 32.74371072831945,34.76679227058288,0 32.74370526566534,34.76660908070699,0 32.74417206992806,34.76621719642936,0 32.74419358811218,34.7660230347861,0 32.74406051712315,34.76581149356216,0 32.7431421692665,34.76535760296952,0 32.74300887646474,34.76517936274054,0 32.74300994907593,34.76502396055724,0 32.74353766587141,34.76457685751289,0 32.74359922969302,34.76442728624086,0 32.74327799903371,34.76419266340925,0 32.74275476441725,34.76399039019743,0 32.7425527975616,34.76401719102532,0 32.74183783130775,34.76430799901112,0 32.74164973412256,34.76427380973127,0 32.7415234817077,34.76405119941799,0 32.74146555954799,34.76367350177598,0 32.74162312824386,34.76325796031368,0 32.74232713367716,34.76260633355434,0 32.74252554760409,34.76211883076679,0 32.74247224061415,34.76204642273196,0 32.74198806668236,34.76203304503979,0 32.74173945170497,34.761998571695,0 32.74154563906774,34.76182004545514,0 32.74149378794681,34.76153673444965,0 32.74159017675033,34.76121526377138,0 32.74194262964285,34.76082284833704,0 32.74178920671332,34.76063896322611,0 32.74065086973469,34.75994149820313,0 32.74060376055518,34.75991263405698,0 32.74050700994705,34.75979987336431,0 32.74031088021916,34.75943102203186,0 32.74050177613366,34.759155976915,0 32.74071762328053,34.75877707234901,0 32.74054904855263,34.7586283112314,0 32.73992815286767,34.75871735904263,0 32.73943931040965,34.75863106737619,0 32.73926517291016,34.75858625352594,0 32.73895841415915,34.75879675622949,0 32.73873094263074,34.75875569092968,0 32.73851897720198,34.75857472387582,0 32.73835705957427,34.75816604145734,0 32.73826735436667,34.75782568339429,0 32.73814879962264,34.75745319645255,0 32.73807324295475,34.75716889622523,0 32.73789570542946,34.75691610789625,0 32.73775010783456,34.75678695763939,0 32.73737045560712,34.75658723388897,0 32.73713071136235,34.7564422142156,0 32.73664713266761,34.75614359080809,0 32.73644262430903,34.75600558992693,0 32.73622195654134,34.75580413501974,0 32.73600547632798,34.75559756037541,0 32.7356457376572,34.75539886871205,0 32.73509337223637,34.75514444705535,0 32.73467529868081,34.75497801960734,0 32.73446009652437,34.75488621179476,0 32.73439199308698,34.75483107414721,0 32.73434904619045,34.75474008705055,0 32.7343600701404,34.75464764463197,0 32.73452505432391,34.75450112395381,0 32.73459404479438,34.75442951172254,0 32.73462962516913,34.75438686000719,0 32.73463059545618,34.75424812184611,0 32.73447820698227,34.75407782007417,0 32.73417933342112,34.75378349362611,0 32.7339169423255,34.7536143788882,0 32.73349489508672,34.75342394900107,0 32.73320841748637,34.75343457014971,0 32.73268707704155,34.75349374183543,0 32.73243796551844,34.75350282776893,0 32.73221441954952,34.75341782711764,0 32.73211124406326,34.75333340191399,0 32.73205594389709,34.75322865215529,0 32.73187945408203,34.75294518233659,0 32.73173766602356,34.75274409752466,0 32.73157061501094,34.75259427705145,0 32.73130948749499,34.75254163908763,0 32.73121806516427,34.75255661704676,0 32.73090138991743,34.75272981137056,0 32.73063652196321,34.7529135304434,0 32.7304471256967,34.75298970041178,0 32.73025661936174,34.75292883560585,0 32.73014508411346,34.75285293336629,0 32.73000298619959,34.75269637894243,0 32.72987269271976,34.75233776184746,0 32.72980297919431,34.75221752623496,0 32.72960844508705,34.75213951109063,0 32.72918245217574,34.75221625513245,0 32.72894766583085,34.75225452085319,0 32.72873592686256,34.75226206608063,0 32.72865316855761,34.75222569795304,0 32.72848011543081,34.75204501276547,0 32.7281669989641,34.7517146318034,0 32.72796886167698,34.75155951752966,0 32.72784042612662,34.75152635426773,0 32.72770548418015,34.75153255485903,0 32.72761788490939,34.75159379625461,0 32.72747160825283,34.75173525894399,0 32.72724664019557,34.75214526272249,0 32.72696242321901,34.75213018801501,0 32.72676822126582,34.75200592322025,0 32.72647338755944,34.75173215104233,0 32.72635041398565,34.75151402222424,0 32.7261447214494,34.75125438339851,0 32.72609519493316,34.75121474744189,0 32.72590480472187,34.75113846019837,0 32.7257738813371,34.7511635199569,0 32.72558277950257,34.75147947716808,0 32.72546189111724,34.75155254488673,0 32.72538922054346,34.75155733186336,0 32.72526073605338,34.75153101687871,0 32.72498527027032,34.75145260350597,0 32.72479062237095,34.75139170817875,0 32.72427892312655,34.7515553757029,0 32.72405670864739,34.75157656514929,0 32.72386455182563,34.75145744409858,0 32.72386795719402,34.75127075738687,0 32.72387089798369,34.75114915782711,0 32.72398110641042,34.75082767251102,0 32.72410431361588,34.75042917042123,0 32.72387896568465,34.750308175763,0 32.72373349172011,34.75033658803309,0 32.72356489622606,34.75040599749552,0 32.72339183248239,34.75051991975234,0 32.72308249547665,34.75082673316199,0 32.72277540207637,34.75110957741083,0 32.72256698286376,34.75123360269591,0 32.72229343932436,34.75117746002167,0 32.72212036541257,34.75100190408674,0 32.7220311101078,34.75071370604149,0 32.72193532385674,34.75046829980096,0 32.72184518993508,34.7503034249178,0 32.72167200809665,34.75014328307073,0 32.72127204953735,34.75006254211577,0 32.72088178301602,34.75007776640115,0 32.72018428118583,34.75010519372468,0 32.71995825135421,34.75008010934994,0 32.7198182053826,34.74993040426332,0 32.71979211337449,34.74951747400436,0 32.71971324417213,34.74922932515469,0 32.71955411607355,34.74913605239151,0 32.71948379175368,34.74910316376903,0 32.71907177896128,34.74908552799127,0 32.71907037574114,34.74908546796227,0 32.71906680215093,34.74906709694826,0 32.71859893220436,34.74906752580461,0 32.71835820275859,34.74909626050989,0 32.71773785664015,34.74922375220966,0 32.71698716111314,34.74937915633789,0 32.71671837495141,34.74941454839542,0 32.7165340680499,34.74938644827906,0 32.71647171249861,34.74935214765281,0 32.71600400168209,34.74910237801942,0 32.71579221780733,34.74900071745609,0 32.71564263282905,34.74895511040698,0 32.71543681144611,34.74894050014792,0 32.71519839001781,34.74899217168401,0 32.71519756154751,34.74899235094029,0 32.71511822268996,34.74902867275674,0 32.71500189516783,34.7491681505335,0 32.71473411213444,34.74952035914222,0 32.71452994043185,34.74973282930939,0 32.71444539245353,34.74980583695736,0 32.71433820043507,34.74986360721893,0 32.71433789077661,34.74986377416435,0 32.7142751826318,34.74987842183713,0 32.71384359978295,34.74987221247483,0 32.71373893584254,34.7497656382441,0 32.71368488921964,34.74972186063461,0 32.7136508262553,34.74964826728357,0 32.7136804978099,34.74941862037603,0 32.7137627356508,34.7492096295986,0 32.71389273742856,34.74900223388268,0 32.71392622687029,34.74892761386075,0 32.71396009892759,34.7487999671629,0 32.7139558071478,34.74871020398048,0 32.71390895046991,34.74858351791651,0 32.71384551184616,34.74847170845209,0 32.71378848496065,34.74838440402471,0 32.71373760437377,34.7483583178407,0 32.71353175545558,34.74834778341341,0 32.71329821025221,34.74839271977428,0 32.71329749551288,34.74839285691672,0 32.7127967038681,34.74861745425437,0 32.71226418333681,34.74890036220691,0 32.71158264407455,34.74922373855647,0 32.71158214850917,34.7492239735657,0 32.71144079922917,34.74925373851973,0 32.71140798273159,34.7492613772667,0 32.7112335261377,34.74922445274618,0 32.71113564129089,34.74916987601627,0 32.71100571676438,34.74901597500037,0 32.71094124798667,34.74887141240847,0 32.71082375462571,34.74851022532688,0 32.7107158701555,34.74832938837073,0 32.71050944334036,34.7481841213571,0 32.71005265205865,34.74792943015445,0 32.70987839501421,34.74786545852335,0 32.70956205120626,34.74781881020684,0 32.70923412988182,34.74786225522866,0 32.70879641626065,34.74798628805817,0 32.70840337054523,34.7479753152414,0 32.70802183748745,34.74788326337924,0 32.70769483810903,34.74780049736731,0 32.70754242341405,34.74773663071147,0 32.70749933803417,34.74765528032815,0 32.70741389617783,34.74739341510122,0 32.70724142614259,34.74708604129279,0 32.70705836798615,34.74673353803581,0 32.70694056385691,34.7464174212656,0 32.7069090610278,34.74624597581189,0 32.70698714925125,34.74602098762193,0 32.70698840497984,34.7458497066263,0 32.70697821097095,34.74575048976931,0 32.70677206215412,34.74556915859554,0 32.70659721885998,34.74558631510654,0 32.70613774166496,34.74570121460676,0 32.70579884023008,34.74575361058752,0 32.70560262079114,34.74570755312193,0 32.70550480856924,34.7456439574146,0 32.70527715626962,34.7454174400407,0 32.70508146725946,34.7452992642846,0 32.70500529668733,34.74526282212157,0 32.70481632860692,34.74518136072184,0 32.70460293261971,34.74501616520809,0 32.70415344647882,34.74454414065829,0 32.70389558965961,34.74441174825504,0 32.70363163631406,34.74430845768483,0 32.70331867941754,34.74426925559754,0 32.70263574625641,34.7443447254466,0 32.70216215573625,34.74435084030326,0 32.70106010067803,34.74429529838343,0 32.7010599117798,34.74429528890516,0 32.70062983087958,34.74446567608472,0 32.70007747764218,34.74481652266906,0 32.70007655269384,34.74481710994714,0 32.69995047059214,34.74476427663222,0 32.69972475561247,34.74435491561383,0 32.69958136889036,34.7441651856519,0 32.69905909521238,34.74399381568429,0 32.69887003491102,34.74396124732961,0 32.69868052773299,34.74396396799744,0 32.69867989537918,34.7439639772505,0 32.69854099301742,34.74405310088349,0 32.69836149257862,34.74426219309342,0 32.69817512650684,34.74445741976208,0 32.69817486997818,34.74445768866336,0 32.69796020272664,34.74449199346346,0 32.69770867457259,34.74443762788503,0 32.69721337619843,34.74420174978088,0 32.69687684222095,34.74397183323569,0 32.69643926566511,34.74358612125604,0 32.69573648418075,34.74287233725315,0 32.69559904838416,34.742688111864,0 32.69549537035821,34.74246931762767,0 32.69514841428654,34.7414709596078,0 32.69530588309058,34.74106147241287,0 32.69482478414763,34.74089393465292,0 32.69508470615854,34.74050425077234,0 32.69513753928462,34.74036749150223,0 32.69513115630063,34.74023757393487,0 32.69521826492053,34.73984568926493,0 32.69520555564682,34.73939432778761,0 32.69533785563917,34.73890389190609,0 32.69532080844598,34.73831535480447,0 32.69485633505591,34.73806964604155,0 32.69440773921841,34.73785056037075,0 32.69439818860781,34.73776481544272,0 32.69458067323109,34.73766119210872,0 32.69482870307817,34.73746335502209,0 32.69486771120152,34.7372644530933,0 32.69484095002534,34.73715649089856,0 32.6946616231439,34.73686963240492,0 32.69459658067299,34.73679836647513,0 32.69451295987504,34.73677614847151,0 32.69451224859066,34.73677595918335,0 32.69441805680997,34.73687757285807,0 32.69423338018485,34.7371898114342,0 32.69417220945082,34.73722540986297,0 32.69417134819706,34.73722591161806,0 32.69383927988849,34.73719023045356,0 32.69358153129812,34.73724475361684,0 32.6930996036437,34.73719131134296,0 32.69280699347433,34.73718860221586,0 32.69211826012657,34.73706369371918,0 32.69195881808846,34.73706378369167,0 32.69130699182434,34.73719913863263,0 32.69068651431385,34.73699324175673,0 32.690539355049,34.73699015365907,0 32.69053901000437,34.73699014647217,0 32.68982024542434,34.73734153281226,0 32.68981922690988,34.73734203053013,0 32.68960915303968,34.73731424687288,0 32.68932037955294,34.73719259028334,0 32.68907923457449,34.73719013687808,0 32.68881110747474,34.73725552212442,0 32.68739932976508,34.73707224288969,0 32.68682724404163,34.73664806859915,0 32.68615478695556,34.7362685267594,0 32.68562533003205,34.73611536052351,0 32.68549211257045,34.73601290977085,0 32.68556473646652,34.73582947657771,0 32.68556595727828,34.73582919486703,0 32.68625412990529,34.7356703783766,0 32.68650912891784,34.73559036395742,0 32.68650950742337,34.73559018373761,0 32.68737434772803,34.73517755252573,0 32.68774314769295,34.73496915185527,0 32.68774063381632,34.73493610049362,0 32.6874194972112,34.73487692693549,0 32.68718866907166,34.73492440666182,0 32.68697606758566,34.73470785651481,0 32.6870547783096,34.73420253379305,0 32.68704144214537,34.73403570547807,0 32.68679093260354,34.73391181269513,0 32.68678197017363,34.73373575469626,0 32.68660318890225,34.73365471668924,0 32.68636080493007,34.73362311856185,0 32.68545463834632,34.7336718489017,0 32.68527036030697,34.73373401825332,0 32.68519696094443,34.73372056986598,0 32.68517491331837,34.7337165293196,0 32.68511441611437,34.73367209759904,0 32.68509328658865,34.73364048817206,0 32.68507430658662,34.73352698730528,0 32.68504713943864,34.73348652702281,0 32.68483814952558,34.73326998245737,0 32.68479601642929,34.73319038334544,0 32.68480627379621,34.73304553398984,0 32.68485244497088,34.73299537255948,0 32.68495068098178,34.73292280019679,0 32.68498615839911,34.73287384155218,0 32.6847801547446,34.73266613442234,0 32.68464061863254,34.7325494908428,0 32.68447691631118,34.73260030336388,0 32.6843346580995,34.73264114787144,0 32.68404753856453,34.73266360171915,0 32.68388276874875,34.73265392791917,0 32.68373349058054,34.73261409331,0 32.68377049507546,34.73256514439228,0 32.68403622421,34.73234475829032,0 32.68413324909501,34.73223059895107,0 32.68417639689478,34.73217664198273,0 32.68418461219341,34.73209982347976,0 32.68419852677062,34.73187561252013,0 32.68419982317972,34.73187524988715,0 32.6843224189868,34.73184097401712,0 32.68466671593956,34.73172557345047,0 32.68466700801235,34.73172543447976,0 32.6847586254317,34.73168194885445,0 32.68475897494451,34.73168192361653,0 32.68495715212773,34.73166785606408,0 32.68518053316678,34.73163333152354,0 32.68518056589545,34.73163305125311,0 32.68519622467359,34.73149669855281,0 32.68511216590264,34.73135365347059,0 32.68496638791569,34.73105427564109,0 32.68476236968935,34.73065442127654,0 32.6846849277302,34.73050264160251,0 32.68410508553198,34.73049964015753,0 32.68410447625767,34.73049963677457,0 32.6838878539942,34.73064989321869,0 32.6837246718696,34.73076308194668,0 32.68357455812728,34.7308454157656,0 32.68357446949734,34.73084546421438,0 32.68337551321597,34.73091625386995,0 32.68305894064355,34.73099903318872,0 32.68286711107731,34.73064459966133,0 32.68284119397497,34.73059671316992,0 32.68314210674492,34.73045196585797,0 32.68322663749527,34.73040607225977,0 32.68336795795827,34.73027268777879,0 32.68343355994788,34.73019133896115,0 32.68352691595975,34.73015036844026,0 32.68358925795231,34.73010923796353,0 32.68359012019041,34.73010904819154,0 32.68365434969301,34.7300949439453,0 32.68383755966008,34.73008492025448,0 32.68398389579863,34.73006860848208,0 32.68410801448422,34.73006071718275,0 32.68434330320446,34.72999975446781,0 32.68434359229418,34.72999953706281,0 32.68445767624799,34.72991377984933,0 32.68430214160273,34.72978007657598,0 32.68430341188437,34.72977939746036,0 32.68441195026771,34.72972138377304,0 32.68465355259336,34.72972473368259,0 32.68490853839243,34.72990733315238,0 32.68516030040166,34.72988878925645,0 32.68522581635625,34.72991714642824,0 32.68526203344158,34.72993278213928,0 32.6855554398008,34.73011456543415,0 32.68571893011256,34.73015146416337,0 32.68591551472893,34.73014346588991,0 32.68636395385491,34.73003762122765,0 32.6867247784503,34.72996737557578,0 32.68704138670739,34.72996900883294,0 32.68724909302367,34.72993402552917,0 32.68742425036553,34.72987183512276,0 32.68773075788113,34.72976525333755,0 32.68810256667906,34.72968604776725,0 32.68826673747306,34.72963281199783,0 32.68852957334489,34.72952600374293,0 32.68890151556604,34.72942876950085,0 32.68919696672817,34.72934015439299,0 32.68950347003505,34.72923356811537,0 32.68993833517791,34.72947916170841,0 32.69035150456049,34.72970661523983,0 32.69057982278475,34.72983397272704,0 32.69068913393929,34.72981650683302,0 32.69107192423833,34.72972833428788,0 32.69124674041025,34.72971120257312,0 32.69137747933014,34.72974792596049,0 32.69147492425945,34.72985658461215,0 32.69169138005896,34.73011006708812,0 32.69182178219976,34.73019185420804,0 32.69203972773868,34.73024704941049,0 32.69234535223124,34.73025762600281,0 32.69264026283805,34.73024110655078,0 32.69278259629002,34.7301877537023,0 32.69302352546933,34.73008983653834,0 32.69322037902384,34.73004577491915,0 32.69357007890515,34.73000249331338,0 32.69386518963145,34.7299589310934,0 32.69435654607607,34.72995242227677,0 32.69468373628725,34.7299991561357,0 32.69498929220543,34.73001873875465,0 32.69532787146813,34.73000243480886,0 32.69561213152308,34.72994980043576,0 32.69587448775643,34.72990606765688,0 32.6963219734165,34.72992636809343,0 32.69676918896634,34.72998271935264,0 32.69707414257573,34.73008341345274,0 32.69721506531686,34.73021932952911,0 32.6975072254736,34.73057233204931,0 32.69760189095332,34.7307201808547,0 32.69807562738552,34.73148915321508,0 32.69830995522406,34.7316894395123,0 32.69868859176272,34.73194355000278,0 32.699041944784,34.73199400673926,0 32.6993460800164,34.73217694625328,0 32.69955687606053,34.73266027663434,0 32.69995163181822,34.73291003912131,0 32.70022792695919,34.73323441864813,0 32.70040141251584,34.73369101112846,0 32.70065742197788,34.73386043141599,0 32.70105793810058,34.7340571271971,0 32.70140914297213,34.73439957916728,0 32.70179793356213,34.73473337163266,0 32.70234842463457,34.73494408920172,0 32.70302231811713,34.73513772861354,0 32.70279101028473,34.73525160156876,0 32.70288052379222,34.73546885078881,0 32.70295009959853,34.73548247301822,0 32.70312199567909,34.73543024395832,0 32.70386571468737,34.73487649797131,0 32.70409110761381,34.7348378086506,0 32.70451675020363,34.7345346539967,0 32.70539557473151,34.73455675463028,0 32.70563194227957,34.73448272278825,0 32.70578424898439,34.73417819875535,0 32.7060053163471,34.73399790168426,0 32.70619861237636,34.73395019837555,0 32.70663256483458,34.73397448853397,0 32.70730184562728,34.73406631888285,0 32.70772520946488,34.73407285423145,0 32.70819209253776,34.73399111740819,0 32.70852719227648,34.73360785663296,0 32.70889854413258,34.73339733434874,0 32.70908212022724,34.73321241669697,0 32.70955115585791,34.73209979388601,0 32.70965624422751,34.73165344664533,0 32.71024387729705,34.73160723597307,0 32.7102719745371,34.73105034958185,0 32.71034789317525,34.73078412229702,0 32.7103673458551,34.73075402359647,0 32.71036820009938,34.73063685424312,0 32.71074169587747,34.73032323986261,0 32.71075530308961,34.72995375845102,0 32.71080107181922,34.72966555726303,0 32.71087064358731,34.72910707334749,0 32.71093759115457,34.72890911112579,0 32.71105866563811,34.72877451046978,0 32.71050397833196,34.72848333038241,0 32.71080307655761,34.72788993164541,0 32.71129337149152,34.72802756371916,0 32.71159820441952,34.72814624781604,0 32.71166639542515,34.72816583940256,0 32.71187951918782,34.72826866438189,0 32.71208739999507,34.72859954436957,0 32.71223330977061,34.72877734329158,0 32.71268607729213,34.72897749140265,0 32.71323189431404,34.72852534278802,0 32.7136177182147,34.72809670806593,0 32.71418052198803,34.72762033572893,0 32.71459483558233,34.72790361876624,0 32.71495130236463,34.72804425973507,0 32.71529007359585,34.72772302181117,0 32.71544740924807,34.72748422186908,0 32.71577083707249,34.72695805282606,0 32.71604847833105,34.72636568796804,0 32.71645878401094,34.72603785511472,0 32.71638093345151,34.72575275961649,0 32.71697725385692,34.72587374023058,0 32.71743183158983,34.72523710281491,0 32.71723665234692,34.72489240659885,0 32.71752608943645,34.72441120353336,0 32.71732415765961,34.72442062962165,0 32.71751554995673,34.72412296717624,0 32.71745408889851,34.72389697877774,0 32.71791258491981,34.7232985525107,0 32.71822684902687,34.72287302282238,0 32.71829963237533,34.7226928295614,0 32.71826923186686,34.72224130629112,0 32.71836967059882,34.72172445341766,0 32.71886414273769,34.72196992239808,0 32.71919463881046,34.72221111448476,0 32.71954850064396,34.72271282978109,0 32.71983261598216,34.72297115386399,0 32.7200629887997,34.72310074804584,0 32.72052885383201,34.72323149073762,0 32.72084701538012,34.72343442518557,0 32.72105568884223,34.72365765615054,0 32.72124635471766,34.72404746337335,0 32.72149188649629,34.72440975860273,0 32.72189675816724,34.7248387992672,0 32.72221065044777,34.72505212598963,0 32.7228648850947,34.72530877217752,0 32.72313670116198,34.72493510461587,0 32.72349814122017,34.72437785184246,0 32.72375570010228,34.72364301533619,0 32.7239011808943,34.72329303748405,0 32.72434376531205,34.7225590974557,0 32.72480584076025,34.72204051932066,0 32.72500472088976,34.72186787708679,0 32.7251611289325,34.72175405580619,0 32.72544662427435,34.72122767652994,0 32.72534682030997,34.72047721654823,0 32.72614899566282,34.72062345430881,0 32.72671184721553,34.7207164486715,0 32.72707814096766,34.72065571860766,0 32.72754666065536,34.72100519016672,0 32.72790119960798,34.72082287768299,0 32.72806898711536,34.72088271210345,0 32.72833269994771,34.72046038401366,0 32.72860293426852,34.72030544105986,0 32.72889397171593,34.72018184630134,0 32.72957107451436,34.72017468627949,0 32.73003945781397,34.71994777584731,0 32.73033508950558,34.71976864397594,0 32.73051358671176,34.71950214816825,0 32.73044835443446,34.71921017761878,0 32.7306180771169,34.71899572099019,0 32.73138205181466,34.71859314616595,0 32.73204461089116,34.71825952293055,0 32.73283637687184,34.71808970367371,0 32.73372930058005,34.71788564092697,0 32.73411217593848,34.71785621758767,0 32.73485617580558,34.71790142852871,0 32.73531053417451,34.71787234267138,0 32.73556363700826,34.71775896674984,0 32.7357414348489,34.71758967848805,0 32.73587435374769,34.71722226569767,0 32.73600188681309,34.71702496135311,0 32.73613410279242,34.71675823694469,0 32.73624942878821,34.71650184809318,0 32.73636701821603,34.71640510477119,0 32.73639427451676,34.71638268116513,0 32.73669703914423,34.71604448890528,0 32.73676920292802,34.71593811850158,0 32.73729769508786,34.71574685549637,0 32.73803729440066,34.7154833229351,0 32.73830925476199,34.71536565744643,0 32.73860666186993,34.71492854890077,0 32.73890553242079,34.71428010817913,0 32.73862499595607,34.7141308502385,0 32.73856802745559,34.71404076699825,0 32.73863896753874,34.71396185060605,0 32.73955572494106,34.71372315081521,0 32.73968443842717,34.71361808943504,0 32.73978170628976,34.71343363344155,0 32.73980258480645,34.71319069833189,0 32.73972162307786,34.71286803627571,0 32.73971684062662,34.71263554663098,0 32.74001920230722,34.71240450692841,0 32.74010541897458,34.71196639556408,0 32.74052742209196,34.71201593456436,0 32.74097816091994,34.71161124312169,0 32.74181358653342,34.71202727577627,0 32.74252087914717,34.71246383966011,0 32.74262635624624,34.71294511350565,0 32.74300916477176,34.71311069806913,0 32.74311700969851,34.71324856965152,0 32.74388225304282,34.71363784048484,0 32.74397013197124,34.71388656964939,0 32.74430332345293,34.71382473456261,0 32.74485039370787,34.71336764662214,0 32.74518405296374,34.71323712097868,0 32.74545556151641,34.71283685819286,0 32.74523952317117,34.71261394791267,0 32.74524097246674,34.71240262170195,0 32.74659311307074,34.71305878722951,0 32.74702391107301,34.71275964519931,0 32.74776752953483,34.71256762646618,0 32.74789633355331,34.7124467123549,0 32.74791726927107,34.71219320887437,0 32.74800844008328,34.7119611658625,0 32.74812554154648,34.71168169336759,0 32.74847456579135,34.71117083138721,0 32.74864202988861,34.7110131117938,0 32.74887325200239,34.71088738577293,0 32.74917477915289,34.7107725531609,0 32.74943081480123,34.71170360934821,0 32.74956062349418,34.71237519565916,0 32.74971729946682,34.71286199011859,0 32.74977937111045,34.71314229644793,0 32.74980936789063,34.71343829903451,0 32.74970424707492,34.71383934795849,0 32.74959347723262,34.71412941361039,0 32.7495794868606,34.71430369800743,0 32.75014879886026,34.71433803900776,0 32.75057688202796,34.71444040872595,0 32.75090196297168,34.7146268256538,0 32.75111113754733,34.71492366732661,0 32.75115357906925,34.71526727798004,0 32.75113812189309,34.7156581713022,0 32.75104573613171,34.71606984310289,0 32.75114561795991,34.71644013638837,0 32.75206783255278,34.71634401536397,0 32.75209165474551,34.71647877728966,0 32.75222985327603,34.71673218227539,0 32.75215752149882,34.71693930498029,0 32.75229482951659,34.71717424331401,0 32.75239863992922,34.71755546748498,0 32.75243345753177,34.71765081518809,0 32.75262653858422,34.7179421468288,0 32.7527840384445,34.71868727830621,0 32.75321169844852,34.71925304591916,0 32.7533463713335,34.71944159899458,0 32.75361472993118,34.71996513874079,0 32.75348868035969,34.7215607572132,0 32.75344440215422,34.72242699031728,0 32.75355116160297,34.72281066755442,0 32.75361598531259,34.72327713436202,0 32.75360999424354,34.72372618941291,0 32.75358764139254,34.72440947531526,0 32.75361343238998,34.72452918537419,0 32.75395475667167,34.72519217956309,0 32.75405704649603,34.72536349786706,0 32.75416673506255,34.72575206895719,0 32.75427310705337,34.72619432003035,0 32.75433648167937,34.72643867836001,0 32.75453305393506,34.72665436175581,0 32.75470017080143,34.72685526638822,0 32.75481054084067,34.72714377279662,0 32.7548948530351,34.72735161670962,0 32.75496988820533,34.72762043505946,0 32.75510526120538,34.72814580014062,0 32.75512220654701,34.7282630310301,0 32.75481606409718,34.72851545298167,0 32.75471212305177,34.72858819482163,0 32.75474414001955,34.72866156194738,0 32.75491626780487,34.72899672434335,0 32.75542087394459,34.72955795777146,0 32.75561936055279,34.7299298508735,0 32.75579244586757,34.7301234577147,0 32.75595458376319,34.73018765957919,0 32.7560340422114,34.73023927798351,0 32.75613016556467,34.73044961732315,0 32.75616773526357,34.73057670356658,0 32.75610745119182,34.73074971377158,0 32.75609810949499,34.7308204501644,0 32.75628186301682,34.73100348994092,0 32.75656768006139,34.73130550056835,0 32.75671584601064,34.73146522518081,0 32.75679955521485,34.73172769792818,0 32.75682994600938,34.7318488010113,0 32.75683060180546,34.73195296840272,0 32.75690443044321,34.73207091109305,0 32.75702995749376,34.73216780940209,0 32.75710128285791,34.73225437870126,0 32.75789338482095,34.73289642662355,0 32.75806064083377,34.7330427962517,0 32.75820135386298,34.73330328888965,0 32.75819121745977,34.7333984463234,0 32.75816889385498,34.73349018734765,0 32.75810326367126,34.73376765679499,0 32.75814438348752,34.73390785040627,0 32.75823983787133,34.73424093819156,0 32.75828462243706,34.73444163000175,0 32.75829025588465,34.7346130213266,0 32.75828162820584,34.73468578485296,0 32.75837091424408,34.73492700101553,0 32.75855158482825,34.7350969527118,0 32.75867703559492,34.73520616945412,0 32.75871310463633,34.7352903376344,0 32.75884852379465,34.73553176379787,0 32.75899930416539,34.73570829852902,0 32.75935680502145,34.73621730779541,0 32.75955443735131,34.73648925882854,0 32.75963369991887,34.73660722404256,0 32.75990247077429,34.73699486365607,0 32.75999306132776,34.73704231768683,0 32.76014962490294,34.73716623577345,0 32.76028200659858,34.73725420164703,0 32.76035613473384,34.7373284614004,0 32.7603663908299,34.73741811146571,0 32.76043793719377,34.7376760457358,0 32.7605417820458,34.73777060168746,0 32.76085988454689,34.73808678058568,0 32.76099243982801,34.73814898577959,0 32.76125213023076,34.73827225106787,0 32.76154212862487,34.73832733160163,0 32.76206073370864,34.73848761198537,0 32.76263308260859,34.73872765819564,0 32.7626951384796,34.73878170109301,0 32.76268134641752,34.73881524023685,0 32.76256255170801,34.73892782424227,0 32.76238628417109,34.73911295131984,0 32.7623827417509,34.73923725990615,0 32.76242754763039,34.73943683047896,0 32.76245072438051,34.73962398174653,0 32.76241596124653,34.73975038843447,0 32.76226044736179,34.73987512614702,0 32.76212430763574,34.74014667784992,0 32.76216771808984,34.74035184205056,0 32.7622255479326,34.74042938709982,0 32.76224371373094,34.74055379392251,0 32.76220810785933,34.74080676079762,0 32.76218425823873,34.74092425609519,0 32.76203718692648,34.74120695814459,0 32.76199680122274,34.74136246015219,0 32.76200861586589,34.7416257232565,0 32.76202888471006,34.74184198252389,0 32.76211408234311,34.74208877768648,0 32.7621296633997,34.74219413242014,0 32.7620778259765,34.74223533803265,0 32.76186158936805,34.74251212448671,0 32.76186581474182,34.74269247052585,0 32.76188102497076,34.7432603988103,0 32.76192308763347,34.74346443713691,0 32.76195900000651,34.74357324364897,0 32.76219637381408,34.74379048856687,0 32.76221598756472,34.74390146184267,0 32.76219235144453,34.74419032386881,0 32.7622271159152,34.7442677643384,0 32.76228898949773,34.74434980829813,0 32.76241202010552,34.74441756886644,0 32.76260532715362,34.74473205617402,0 32.76273969008781,34.74493203176636,0 32.76289865889086,34.7451052383841,0 32.76301921606483,34.74534099289677,0 32.76307072998851,34.74553982788128,0 32.76309443408962,34.74563132562243,0 32.76308274192744,34.74565350681576,0 32.76301433218068,34.74566907900869,0 32.7629585745698,34.74566247365443,0 32.76289821488997,34.74562487693021,0 32.76288132182928,34.7455389697645,0 32.76285854809004,34.74542314690871,0 32.76267426573757,34.7452671665617,0 32.7622718095089,34.74553620398446,0 32.76203976575897,34.7456913208139,0 32.7625009458586,34.74593870987483,0 32.76308573186954,34.74701302520511,0 32.76309432569622,34.74718597766078,0 32.76331113482752,34.74718494966341,0 32.76383709324506,34.74758342388358,0 32.76407513879251,34.74805297765411,0 32.76393000197779,34.74899932508362,0 32.76379654127857,34.74965418439695,0 32.7637389773004,34.74988514552045,0 32.76353886852804,34.7503044600282,0 32.76327651919402,34.75055862068606,0 32.76354725295938,34.75087551486283,0 32.76370396100058,34.75112152069884,0 32.76405770603578,34.75177858468299,0 32.76414699182892,34.75185083224554,0 32.7646946922109,34.7522940093792,0 32.76503690724264,34.75222197803281,0 32.76511860398181,34.75222541244813,0 32.76524091663224,34.75226582015651,0 32.76544427643002,34.75240776230692,0 32.76571453381408,34.75310490992513,0 32.76597450568882,34.7531122131372,0 32.76594694317171,34.75334815301235,0 32.76603515686935,34.75348957531304,0 32.76620874341572,34.75364057995395,0 32.76624514046134,34.75375417724224,0 32.76624384268516,34.75395037974886,0 32.76622847337578,34.75402695467803,0 32.76610118732767,34.75417660264547,0 32.76601128952593,34.75428963101996,0 32.7659132117961,34.75451605471521,0 32.7659006224434,34.75473366683904,0 32.76564762755739,34.75479384138811,0 32.76551016822832,34.75591835399627,0 32.76562771298968,34.75611815938315,0 32.764115987602,34.75651920157015,0 32.76390303756125,34.75657569273549,0 32.76366456585225,34.75673058170407,0 32.76355292730036,34.75675807050072,0 32.76350486121301,34.75706379164384,0 32.76329517944853,34.75726080157672,0 32.76303768105919,34.75736161420577,0 32.76254361806146,34.75769330632596,0 32.7626803497178,34.75789988581939,0 32.76246433993833,34.75795489369255,0 32.76166269818552,34.75935497136206,0 32.75977236516365,34.75905442453379,0 32.7594936266512,34.75906914956833,0 32.7594983867511,34.7600289507622,0 32.75949928596742,34.76021041931649,0 32.75929645833483,34.7608699906193,0 32.75912456126243,34.76142979584461,0 32.75845747287652,34.76111314974096,0 32.75790796958724,34.76081369029132,0 32.75771196116913,34.76002078658968,0 32.7576805421183,34.75989369110656,0 32.75721162586504,34.7590037263716,0 32.75741371760808,34.75849675532874,0 32.75755241138832,34.75804947955464,0 32.75739939509047,34.7577448406109,0 32.75728064535384,34.75738836813886,0 32.75686937874801,34.75729450246581,0 32.75674869413939,34.75722596313538,0 32.75651628830876,34.75719690340472,0 32.75627416624489,34.75717179652364,0 32.75598425757671,34.7570464915499,0 32.75568374987119,34.75705710858229,0 32.75540773466779,34.75702784564918,0 32.75511664095216,34.75707849695603,0 32.75478724386092,34.75706098577876,0 32.754493175222,34.75683567699845,0 32.75428484104296,34.7568307188364,0 32.75409547831271,34.7568858350466,0 32.7539885458802,34.75693333250189,0 32.75433018551438,34.75729083499296,0 32.75438275481697,34.75739905507925,0 32.75445425274787,34.75757534928791,0 32.7537652133544,34.75771214649321,0 32.75336416164414,34.75754233163303,0 32.752923550932,34.75748830900277,0 32.75276479614897,34.75874732150226,0 32.75254763125495,34.75861434579588,0 32.75270491053153,34.75900299303297,0 32.75288203630789,34.7593237471373,0 32.75299151433813,34.7596161922121,0 32.75310561984565,34.75994065292283,0 32.75292220570124,34.75983182885498,0 32.75258857890995,34.7597223108646,0 32.75209503515573,34.75961205091786,0 32.75153321913199,34.7595654613845,0 32.75046351860874,34.75938054245237,0 32.74978096863853,34.75927339684673,0 32.74912182985227,34.75928633146369,0 32.74837654298248,34.75985075052062,0 32.74824835039556,34.75997710200772,0 32.74785772810165,34.76036211259378,0 32.7475453145812,34.76080468726972,0 32.74781886076281,34.76112788410032,0 32.74871299739979,34.76216996832968,0 32.74945428695656,34.76294491996688,0 32.75022861073823,34.76380882416796,0 32.74959169076835,34.76449411661383,0 32.74929075481276,34.76522537012242,0 32.74956961134518,34.76575950274437,0 32.74995140162711,34.76599439291324,0 32.75045871665188,34.76656288459386,0 32.75069163669531,34.76693029099226,0 32.75068513828035,34.76788492789399,0 32.75083745158853,34.76823530705975,0 32.75125743060137,34.76879229054993,0 32.75158599281735,34.7689436718521,0 32.75197325260778,34.7693672944874,0 32.75181808922567,34.76943317966685,0 32.7517813267204,34.76989369272117,0 32.75143632890726,34.77018071211617,0 32.75113141331158,34.77050677802445,0 32.75110984512744,34.7707120421515,0 32.75115583391086,34.77087321427659,0 32.75138459932238,34.77086317513039,0 32.7511271479046,34.77113394955178,0</coordinates>
						</LinearRing>
					</outerBoundaryIs>
				</Polygon>
			</MultiGeometry>
		</Placemark>
	</Document>
</kml>