<?xml version='1.0' encoding='UTF-8'?>
<kml xmlns="http://www.opengis.net/kml/2.2">
	<Document>
		<name>APLANTA</name>
		<Style id="PolyStyle70">
			<LabelStyle>
				<color>00000000</color>
				<scale>0.000000</scale>
			</LabelStyle>
			<LineStyle>
				<color>ff0055ff</color>
				<width>2.000000</width>
			</LineStyle>
			<PolyStyle>
				<color>00828282</color>
				<outline>1</outline>
			</PolyStyle>
		</Style>
		<Placemark id="ID_70191">
			<name>APLANTA</name>
			<snippet />
			<description>&lt;html xmlns:fo="http://www.w3.org/1999/XSL/Format" xmlns:msxsl="urn:schemas-microsoft-com:xslt"&gt;

&lt;head&gt;

&lt;META http-equiv="Content-Type" content="text/html"&gt;

&lt;meta http-equiv="content-type" content="text/html; charset=UTF-8"&gt;

&lt;/head&gt;

&lt;body style="margin:0px 0px 0px 0px;overflow:auto;background:#FFFFFF;"&gt;

&lt;table style="font-family:Arial,Verdana,Times;font-size:12px;text-align:left;width:100%;border-collapse:collapse;padding:3px 3px 3px 3px"&gt;

&lt;tr style="text-align:center;font-weight:bold;background:#9CBCE2"&gt;

&lt;td&gt;4&lt;/td&gt;

&lt;/tr&gt;

&lt;tr&gt;

&lt;td&gt;

&lt;table style="font-family:Arial,Verdana,Times;font-size:12px;text-align:left;width:100%;border-spacing:0px; padding:3px 3px 3px 3px"&gt;

&lt;tr&gt;

&lt;td&gt;DIST_CODE&lt;/td&gt;

&lt;td&gt;4&lt;/td&gt;

&lt;/tr&gt;

&lt;tr bgcolor="#D4E4F3"&gt;

&lt;td&gt;VIL_CODE&lt;/td&gt;

&lt;td&gt;123&lt;/td&gt;

&lt;/tr&gt;

&lt;tr&gt;

&lt;td&gt;VIL_CCD&lt;/td&gt;

&lt;td&gt;4123&lt;/td&gt;

&lt;/tr&gt;

&lt;tr bgcolor="#D4E4F3"&gt;

&lt;td&gt;VIL_NM_E&lt;/td&gt;

&lt;td&gt;APLANTA&lt;/td&gt;

&lt;/tr&gt;

&lt;tr&gt;

&lt;td&gt;VIL_NM_G&lt;/td&gt;

&lt;td&gt;ΑΠΛΑΝΤΑ&lt;/td&gt;

&lt;/tr&gt;

&lt;/table&gt;

&lt;/td&gt;

&lt;/tr&gt;

&lt;/table&gt;

&lt;/body&gt;&lt;script type="text/javascript"&gt;

				function changeImage(attElement, nameElement) {

				document.getElementById('imageAttachment').src = attElement;

				document.getElementById('imageName').innerHTML = nameElement;}

			&lt;/script&gt;&lt;/html&gt;

</description>
			<styleUrl>#PolyStyle70</styleUrl>
			<MultiGeometry>
				<Polygon>
					<extrude>0</extrude>
					<altitudeMode>clampToGround</altitudeMode>
					<outerBoundaryIs>
						<LinearRing>
							<coordinates> 33.46640525317252,34.83635349518489,0 33.46660495422803,34.83508848220472,0 33.46667274848944,34.83465868588671,0 33.46659210286327,34.83406397307356,0 33.46649606001249,34.83404826057902,0 33.46654779960987,34.83372954475059,0 33.46656681435964,34.83361241143074,0 33.46705966674479,34.83363849106738,0 33.46707346514586,34.83331815023296,0 33.46721285100007,34.83282859513776,0 33.46740231453014,34.83218771341858,0 33.46768532326384,34.83155857633497,0 33.46797292247651,34.8314722029112,0 33.46813416712445,34.83113684806938,0 33.46824925517085,34.83112780539113,0 33.46827403177143,34.83091125923122,0 33.46893589013494,34.83091932161312,0 33.4689390063527,34.83065831492212,0 33.46966202959825,34.83067519347154,0 33.46969755060687,34.83043490661507,0 33.46959319686439,34.83041427790528,0 33.46971481533678,34.83005227760998,0 33.46962844602603,34.83002865971576,0 33.4697069077851,34.82966967996358,0 33.4697211113546,34.82957178433153,0 33.46986496861906,34.82955973902558,0 33.46992150683973,34.82901986381426,0 33.47075263113709,34.82914633853409,0 33.47090964915878,34.82848472988815,0 33.47137020525878,34.82856718617165,0 33.47150994386952,34.82828227551526,0 33.47212174138177,34.82845351174884,0 33.47209313808542,34.82854549328894,0 33.47260763314188,34.82861897714365,0 33.47310720749232,34.82841367896429,0 33.47298466597423,34.82828333625783,0 33.47243379138041,34.82799338665798,0 33.47271004196908,34.82762228482456,0 33.47283184149765,34.82736409078792,0 33.47231710365618,34.82715713842466,0 33.47230538888921,34.82667073910253,0 33.47271190914201,34.82671470117789,0 33.47354279272083,34.8267254865351,0 33.47372098262363,34.82586512716437,0 33.47312723278986,34.82571760331462,0 33.47329539747098,34.82525469638098,0 33.47196066452999,34.82507550196927,0 33.47203164771498,34.82457416471466,0 33.4725746774057,34.82453490550601,0 33.47347052569447,34.82467314206659,0 33.47411815771217,34.82479093477109,0 33.47448845532747,34.82470443732121,0 33.4744882324846,34.824588765892,0 33.47475053339239,34.82445495375062,0 33.47524671699764,34.82437125478645,0 33.47518832543648,34.82421742439851,0 33.47507680291152,34.82392361980199,0 33.47485368990348,34.82386162683854,0 33.47436813012012,34.82385633284919,0 33.47390759526664,34.82377388857331,0 33.47282434701937,34.82343421325143,0 33.47313632293943,34.82294442616617,0 33.47225432002848,34.82250957364575,0 33.47185248271177,34.82302913377698,0 33.47113624891457,34.82276311868409,0 33.47161326916173,34.82205957507602,0 33.4713973839882,34.82201239719029,0 33.47184648483675,34.82176267999785,0 33.47211602768951,34.82165555699254,0 33.47252175551779,34.82129615295061,0 33.47263671079494,34.82122482141897,0 33.47277695352621,34.82121277503737,0 33.47300723177609,34.82126289724259,0 33.47332387148273,34.82133663444014,0 33.4735397054234,34.82136008221272,0 33.47394604585963,34.82132099459955,0 33.4741977113481,34.82127321106402,0 33.47460378770337,34.82109768786938,0 33.47463623879953,34.821142134072,0 33.4750782117785,34.82093097040381,0 33.47548479749288,34.82102237961775,0 33.47606221501526,34.8211090789049,0 33.47640243900628,34.82116016258295,0 33.47690737860854,34.82123518035823,0 33.47685255649503,34.82057929565253,0 33.4770665244364,34.82048440565718,0 33.4769742010749,34.82020700574076,0 33.4769810829463,34.81981594414638,0 33.476759297411,34.81982254566467,0 33.47675137878372,34.81968379670242,0 33.47724860992487,34.81973359387742,0 33.47750101278265,34.81973956454686,0 33.47779935344915,34.81977070290861,0 33.47830428792488,34.81984571224954,0 33.47893162715887,34.81993947995857,0 33.47932940769302,34.81997678741762,0 33.47997938255059,34.81991283499428,0 33.4802699863472,34.81989982526654,0 33.4805607634477,34.81996881128062,0 33.48082095403556,34.82004414374236,0 33.48100456979014,34.82007543006672,0 33.4816623497199,34.82008714554157,0 33.48221308135066,34.82011792721866,0 33.48255733060063,34.82015529563103,0 33.48328438892472,34.82038766324219,0 33.48356751204084,34.82045665261636,0 33.48389561952306,34.82007775963104,0 33.48415536128824,34.81993233133157,0 33.48442285336237,34.81983734885291,0 33.48508116380864,34.8201076453315,0 33.48561696539878,34.82031503683486,0 33.48581591473976,34.82035890734523,0 33.48616049279935,34.82055394650852,0 33.48632126004586,34.8206294092838,0 33.48655824014958,34.82057230914002,0 33.48735293408419,34.82022428779403,0 33.48794903662445,34.82000268569248,0 33.48908009717165,34.81958479398638,0 33.48963800693365,34.81938846757727,0 33.48979914807439,34.81964052692184,0 33.48971519803931,34.81972264377091,0 33.48966230659906,34.82003177583639,0 33.48965484529955,34.82012009050955,0 33.48993855984737,34.8204665836643,0 33.49032103620516,34.82049125780907,0 33.49035998189122,34.82082548757498,0 33.49047472112033,34.82083162997296,0 33.49061399493387,34.82158830493844,0 33.49090473635298,34.82163834410351,0 33.49105748436848,34.82153089770961,0 33.49110343723785,34.82156236820886,0 33.49099647913639,34.82161928970518,0 33.49109198238094,34.82173564292984,0 33.49059017576455,34.82211109365029,0 33.49053469627344,34.8219238109048,0 33.48991558313177,34.82217451951391,0 33.48990939693608,34.82250383339736,0 33.48912651246095,34.82345880679241,0 33.48925757978162,34.82357785077755,0 33.48897596416968,34.82389620240388,0 33.48910026446676,34.82407203308234,0 33.48892895846764,34.82416298216656,0 33.48810302903669,34.82460147981261,0 33.48812380236242,34.82465822611965,0 33.48833073747142,34.82483961693208,0 33.48894966164204,34.82448671879825,0 33.48910126704399,34.82454895620889,0 33.48952140607007,34.82416059991152,0 33.48974721114815,34.82395187439705,0 33.48994997521231,34.82415887481987,0 33.48997491181201,34.8241843330002,0 33.48989244695636,34.82425826065266,0 33.49042377874814,34.82481390747336,0 33.49075392985279,34.8246544568872,0 33.49073290008185,34.82447847916998,0 33.49137967817299,34.82427882508882,0 33.49177285808852,34.82461891475038,0 33.49188289019172,34.82455630106946,0 33.49250373279882,34.82510613027856,0 33.49273066308223,34.82497521263958,0 33.4924818344073,34.82452704037612,0 33.49253680781818,34.8244758611023,0 33.49224117212858,34.82414962660331,0 33.49183285716855,34.82369904488954,0 33.492712857893,34.82309592856515,0 33.4928991891262,34.82330005282326,0 33.49322931738588,34.8231349174325,0 33.49333291217804,34.82328238539397,0 33.4935194832634,34.82359438424501,0 33.49383040214166,34.82409924025028,0 33.49385378047889,34.8241430915783,0 33.49402396987504,34.8244623270627,0 33.49412764881137,34.82464953765213,0 33.49421073142224,34.82485948866172,0 33.4942942332364,34.82526815904655,0 33.49533373269389,34.82518713570154,0 33.49529257939842,34.82526100695992,0 33.49527235103441,34.8254597545455,0 33.49516224317147,34.82548262880267,0 33.49469409467945,34.8255060317186,0 33.49439814084214,34.82555756765225,0 33.49416425141349,34.82565443222011,0 33.49379257313468,34.82571175590084,0 33.49359289950163,34.825712048717,0 33.49324164568824,34.82566146454418,0 33.49297981222884,34.8255710050413,0 33.49288333361729,34.82553140254395,0 33.49274572545537,34.82557702484394,0 33.49211980037659,34.82587317604296,0 33.49200296863556,34.82597554398944,0 33.49181742269652,34.82614046755631,0 33.49160409952744,34.82619755357158,0 33.49124607532313,34.82620375031338,0 33.49083980976702,34.82618730530135,0 33.49056451689003,34.82624447903589,0 33.49050274334939,34.82633541139105,0 33.49041434241077,34.82685788400607,0 33.49028415885697,34.82715898738451,0 33.49017416070443,34.82723863312724,0 33.48998170733574,34.82739788460389,0 33.4898448503568,34.8278011982428,0 33.490402075496,34.82756761181192,0 33.49058195169275,34.82797046673392,0 33.49094657576446,34.82782799863087,0 33.49118132196622,34.82812857534984,0 33.49120935817263,34.82836131813445,0 33.49173251869249,34.82829810588255,0 33.49168375189912,34.82803132652604,0 33.49206221979691,34.82792290068735,0 33.49243472520951,34.82824598470631,0 33.49247679527967,34.82859793834271,0 33.49264922199717,34.82873395110223,0 33.4926569531986,34.82880885935716,0 33.49264810842264,34.82892125087925,0 33.49246203045889,34.82900393178237,0 33.4921033015681,34.82907562730149,0 33.49186797176815,34.82949551231641,0 33.49192761298379,34.82976887766185,0 33.4921640742462,34.82987716430347,0 33.49222330800018,34.82995948860265,0 33.49207368286857,34.83009455923856,0 33.49217877675741,34.83037909603475,0 33.4914300238645,34.83076601354023,0 33.4912388872885,34.83060896199407,0 33.49135659584131,34.83041775060735,0 33.49089706246798,34.83008877574458,0 33.49065697645658,34.83041126959554,0 33.49013063551773,34.8307117026454,0 33.49001215630324,34.83053955924944,0 33.48960787856335,34.83055887052442,0 33.48931781186498,34.83088143577058,0 33.48924094467716,34.83105385717138,0 33.48928191060699,34.83109125909753,0 33.4890233967493,34.8312976550454,0 33.48844280386307,34.83172926210286,0 33.48813888033219,34.83194696136624,0 33.48776137551172,34.83173772569074,0 33.48745307854497,34.83203783524787,0 33.48768090812168,34.83236340444334,0 33.48754942730324,34.83249095176905,0 33.48749936092748,34.83244607582673,0 33.48715431950022,34.83255519560102,0 33.48711810704435,34.83261892738919,0 33.48684074369863,34.83250319553229,0 33.48617354264417,34.83280381091669,0 33.48589648174794,34.83283416782186,0 33.48553344128825,34.83302946329554,0 33.48521154066938,34.83334831735377,0 33.4849078890316,34.83370529459298,0 33.48491358807091,34.83381043583753,0 33.48508894335215,34.8338101910552,0 33.48499938425027,34.83398827272587,0 33.48463140994843,34.83434470069064,0 33.4843354158545,34.83471956210889,0 33.4842863150817,34.83489758762056,0 33.48396763219125,34.83517238111085,0 33.48346448407287,34.83539552426453,0 33.48291233001144,34.83584488636646,0 33.48256268582548,34.83637923745138,0 33.48254057763763,34.83656464071768,0 33.48243757073224,34.83676869023326,0 33.48248742377962,34.83696140901872,0 33.4824291877193,34.83706900342192,0 33.48226721808302,34.8370247376673,0 33.48210515787511,34.83693227470365,0 33.48164996149941,34.83641385797825,0 33.4815012868018,34.83626947226548,0 33.48104215073782,34.8360254098128,0 33.48075943037514,34.83630385227126,0 33.4808273542059,34.83654103515323,0 33.48059878066151,34.83691579582158,0 33.48047725579866,34.83685664284012,0 33.48010064973732,34.83740956116009,0 33.47986260317474,34.83754705884251,0 33.47979457908543,34.83725797176762,0 33.47882363276241,34.83741499381017,0 33.47884623160109,34.83747428458756,0 33.47848669156795,34.83756745344185,0 33.47840122712841,34.83755273641554,0 33.4780191485318,34.83761998324403,0 33.47756482785163,34.83753532128788,0 33.47754649923854,34.83736109687467,0 33.47720924268423,34.83735413162587,0 33.47718656279737,34.83725406055399,0 33.47744729098283,34.83721663910874,0 33.47764024245553,34.83701247141782,0 33.47748682901947,34.8367420346259,0 33.47687898497089,34.8363276132378,0 33.47628528722574,34.83624683800036,0 33.47624460056399,34.83613566927037,0 33.47609150061853,34.83615390886047,0 33.47600476036183,34.83615540124742,0 33.4757022853309,34.8357178943149,0 33.47467927115868,34.83604712068783,0 33.47434601207117,34.83625330748492,0 33.47356078166325,34.8367043436258,0 33.47324885992425,34.83690389808282,0 33.4732933592615,34.83714259793803,0 33.47311385060635,34.8371439317421,0 33.47311118294428,34.83714393490575,0 33.47288608273024,34.83668211465142,0 33.47204555592884,34.83683723963534,0 33.47210239295934,34.83724866685726,0 33.47172073092145,34.83727116367667,0 33.47161852326345,34.83686199631117,0 33.47111165371343,34.8370166844029,0 33.47005365949474,34.83689025745579,0 33.4700536623095,34.83689209909023,0 33.46933802523945,34.83641241696633,0 33.46891744614773,34.83605204511898,0 33.46831079848811,34.83652603715161,0 33.4682062741616,34.83677106826131,0 33.46809718803112,34.83696454534628,0 33.46769665606322,34.83657284367654,0 33.46767210239765,34.83658208139973,0 33.46760095910408,34.83676078087083,0 33.4668527528595,34.83678197100897,0 33.46667104053217,34.83634948125791,0 33.46640525317252,34.83635349518489,0</coordinates>
						</LinearRing>
					</outerBoundaryIs>
				</Polygon>
			</MultiGeometry>
		</Placemark>
	</Document>
</kml>