<?xml version='1.0' encoding='UTF-8'?>
<kml xmlns="http://www.opengis.net/kml/2.2">
	<Document>
		<name>ARSOS LARNAKAS</name>
		<Style id="PolyStyle70">
			<LabelStyle>
				<color>00000000</color>
				<scale>0.000000</scale>
			</LabelStyle>
			<LineStyle>
				<color>ff0055ff</color>
				<width>2.000000</width>
			</LineStyle>
			<PolyStyle>
				<color>00828282</color>
				<outline>1</outline>
			</PolyStyle>
		</Style>
		<Placemark id="ID_70312">
			<name>ARSOS LARNAKAS</name>
			<snippet />
			<description>&lt;html xmlns:fo="http://www.w3.org/1999/XSL/Format" xmlns:msxsl="urn:schemas-microsoft-com:xslt"&gt;

&lt;head&gt;

&lt;META http-equiv="Content-Type" content="text/html"&gt;

&lt;meta http-equiv="content-type" content="text/html; charset=UTF-8"&gt;

&lt;/head&gt;

&lt;body style="margin:0px 0px 0px 0px;overflow:auto;background:#FFFFFF;"&gt;

&lt;table style="font-family:Arial,Verdana,Times;font-size:12px;text-align:left;width:100%;border-collapse:collapse;padding:3px 3px 3px 3px"&gt;

&lt;tr style="text-align:center;font-weight:bold;background:#9CBCE2"&gt;

&lt;td&gt;4&lt;/td&gt;

&lt;/tr&gt;

&lt;tr&gt;

&lt;td&gt;

&lt;table style="font-family:Arial,Verdana,Times;font-size:12px;text-align:left;width:100%;border-spacing:0px; padding:3px 3px 3px 3px"&gt;

&lt;tr&gt;

&lt;td&gt;DIST_CODE&lt;/td&gt;

&lt;td&gt;4&lt;/td&gt;

&lt;/tr&gt;

&lt;tr bgcolor="#D4E4F3"&gt;

&lt;td&gt;VIL_CODE&lt;/td&gt;

&lt;td&gt;205&lt;/td&gt;

&lt;/tr&gt;

&lt;tr&gt;

&lt;td&gt;VIL_CCD&lt;/td&gt;

&lt;td&gt;4205&lt;/td&gt;

&lt;/tr&gt;

&lt;tr bgcolor="#D4E4F3"&gt;

&lt;td&gt;VIL_NM_E&lt;/td&gt;

&lt;td&gt;ARSOS LARNAKAS&lt;/td&gt;

&lt;/tr&gt;

&lt;tr&gt;

&lt;td&gt;VIL_NM_G&lt;/td&gt;

&lt;td&gt;ΑΡΣΟΣ ΛΑΡΝΑΚΑΣ&lt;/td&gt;

&lt;/tr&gt;

&lt;/table&gt;

&lt;/td&gt;

&lt;/tr&gt;

&lt;/table&gt;

&lt;/body&gt;&lt;script type="text/javascript"&gt;

				function changeImage(attElement, nameElement) {

				document.getElementById('imageAttachment').src = attElement;

				document.getElementById('imageName').innerHTML = nameElement;}

			&lt;/script&gt;&lt;/html&gt;

</description>
			<styleUrl>#PolyStyle70</styleUrl>
			<MultiGeometry>
				<Polygon>
					<extrude>0</extrude>
					<altitudeMode>clampToGround</altitudeMode>
					<outerBoundaryIs>
						<LinearRing>
							<coordinates> 33.65367929246396,35.0497306969569,0 33.65384367304207,35.0501991613323,0 33.65410802894925,35.05110949730805,0 33.65455677420569,35.05096172341444,0 33.65477311240426,35.05088787966249,0 33.65552519307072,35.05049400757354,0 33.65592694356796,35.05049844241513,0 33.65594369783486,35.05058424265082,0 33.6562807545799,35.05053617069156,0 33.65647430985223,35.05062762154031,0 33.65635443454085,35.05070755372167,0 33.65631521637373,35.05082669123176,0 33.65607424941678,35.05083460099233,0 33.65554911011176,35.05077678551061,0 33.65539457906662,35.05081979246324,0 33.65500288588328,35.05099117557213,0 33.65474655308273,35.05111314411631,0 33.65438461649887,35.05117652741706,0 33.65422307296619,35.05138899158767,0 33.65429681575463,35.05161060785355,0 33.65452993950275,35.05263342914323,0 33.65467550366721,35.05275156898313,0 33.65488449865354,35.05276365455477,0 33.65486932615821,35.05287605450336,0 33.65474062156208,35.05285692833005,0 33.65465213925031,35.05284419223069,0 33.65474157072894,35.05297584851114,0 33.65468564728668,35.05301579209586,0 33.65461365572787,35.05305582236184,0 33.65495605113359,35.05367502797083,0 33.654925865352,35.05391964877196,0 33.65474942793237,35.05396024295231,0 33.65469397839934,35.05405964662172,0 33.65509643227691,35.05414997109649,0 33.65453487404149,35.05425871398707,0 33.6538830398209,35.05413008945334,0 33.65364411604124,35.05439565578038,0 33.65378259632359,35.05463276009667,0 33.65415449483018,35.05492146113613,0 33.65460447339738,35.05492564015429,0 33.65514462410258,35.05515396835077,0 33.65579576522563,35.05738311629953,0 33.65589231157838,35.05739524094466,0 33.65578787690394,35.05817571869234,0 33.65572305534885,35.05869223727885,0 33.65556814729459,35.05983259792501,0 33.65548515421581,35.06044354675551,0 33.65540677323198,35.06099017829009,0 33.65527256763874,35.06207807398854,0 33.65511229840654,35.0631050358848,0 33.65480130401426,35.06543089945486,0 33.65478191134093,35.06557592372383,0 33.65471148175166,35.06611292871779,0 33.65458391554605,35.0670787323225,0 33.65452856362239,35.06746393514011,0 33.65451558872201,35.06775693871899,0 33.65450598878955,35.06802966876163,0 33.65441516989767,35.06803695084345,0 33.65438277617726,35.06811863451328,0 33.65470524919068,35.06816594201263,0 33.65456038194963,35.06863389490442,0 33.65443630101414,35.06861418748035,0 33.65416522835925,35.06984506511379,0 33.65443850435463,35.0699250988355,0 33.6543265314832,35.07038758353971,0 33.65405330823061,35.07031434132512,0 33.65394051996066,35.07067494330453,0 33.65342771457426,35.07060299212733,0 33.65349537645766,35.07079960545081,0 33.65337902393968,35.07084271337499,0 33.65364126642314,35.07163438308439,0 33.65279143959322,35.07379367439912,0 33.65299870973575,35.07379091443733,0 33.65295373825648,35.07436850583346,0 33.65286302039337,35.07438937119461,0 33.65281631662944,35.07474961708807,0 33.65264482968773,35.07477942530895,0 33.65259384151253,35.07519153078427,0 33.65229762027997,35.07521371589511,0 33.65226501643215,35.0753134171814,0 33.6519353725628,35.07533234864256,0 33.6518569308403,35.07544259197086,0 33.65170667806863,35.07544683199487,0 33.65176531181599,35.0759956243976,0 33.65180009983186,35.07617046524672,0 33.65187608666024,35.07627644598206,0 33.65181794367174,35.07631450989083,0 33.65227356925195,35.07691264635964,0 33.65197919809265,35.07716819144805,0 33.6518492409243,35.07710025229022,0 33.65175696496345,35.0770458369578,0 33.65167412892904,35.0771286481244,0 33.65265302712503,35.07790586198192,0 33.65254110611352,35.07800599013473,0 33.65170643499724,35.07751628146806,0 33.65152720135041,35.07755156427847,0 33.65179592919885,35.07774573955005,0 33.65161241174706,35.0777673172424,0 33.65141617955996,35.07776493983598,0 33.65128504755979,35.07807451666209,0 33.6508523254738,35.07930889905409,0 33.65096228408024,35.07948676911174,0 33.65097213306456,35.07967547223137,0 33.65094844805943,35.07984719546995,0 33.65080467800543,35.08014311217421,0 33.65089684783121,35.08018380049344,0 33.65088893530023,35.08023875331451,0 33.65060833114357,35.08012700584375,0 33.65034035326779,35.0805540014,0 33.65018795770505,35.08081564385748,0 33.65087932270248,35.08113110414602,0 33.65059308564322,35.08188766204308,0 33.65024498261431,35.08274064515722,0 33.6502953255598,35.08277126243215,0 33.65021761101382,35.08297416240804,0 33.65102968255813,35.08324092724845,0 33.65141775314807,35.08321481922152,0 33.65141810782596,35.08325943279878,0 33.65136811880924,35.0832734286766,0 33.65135166421489,35.08330440428566,0 33.65124726613069,35.08330153337953,0 33.65123247526147,35.08354184738666,0 33.65049764511356,35.08353892730619,0 33.65037182730217,35.08346753196518,0 33.65016316581497,35.08347894662533,0 33.64962803634697,35.08391423572109,0 33.64903131065208,35.08448026607688,0 33.64923669768536,35.08458212403668,0 33.64934513701662,35.08456781515564,0 33.6493506986372,35.08474281387198,0 33.64968149779817,35.08486459091595,0 33.65004255672097,35.08511661784759,0 33.65023110990241,35.08520140446904,0 33.65030903720853,35.08555104261489,0 33.65037277853303,35.08569140949214,0 33.65011818744577,35.08570307043126,0 33.65012298836194,35.08578197898859,0 33.65006882297369,35.08579599672554,0 33.6500661992969,35.08599162982028,0 33.65009984461344,35.08602233666208,0 33.65011771512976,35.08616981370022,0 33.65041029235158,35.0862094277024,0 33.65041067375411,35.08625747183113,0 33.65032316222825,35.08627853266258,0 33.65032367978943,35.08634373682546,0 33.65019941015456,35.08646795207096,0 33.65028497973243,35.08672831915671,0 33.65034679862897,35.08688928779837,0 33.64903025994057,35.08724639662913,0 33.64968040282807,35.0881489415957,0 33.64979714181,35.08812772460228,0 33.65000774950301,35.08835996519764,0 33.65005048049207,35.08848328493873,0 33.65023489397905,35.08857152616933,0 33.65037820979044,35.08874235342293,0 33.65037056862507,35.08883162439633,0 33.65044724682303,35.08902340042055,0 33.65092434607615,35.0912653122087,0 33.6506931485327,35.09159601644275,0 33.65036059787789,35.09178312460455,0 33.65008650010991,35.09196991757827,0 33.65016247248726,35.09207246751396,0 33.65073637305034,35.09178110848342,0 33.65109326632991,35.09150463954181,0 33.6511777530117,35.09162773458078,0 33.6513372868918,35.09173669911,0 33.65129274994904,35.09243704868953,0 33.65140174508638,35.09249137252153,0 33.65153508257553,35.09245633823098,0 33.6516713686194,35.09279193318192,0 33.65188007976864,35.09278394715381,0 33.65221399828848,35.09276842412036,0 33.65227513032395,35.09310442259162,0 33.65236011353289,35.09328928843091,0 33.65192685952787,35.09341516737777,0 33.65198733640916,35.0936688045951,0 33.65210435581751,35.09368190263018,0 33.65227465105107,35.09409281556734,0 33.65228546081683,35.09440163000038,0 33.6522868819901,35.0945800812428,0 33.65296423141259,35.09469312082127,0 33.65295779640009,35.09493338867475,0 33.65311695490952,35.09499430667906,0 33.65309299684576,35.09513171170796,0 33.65316853916499,35.09517935177689,0 33.65311123184527,35.09532380056972,0 33.65312875430656,35.09542666338518,0 33.65245030507249,35.09517635471284,0 33.65239179481408,35.0951698054364,0 33.65239932491379,35.09506680770644,0 33.65212330831248,35.09501338234515,0 33.65193161962033,35.0950624601813,0 33.65179975395927,35.0952828108933,0 33.65210972179264,35.09540469282911,0 33.65215229583416,35.09550742195367,0 33.65226980985033,35.09558229147383,0 33.65223684407285,35.09563737902406,0 33.65181885884992,35.09558471660941,0 33.65157127907116,35.09595669418568,0 33.65145420079064,35.09593673186067,0 33.65139564790866,35.09604650540898,0 33.6513364788174,35.09603468511133,0 33.65120892293635,35.0962447532479,0 33.65109459072458,35.09626053953072,0 33.65108018438957,35.09630613547765,0 33.65087724291514,35.09632239734839,0 33.65084538843871,35.09649553680677,0 33.65103443048839,35.09658859223937,0 33.65077282633133,35.09665675658529,0 33.65076676833672,35.09682368846803,0 33.65098479181189,35.09684679439572,0 33.6510300615213,35.09696793210532,0 33.65111505221653,35.09697657979017,0 33.65114492659606,35.09701890294065,0 33.6513999921609,35.09705698143564,0 33.65160602438714,35.09696483807494,0 33.6519637193262,35.0969082934342,0 33.65209615076106,35.09684689131047,0 33.65219443991882,35.09729945626333,0 33.65067653244616,35.09801370955373,0 33.65062559113057,35.09810805326641,0 33.65064088892779,35.09817473108544,0 33.65022375194762,35.09818607207485,0 33.65023665997648,35.09841662709962,0 33.64981199293982,35.0984098007155,0 33.64968706190402,35.09848633331884,0 33.64937658582773,35.09844551304862,0 33.64931787239848,35.09849134517729,0 33.64868826265758,35.09824891890577,0 33.6484289622511,35.09857100020365,0 33.64605787824531,35.09899732027199,0 33.64765190762582,35.10016739230122,0 33.64725578596604,35.10127164591723,0 33.64643875805477,35.10114603582813,0 33.64668734729273,35.10058324296352,0 33.64544035174855,35.10028725141174,0 33.64535147515242,35.10025434412113,0 33.64421232261902,35.10048192349012,0 33.6433431230296,35.10029232822914,0 33.64310084379038,35.10094300374926,0 33.6429529399772,35.10091647777718,0 33.64259389526634,35.10198046723967,0 33.64211327746373,35.10190411562917,0 33.64189849591054,35.1027670599838,0 33.64177638104616,35.10320467855779,0 33.64137717996734,35.10315217029044,0 33.64140481614987,35.1029092608075,0 33.64053938473422,35.10273176475409,0 33.63978491567184,35.10257795331279,0 33.63971163897031,35.10265116807815,0 33.63945984881661,35.10256146105885,0 33.63903031247155,35.10335270395345,0 33.63844464707508,35.10306447449792,0 33.63859745344187,35.10371912792429,0 33.63845733189708,35.10374414225517,0 33.63841212412648,35.10362906865905,0 33.63769144980564,35.10360860502185,0 33.63754441004254,35.10410702149743,0 33.63715749810883,35.10404882535219,0 33.63700483711375,35.10481930583344,0 33.63655447552843,35.10482167136686,0 33.63663063060799,35.10436065490632,0 33.63600941035845,35.10424860383268,0 33.6359121032272,35.10503202321736,0 33.63591295028545,35.10591015801452,0 33.63529815941472,35.10582926327655,0 33.63458061415226,35.10570659641748,0 33.63452402729315,35.10602855304069,0 33.63354813097715,35.10589406895821,0 33.63325823925966,35.10700557021649,0 33.63273522429547,35.10690696917909,0 33.63281235325259,35.10656283194659,0 33.63212728466404,35.10647804691095,0 33.63202516019531,35.10664244368704,0 33.63147862045405,35.10663922271251,0 33.63132569761552,35.10787810824596,0 33.63112863747721,35.10818258657105,0 33.63107147405586,35.10843171647008,0 33.63080350297187,35.10816000340192,0 33.6299421595356,35.10763029583715,0 33.62958589475324,35.10732880243096,0 33.62914274202871,35.1073250339808,0 33.6291078218003,35.10758618484355,0 33.6283472484303,35.1076022675512,0 33.62837934997744,35.10793589888961,0 33.62795816436835,35.10790773592971,0 33.62739962247043,35.10779528914934,0 33.6274026197588,35.10770418871993,0 33.62651743610618,35.10742336647131,0 33.62631757958838,35.10834435787349,0 33.62621842524061,35.10832943194104,0 33.62617153512532,35.10905557624073,0 33.62599059155506,35.10906865520436,0 33.62583277775344,35.10912436578163,0 33.62575412074131,35.10927044691751,0 33.62575501155509,35.10938698167174,0 33.62578724389849,35.10953423817867,0 33.62568802256406,35.10960458218004,0 33.62540260651929,35.10948460843358,0 33.62533557010919,35.10941512240354,0 33.6250015190658,35.10951917941171,0 33.62479510166771,35.1095687961105,0 33.6248750226672,35.11036343026004,0 33.62426919062933,35.11033620710517,0 33.62417942780134,35.11115599256703,0 33.62400150049486,35.11203692162486,0 33.62446748365242,35.1121255582425,0 33.62441589935261,35.11310901208453,0 33.62502161293564,35.11311802775995,0 33.62503029622385,35.11328791718168,0 33.62495853547045,35.11383388132787,0 33.62476415146694,35.1157159492327,0 33.62495405121168,35.11587146648466,0 33.62538584625898,35.11644223125573,0 33.62421521660065,35.11638985407056,0 33.62353644754798,35.11629898979994,0 33.6230111984236,35.11626125137325,0 33.62284635336209,35.1180669656002,0 33.62128337369387,35.11805046349874,0 33.62080854345145,35.11804198316754,0 33.62036412741533,35.11801016781693,0 33.62039443377759,35.11784281882651,0 33.61873473331149,35.11734395688847,0 33.61880880638491,35.11699406375492,0 33.61841416827647,35.11756288699485,0 33.61777531079418,35.11743126926466,0 33.61779620783192,35.11726105373194,0 33.61754441125068,35.11720765832117,0 33.61747203377553,35.11741458839046,0 33.61658310075423,35.11719432676814,0 33.6166594875847,35.11653780172003,0 33.61596316525265,35.11636515764884,0 33.61383788552948,35.11593243975838,0 33.61380894903706,35.11601764084322,0 33.61313463562423,35.11582056744279,0 33.61311916576409,35.11572951573925,0 33.61199090736129,35.11523947255987,0 33.61157080951347,35.11518696022281,0 33.61092242256697,35.11516974287169,0 33.61089354050969,35.11464063886558,0 33.61080472437129,35.1144328005285,0 33.61058296511563,35.11422904720544,0 33.61021125977725,35.1139782438647,0 33.60991126525396,35.11387048940784,0 33.60973157066705,35.11373481242315,0 33.60942258079558,35.11353491014294,0 33.60923295458606,35.11343106457627,0 33.60848480992562,35.11308221957173,0 33.60862283735782,35.11296188734341,0 33.60891300077609,35.11292065074383,0 33.60958070069317,35.11286955803385,0 33.609557544647,35.11236048789293,0 33.6096442663442,35.11230435916519,0 33.60966250446796,35.11215310277917,0 33.60958487188388,35.11212962427896,0 33.60956473768646,35.11202629687868,0 33.60945788217532,35.11197909812929,0 33.60926152093511,35.1116141066049,0 33.6094331279203,35.11125522199646,0 33.60956831773326,35.11120680624915,0 33.60967768362132,35.11029130965679,0 33.60977831540843,35.10950315438616,0 33.60984401108791,35.10922436247185,0 33.61002713065942,35.1091120558324,0 33.6099480189182,35.10888968419826,0 33.61003479599272,35.10884151150952,0 33.6100323059879,35.10850736991438,0 33.60954799765232,35.10847798230536,0 33.60960871692871,35.10753090623565,0 33.60960048250323,35.10642505532805,0 33.60942885556063,35.10547914713806,0 33.61018237844358,35.10526054366092,0 33.61048142321219,35.10511582904079,0 33.61079068166612,35.10504266633598,0 33.61074091151249,35.1048599284949,0 33.61041157964824,35.10483771819133,0 33.61062213874008,35.10321362209044,0 33.61106959600267,35.10220094768083,0 33.61121290616509,35.10194563067024,0 33.61188271473472,35.10218889000241,0 33.61169788952466,35.10207048243936,0 33.61146311792507,35.1017454679895,0 33.61150878812738,35.10137925849616,0 33.61172835120659,35.1009644355912,0 33.612668851005,35.10115858844377,0 33.61274575958925,35.10108659472355,0 33.61312365952789,35.10113242031511,0 33.6133365387171,35.0998265493243,0 33.61329465981532,35.09940509012814,0 33.61281058299459,35.09939958121859,0 33.61304544418598,35.09844366622863,0 33.6134423937248,35.09844961419011,0 33.61361713784993,35.09722349594532,0 33.61414004199605,35.09724471647807,0 33.61417583939405,35.0968546877315,0 33.61411465623845,35.09644128213439,0 33.61429984270512,35.09531853858723,0 33.61537574255526,35.09550402822416,0 33.61546961212509,35.09511370426956,0 33.61518734328504,35.09490827897469,0 33.61463135487148,35.09434621797863,0 33.615358770727,35.09453347388006,0 33.6158516504554,35.09313865851765,0 33.61595758741363,35.0930665161785,0 33.61609895182328,35.09255660904466,0 33.6160302374124,35.09242966116142,0 33.61597036582348,35.09219128274761,0 33.61584202024873,35.09185777977265,0 33.61545119515903,35.09137444407891,0 33.61525582674903,35.09090771883393,0 33.61597018646778,35.09097765048505,0 33.61611172386078,35.09030791924724,0 33.61659868286687,35.09036952517523,0 33.61683156993096,35.08894628262081,0 33.61731611967603,35.08895884395682,0 33.61792023057426,35.08906846409438,0 33.61809935242547,35.08857919416562,0 33.61769599043419,35.08842347267045,0 33.61801085522129,35.0877531940022,0 33.61809976347332,35.087422160676,0 33.61746784795709,35.08726009000988,0 33.61785356500731,35.08628892318612,0 33.61907957495483,35.08644796030527,0 33.61923728151418,35.08554557123301,0 33.61969467477016,35.08559582667808,0 33.61986917590851,35.08449800814341,0 33.61998804949306,35.08450491448473,0 33.6201721391289,35.08346715241922,0 33.61993348332405,35.08333313422694,0 33.62029916698217,35.08213666626158,0 33.6186396908195,35.08145392889426,0 33.61871150253209,35.08128075823699,0 33.61940780428598,35.08150260007292,0 33.6214897017634,35.08244612476482,0 33.62160874345017,35.08247556721908,0 33.62226787722968,35.08261493747218,0 33.62218510801166,35.08254774382652,0 33.62222909416072,35.08232212186991,0 33.6220002633461,35.08227821690138,0 33.62196290701127,35.08217322351125,0 33.62180713558751,35.08212143029269,0 33.62170597319777,35.08203930341987,0 33.62177794992229,35.08188867049945,0 33.62178646229047,35.08180598130441,0 33.62161258377058,35.08177682011878,0 33.62163891921529,35.08163393436988,0 33.62180331596115,35.08161806523783,0 33.62182879586622,35.08136248567669,0 33.62094158577362,35.08127687305509,0 33.62097968832227,35.08117900608628,0 33.6211235128546,35.0802579026031,0 33.62187767881776,35.08027657702578,0 33.62232542094511,35.08026301089177,0 33.62236112217962,35.08015012950357,0 33.62259431762131,35.08016771494849,0 33.622565472959,35.07998003333994,0 33.62268205674391,35.07968642005621,0 33.62348642668331,35.07969731356068,0 33.62353317454604,35.0786339554063,0 33.62266998123558,35.07869849572717,0 33.62272744184045,35.07904380842685,0 33.6226600394123,35.07919441847208,0 33.62250244347474,35.07950326858696,0 33.62238511644804,35.0796992145461,0 33.62241416030464,35.07991319166885,0 33.6224055916708,35.0799883671647,0 33.62236474981829,35.08002614253164,0 33.62230083214973,35.08003398369343,0 33.6222183507588,35.08000435431084,0 33.6220343091187,35.07984000820797,0 33.62188736885597,35.0797468469632,0 33.62181419703205,35.07973970901873,0 33.62175921924061,35.07972120757111,0 33.62258088564784,35.07822240107673,0 33.6222240070605,35.07818599624441,0 33.62223510826805,35.07760601390399,0 33.62254343953157,35.07737501033718,0 33.62270613112074,35.07736142930724,0 33.62283587890706,35.07709310541602,0 33.62344550879588,35.0767267229914,0 33.62385561587759,35.07560937238713,0 33.62408365302904,35.07501552780964,0 33.6246635003175,35.07379533626587,0 33.6249555006675,35.07320434691408,0 33.62519919932988,35.07276018048899,0 33.62528213846365,35.0727087706987,0 33.62556078490963,35.07244292195761,0 33.62568306122054,35.07228664846919,0 33.62573948935143,35.07213071460721,0 33.62574684286894,35.07201563563264,0 33.6255792808516,35.07163077610137,0 33.62518058775025,35.07115913589074,0 33.62508037314583,35.07097017382687,0 33.62502115852055,35.07076069908091,0 33.6250028909235,35.07052394518151,0 33.62509949290775,35.07023922896114,0 33.62519206557123,35.07007435011513,0 33.62531634419636,35.06961676491063,0 33.62530056401182,35.06922292935624,0 33.62524741617571,35.06895533900593,0 33.6251438047673,35.06877204439525,0 33.62491139029796,35.0684528558733,0 33.62456399449484,35.06813425901821,0 33.62408169200708,35.06771656230812,0 33.62361919727945,35.06738279837919,0 33.62339382098694,35.0671476063345,0 33.62307290528713,35.06694967007487,0 33.62232308149785,35.06663313325593,0 33.62211120355426,35.06649240923753,0 33.62189281865373,35.06633596263475,0 33.62155159172043,35.06598581145373,0 33.62101107159918,35.06546860834496,0 33.62095941201827,35.06539534110908,0 33.62090755258262,35.0652958143814,0 33.62074099247572,35.06523364009529,0 33.62032574393466,35.06523051203652,0 33.61951484549066,35.06528192680362,0 33.61941164834746,35.06515114776934,0 33.61936891752836,35.06541397812972,0 33.61914486643484,35.06535209520497,0 33.61905627406235,35.06461723367509,0 33.61917019364287,35.06426475179313,0 33.61891748068646,35.06421351874476,0 33.61888207074265,35.06417693400108,0 33.6188087500104,35.06419569124377,0 33.61858865002137,35.06423357934666,0 33.61881966206325,35.06394877983907,0 33.61893158696861,35.06396659193502,0 33.61902696645161,35.06390832994139,0 33.61924815608945,35.06401487229113,0 33.61936144979058,35.06379107372953,0 33.61950711700154,35.06362488408156,0 33.61964237357883,35.06331034716556,0 33.61945221053406,35.06319084447615,0 33.61948789203956,35.06306516925839,0 33.61947553126356,35.06304515278722,0 33.61939036548355,35.06308574600659,0 33.61929841324991,35.06303601832067,0 33.61930398651068,35.06296571306783,0 33.61924244506273,35.06290077036535,0 33.61919978639403,35.06291102793831,0 33.61913851036449,35.06288122222688,0 33.61946601344162,35.06259342390523,0 33.61959455663077,35.0626379455674,0 33.6195287304384,35.06281397289198,0 33.6197982945462,35.06293808967797,0 33.61993851735026,35.06291227449328,0 33.6199808343701,35.06285684111084,0 33.62000487405884,35.06280652013725,0 33.61988179041113,35.06267663631761,0 33.62028785496628,35.06228301997806,0 33.62020181831531,35.06220816321582,0 33.62041301930982,35.06188079953762,0 33.62051414236778,35.06152889914129,0 33.62063639060229,35.06154835331254,0 33.62082492185698,35.06058342869885,0 33.62125927377095,35.06061408256839,0 33.62120598161695,35.06036542914276,0 33.62117553620521,35.06011665868726,0 33.62111025182312,35.05979291861038,0 33.62104028697719,35.05960540774186,0 33.62109055592375,35.05945485526551,0 33.62115845649763,35.05936996608047,0 33.62127141217706,35.05920030550565,0 33.62139022098243,35.05904940184134,0 33.62169716078267,35.05885056649981,0 33.62169823080205,35.05864695614062,0 33.62178581681917,35.05812918588627,0 33.62176208464049,35.05801643677773,0 33.62197449386257,35.0573663452747,0 33.62217008329102,35.05719019728657,0 33.62227646655234,35.05690784831415,0 33.62240980402723,35.05641400755705,0 33.62263005982199,35.05608410640921,0 33.62300292046536,35.0555420687058,0 33.62346319870196,35.05522971921384,0 33.62369612002585,35.05506413690561,0 33.62387164063244,35.05486127444325,0 33.62396791400655,35.05475275532589,0 33.62416742171887,35.05470006423942,0 33.62440637390133,35.05457671986296,0 33.62453059628496,35.05438821118707,0 33.62463368782092,35.05442525442704,0 33.62475815984727,35.05426962105195,0 33.62486028536413,35.05417985719713,0 33.62493917235712,35.05403854914086,0 33.62505127851141,35.05395501918147,0 33.62506725274647,35.05379973985208,0 33.62492863609177,35.05362174302135,0 33.62480796586775,35.05354711828178,0 33.62452670048555,35.05341218182017,0 33.62430219612765,35.05322051674106,0 33.62422623955906,35.05300927650028,0 33.62393371773362,35.05289791142731,0 33.62377812841763,35.05274351449599,0 33.62307206441366,35.05239912700686,0 33.62285382026656,35.05227797165046,0 33.62255808355923,35.05213411787614,0 33.62249342267609,35.05100220750955,0 33.62236578256985,35.04968695565474,0 33.622468114227,35.04942235128492,0 33.62276550576882,35.04912892928985,0 33.62344703675544,35.04871651934256,0 33.62377470306645,35.04808078582006,0 33.62406367412933,35.04783930758482,0 33.62502645772167,35.04742853260766,0 33.62571384282086,35.047051498599,0 33.62607686172919,35.04666349195217,0 33.62634765007743,35.04617187003069,0 33.6265158064117,35.04586224881993,0 33.62642551830999,35.04551552715171,0 33.62640789630912,35.04540936258101,0 33.62642652034766,35.04502223740485,0 33.62654908961176,35.04480242117182,0 33.62684952090034,35.04456090683929,0 33.62755436796783,35.04425698412031,0 33.62836819947442,35.04393625504495,0 33.62886933281488,35.04364701242872,0 33.62894361513543,35.04355949236523,0 33.62908252946337,35.04311304914807,0 33.62919741252473,35.04238580180574,0 33.62921021678149,35.04198217002627,0 33.62939188082414,35.04145772888467,0 33.62965119872637,35.04097793029786,0 33.62987741290671,35.04084753096265,0 33.63025031338672,35.04080171960139,0 33.63070962944164,35.04084064862977,0 33.63103419850239,35.04091297160075,0 33.63143593738403,35.04090484480667,0 33.63200941163717,35.04077825582905,0 33.63229002972104,35.04061702727127,0 33.63239612096665,35.04059314784089,0 33.63248800442085,35.04060706880843,0 33.63277260557304,35.04073377610752,0 33.63339138459065,35.04119003851267,0 33.63416481116457,35.04156092436169,0 33.63428356185857,35.04184147911201,0 33.6343989268542,35.04198750895073,0 33.63473568727861,35.0422415278876,0 33.63522654764451,35.04238940123595,0 33.63525589648737,35.04239824176906,0 33.63535970972905,35.04249940614204,0 33.636078979125,35.04325797969658,0 33.63728386454792,35.04385816726704,0 33.63782019765966,35.04445655447756,0 33.6385906215157,35.04496505259682,0 33.63895511793106,35.0452372282538,0 33.6393244123272,35.04554066607162,0 33.64000059106061,35.04611242436609,0 33.64027853389607,35.0464098419532,0 33.64057380023326,35.04653878556225,0 33.64088551176503,35.04662671432869,0 33.64116452259741,35.04663431633305,0 33.641245233002,35.04663644343481,0 33.64177817720483,35.04665048880165,0 33.64269560236401,35.04663715275061,0 33.64286485435034,35.04659966362592,0 33.64293946522599,35.04652348020396,0 33.64318534340805,35.0461880778189,0 33.64344675950023,35.04599227823519,0 33.64373853445098,35.0458949691126,0 33.64426774881164,35.04585040971611,0 33.64470362190837,35.04582620103876,0 33.64481200372316,35.04582018148812,0 33.64552350535862,35.04577511998453,0 33.64581811423644,35.04576199612556,0 33.64606105477514,35.04575981118631,0 33.64649863496039,35.04581078369211,0 33.64696465839572,35.04585127828989,0 33.64722205150294,35.04589780681493,0 33.64755925341656,35.04591947274555,0 33.64792860027589,35.04586301287498,0 33.64809824458478,35.04582352858316,0 33.64883382353787,35.04536784518499,0 33.64954291768819,35.04492418591645,0 33.6502551117952,35.04443962373582,0 33.65074870478909,35.04414343315297,0 33.65078476483318,35.04413541286347,0 33.65282435529895,35.04808895709839,0 33.65308660664925,35.04866273304195,0 33.65330858214728,35.04910044608911,0 33.65320314405444,35.04942902360471,0 33.6533639448017,35.04958961386591,0 33.65348753250305,35.04969994937273,0 33.65358609809033,35.04974987338756,0 33.65367929246396,35.0497306969569,0</coordinates>
						</LinearRing>
					</outerBoundaryIs>
				</Polygon>
			</MultiGeometry>
		</Placemark>
	</Document>
</kml>