<?xml version='1.0' encoding='UTF-8'?>
<kml xmlns="http://www.opengis.net/kml/2.2">
	<Document>
		<name>ATHIENOU, AVDELLERO</name>
		<Style id="PolyStyle70">
			<LabelStyle>
				<color>00000000</color>
				<scale>0.000000</scale>
			</LabelStyle>
			<LineStyle>
				<color>ff0055ff</color>
				<width>2.000000</width>
			</LineStyle>
			<PolyStyle>
				<color>00828282</color>
				<outline>1</outline>
			</PolyStyle>
		</Style>
		<Placemark id="ID_70172">
			<name>ATHIENOU, AVDELLERO</name>
			<snippet />
			<description>&lt;html xmlns:fo="http://www.w3.org/1999/XSL/Format" xmlns:msxsl="urn:schemas-microsoft-com:xslt"&gt;

&lt;head&gt;

&lt;META http-equiv="Content-Type" content="text/html"&gt;

&lt;meta http-equiv="content-type" content="text/html; charset=UTF-8"&gt;

&lt;/head&gt;

&lt;body style="margin:0px 0px 0px 0px;overflow:auto;background:#FFFFFF;"&gt;

&lt;table style="font-family:Arial,Verdana,Times;font-size:12px;text-align:left;width:100%;border-collapse:collapse;padding:3px 3px 3px 3px"&gt;

&lt;tr style="text-align:center;font-weight:bold;background:#9CBCE2"&gt;

&lt;td&gt;4&lt;/td&gt;

&lt;/tr&gt;

&lt;tr&gt;

&lt;td&gt;

&lt;table style="font-family:Arial,Verdana,Times;font-size:12px;text-align:left;width:100%;border-spacing:0px; padding:3px 3px 3px 3px"&gt;

&lt;tr&gt;

&lt;td&gt;DIST_CODE&lt;/td&gt;

&lt;td&gt;4&lt;/td&gt;

&lt;/tr&gt;

&lt;tr bgcolor="#D4E4F3"&gt;

&lt;td&gt;VIL_CODE&lt;/td&gt;

&lt;td&gt;103&lt;/td&gt;

&lt;/tr&gt;

&lt;tr&gt;

&lt;td&gt;VIL_CCD&lt;/td&gt;

&lt;td&gt;4103&lt;/td&gt;

&lt;/tr&gt;

&lt;tr bgcolor="#D4E4F3"&gt;

&lt;td&gt;VIL_NM_E&lt;/td&gt;

&lt;td&gt;ATHIENOU, AVDELLERO&lt;/td&gt;

&lt;/tr&gt;

&lt;tr&gt;

&lt;td&gt;VIL_NM_G&lt;/td&gt;

&lt;td&gt;ΑΘΗΕΝΟΥ, ΑΒΔΕΛΛΕΡΟ&lt;/td&gt;

&lt;/tr&gt;

&lt;/table&gt;

&lt;/td&gt;

&lt;/tr&gt;

&lt;/table&gt;

&lt;/body&gt;&lt;script type="text/javascript"&gt;

				function changeImage(attElement, nameElement) {

				document.getElementById('imageAttachment').src = attElement;

				document.getElementById('imageName').innerHTML = nameElement;}

			&lt;/script&gt;&lt;/html&gt;

</description>
			<styleUrl>#PolyStyle70</styleUrl>
			<MultiGeometry>
				<Polygon>
					<extrude>0</extrude>
					<altitudeMode>clampToGround</altitudeMode>
					<outerBoundaryIs>
						<LinearRing>
							<coordinates> 33.58571110773607,35.03216399171656,0 33.58518623261346,35.03230801344233,0 33.58405405322773,35.03261766149382,0 33.58228576436249,35.03311461068977,0 33.58151240219099,35.0333319420225,0 33.58090047213759,35.03277572745859,0 33.58089576494184,35.03260609613426,0 33.5808260375309,35.03246164046779,0 33.58053156297325,35.03235940583434,0 33.5786534595964,35.03185886133216,0 33.5782851672905,35.031959799809,0 33.57802645456513,35.0319478610996,0 33.57698435768967,35.03172630775529,0 33.57680496323079,35.03166135156105,0 33.57678784319106,35.0315849115433,0 33.57671692069461,35.03100661791738,0 33.57678558697024,35.03077146942518,0 33.57693034664939,35.03054171462153,0 33.5769873213025,35.03035804149538,0 33.57699690344446,35.03015639607374,0 33.57686924309727,35.02984659601088,0 33.57667926807001,35.02962314575555,0 33.57643058004589,35.02956529502821,0 33.57630862198229,35.0294821352968,0 33.57622008908976,35.02925845938796,0 33.57607954802515,35.02918090247234,0 33.57560223641683,35.0289831143768,0 33.5753688911702,35.0289697236456,0 33.57513539833226,35.02890349442357,0 33.57501517479285,35.02883562475132,0 33.57481676556991,35.02861636155476,0 33.57463059391814,35.02854307451322,0 33.57451369792715,35.02845572897768,0 33.57432510281223,35.02811546932914,0 33.57409777419904,35.02782952398453,0 33.57381982223455,35.02757845149327,0 33.57333741204452,35.02674659438695,0 33.57317578301679,35.02637290106468,0 33.57264918432869,35.02545075456253,0 33.57232263115477,35.02472979334679,0 33.572343931921,35.02448084543862,0 33.57228798867942,35.02380239878461,0 33.57222357733404,35.02373996534678,0 33.57212511497475,35.02349166861819,0 33.57193447544831,35.02322089062034,0 33.5716615520839,35.0230248607818,0 33.571537013565,35.02278106090262,0 33.57136664555627,35.02255572659129,0 33.57116992189738,35.02232532936272,0 33.5708630116474,35.0221221985782,0 33.57053013603809,35.02199515895527,0 33.57022795859803,35.02186093777364,0 33.56918146286415,35.02127503682357,0 33.56755662360391,35.02076386170528,0 33.56695548732554,35.02071881833039,0 33.56585885711704,35.02073828865267,0 33.56513372119949,35.02072258464033,0 33.56423143266156,35.02046211720688,0 33.56384719555307,35.02039856246891,0 33.56337720308373,35.02024521675027,0 33.5627757466801,35.02009213815283,0 33.56168520062236,35.01967772894938,0 33.56083941647795,35.0194634134753,0 33.56044446671827,35.0192790435369,0 33.55927937115931,35.01904993161502,0 33.55868812723566,35.01884666986808,0 33.5565229060981,35.0194112332622,0 33.55579364189644,35.01951558452274,0 33.55559813238346,35.0195018588344,0 33.55532357543489,35.01959323124886,0 33.55511783175938,35.01971877898289,0 33.55494942556111,35.02001783491655,0 33.55485670208546,35.02018958185347,0 33.55470473927623,35.02024841658981,0 33.55458930691752,35.02021634913025,0 33.55452527108247,35.02013977665966,0 33.55450158553525,35.01961503948574,0 33.55453170548351,35.01903166214292,0 33.55466046025516,35.01860552409339,0 33.5546990628492,35.01838947962347,0 33.55462948018628,35.01810300387167,0 33.55438239708933,35.01754641273427,0 33.55372713131538,35.016710066066,0 33.55321762615334,35.01619435578622,0 33.552897575382,35.01584579893478,0 33.55260197386013,35.01546691818946,0 33.55218549887469,35.01487634034336,0 33.55181812480717,35.01429172053643,0 33.55153203189581,35.01380786138458,0 33.55144995958993,35.01344269025086,0 33.55146797621958,35.01290777829431,0 33.55133613136711,35.01231058800709,0 33.55131022713896,35.01185649685021,0 33.55130386072441,35.011372092568,0 33.55128823905429,35.01107339952924,0 33.55113747974584,35.01071239799895,0 33.55081986444953,35.01034768436877,0 33.55054965891382,35.01024527041098,0 33.55027963497555,35.01020340648696,0 33.54994989579181,35.00988513666871,0 33.54977351516374,35.00997832504569,0 33.54957708311512,35.00993026251366,0 33.54926959302911,35.00966644535134,0 33.54890798865708,35.00935630876091,0 33.54882536552065,35.00880140600002,0 33.54883738665443,35.00871862811987,0 33.5489941072722,35.00861538732056,0 33.54917563455169,35.00860292711442,0 33.54916569964855,35.00856257886809,0 33.54869154377435,35.00835559636887,0 33.5481780195192,35.00811033733994,0 33.54799616792965,35.00807846514013,0 33.54774260914702,35.00808921055339,0 33.54734813318017,35.00824557326996,0 33.5466071080615,35.00859924205716,0 33.54600687487647,35.00876625216684,0 33.54535654914809,35.00886495539393,0 33.54467701310482,35.00892609094764,0 33.54391827692321,35.00891555385414,0 33.54344624793696,35.00885488385092,0 33.54329815634178,35.00868074573504,0 33.54355298166478,35.00838957169965,0 33.54394940234578,35.00818533943601,0 33.54392847089985,35.00813578972596,0 33.54365206583057,35.00815341030108,0 33.54328683166761,35.00836100310179,0 33.54267101313474,35.00888882903688,0 33.54260499818907,35.00906165907384,0 33.54269723385457,35.00932824156659,0 33.54249009522802,35.00957828464409,0 33.5416291175937,35.01015444376074,0 33.54121378985939,35.01029543573019,0 33.54082926108954,35.01030470083243,0 33.54059008177745,35.0102589757871,0 33.53999943557553,35.0101540537903,0 33.53995376839781,35.01017636770315,0 33.53996731105175,35.01054911552927,0 33.53959813216287,35.01083707392637,0 33.53892983355814,35.01120082089061,0 33.5387719706057,35.01124215109332,0 33.53853082798735,35.01123746482593,0 33.53818760988621,35.01115601752011,0 33.5377484616079,35.01096530768133,0 33.5374198823683,35.0109146108347,0 33.53733887759564,35.0109369891819,0 33.5369905309204,35.01124542039575,0 33.53667515218386,35.01145119168,0 33.53643622710198,35.01149608717642,0 33.53614712836799,35.01144018522088,0 33.53552305307703,35.01127545329306,0 33.53547118093427,35.01130974653541,0 33.53549617747092,35.01206550689804,0 33.53535818573847,35.01252060788782,0 33.53500252636726,35.01318984970799,0 33.53491126777325,35.0132635439827,0 33.53477410439626,35.01327576130147,0 33.5343682409542,35.01309523906956,0 33.53418733832753,35.01307675597442,0 33.53375116810889,35.0132075002325,0 33.53331075501939,35.01330918019595,0 33.53284779615517,35.01352546759589,0 33.53234293118455,35.01362384027103,0 33.53163877421271,35.01382003448695,0 33.53111287770715,35.01383123112256,0 33.53090106156878,35.013910267028,0 33.53064973472281,35.01398424171271,0 33.53058112531446,35.01398094321902,0 33.53050756841433,35.01386438127498,0 33.53045330858708,35.01364637920265,0 33.53024785774785,35.01354288703399,0 33.53009006050262,35.01355095617151,0 33.52986306560537,35.0136474249821,0 33.52933090945747,35.01381882226472,0 33.52911648872497,35.01388788147358,0 33.52844132849044,35.01357330475885,0 33.5283137112567,35.01368828385817,0 33.52749888892713,35.01331653184508,0 33.52731314605701,35.0134363831483,0 33.52678462151475,35.01364763472262,0 33.52679665563063,35.01381500010253,0 33.52731376606753,35.01368985054442,0 33.52744221596237,35.01391442297743,0 33.52723346229236,35.0141347410553,0 33.526791635694,35.01414021288319,0 33.52674574482706,35.01439375322057,0 33.52656543912563,35.01436055684425,0 33.52628049890006,35.0143323056887,0 33.52589681944419,35.01434246636829,0 33.52582090376441,35.01420389297033,0 33.52526851229761,35.01416648925854,0 33.52500777642722,35.01453035583212,0 33.52485069164558,35.01448277447486,0 33.52464160685078,35.01456918015776,0 33.52336431635107,35.01495742104102,0 33.52321737003233,35.01435505983417,0 33.52305615487263,35.01407877753112,0 33.52254297399247,35.01348522967361,0 33.52204474463881,35.01284625613354,0 33.52171794999425,35.01256196824765,0 33.52139140266348,35.01238086137968,0 33.52118537623763,35.01224497207765,0 33.5207425283936,35.01168020109912,0 33.5205010233187,35.01139165429409,0 33.52048018338956,35.01106562936104,0 33.52049907315962,35.01056619676184,0 33.52063893666259,35.0103059672399,0 33.52063865371544,35.01018627513714,0 33.52062317263762,35.0100046976615,0 33.52061258311224,35.00976945696596,0 33.52052172106495,35.00953433787638,0 33.52045115066581,35.00939411638338,0 33.52030532705104,35.00925400741787,0 33.52001411940311,35.00915951708625,0 33.51950235915276,35.00914790332378,0 33.51929417232914,35.00918308035604,0 33.51898295147029,35.00849062193558,0 33.51822985864166,35.0085081071374,0 33.5178179195745,35.00842615266274,0 33.51772486029188,35.00829775737532,0 33.5175386763093,35.00801687295383,0 33.51708336942948,35.00771862804127,0 33.51700779422081,35.00766912339022,0 33.51682180901604,35.00734484469412,0 33.51713732673061,35.00703608704747,0 33.51720560487022,35.00710803097656,0 33.5172932218071,35.00712389389052,0 33.51762017987686,35.00755167422327,0 33.51798982470862,35.00750302100187,0 33.5181597574683,35.00735462152345,0 33.51776945785484,35.00688692148248,0 33.51765657904962,35.00646679666589,0 33.51748063572835,35.00612282976175,0 33.51747526596553,35.00590667723656,0 33.51753819106073,35.00577047025024,0 33.51795150326783,35.00567370727729,0 33.51797063780516,35.00553357015159,0 33.51808203612395,35.00532122357143,0 33.51864594845902,35.00513213881477,0 33.51874718463046,35.00473567153167,0 33.51844040818131,35.00461609433851,0 33.51838173147951,35.00448809525988,0 33.51863472862023,35.00449567897593,0 33.5191102864874,35.00397848952002,0 33.51907576697923,35.00377839957571,0 33.51887588558934,35.00359859529448,0 33.51821996344118,35.00396397242172,0 33.51827854371809,35.00405194107751,0 33.51801123065708,35.00416447262601,0 33.51783042684573,35.00382051420556,0 33.51803882055222,35.00347990974683,0 33.5182677585635,35.00359961843716,0 33.51841371743945,35.00360337695704,0 33.51830072993103,35.00313521387048,0 33.51763905919513,35.0031203072959,0 33.51743644706214,35.00299479184963,0 33.51719095468495,35.00289288202951,0 33.51682125463521,35.00290950572558,0 33.51661506368966,35.00272466218051,0 33.51650925726469,35.00262981212818,0 33.51679121186289,35.00264964481485,0 33.51689851594021,35.00265718710144,0 33.51717763584328,35.00288214613351,0 33.5174398887025,35.00298862952942,0 33.51745309331881,35.00296799123524,0 33.51775886421181,35.00290064075651,0 33.51752380645676,35.0025880498613,0 33.51745252089062,35.00260493888672,0 33.5173245305969,35.00242251428739,0 33.51715778399647,35.00218486000433,0 33.51698293680376,35.00221030354699,0 33.5167649996354,35.00195636630661,0 33.51639180008828,35.00212046427212,0 33.51579131476386,35.00239252231438,0 33.5159004584372,35.00259912797662,0 33.51568014724643,35.00278951628907,0 33.51551753172286,35.00296164801864,0 33.5153186374787,35.00286696325724,0 33.51475610982684,35.00266528401578,0 33.51441123605274,35.00259202496152,0 33.51399086212321,35.00258555858906,0 33.51386121103468,35.00166738689116,0 33.5140169020446,35.0012926214529,0 33.51419353168637,35.00120168680879,0 33.51509533054035,35.00129562031063,0 33.51519765677673,35.00166996208701,0 33.51535154433532,35.00177466628683,0 33.51574504788876,35.0014448294663,0 33.51609838008177,35.00003923640809,0 33.51602539464822,34.99981751363114,0 33.51593240414181,34.99971986552517,0 33.51530040610555,34.99970659754683,0 33.51458454165833,34.99978172306652,0 33.51408713746807,34.9990430615825,0 33.51498809264623,34.99877918535866,0 33.51490511284253,34.99798975023877,0 33.51461542930295,34.99807848712548,0 33.51405983475295,34.99745437327874,0 33.51413559294699,34.99648142281706,0 33.51569162416929,34.99587020446712,0 33.51572177027762,34.99637347759375,0 33.51665801806013,34.99634330153745,0 33.51680740761565,34.99576101258401,0 33.51722229836803,34.99591775967203,0 33.51720514445953,34.99602036161003,0 33.51760281749096,34.9962510833176,0 33.51782582961114,34.9961672218426,0 33.51769220142047,34.99604578871282,0 33.51769972735586,34.99554245371431,0 33.51797198404984,34.99544419728063,0 33.51808635520202,34.99600934957054,0 33.51801410645699,34.99610488706017,0 33.51804640508314,34.99628135373925,0 33.51844979538652,34.99647628277264,0 33.51913121010284,34.99655862941783,0 33.51959190284045,34.99646482318133,0 33.51983512730938,34.99634752724229,0 33.5197855776172,34.99623311176581,0 33.52018468370671,34.99583884382356,0 33.52014399931326,34.99579597553687,0 33.52037556416334,34.99565245940881,0 33.52052036861517,34.99559496469683,0 33.52098825805025,34.99609510936864,0 33.52143667558874,34.99571745243011,0 33.52179777607397,34.99519204670577,0 33.52159730861317,34.99500155470684,0 33.52086372557076,34.99491931045919,0 33.52063165626399,34.99484814034956,0 33.52026819952301,34.99437644335595,0 33.52014930628165,34.99435756064744,0 33.52003582268793,34.99417407590352,0 33.520229728315,34.99404254972631,0 33.52043501971862,34.99382274472225,0 33.52058578708183,34.99383680221664,0 33.52092684379561,34.9932071468581,0 33.52101944820996,34.99303617899123,0 33.52122711386812,34.99269918013342,0 33.52146326336891,34.99242580943315,0 33.5227443012425,34.99246141935056,0 33.52397842735196,34.99220256510572,0 33.52578124982267,34.99178739209273,0 33.52567197781714,34.99014762294737,0 33.52564412406623,34.98966694964354,0 33.52681485804352,34.98665475837878,0 33.52714821420197,34.98621964704347,0 33.52734138205718,34.98605017474108,0 33.5275486825094,34.9859278064655,0 33.52853593171132,34.98578084021034,0 33.5284077878648,34.98457763126939,0 33.52807967201863,34.98316239418396,0 33.52923440522176,34.98294368465536,0 33.52925044106084,34.98293353240638,0 33.5296151028624,34.98270266055921,0 33.52981582862744,34.98260541884509,0 33.53008381650218,34.98258120265539,0 33.53034504690549,34.98268731255534,0 33.5309759123897,34.98331177681283,0 33.53115638565523,34.98340360716689,0 33.53195511276225,34.98345378534248,0 33.53264045797315,34.98335559387836,0 33.53400091493387,34.98296943839125,0 33.53523924983025,34.98270664038364,0 33.53576761176485,34.98261480754051,0 33.53611907835008,34.98250243868512,0 33.5362254675011,34.98248984663376,0 33.5364089624921,34.98270230778714,0 33.53658107710921,34.98298685477637,0 33.53652908800251,34.98315960219152,0 33.53690692365231,34.98322219403383,0 33.53634263893865,34.98404622121594,0 33.53639210660104,34.98423604207729,0 33.53611762693681,34.98489838220416,0 33.53588320628811,34.98485278317278,0 33.53584839071696,34.98491039763491,0 33.5357748925998,34.98488751681137,0 33.53569221646968,34.98535382477456,0 33.53544489237005,34.98571397519508,0 33.53517239603926,34.98581519868568,0 33.53504463718721,34.98592987297535,0 33.53484432928425,34.98610966506499,0 33.53460208585516,34.98649998972507,0 33.5342879756483,34.98673302830851,0 33.53369984570283,34.98674295159983,0 33.53344078216421,34.9868111095038,0 33.5336845190637,34.98708283045059,0 33.53379577026826,34.98726652510322,0 33.53367824420256,34.98747271342866,0 33.53388065206705,34.98764888247526,0 33.53368453614775,34.98788611227951,0 33.53336270413731,34.98786758537437,0 33.5332232632079,34.98786784449991,0 33.53307138517278,34.98790343590328,0 33.53302140195001,34.9879358954063,0 33.53297512542309,34.98802719659869,0 33.53280489636366,34.98883079559371,0 33.5329941433583,34.98929780086006,0 33.533004699533,34.98958852071935,0 33.53309929899369,34.99038899732654,0 33.53301017923599,34.99056126430631,0 33.53323818393815,34.99063963908658,0 33.53313700193007,34.9911642450898,0 33.53321387648749,34.99157983157829,0 33.53316799677724,34.9917347971525,0 33.53322779642581,34.99189771692107,0 33.53331064251281,34.99203070576898,0 33.53325127000036,34.99205798740338,0 33.53332407070829,34.99212849906584,0 33.5334533148929,34.9923374824508,0 33.53379431693975,34.99273899123308,0 33.53406528595325,34.99318416340019,0 33.53419943075917,34.99340454801877,0 33.53426211326607,34.993524789637,0 33.53435698830769,34.99365700815837,0 33.53456012605045,34.99381952066763,0 33.53473667245354,34.99387215744702,0 33.53527572770918,34.99390167128426,0 33.5353527307666,34.99390393864124,0 33.53557425596042,34.99401345977672,0 33.53569147048619,34.99411434463758,0 33.53584182187902,34.9942143665038,0 33.53614744608118,34.99443285612902,0 33.53629102549506,34.99455214624047,0 33.53661369961895,34.99457643147449,0 33.53673082398736,34.99464120862448,0 33.53676535096758,34.99442210131693,0 33.53639282317809,34.99434013705706,0 33.53641596996941,34.99424461367015,0 33.53681950270015,34.99425430861915,0 33.5368514355333,34.99416438555371,0 33.53731578030559,34.99432400913738,0 33.53735617794398,34.99449403555219,0 33.53723749202703,34.99458090828843,0 33.53734956156933,34.99457428357719,0 33.53735171115514,34.99465210855806,0 33.53762009971554,34.99479122918813,0 33.53769153529097,34.99490262609613,0 33.5378197554357,34.99511260977202,0 33.53820463550468,34.99506857545892,0 33.53840758545259,34.99515405545789,0 33.53847919204878,34.99495253030968,0 33.53779422177927,34.99465851964629,0 33.5379352197136,34.99453068545621,0 33.53817720523725,34.99463615303095,0 33.53870995498075,34.99448513150104,0 33.53928739995188,34.99465817875827,0 33.53934338676561,34.99482496675811,0 33.5393192906363,34.99484825189064,0 33.5394665049884,34.99490385963007,0 33.53927839314324,34.99507391442178,0 33.53896330086485,34.9952359242065,0 33.53880791942266,34.99542557935266,0 33.53858029714368,34.99538667653147,0 33.5384570946433,34.99538069409257,0 33.53836429897793,34.99546778750797,0 33.53816115693972,34.99566063459709,0 33.53843753175633,34.9960812902452,0 33.53893737208629,34.99638977558057,0 33.53957467294247,34.9958981038255,0 33.5397018172193,34.99596926874097,0 33.54009773458163,34.99595094448946,0 33.5405304663782,34.99607121432492,0 33.540338423194,34.99617918976912,0 33.54046114332179,34.99648215795234,0 33.54093846452479,34.99634674793185,0 33.5411352170609,34.99659680328998,0 33.54080795375578,34.99691302571006,0 33.54129994125769,34.99709734019202,0 33.54106230455383,34.99755826881758,0 33.54165885425721,34.99782723990568,0 33.54165529712572,34.99790899604091,0 33.54162063005214,34.99811188152855,0 33.54169305572203,34.99840666432442,0 33.54171713228924,34.99848009066724,0 33.541650345503,34.99889827445251,0 33.54163801629441,34.99899039451211,0 33.54170069059743,34.99940212878451,0 33.54197336561251,34.9998383049274,0 33.54233508841965,35.00042147914137,0 33.54237949264839,35.0004930666639,0 33.54251762083959,35.00071739820403,0 33.54255101298747,35.00077162946984,0 33.54299300922241,35.0014826310577,0 33.54361360549554,35.00248824434102,0 33.54442246699706,35.00378719169426,0 33.54460921887773,35.00403710825775,0 33.54509295146222,35.00473328896231,0 33.54524742075164,35.00484842591418,0 33.54537246358729,35.00486191630948,0 33.5455905464655,35.00486610049356,0 33.54580439910706,35.00484515207499,0 33.54665429055598,35.00477736335083,0 33.54672703660439,35.00443557228591,0 33.54662490048461,35.00414437008692,0 33.54697189706697,35.00404662351603,0 33.54707111665158,35.00373792188959,0 33.54716559253644,35.00374803719684,0 33.54724669592419,35.00341651396478,0 33.54741591072365,35.00332251239686,0 33.54773029101478,35.00296428960351,0 33.54823019379005,35.00291654219508,0 33.54814266799691,35.00236592686425,0 33.54779833180145,35.00214410917223,0 33.54768222994382,35.00209365180396,0 33.54734233601783,35.00224966548593,0 33.54750244060343,35.00239678520867,0 33.54742622728478,35.00246662520374,0 33.54718415008416,35.00231051102953,0 33.54687066052139,35.00224956393485,0 33.54671872642493,35.00219976644784,0 33.54655309097043,35.00212309441892,0 33.54668038131297,35.00192975484007,0 33.5466089310647,35.0016876332847,0 33.54642647510027,35.00148913232903,0 33.54640861699855,35.00047331940313,0 33.54636457369608,35.00041387018518,0 33.54621577383254,35.00021302242937,0 33.54635683795549,35.00006423303871,0 33.54634355879014,34.9999647072992,0 33.54628342899905,34.99973814339663,0 33.54624747345883,34.99950388257521,0 33.54604925731557,34.9991320549643,0 33.54562665756417,34.99834096489171,0 33.54534552590042,34.99829548350044,0 33.54511542098874,34.99782109577077,0 33.54603404057525,34.99826831088041,0 33.54610562744845,34.99787612698323,0 33.54733295483779,34.99750346354949,0 33.54807702756381,34.99737204443285,0 33.54866715894727,34.99744610078554,0 33.549330271359,34.99767471312735,0 33.5505320781331,34.99823321696201,0 33.55184258394836,34.99764748903338,0 33.55202812546572,34.9974327624638,0 33.55266643886866,34.99671492871947,0 33.55346931800969,34.99559708437033,0 33.55436807272105,34.99485428997646,0 33.55469407223368,34.99427481856793,0 33.55482526784403,34.99392234475944,0 33.55499968145112,34.99372754243966,0 33.55530630837147,34.99356620414549,0 33.55525555354094,34.99337332177457,0 33.55567966009384,34.99314326038299,0 33.55571635868502,34.99312335232946,0 33.55598723754432,34.99297641018022,0 33.55635147774782,34.99281560404153,0 33.55635751540085,34.9926164962852,0 33.55664182419602,34.99253252704559,0 33.55659361200256,34.9922191829427,0 33.55622065409675,34.99216342434387,0 33.55632470369068,34.99192511116628,0 33.55675785957895,34.99186102346755,0 33.55704727805875,34.99121338881899,0 33.55706842703875,34.99115970448212,0 33.55768856371193,34.99133452536189,0 33.55832677114417,34.99153099846613,0 33.55856085648389,34.99163276681059,0 33.55881327374551,34.99186902248731,0 33.5590711327389,34.99167479111278,0 33.55987153776079,34.99199200076303,0 33.5598547298168,34.99181446358034,0 33.56105428041423,34.99156047999791,0 33.56179063485006,34.99113523727062,0 33.56226119766342,34.99099706612688,0 33.56243114621007,34.99095636341213,0 33.5638364495447,34.99060507572524,0 33.56605719625997,34.99131348184799,0 33.56705629512915,34.99132217390515,0 33.56893258489699,34.99201404862806,0 33.56904152495019,34.99205421887185,0 33.56902470077257,34.99209893484135,0 33.56914389391153,34.99222713228065,0 33.56953763669074,34.99224862339445,0 33.56962903228258,34.99217582189095,0 33.57093709516523,34.99226836334612,0 33.57131402378295,34.99251513696679,0 33.57237764832379,34.99258034716436,0 33.57306765788275,34.99236782439411,0 33.57309524272114,34.99243810269819,0 33.57389108082079,34.99217470014774,0 33.57435596644518,34.99213147657821,0 33.57472239709544,34.99230229737301,0 33.57532415613779,34.99228971734468,0 33.57561859686881,34.99240442282431,0 33.57596049041396,34.99239241433262,0 33.5760563926782,34.99227511810977,0 33.57694800021327,34.99197270568746,0 33.5780997126134,34.99177427677121,0 33.57829282791253,34.99164570880433,0 33.57865664031261,34.9913373676448,0 33.57918094753786,34.99112568371394,0 33.57966763256246,34.99113480080788,0 33.58115907203651,34.99129866424393,0 33.58175542554531,34.99083587186717,0 33.58214808561306,34.99076374796276,0 33.58226751770682,34.99074181082963,0 33.5822595312803,34.99057131704725,0 33.58251467775584,34.9905680541243,0 33.58271576426439,34.99044602392061,0 33.58278627129078,34.99054369526414,0 33.58292480140254,34.99048361805333,0 33.58284841475501,34.99035538915927,0 33.58286980915487,34.99033224722388,0 33.5830761312171,34.99029715875012,0 33.58356151022067,34.98999449648995,0 33.58463416550705,34.9899983004894,0 33.58463184836364,34.99004721692612,0 33.58532690571799,34.98997982073109,0 33.58558599629663,34.98941881710725,0 33.58572728798318,34.98944636330132,0 33.58582399920954,34.98947672232134,0 33.58618301723885,34.98942227751015,0 33.58627557293104,34.98944449393569,0 33.58671643599458,34.98941975950318,0 33.58691113709425,34.98936702774419,0 33.58754917741759,34.98978817740213,0 33.5875795991338,34.98949939766145,0 33.58761215953193,34.98935802738027,0 33.58769271867304,34.98924847991304,0 33.58771750077848,34.989251143515,0 33.58792813935699,34.98952309233806,0 33.58814883036865,34.98958850446032,0 33.5883048154007,34.98956438678757,0 33.58849152667466,34.98934455658677,0 33.58943901698461,34.9892072929629,0 33.58944443349227,34.98909790902064,0 33.58943027600765,34.98906193655041,0 33.58938555920975,34.98902399230862,0 33.58939403690911,34.98884259402396,0 33.5895538408165,34.98872607758187,0 33.58973306891441,34.98873927098946,0 33.5897857430972,34.98868786622977,0 33.58982794732261,34.98871528591339,0 33.58987932015339,34.98876816021347,0 33.58998802040266,34.98867960813568,0 33.59017915232661,34.98879535090374,0 33.5903554013822,34.98865841848976,0 33.59118146755673,34.98851189815056,0 33.59151432199838,34.98878289131429,0 33.59141434354127,34.98900932748406,0 33.59138851679752,34.9899244352929,0 33.59120296287157,34.99024141133512,0 33.59077570419073,34.99087684458301,0 33.59071946692087,34.99109774893451,0 33.59074991449912,34.99155894295151,0 33.59068514312339,34.99219017850103,0 33.59071328764843,34.99221049551805,0 33.59133022098349,34.99223562526305,0 33.59135092088048,34.99225188327417,0 33.59132171506327,34.99240751289547,0 33.59124824470964,34.99266038433291,0 33.59005479080645,34.99234985071982,0 33.58997054749486,34.99234528072829,0 33.58991824353847,34.99250843368218,0 33.58966971310027,34.99251645303995,0 33.58968428645328,34.99267674176627,0 33.59004370355132,34.99273844861565,0 33.59036739146941,34.99306957287401,0 33.59044734416898,34.9931513613253,0 33.59081582555916,34.99326956468815,0 33.59088185940119,34.99306840499877,0 33.59091810907626,34.99295797859856,0 33.59117492542684,34.99295809124161,0 33.59116718759099,34.99306775690899,0 33.59113252698251,34.99355896111682,0 33.59091204206928,34.99357372064187,0 33.59072158682371,34.99355446758601,0 33.59067074140194,34.99353235273794,0 33.59047945084522,34.99326363114407,0 33.59028964492813,34.99343768216312,0 33.59037387410812,34.99347932889435,0 33.59041209033111,34.993521056924,0 33.59043793176394,34.99365684802474,0 33.59056411105803,34.99390740024907,0 33.59072155840231,34.99401944690635,0 33.59043550825213,34.99482844621935,0 33.59041671874428,34.99537705056581,0 33.59025213534591,34.99597815985218,0 33.58996227548969,34.99660038757067,0 33.5897033705654,34.99651594735244,0 33.58933555527027,34.99707692356498,0 33.5896572297341,34.99742770365528,0 33.59054051721402,34.99728377236405,0 33.59100374769752,34.99726205209245,0 33.59097246690234,34.99739663733909,0 33.59058104103629,34.99753970060512,0 33.59054300813372,34.99802695180306,0 33.59055429735005,34.99808178925905,0 33.5917414240368,34.99769828987471,0 33.59176927626536,34.99748795388592,0 33.5921822804974,34.99762827735685,0 33.59257192828503,34.99836945925222,0 33.59271250315769,34.99865002332209,0 33.59309463941551,34.99857488930287,0 33.59336060389931,34.99886698284021,0 33.59357731186377,34.9991382668678,0 33.59379756779526,34.99951925834171,0 33.59387438872245,34.99971373253771,0 33.59425200950898,35.00017672527211,0 33.59444067892315,35.00031277097888,0 33.59446246063222,35.00032646852738,0 33.5945796421954,35.00040645285182,0 33.59386348459405,35.00066757911102,0 33.59398174183737,35.00106513673057,0 33.59497916053707,35.00100238696719,0 33.59507110683919,35.0016822798912,0 33.59493126806119,35.00171561893222,0 33.59372790367042,35.00170114414115,0 33.59342331385783,35.00193584660554,0 33.59285480495447,35.00200858117931,0 33.59271456961203,35.00215423092493,0 33.59187761853111,35.00253793763109,0 33.59123448396063,35.00267980434305,0 33.59130702395645,35.00290625414944,0 33.59158810159909,35.00280954960651,0 33.59169923008374,35.00292999265729,0 33.59145736874667,35.00312513607492,0 33.59162813430904,35.00317154866361,0 33.59169814795787,35.00354825860268,0 33.59125274144235,35.00374632803241,0 33.59093311070678,35.00396135299979,0 33.59099698116575,35.00428881308139,0 33.59070717478323,35.00446928448451,0 33.59021074456156,35.00462559173918,0 33.58991186475946,35.00477652376513,0 33.58980133535799,35.00485067007754,0 33.58962700589881,35.00461952448828,0 33.58901703399874,35.00484505233288,0 33.58931680700489,35.00498477810653,0 33.58917040050858,35.00507378380696,0 33.58942252743604,35.00529490268915,0 33.58843847444757,35.00555575797897,0 33.58836341258584,35.0054820312718,0 33.587893696476,35.00556683579244,0 33.58775249505037,35.00539965614293,0 33.58785951615525,35.00515555863937,0 33.58781955881409,35.00481326375731,0 33.5877952738352,35.00470247535487,0 33.58783340901056,35.00444621604235,0 33.58787746991662,35.00417023938964,0 33.5872139302122,35.00449933374507,0 33.58702896569039,35.00470665692033,0 33.58670673764421,35.00490537322886,0 33.58611314988542,35.00575556355712,0 33.58597577137011,35.00586178744952,0 33.58553951395449,35.00612385958539,0 33.58578922888806,35.00653958340225,0 33.5863669576909,35.00653336767515,0 33.58649076396912,35.00688779107259,0 33.5861230626003,35.00705364644862,0 33.58633085990677,35.0074645361815,0 33.58625909758157,35.00749179171715,0 33.58630693693732,35.00758366048053,0 33.5863582848777,35.00772840885282,0 33.58656312731478,35.00775963465951,0 33.58713231611545,35.00822370617152,0 33.58695212206666,35.00854652002189,0 33.58674958333933,35.00890509239383,0 33.58665579993305,35.00916975991713,0 33.58651575133729,35.0096695728864,0 33.58636604745165,35.00989869192395,0 33.58624185397791,35.01030195991355,0 33.58619493749912,35.01079758533808,0 33.58650299052017,35.01078241919168,0 33.58659931418211,35.01087078046874,0 33.58651276509089,35.01101471944015,0 33.5869250605088,35.01102295295099,0 33.58713204526476,35.01083059153044,0 33.58730685934147,35.01081948502969,0 33.58732051435612,35.01100392318192,0 33.58705069047267,35.0111350901612,0 33.58708046533034,35.01123404627027,0 33.58738007114422,35.01120181809886,0 33.58761657932653,35.01107081078403,0 33.58755581867123,35.01068502737854,0 33.58770153833006,35.01068431468642,0 33.58775956753041,35.01129221236645,0 33.5876600009468,35.01148641289466,0 33.58800285943898,35.01145421804313,0 33.58795341800359,35.01087971130431,0 33.58797921504424,35.01089131458599,0 33.58813303683462,35.01124947565727,0 33.58844631453867,35.01106963942262,0 33.58782829881083,35.01053786441236,0 33.58910259116141,35.01007388989422,0 33.58957079077789,35.00981877196386,0 33.59054663856634,35.00972310191247,0 33.59057559247255,35.0098300350359,0 33.5907235981549,35.00981484357406,0 33.59073985260668,35.00961509221538,0 33.59096808240472,35.00947509646194,0 33.59140386806313,35.00926755428334,0 33.59131468662668,35.00912043334553,0 33.59109320800798,35.00921408692809,0 33.5910860507725,35.00919965324806,0 33.59210691022656,35.00868723870652,0 33.59240785433835,35.00845349581842,0 33.59248923261047,35.00823284804987,0 33.59288811275692,35.00805073640353,0 33.59315399835538,35.00770512391983,0 33.5932810408936,35.00772854364584,0 33.593388894438,35.00779608823328,0 33.59323483566809,35.00808111450461,0 33.59300169828998,35.00823439192297,0 33.59274656140977,35.00872019746109,0 33.59288985388024,35.00895981355354,0 33.59281379930857,35.00924057403467,0 33.59300638350923,35.00954408453341,0 33.59330490084489,35.00964679086378,0 33.59394223967298,35.00970145151025,0 33.59451719935761,35.0113315575956,0 33.5950766647176,35.01127248687186,0 33.5952246604285,35.0112013899484,0 33.59570137383705,35.01079100742334,0 33.59601710644665,35.01099109104934,0 33.5965291760577,35.01145753016431,0 33.59659884457199,35.0115978923552,0 33.59675867964773,35.0115830247902,0 33.5967363103203,35.01164411061384,0 33.59641396710798,35.01177534559912,0 33.59652243984461,35.01196510638047,0 33.5961675535523,35.01218161352947,0 33.59615685729556,35.01233295501686,0 33.5960090383735,35.01243130631526,0 33.59609890654588,35.01252358034645,0 33.59651910717339,35.01229696221101,0 33.59664440920996,35.01235976768402,0 33.5965500254401,35.01244809739335,0 33.59663962747309,35.01250620350609,0 33.59676959638744,35.01240794101271,0 33.59703608922326,35.01228947155646,0 33.59675994000889,35.01193951160839,0 33.59698395805713,35.01171393829868,0 33.59740146382103,35.01190700496037,0 33.59765594805153,35.01177886433986,0 33.59761348477598,35.01167174080251,0 33.59768993457186,35.01157378228704,0 33.59767116127596,35.01145677984274,0 33.59803111645432,35.01115251906552,0 33.59831165803566,35.01131209576128,0 33.59851055194742,35.0109355023585,0 33.59860587990774,35.01096917223781,0 33.59860378884483,35.01071554845782,0 33.59830610297806,35.01063412079371,0 33.59837878783169,35.01051408143918,0 33.598735974645,35.01052093658438,0 33.59877015650675,35.01084416664965,0 33.59894854007925,35.01082171669568,0 33.59894070922265,35.01051128737502,0 33.59928672157013,35.01044058017495,0 33.59933203515228,35.0102075376813,0 33.5994238678171,35.01051319836026,0 33.59926665885605,35.01055278933251,0 33.59913109329235,35.01066988462551,0 33.59896354661686,35.01073108885041,0 33.59898673251434,35.01099401652782,0 33.59928655152383,35.01104858529873,0 33.59919655054536,35.0115924541977,0 33.59919867381599,35.01184692959441,0 33.59933117672196,35.01198861061691,0 33.60039191595023,35.01195736164269,0 33.60039239478782,35.01201344044818,0 33.60080112077666,35.01205771973773,0 33.60081698134691,35.01212053254518,0 33.60028907352574,35.01217982250498,0 33.60024536585127,35.01244423267909,0 33.60000380954709,35.01286065754876,0 33.59984259529393,35.01281743859015,0 33.59932142328785,35.01278234958988,0 33.59884150479238,35.01403077133651,0 33.59868154614571,35.01414489641562,0 33.59865265851673,35.01435905232508,0 33.59812560203387,35.0143275415263,0 33.59810058939475,35.01429113789231,0 33.59807336346106,35.01458762197599,0 33.59721253172559,35.0150914685317,0 33.59693035223892,35.01503609136719,0 33.59689378628197,35.01478860097321,0 33.59670164978188,35.01486674691278,0 33.596589472133,35.01505816360858,0 33.59667879313494,35.01510237040664,0 33.59645838531645,35.01535934214385,0 33.59597666329314,35.01554910517225,0 33.59579919875878,35.01543089764421,0 33.59489163723917,35.01631111781589,0 33.59518187278078,35.01633031459376,0 33.59512892490189,35.01682801760121,0 33.59503768725662,35.01726899513744,0 33.59448475510376,35.01755180404528,0 33.59416211422623,35.01742911759061,0 33.5937077150586,35.01782297365729,0 33.59413976290494,35.01837433419623,0 33.59369538440497,35.01861616273483,0 33.59370592534536,35.01881067390603,0 33.59408257297773,35.01925020727789,0 33.59419179319751,35.01924213410997,0 33.59423429525296,35.01883776598268,0 33.59459386319426,35.01822226464853,0 33.59496274780295,35.01764424759495,0 33.59508034931721,35.01754637928642,0 33.59510261522291,35.01807739451152,0 33.59477178641093,35.01887229545138,0 33.59488651254804,35.01898970950141,0 33.59474039416769,35.01967794608693,0 33.59489961190688,35.0201878586367,0 33.59437767002863,35.02017432134952,0 33.59428850744523,35.01997179418298,0 33.59411362324708,35.02002513853918,0 33.59416422396465,35.02039816582125,0 33.59392544147829,35.02043221258617,0 33.59402820304788,35.02081200929874,0 33.59483655223322,35.02100225386539,0 33.5947867768828,35.02137748813032,0 33.59440117744279,35.02142287569069,0 33.59440074353366,35.02136519310178,0 33.59463657954019,35.02123409259379,0 33.59463516190856,35.02104661655193,0 33.59413533855097,35.02106378992419,0 33.59391718874774,35.02121641327219,0 33.59387531615133,35.02148346746005,0 33.59407760492381,35.02155447106072,0 33.59407012523915,35.02172760778549,0 33.59449994456295,35.02172523258898,0 33.59448283622466,35.02178301733133,0 33.59432521484313,35.02181995112871,0 33.59413347187208,35.02198690501926,0 33.59387794385468,35.02183685527426,0 33.5938518954417,35.0218730634034,0 33.59363150400467,35.02173002902155,0 33.59337826659049,35.02189010550057,0 33.59322849278692,35.02180438005231,0 33.59298337436767,35.02187786190942,0 33.59272905142164,35.02189368999235,0 33.59258126711809,35.02207449051033,0 33.59246776009626,35.02215447227707,0 33.59291556382917,35.02234979914707,0 33.59279072029826,35.0226607259695,0 33.5928134288827,35.02295702505219,0 33.59284109075848,35.02365848369282,0 33.59178702915891,35.02369138717061,0 33.59154200454847,35.02441320332387,0 33.59112874362909,35.02416423352149,0 33.59047278005735,35.02403722668963,0 33.5903309055382,35.0244517361861,0 33.59091256684908,35.02442895626357,0 33.59095617115851,35.0244859824359,0 33.59083065806813,35.02460053153052,0 33.59075276510273,35.02467569423741,0 33.59109610060093,35.02478557884435,0 33.5913864752059,35.02463850925522,0 33.59173400736641,35.0247055349006,0 33.59179174389588,35.02509101533422,0 33.5920441426719,35.02526894984398,0 33.59193173708594,35.02540846279754,0 33.5916416379509,35.02563765418606,0 33.59108107468258,35.02548186245885,0 33.59124075577371,35.02519941900642,0 33.59119176528687,35.02483177151681,0 33.59072802453642,35.02506493711958,0 33.59013703084015,35.02489492968451,0 33.59001375020247,35.02567715878784,0 33.59002744437554,35.02587707402662,0 33.59039217817404,35.02589407825056,0 33.59049301123646,35.02618662447645,0 33.59028475677446,35.02622638465361,0 33.58998893306318,35.02604497808984,0 33.58991317103528,35.02545959179881,0 33.58978654340915,35.02524208461078,0 33.58992022742816,35.02497398531187,0 33.58970286502697,35.02488522816022,0 33.58945224973667,35.02523929102606,0 33.58917957956587,35.02548985983758,0 33.58882824080962,35.02558350689176,0 33.58886820475355,35.02585120236951,0 33.58899053812018,35.02608300153074,0 33.58887798332196,35.02617966667913,0 33.58896105258742,35.02635442961056,0 33.58936053217631,35.02637492529921,0 33.58946087237633,35.02652108345839,0 33.58934412019951,35.02666060341221,0 33.58952624609964,35.02789557651145,0 33.58937546341627,35.02824583598006,0 33.58863801627474,35.02842964189492,0 33.58839527313583,35.02854445957754,0 33.58801756168102,35.02854533312752,0 33.58794401871038,35.02862405422813,0 33.58790112517577,35.02878125567065,0 33.58793648498771,35.0289704105647,0 33.58801128893602,35.02927016088782,0 33.58774306144549,35.02955642043005,0 33.58746154727688,35.0297641590092,0 33.58761845983377,35.02994946325947,0 33.58774495816493,35.03012769704483,0 33.58783716357718,35.03043811782062,0 33.58785063873169,35.03057376570469,0 33.58779044917437,35.03075243042674,0 33.58780003336584,35.03102376614071,0 33.5877745406689,35.03119163878282,0 33.58772295058218,35.0313452901218,0 33.58754980580638,35.03150279135212,0 33.58726399006451,35.03172482134742,0 33.58709516070141,35.03187517181432,0 33.5869873049414,35.03208250972188,0 33.58688775395732,35.03217557205532,0 33.58682298282325,35.03228283544422,0 33.58664059691488,35.0322725434898,0 33.58651417971429,35.03211930244201,0 33.58571110773607,35.03216399171656,0</coordinates>
						</LinearRing>
					</outerBoundaryIs>
				</Polygon>
			</MultiGeometry>
		</Placemark>
	</Document>
</kml>