<?xml version='1.0' encoding='UTF-8'?>
<kml xmlns="http://www.opengis.net/kml/2.2">
	<Document>
		<name>AVDIMOU</name>
		<Style id="PolyStyle70">
			<LabelStyle>
				<color>00000000</color>
				<scale>0.000000</scale>
			</LabelStyle>
			<LineStyle>
				<color>ff0055ff</color>
				<width>2.000000</width>
			</LineStyle>
			<PolyStyle>
				<color>00828282</color>
				<outline>1</outline>
			</PolyStyle>
		</Style>
		<Placemark id="ID_70611">
			<name>AVDIMOU</name>
			<snippet />
			<description>&lt;html xmlns:fo="http://www.w3.org/1999/XSL/Format" xmlns:msxsl="urn:schemas-microsoft-com:xslt"&gt;

&lt;head&gt;

&lt;META http-equiv="Content-Type" content="text/html"&gt;

&lt;meta http-equiv="content-type" content="text/html; charset=UTF-8"&gt;

&lt;/head&gt;

&lt;body style="margin:0px 0px 0px 0px;overflow:auto;background:#FFFFFF;"&gt;

&lt;table style="font-family:Arial,Verdana,Times;font-size:12px;text-align:left;width:100%;border-collapse:collapse;padding:3px 3px 3px 3px"&gt;

&lt;tr style="text-align:center;font-weight:bold;background:#9CBCE2"&gt;

&lt;td&gt;5&lt;/td&gt;

&lt;/tr&gt;

&lt;tr&gt;

&lt;td&gt;

&lt;table style="font-family:Arial,Verdana,Times;font-size:12px;text-align:left;width:100%;border-spacing:0px; padding:3px 3px 3px 3px"&gt;

&lt;tr&gt;

&lt;td&gt;DIST_CODE&lt;/td&gt;

&lt;td&gt;5&lt;/td&gt;

&lt;/tr&gt;

&lt;tr bgcolor="#D4E4F3"&gt;

&lt;td&gt;VIL_CODE&lt;/td&gt;

&lt;td&gt;222&lt;/td&gt;

&lt;/tr&gt;

&lt;tr&gt;

&lt;td&gt;VIL_CCD&lt;/td&gt;

&lt;td&gt;5222&lt;/td&gt;

&lt;/tr&gt;

&lt;tr bgcolor="#D4E4F3"&gt;

&lt;td&gt;VIL_NM_E&lt;/td&gt;

&lt;td&gt;AVDIMOU&lt;/td&gt;

&lt;/tr&gt;

&lt;tr&gt;

&lt;td&gt;VIL_NM_G&lt;/td&gt;

&lt;td&gt;ΑΥΔΗΜΟΥ&lt;/td&gt;

&lt;/tr&gt;

&lt;/table&gt;

&lt;/td&gt;

&lt;/tr&gt;

&lt;/table&gt;

&lt;/body&gt;&lt;script type="text/javascript"&gt;

				function changeImage(attElement, nameElement) {

				document.getElementById('imageAttachment').src = attElement;

				document.getElementById('imageName').innerHTML = nameElement;}

			&lt;/script&gt;&lt;/html&gt;

</description>
			<styleUrl>#PolyStyle70</styleUrl>
			<MultiGeometry>
				<Polygon>
					<extrude>0</extrude>
					<altitudeMode>clampToGround</altitudeMode>
					<outerBoundaryIs>
						<LinearRing>
							<coordinates> 32.75208682615753,34.71542481344112,0 32.75219218314728,34.71593249165148,0 32.75206357883258,34.71602699945669,0 32.75206783255278,34.71634401536397,0 32.75114561795991,34.71644013638837,0 32.75104573613171,34.71606984310289,0 32.75113812189309,34.7156581713022,0 32.75115357906925,34.71526727798004,0 32.75111113754733,34.71492366732661,0 32.75090196297168,34.7146268256538,0 32.75057688202796,34.71444040872595,0 32.75014879886026,34.71433803900776,0 32.7495794868606,34.71430369800743,0 32.74959347723262,34.71412941361039,0 32.74970424707492,34.71383934795849,0 32.74980936789063,34.71343829903451,0 32.74977937111045,34.71314229644793,0 32.74971729946682,34.71286199011859,0 32.74956062349418,34.71237519565916,0 32.74943081480123,34.71170360934821,0 32.74917477915289,34.7107725531609,0 32.74887325200239,34.71088738577293,0 32.74864202988861,34.7110131117938,0 32.74847456579135,34.71117083138721,0 32.74812554154648,34.71168169336759,0 32.74800844008328,34.7119611658625,0 32.74791726927107,34.71219320887437,0 32.74789633355331,34.7124467123549,0 32.74776752953483,34.71256762646618,0 32.74702391107301,34.71275964519931,0 32.74659311307074,34.71305878722951,0 32.74524097246674,34.71240262170195,0 32.74523952317117,34.71261394791267,0 32.74545556151641,34.71283685819286,0 32.74518405296374,34.71323712097868,0 32.74485039370787,34.71336764662214,0 32.74430332345293,34.71382473456261,0 32.74397013197124,34.71388656964939,0 32.74388225304282,34.71363784048484,0 32.74311700969851,34.71324856965152,0 32.74300916477176,34.71311069806913,0 32.74262635624624,34.71294511350565,0 32.74252087914717,34.71246383966011,0 32.74181358653342,34.71202727577627,0 32.74224072999635,34.71108997770468,0 32.74243856179272,34.71012992269354,0 32.74250700807568,34.70984880847838,0 32.74240895020533,34.70960124382841,0 32.74197132057121,34.70916674152502,0 32.74195711306101,34.70881659478274,0 32.74195140064921,34.70843904154778,0 32.74172118632194,34.70806729225334,0 32.74156925321395,34.70719482756651,0 32.74161252597975,34.706947922433,0 32.74157237915377,34.70674180670867,0 32.74179953023827,34.70635161800128,0 32.74165283595867,34.70592534881451,0 32.74170450863746,34.70566475187079,0 32.74195570227001,34.70540509592085,0 32.7422309223229,34.70527596973029,0 32.74268837882096,34.70524379859422,0 32.74250067283023,34.70473496656576,0 32.7429677555109,34.70451064232171,0 32.74286228392295,34.70413261696082,0 32.74345580863409,34.70365490857777,0 32.74400259307091,34.70271707945673,0 32.74359730904,34.7024200199716,0 32.74367376719306,34.70218013223778,0 32.7436127827248,34.70193385149952,0 32.74349852433301,34.70147242214558,0 32.7431903367786,34.70124447931776,0 32.7429837747269,34.70114840606037,0 32.74268126515145,34.70071650207485,0 32.7421797658258,34.70029919585665,0 32.74202026217635,34.69977981748651,0 32.7418598744776,34.69966840689812,0 32.74162574073889,34.69933536585408,0 32.74167870750389,34.69924918768539,0 32.74124934580327,34.69870257313148,0 32.74097023011721,34.69850933883685,0 32.74088026480111,34.69850198900662,0 32.74076732036323,34.69848761285601,0 32.74072576727556,34.69844419442088,0 32.74082693529567,34.69777913497587,0 32.74096319018647,34.69746862858361,0 32.74084222733662,34.69740581030986,0 32.74060672671769,34.69668899059056,0 32.74030098632983,34.6964161054711,0 32.74014543124775,34.6965035157444,0 32.73989662396875,34.69646082231881,0 32.73996279793726,34.69628654445012,0 32.73977800802342,34.69607820525449,0 32.73975685668038,34.69582225532405,0 32.739867443452,34.69530072422621,0 32.74016472798629,34.69472650720985,0 32.73925433110694,34.69440920240012,0 32.740112570905,34.69384461846794,0 32.74002692946887,34.69369731587003,0 32.74023463812964,34.69361746571927,0 32.74055047877728,34.69342773897935,0 32.74069667439825,34.69324715838894,0 32.74072544623525,34.69309046202634,0 32.74063871483083,34.69291215234911,0 32.74061367833877,34.69279193396694,0 32.74067188370901,34.69262397327043,0 32.74102019994061,34.69224226961168,0 32.74143016938999,34.69186912359381,0 32.74171704200959,34.69183201255769,0 32.74200379131587,34.69157533119925,0 32.74200325228396,34.69141278949949,0 32.74219838849229,34.6910226790306,0 32.74224585155014,34.69081798330673,0 32.74239911445689,34.69060848282038,0 32.74261947817234,34.69048472661835,0 32.74289780808194,34.69043473976792,0 32.74332129158872,34.69036691686978,0 32.74360714862873,34.69023141810583,0 32.74397789358288,34.68996301828055,0 32.74401332096134,34.68975171850467,0 32.74415171586458,34.68962177089593,0 32.74458754240331,34.68949947106022,0 32.74474938274932,34.68951113348857,0 32.74555865254548,34.68967618482591,0 32.74566984988741,34.68966116943931,0 32.74587180489117,34.68959372075739,0 32.74611806568218,34.68938809641677,0 32.74627183310449,34.68909860630953,0 32.74645193538053,34.68866875493351,0 32.74642703019504,34.68846805006646,0 32.74642312799302,34.68822701830294,0 32.74642322751215,34.68769367927921,0 32.74640646299924,34.68744145600146,0 32.74639724179558,34.68730273283123,0 32.74649869204907,34.6871245345865,0 32.74660618001152,34.6867583802966,0 32.74665156502701,34.68636091581823,0 32.74650516203861,34.68608000226841,0 32.74633074117681,34.68573687195655,0 32.74619398138166,34.68523451264469,0 32.74598938595506,34.68484761111195,0 32.74591019500804,34.68454352388017,0 32.74593242989668,34.68396640653365,0 32.74595700502987,34.68334399594361,0 32.74600557163734,34.68307575060027,0 32.7461433004914,34.68284148533715,0 32.74648170936771,34.68247834564504,0 32.74672025654703,34.68227509085041,0 32.74711366548398,34.6820436136594,0 32.74733776296716,34.68184199267478,0 32.74743683486879,34.68152737235712,0 32.74759183284535,34.68147871192834,0 32.74810482839614,34.68124949836907,0 32.74839779574992,34.68092727540208,0 32.74855054770644,34.68060268735191,0 32.74849527011183,34.67993818722936,0 32.74860719559988,34.67955209297521,0 32.74903170237364,34.67868717270793,0 32.74911145741981,34.67808726436134,0 32.74918332353442,34.67792145562512,0 32.74941262915603,34.6775580540392,0 32.74984869457982,34.67711386998813,0 32.74971850606003,34.67685096852826,0 32.74930191358059,34.67685752618171,0 32.74824593074655,34.67658174920899,0 32.74796193707059,34.6764969548623,0 32.74775651193937,34.67638187430872,0 32.74718787110854,34.67570473126781,0 32.74711272670798,34.6755357628473,0 32.74697685916113,34.67489813128892,0 32.74658319093983,34.67487072458861,0 32.74592428498676,34.6747313546147,0 32.74503439921329,34.67489745998268,0 32.74497474111881,34.67487673923205,0 32.74495902783451,34.67476255101072,0 32.7445668102614,34.67452395001403,0 32.74368325917835,34.67436817428468,0 32.74361314026687,34.67436954400879,0 32.743033548357,34.67469209761603,0 32.74286150055267,34.67452266533967,0 32.74270565595203,34.67409612810511,0 32.74307790140595,34.67393950247335,0 32.74311952684357,34.6738834960241,0 32.74292386141639,34.67355044532761,0 32.7429202639193,34.67347378546749,0 32.74320252831928,34.67320772820029,0 32.74341857035787,34.67292195900985,0 32.74357806372855,34.67271098653263,0 32.74287094074574,34.6718362388262,0 32.74278221206207,34.67136822472578,0 32.74274501930603,34.67088830805635,0 32.74272621725641,34.67049470389236,0 32.74307328467436,34.66990887029548,0 32.74315889106465,34.66974433067914,0 32.74331753678744,34.66954780365486,0 32.7436226678316,34.66915472339,0 32.74375430141677,34.66904451729861,0 32.7439126465841,34.66894441049755,0 32.74407820614304,34.66887043253227,0 32.74399095633335,34.66877985403566,0 32.74330713629733,34.66818984191575,0 32.74379462563617,34.6674297924182,0 32.74371120306271,34.66736009087532,0 32.74362250833065,34.66729469715094,0 32.74351272454875,34.66724653124157,0 32.74338703808986,34.66722428249977,0 32.74320373405718,34.66719310036699,0 32.74305174456519,34.66718372301307,0 32.74296275963959,34.6671616458365,0 32.74296026851183,34.66711790105467,0 32.74295807131184,34.66707931783227,0 32.74301673665124,34.66693230828941,0 32.74312809384917,34.66674655890944,0 32.74319817880243,34.66646098247063,0 32.74323596018952,34.6663008790708,0 32.74323642605225,34.66623157109685,0 32.74321073553379,34.66615347635105,0 32.74313809273108,34.66604050560562,0 32.74297719593313,34.66579716506619,0 32.74289389139265,34.66571013595943,0 32.74287326861745,34.66565805575603,0 32.74288422300408,34.66558879694139,0 32.74291611861178,34.66552396795864,0 32.74302150233104,34.66544648844414,0 32.74323197734105,34.66533484617457,0 32.74334790598172,34.66524875155508,0 32.74344804649939,34.66517124710671,0 32.74358523722113,34.66504193343181,0 32.7437065813928,34.66492987206235,0 32.74388052988801,34.66479206679841,0 32.74404914742062,34.66466723132485,0 32.74431236853459,34.66450818296466,0 32.74468073755713,34.66430630795664,0 32.74489653878565,34.66418169179735,0 32.74505452280856,34.66407846445206,0 32.74522299228357,34.66397528675733,0 32.74547531621637,34.66387683185548,0 32.74554379273985,34.66382950042544,0 32.74565482212633,34.66369139809179,0 32.74575556816642,34.66352292425596,0 32.74582957706144,34.66343230005124,0 32.74597710123464,34.66332469105437,0 32.74618258640648,34.66317403362723,0 32.7462825761294,34.66311818443317,0 32.74638256680394,34.66306233696122,0 32.74659285833999,34.66297667886383,0 32.74675631118726,34.66283881967133,0 32.74691452228297,34.66270093675384,0 32.74713599353851,34.66251136445506,0 32.7472097966597,34.66245106097933,0 32.74742028800701,34.66233507984026,0 32.74763083667666,34.66221043437599,0 32.74783092968139,34.6620814091886,0 32.74797314766428,34.6619824364202,0 32.74815197808241,34.66189662943789,0 32.74831513923696,34.66180208610345,0 32.74838934566159,34.66168113779695,0 32.7484373101865,34.66156439927796,0 32.74848032035008,34.66140431840665,0 32.74850230370083,34.66125280413418,0 32.7485186662641,34.6611575780945,0 32.74861485376972,34.6608851144406,0 32.74865771928298,34.66074669293653,0 32.74870594349798,34.66059096782185,0 32.74873803326324,34.66049581562328,0 32.74873351292361,34.66038749674724,0 32.74871323671405,34.66028343642012,0 32.74863033622749,34.66013576703129,0 32.74849095289731,34.65981022635282,0 32.74835652361011,34.65952802784883,0 32.74769184438025,34.65935599227074,0 32.74757172980695,34.65928612269909,0 32.74752503840984,34.65921226278965,0 32.74717199070763,34.65869512185205,0 32.74699867435397,34.65843312527443,0 32.74633865975798,34.65743538083111,0 32.74631985669284,34.65738790966363,0 32.74592818000227,34.65705756867755,0 32.74619662400181,34.65694508088467,0 32.74593433289835,34.65671010584094,0 32.74625211035328,34.65608292477232,0 32.74644637383581,34.65562576222136,0 32.74645246065561,34.65528777635234,0 32.7464073767006,34.65516752575134,0 32.74622520305338,34.65496135146155,0 32.74580507833636,34.65488360116957,0 32.74582481104652,34.65479208027693,0 32.74628829267584,34.65410554915201,0 32.74658913270413,34.65372153284869,0 32.74670934800567,34.65354057687131,0 32.7468686560428,34.65309417476512,0 32.74657922784438,34.65291593856237,0 32.7468359942584,34.65226004470615,0 32.74721868866003,34.65164263665982,0 32.74729583918742,34.65154190240392,0 32.74757334487342,34.65121463896917,0 32.74774331849141,34.65095637957962,0 32.74783967122258,34.65084309736756,0 32.74830451304744,34.6505198515203,0 32.74861091618415,34.65044543923891,0 32.7493670912894,34.6500129581237,0 32.7497162032972,34.65041575100086,0 32.75005259564796,34.65025673534025,0 32.75007929245582,34.6502981209719,0 32.75023269981985,34.65042924319101,0 32.75047407767406,34.6505503910257,0 32.75070665320824,34.65064630427601,0 32.75111989177141,34.65082158957917,0 32.75136309506568,34.65093829780111,0 32.75167489127694,34.65099159112739,0 32.75201560434132,34.65101240997164,0 32.75228446347126,34.6510477219004,0 32.75255277405029,34.65116602478525,0 32.75268712126956,34.65119627685129,0 32.75311789246865,34.65116266647482,0 32.75357339876459,34.65118696675848,0 32.75386400143988,34.65118976861969,0 32.75410809006557,34.6511730924455,0 32.75431276264285,34.65114882616811,0 32.75478994025334,34.65115099014042,0 32.75492129738059,34.65113851905464,0 32.7549389319104,34.65113684439437,0 32.75509693289612,34.65111681188715,0 32.75527293073717,34.65108796820095,0 32.7556446596697,34.65103036829023,0 32.75595734297644,34.6509487878952,0 32.75616764051733,34.65088749347935,0 32.75618730444867,34.65089795657615,0 32.75636870222834,34.6508661715682,0 32.75652468389099,34.65088021531336,0 32.75662682976839,34.6508969784545,0 32.75669324486815,34.65116404642831,0 32.75681225969937,34.6513439121326,0 32.75697120755949,34.65145281912978,0 32.75715720974092,34.65153961789331,0 32.7574510964962,34.65186254750891,0 32.75735241616245,34.65213776316823,0 32.75733021587977,34.65222823176638,0 32.75730264788125,34.65234057843296,0 32.75727765360981,34.65259537706134,0 32.75728768750673,34.65270657615804,0 32.75745425722734,34.65302152116102,0 32.75747780715285,34.65326023665079,0 32.75737075966503,34.65344352737267,0 32.7572012708338,34.65357318292774,0 32.75701137790664,34.65380500699579,0 32.75688768565027,34.65406380603134,0 32.7572255625736,34.65451883778871,0 32.75762408101697,34.65502897649588,0 32.75768104192473,34.65509740719392,0 32.75792550715865,34.65529858575595,0 32.75835406573808,34.65560581788356,0 32.75892067015826,34.65592848975442,0 32.75910463975701,34.6560538087837,0 32.7592438647544,34.65616262421187,0 32.75966307590689,34.65652909089533,0 32.76003081520584,34.65681084859057,0 32.76032062669162,34.65693812380071,0 32.76059051940655,34.6570934672385,0 32.76089803907632,34.6572563886576,0 32.7613076770809,34.65744199837673,0 32.76159938213489,34.65755445849044,0 32.76181968323848,34.65761176135776,0 32.76197537053272,34.65767322242345,0 32.76227837007725,34.65770421763551,0 32.76270640675482,34.65782024834342,0 32.76349691873134,34.65792603906086,0 32.76407297279696,34.65790341289021,0 32.76476951304635,34.65788672825759,0 32.76508605853779,34.65788724659205,0 32.76539724501474,34.65786190306376,0 32.76585750783203,34.65782920870274,0 32.76622365164802,34.65782151131393,0 32.76667924489773,34.65776068875576,0 32.76691590042653,34.65773767686297,0 32.76696535708067,34.65736852403153,0 32.76699937262796,34.65736867918593,0 32.76695571281384,34.65773924130079,0 32.76792383199557,34.65768204204986,0 32.7683325206301,34.65761029278535,0 32.76867313036681,34.65754492346806,0 32.7692424389665,34.65743508911248,0 32.76961235620382,34.65734709959841,0 32.76995488856945,34.65723623281564,0 32.77016098046106,34.65718095711526,0 32.77035558065226,34.65714838113397,0 32.77047878494813,34.65713421744105,0 32.77064724441027,34.65713497976351,0 32.77091930158534,34.65714691741989,0 32.77113467405777,34.65715726064762,0 32.77123354432476,34.65714833857414,0 32.77139904129552,34.65710759934167,0 32.77157263722959,34.6570668957911,0 32.77183876774106,34.65699582857135,0 32.77203354488021,34.65693648360187,0 32.77214550859993,34.65690754544622,0 32.7722673580329,34.65685322384852,0 32.77239247581318,34.65679490206796,0 32.77249804800515,34.65675255210986,0 32.77253223315972,34.65672727808994,0 32.7726040555708,34.65664462586681,0 32.7726595302918,34.65658465131354,0 32.77275560521139,34.65650879988019,0 32.77289383972937,34.65642644702585,0 32.77299965955508,34.65634662451406,0 32.77303541089258,34.65632938722546,0 32.77307753419093,34.65632823871781,0 32.77310344227385,34.65632969323534,0 32.77320378103922,34.65634352916707,0 32.77333811680113,34.6563601939494,0 32.77337090567407,34.65636157375769,0 32.77340937007072,34.65636319217798,0 32.7734362251345,34.65654624181686,0 32.77358048424622,34.65674311640188,0 32.77376607243276,34.65763856748652,0 32.77399821686613,34.65806160109184,0 32.77468091114922,34.6585121144058,0 32.77473939502374,34.658559203805,0 32.77492886932765,34.65871176707326,0 32.77515790061624,34.65880222728099,0 32.77554774696966,34.65940560583083,0 32.776255005832,34.66012964890534,0 32.77658437731563,34.66043735963407,0 32.77673012618005,34.66073611703898,0 32.77651343975455,34.66129883509343,0 32.77628835525317,34.66162845261169,0 32.77663108697607,34.66189828150886,0 32.77682973648014,34.6621295249529,0 32.77711432293151,34.66225546065049,0 32.77722424776467,34.66251340608927,0 32.77724265396251,34.66271945215926,0 32.777762845678,34.66346703876063,0 32.77797783524839,34.66370919358674,0 32.77821019731038,34.66379424252883,0 32.77822289963157,34.66386205028631,0 32.77805511628014,34.66394260281125,0 32.77761071073827,34.66526040722544,0 32.77755989932227,34.66552034417774,0 32.77750703392636,34.66558243868779,0 32.77757020513327,34.66597567649208,0 32.77720843633077,34.6661285317394,0 32.77741141902252,34.66619177048489,0 32.77761679170601,34.66639865250129,0 32.77783876874318,34.66657308607964,0 32.77795231674252,34.66677684692498,0 32.77780750470678,34.66685479055812,0 32.77765017446512,34.66683511749515,0 32.7771438749781,34.66701984642295,0 32.77728756483866,34.66712347122778,0 32.77725713792733,34.66718538754096,0 32.77705501803388,34.66759668746183,0 32.77702383416341,34.66786484176301,0 32.77684818924412,34.66815402994872,0 32.77660069573719,34.66839140557531,0 32.77631964388808,34.66875058228408,0 32.7763093320505,34.66882641705661,0 32.77687381662327,34.66878287357778,0 32.77716649509604,34.66866494158744,0 32.77734594422733,34.66935138460242,0 32.77778211692217,34.66936959512762,0 32.77775642345511,34.66981121679651,0 32.77795623470376,34.66985817992099,0 32.77765166286081,34.67083785398664,0 32.77745244105469,34.67175566650141,0 32.77733384560737,34.67183643659259,0 32.77707845720141,34.67228787080256,0 32.77759455709816,34.67264519419087,0 32.77827063295949,34.67308039724878,0 32.77880420129169,34.67342386095386,0 32.77916704638704,34.6732977661265,0 32.77873867695778,34.67407989528121,0 32.78004808882971,34.67409425903205,0 32.77974177925295,34.67451856706798,0 32.77999289356018,34.67459990168333,0 32.78037544456882,34.6748350062941,0 32.78089735689392,34.67536252074972,0 32.78120188186561,34.67537842703162,0 32.78174233825982,34.67531849772525,0 32.7817718199001,34.67531522857589,0 32.78201792687127,34.67548772873038,0 32.78228656147046,34.675591020102,0 32.7820962714711,34.67700913196511,0 32.78225544697955,34.67764815464405,0 32.78225490041844,34.67840686083528,0 32.784174856508,34.67849901372615,0 32.78420119372471,34.67891954544407,0 32.7842028444962,34.67891965023303,0 32.78426283446012,34.67990373173135,0 32.78349608223701,34.68035274558522,0 32.78333110561695,34.68060007541079,0 32.78382223828765,34.6811165026282,0 32.78400016476232,34.68159145985679,0 32.78415789742337,34.68177816659657,0 32.78468676182273,34.68192634134779,0 32.78399925316443,34.68240852630608,0 32.78359010549485,34.6828590751843,0 32.78308243820047,34.68352076158424,0 32.78296043947866,34.68394701040884,0 32.78273221037105,34.68441292567127,0 32.78273402657002,34.68481052518719,0 32.78240104230359,34.68508995918539,0 32.7823282496047,34.68541793273178,0 32.7822660535939,34.68547602701157,0 32.78238390816159,34.68568444967207,0 32.78259828313444,34.68666293873176,0 32.78245596587895,34.68749398549613,0 32.78244773123116,34.68760427402579,0 32.78243894813227,34.68772187161117,0 32.78251337013224,34.68801590416448,0 32.78254314812161,34.68820526462397,0 32.7825720347919,34.6885306240528,0 32.78260558897462,34.68871840913491,0 32.78264502232989,34.68880355047182,0 32.78289960449397,34.68889597779535,0 32.7830475133061,34.68899263286171,0 32.7831627621897,34.68913318992367,0 32.78299365005117,34.68936683350974,0 32.78251144071452,34.6901347914951,0 32.78228723044746,34.69049051848934,0 32.78246036835714,34.6907780157897,0 32.78266462515435,34.69115453906969,0 32.78254910047035,34.69130774904445,0 32.78245453221484,34.6915398976105,0 32.78233304982637,34.69187441780975,0 32.78227248857162,34.69201408368572,0 32.78216351321348,34.69225996271072,0 32.78213786228956,34.69253382263485,0 32.78199856623692,34.69267312492152,0 32.78173227781281,34.69289462390211,0 32.78169615417963,34.69291573386092,0 32.78126044247748,34.69317036106619,0 32.78120379809531,34.69344013463651,0 32.78121268181101,34.69354069978359,0 32.78125827985258,34.69386416549251,0 32.78122804720629,34.69410843785192,0 32.78116353238414,34.69448658290277,0 32.78086159013675,34.69468623362726,0 32.78054886881089,34.69471040907862,0 32.78025055248387,34.69472085235306,0 32.78019596019114,34.69467723538926,0 32.78016225659753,34.69435973869599,0 32.77992856716643,34.69397626743656,0 32.77987417168143,34.6939030860328,0 32.77963314532523,34.69390985230083,0 32.77953313366142,34.69424249815416,0 32.77946220525924,34.69450629079778,0 32.77891360456781,34.69448008987479,0 32.77872899306008,34.69461523510373,0 32.77852720071574,34.69482322914958,0 32.77848561478314,34.69497875015959,0 32.77856710836956,34.69528464384015,0 32.77866481080554,34.69566551337487,0 32.77848752482725,34.69577506793573,0 32.77845195164921,34.69610407076284,0 32.77844899020668,34.69655345936121,0 32.77855411135933,34.69689494181613,0 32.7787340390999,34.69747132909451,0 32.77877134548169,34.69760356322756,0 32.77891975371443,34.69789399969176,0 32.77909557860485,34.69800716732028,0 32.77917790688839,34.69818691649611,0 32.77836019735927,34.69807864925219,0 32.77774742352353,34.69801075140063,0 32.77705360555068,34.69793064686439,0 32.77665776548084,34.69789332054435,0 32.77661179276339,34.69835039357459,0 32.77614796639525,34.69885084831584,0 32.77598214256044,34.6990294403804,0 32.77570190266718,34.69955046239549,0 32.77559832003661,34.70005851246408,0 32.77584618007734,34.70046373772518,0 32.77608884112531,34.70057327974888,0 32.77599106146555,34.70092564334039,0 32.7756649096277,34.7011724725258,0 32.77540686776037,34.70158321804764,0 32.77506560184793,34.70158950647632,0 32.77452757657557,34.70176044050176,0 32.77448553251089,34.70207471154048,0 32.77447403904965,34.70216062287827,0 32.77411942290986,34.70215902763407,0 32.77264148755314,34.70294766403261,0 32.77165512255553,34.7034527647164,0 32.76980579192413,34.70311585960587,0 32.76980368327364,34.70306296550249,0 32.76950103847343,34.70302294600137,0 32.76863001043861,34.70327527440696,0 32.76807779243587,34.70336022484015,0 32.76764163281806,34.70339891886842,0 32.76762420199684,34.70342731617322,0 32.76818690359184,34.70361497227363,0 32.76816194998354,34.7036636744643,0 32.76646796318835,34.70360917320686,0 32.76471540000058,34.7038411746227,0 32.76470783382855,34.70386758207913,0 32.76520603512775,34.7041241122995,0 32.76531073506168,34.70430155096796,0 32.76516391254944,34.70452665344423,0 32.76463116298483,34.70428013386164,0 32.76446258240038,34.70427072221378,0 32.76393598319766,34.70424132133469,0 32.76357236720463,34.70407588819335,0 32.7632778270147,34.70410625568541,0 32.76275300116577,34.7041302958437,0 32.76281409359381,34.70456380691112,0 32.76299734450394,34.7058749004106,0 32.76320168286918,34.7059392271539,0 32.76299995471094,34.70644551639634,0 32.76337522627936,34.70678534676233,0 32.76248837675065,34.70735721601783,0 32.76212183226202,34.70763028786055,0 32.76202427219673,34.70882916329964,0 32.76182840367986,34.70941472609314,0 32.76207298969035,34.71016607120815,0 32.76216682863656,34.71048878083991,0 32.76199191570418,34.71080498716855,0 32.76188010894816,34.71126413076533,0 32.76192020248209,34.71196699725749,0 32.76088169896121,34.71224229662674,0 32.7606263846233,34.71214603235282,0 32.76006671157171,34.7125872854534,0 32.7592830850564,34.71302222963811,0 32.75895685469725,34.71299961230146,0 32.75865874757594,34.71356356637924,0 32.75817583701006,34.71400516009791,0 32.75764351257673,34.71417707509735,0 32.7572103535658,34.71483550912837,0 32.75735033609303,34.71495238560649,0 32.75673205389791,34.71554128031556,0 32.75654334180879,34.71505434804283,0 32.75627919990662,34.71436630853131,0 32.75604105900479,34.71456598747607,0 32.75599333486446,34.7150042845682,0 32.75582216414217,34.71571674544535,0 32.75548603558791,34.71621183598577,0 32.75493794518813,34.71587647071096,0 32.75500939547571,34.71571829510753,0 32.75461377788263,34.71555268908624,0 32.75422377465578,34.7154980601313,0 32.75396577728237,34.71579274562057,0 32.75352878501758,34.71606546130565,0 32.75358464883468,34.71631932471016,0 32.7530976194757,34.71642273852557,0 32.75250933941904,34.7154056310146,0 32.75224769427481,34.71529875404791,0 32.75208682615753,34.71542481344112,0</coordinates>
						</LinearRing>
					</outerBoundaryIs>
				</Polygon>
			</MultiGeometry>
		</Placemark>
	</Document>
</kml>