<?xml version='1.0' encoding='UTF-8'?>
<kml xmlns="http://www.opengis.net/kml/2.2">
	<Document>
		<name>AVLONA</name>
		<Style id="PolyStyle70">
			<LabelStyle>
				<color>00000000</color>
				<scale>0.000000</scale>
			</LabelStyle>
			<LineStyle>
				<color>ff0055ff</color>
				<width>2.000000</width>
			</LineStyle>
			<PolyStyle>
				<color>00828282</color>
				<outline>1</outline>
			</PolyStyle>
		</Style>
		<Placemark id="ID_70454">
			<name>AVLONA</name>
			<snippet />
			<description>&lt;html xmlns:fo="http://www.w3.org/1999/XSL/Format" xmlns:msxsl="urn:schemas-microsoft-com:xslt"&gt;

&lt;head&gt;

&lt;META http-equiv="Content-Type" content="text/html"&gt;

&lt;meta http-equiv="content-type" content="text/html; charset=UTF-8"&gt;

&lt;/head&gt;

&lt;body style="margin:0px 0px 0px 0px;overflow:auto;background:#FFFFFF;"&gt;

&lt;table style="font-family:Arial,Verdana,Times;font-size:12px;text-align:left;width:100%;border-collapse:collapse;padding:3px 3px 3px 3px"&gt;

&lt;tr style="text-align:center;font-weight:bold;background:#9CBCE2"&gt;

&lt;td&gt;1&lt;/td&gt;

&lt;/tr&gt;

&lt;tr&gt;

&lt;td&gt;

&lt;table style="font-family:Arial,Verdana,Times;font-size:12px;text-align:left;width:100%;border-spacing:0px; padding:3px 3px 3px 3px"&gt;

&lt;tr&gt;

&lt;td&gt;DIST_CODE&lt;/td&gt;

&lt;td&gt;1&lt;/td&gt;

&lt;/tr&gt;

&lt;tr bgcolor="#D4E4F3"&gt;

&lt;td&gt;VIL_CODE&lt;/td&gt;

&lt;td&gt;363&lt;/td&gt;

&lt;/tr&gt;

&lt;tr&gt;

&lt;td&gt;VIL_CCD&lt;/td&gt;

&lt;td&gt;1363&lt;/td&gt;

&lt;/tr&gt;

&lt;tr bgcolor="#D4E4F3"&gt;

&lt;td&gt;VIL_NM_E&lt;/td&gt;

&lt;td&gt;AVLONA&lt;/td&gt;

&lt;/tr&gt;

&lt;tr&gt;

&lt;td&gt;VIL_NM_G&lt;/td&gt;

&lt;td&gt;ΑΥΛΩΝΑ&lt;/td&gt;

&lt;/tr&gt;

&lt;/table&gt;

&lt;/td&gt;

&lt;/tr&gt;

&lt;/table&gt;

&lt;/body&gt;&lt;script type="text/javascript"&gt;

				function changeImage(attElement, nameElement) {

				document.getElementById('imageAttachment').src = attElement;

				document.getElementById('imageName').innerHTML = nameElement;}

			&lt;/script&gt;&lt;/html&gt;

</description>
			<styleUrl>#PolyStyle70</styleUrl>
			<MultiGeometry>
				<Polygon>
					<extrude>0</extrude>
					<altitudeMode>clampToGround</altitudeMode>
					<outerBoundaryIs>
						<LinearRing>
							<coordinates> 33.0833578232641,35.16777463631779,0 33.08454248461002,35.16759181588048,0 33.08450639533296,35.16722008362311,0 33.08478569491832,35.16617003265068,0 33.08467437831629,35.16568386487945,0 33.08478179511849,35.16548179524851,0 33.08474669917282,35.16529953086143,0 33.08457010545778,35.16483252192001,0 33.08457788074128,35.16427723499075,0 33.08696178111156,35.16427322711302,0 33.08733857653735,35.16449291648131,0 33.08896655132064,35.16423224320389,0 33.08887430470247,35.16398348124861,0 33.08861498915918,35.16372886792606,0 33.08880033379006,35.16332966384039,0 33.08882816900322,35.16301104601706,0 33.08877135520595,35.16269819430401,0 33.08881337437641,35.16210803627624,0 33.08906898219539,35.16224915625634,0 33.08924035777319,35.16244063698162,0 33.08951385306215,35.16256107816285,0 33.09092404479555,35.16231355730995,0 33.09048992807175,35.16186393233155,0 33.09071276233762,35.16177887962071,0 33.09061483595908,35.16144679829547,0 33.09112154582401,35.16136917878921,0 33.09105373181918,35.16102605368347,0 33.09320154042125,35.16087057073037,0 33.09311706534186,35.1604787981937,0 33.0930632775008,35.16000128751683,0 33.09176650058162,35.16017034067489,0 33.09154399900561,35.16024373813709,0 33.09141719343561,35.16029014981039,0 33.09098106375276,35.16041103814598,0 33.09087405961828,35.15998040607923,0 33.09063823789864,35.16005169176859,0 33.09046014786649,35.15959563067969,0 33.09098312984887,35.15945711516159,0 33.09091929162942,35.1591931193356,0 33.09020769184072,35.15927464147522,0 33.09017596266393,35.15907837266338,0 33.09157887938678,35.15884410825912,0 33.09153725075849,35.15835558594016,0 33.09143888145481,35.15821355296239,0 33.09139582941463,35.15802836853462,0 33.09161759892955,35.15800431744195,0 33.09158765079485,35.15779071721778,0 33.09180072839765,35.15777018332864,0 33.09178796719637,35.15764559820847,0 33.09288404430762,35.15751808858067,0 33.09291049216008,35.15735804562122,0 33.09272375985352,35.15675907934263,0 33.09168927085976,35.15691530024216,0 33.09148501181871,35.15667748931183,0 33.09143502608443,35.15635211286225,0 33.09175621908796,35.15638440894888,0 33.09166972109002,35.1560751566042,0 33.09207867730895,35.1560294869401,0 33.09195843432452,35.15572273838431,0 33.09238478201647,35.1556394037222,0 33.09222978503249,35.15506894626632,0 33.09404767516946,35.15460502107372,0 33.09423823421371,35.15506431171617,0 33.09518411445489,35.15483476343501,0 33.09560624187107,35.15481717189987,0 33.09617871730507,35.15516277975769,0 33.09620544978434,35.1555835071027,0 33.09685265243205,35.15520941523236,0 33.09714766965978,35.15493161407081,0 33.09706287231582,35.15486048459132,0 33.09750445332854,35.15409191699577,0 33.09800100543237,35.15305736720681,0 33.09797883713085,35.15274031688709,0 33.09795919326448,35.15248366674641,0 33.09795679680506,35.15222769763284,0 33.09807033481729,35.15195729608308,0 33.09852687192224,35.15129542334425,0 33.0989094398303,35.15067244265553,0 33.09914637252368,35.15040798407033,0 33.09925805231123,35.15028375201806,0 33.0997673518469,35.15039512513166,0 33.09969743766953,35.15068373779196,0 33.10005126744765,35.15074712682248,0 33.09994025706641,35.15111139510799,0 33.1006067540761,35.15125810610822,0 33.10023492227607,35.15232308170396,0 33.10052816328648,35.15237059971187,0 33.10054999799972,35.15239247221248,0 33.10072933963203,35.15242416358254,0 33.10091053363877,35.15199416527152,0 33.10129343316322,35.15204757673517,0 33.10138512716433,35.1517410349861,0 33.10222851731201,35.15189355891128,0 33.10206915950403,35.15234145081575,0 33.10302408144928,35.15254561671943,0 33.10355487699998,35.15266854583915,0 33.10349939230959,35.15286162637813,0 33.10343182192149,35.15307859811902,0 33.1040329522969,35.15325121630161,0 33.10402516156526,35.15284127582821,0 33.1040250551892,35.15275769496347,0 33.10403949678821,35.15268206101162,0 33.10408055630605,35.15257854447759,0 33.10416276886483,35.15244514163557,0 33.10417956766396,35.15231776499835,0 33.10427838289913,35.15190375307203,0 33.10427333062808,35.15174256458464,0 33.10424425781066,35.15174457900032,0 33.10417117013775,35.15143220678211,0 33.10419485954165,35.15100830881577,0 33.10425280523709,35.15084706701735,0 33.10438315716438,35.1504648681033,0 33.10459078668367,35.14988359912243,0 33.10476456480371,35.14935807937267,0 33.10500602265167,35.1487091190365,0 33.10521390418528,35.14826999754563,0 33.10585175631214,35.14842240603375,0 33.10690731454813,35.14859408678369,0 33.10702877795907,35.14863305818933,0 33.10705033874247,35.14864967458005,0 33.10703649173982,35.14869983379576,0 33.10689688519525,35.14900359632455,0 33.10679499692208,35.14912248146947,0 33.10643391528405,35.14936893508919,0 33.10686888787143,35.14973764164071,0 33.10712207306873,35.14995707880903,0 33.10761128786776,35.15016146712529,0 33.10875113275119,35.15074327368831,0 33.1096889876837,35.15127223904661,0 33.10970980059216,35.15128431165031,0 33.10973176788836,35.15129705385034,0 33.11017334824663,35.15155319750562,0 33.11034060677169,35.15169608114341,0 33.1104547452633,35.15181157241327,0 33.11047808645795,35.15192710402604,0 33.11045974049775,35.15204172626495,0 33.11041629931197,35.15217396138313,0 33.11030343296018,35.15232889577913,0 33.11006251449906,35.15257587260739,0 33.10989055282735,35.15275949249357,0 33.10973391387549,35.15289551490325,0 33.10948726616074,35.15310969814673,0 33.10973442263406,35.15327445055062,0 33.11021238807623,35.15359305449318,0 33.11091510862875,35.15276281901476,0 33.11114765580999,35.15244033119308,0 33.11145606761651,35.15215028772381,0 33.11189736890769,35.15184894609547,0 33.11224573985011,35.15153752652987,0 33.11240899061716,35.15141790479169,0 33.11252885326423,35.15135184585282,0 33.11254999768607,35.1516187024582,0 33.11266232181005,35.15171595791215,0 33.11272440061237,35.15185048352641,0 33.11269164341413,35.15203544981571,0 33.11255223243815,35.15225647674969,0 33.11252790687404,35.15248601231973,0 33.11239113465201,35.1527719846147,0 33.11208506218872,35.15306007582689,0 33.1118458374601,35.15356471299748,0 33.11160336008734,35.15374071317457,0 33.11145187034427,35.15386038246216,0 33.11244073287537,35.15434584149021,0 33.11274772361021,35.15447020783673,0 33.11333499438256,35.15458274113487,0 33.11388771150855,35.15473398963841,0 33.11434674845488,35.15484745786381,0 33.11461239995671,35.15495299478745,0 33.11538076536449,35.15545031937154,0 33.11594509127581,35.15602168019019,0 33.1159342842532,35.15652667426104,0 33.11611003961974,35.15695226254518,0 33.11628710414888,35.15749207249306,0 33.11652102150326,35.1582530004283,0 33.11654450437246,35.15848671455931,0 33.11670625929502,35.15870470128124,0 33.11694177608468,35.15889457483811,0 33.11751360409958,35.15931116596614,0 33.1177730315743,35.15992508272556,0 33.11763250683099,35.16061727811444,0 33.11757295490499,35.16098131452164,0 33.11760020658019,35.16126236458464,0 33.11789929086764,35.16182417551216,0 33.11848594468724,35.16182795788494,0 33.11848735999193,35.16217567731754,0 33.11889138949542,35.1621477760923,0 33.11823751916026,35.16290450396284,0 33.11751402691291,35.16339210707576,0 33.11704029644462,35.16367758929524,0 33.11597074316548,35.16399010394421,0 33.11435631596369,35.16441519520686,0 33.1145047604967,35.1645977414294,0 33.11459490698878,35.16526600766389,0 33.11492634846493,35.16634165398338,0 33.11501828015702,35.16651355616596,0 33.11624236610653,35.16651111776133,0 33.11656110304575,35.16653519445405,0 33.11772395465825,35.16683993938538,0 33.11800230523048,35.16689080875449,0 33.11829621901923,35.16691321672761,0 33.11857631232503,35.16686202537871,0 33.11964775666196,35.16638957806182,0 33.12022059157187,35.16605340435272,0 33.12143143551338,35.16528675171835,0 33.12192289994728,35.16588622724207,0 33.12209937532496,35.16617817607398,0 33.12237594946085,35.16671874125426,0 33.12255120693914,35.16667073207044,0 33.12278700667043,35.1668777122256,0 33.12244403124945,35.167121008957,0 33.12260729485835,35.16728663608351,0 33.12293262900686,35.16761667668246,0 33.12299088121121,35.16749208971911,0 33.12344960823488,35.16758946766608,0 33.12356081624915,35.16742865227543,0 33.12386124761865,35.16763075719311,0 33.12358901082526,35.16812556978287,0 33.12288969601967,35.16796711336348,0 33.1226457181623,35.16793054643414,0 33.12213585614845,35.16790545900294,0 33.12168565208351,35.16791003596333,0 33.12142976447668,35.16791478170347,0 33.12135626866072,35.16769726492975,0 33.12063203789424,35.16777888640846,0 33.1196120796248,35.16790376394913,0 33.11960438245291,35.16790535170693,0 33.11961709195582,35.16795704630265,0 33.1196644300511,35.16846022723314,0 33.12055437913543,35.16848045213191,0 33.12056883717928,35.16861189103899,0 33.12002599979784,35.16860625096427,0 33.11944976746602,35.16869477843323,0 33.11939674469011,35.16874012616561,0 33.11935819784852,35.1689214767032,0 33.11971636450551,35.16889191154777,0 33.11999302086308,35.16877624573283,0 33.12027573427434,35.16879883755849,0 33.12058666933093,35.16889846962429,0 33.1212505040968,35.1688831619481,0 33.12146406590792,35.16888078825225,0 33.12161810917799,35.16894192004089,0 33.12172132868132,35.16886938600314,0 33.12187260294107,35.16894184456602,0 33.1221076234194,35.16882844136656,0 33.12230317346052,35.16877854529401,0 33.12235988056748,35.16899827963317,0 33.12259011285646,35.16900310193614,0 33.12278541531077,35.16889430681675,0 33.12297064401884,35.16909811796803,0 33.12325682796001,35.16906668729327,0 33.12350518157106,35.16895788570343,0 33.12371236565023,35.1690642687166,0 33.12373249808893,35.16922280298979,0 33.12407423149348,35.16920213767233,0 33.12413510623362,35.16903679421341,0 33.12452074767533,35.1690615718962,0 33.12509703077128,35.1690296193028,0 33.12542716927549,35.16919025844795,0 33.12566103084491,35.16932313695824,0 33.12539957895778,35.16949378458833,0 33.12520614462183,35.16961539000042,0 33.12506538027574,35.16979159905328,0 33.12484895835642,35.17003216761461,0 33.12455977773252,35.17033909250276,0 33.12437803179215,35.1706412056196,0 33.12410653481208,35.17104871129501,0 33.12391778071995,35.17133130380131,0 33.12377636708217,35.17152979462874,0 33.12368069076842,35.17179276544206,0 33.12362588953498,35.17190748058274,0 33.12350637122558,35.17205623101869,0 33.12350220527393,35.17206141562156,0 33.12340242355728,35.17214541346871,0 33.1231671309395,35.17224217772483,0 33.12307758952438,35.17229820431174,0 33.12290894249723,35.17243542555066,0 33.12274324367802,35.17266621085763,0 33.12248137665909,35.17280914525056,0 33.12229879817789,35.17292403397011,0 33.12223611898916,35.17305733340169,0 33.12217476839933,35.17328120518732,0 33.12210315530382,35.17353307128848,0 33.12196249165389,35.17378937597065,0 33.12192157281033,35.17393490696245,0 33.12188408602324,35.17407484128804,0 33.12191258916699,35.1743252579734,0 33.12189547207103,35.17436724715175,0 33.12162353043364,35.17461662366127,0 33.12143317509977,35.1748008384202,0 33.12130614217087,35.17501646911782,0 33.1211512974129,35.17522483155207,0 33.12098969374794,35.17543773908824,0 33.12094930335923,35.17573721589253,0 33.12093267643788,35.17594319815459,0 33.12101620783884,35.17611655152538,0 33.12099916999689,35.17620444163435,0 33.12094755857898,35.17626329247361,0 33.12060942143296,35.17638979602739,0 33.12032652904668,35.17651621943374,0 33.12015652061947,35.17659902683825,0 33.12000282845797,35.17685539703471,0 33.11905043949882,35.17702529450154,0 33.11822016393179,35.17706205372841,0 33.11762468317247,35.17700072880955,0 33.11576867407791,35.17687937554411,0 33.11478963084298,35.1768648275119,0 33.11417110514,35.17690435259419,0 33.11382932915674,35.17701077816647,0 33.11360523835543,35.17720655110551,0 33.11297896103419,35.17722958263285,0 33.11193185526552,35.17725319251524,0 33.11144397095284,35.17736067291767,0 33.11069537644241,35.17744077455909,0 33.11020708053956,35.17764311109506,0 33.10976720947971,35.1776799343071,0 33.10900259848834,35.1777439382731,0 33.10737376419305,35.17786166657375,0 33.10666748383527,35.17787114774145,0 33.10577623328758,35.17793039776362,0 33.10437565863982,35.17802596143589,0 33.10347386259168,35.17825558912833,0 33.10213991359373,35.1782402707091,0 33.10004825776408,35.17826776127659,0 33.09862843867489,35.17803666524291,0 33.0958910550374,35.17757233848279,0 33.09452100339244,35.17703644787901,0 33.09285994888652,35.17677873297887,0 33.09230494833012,35.17652618969403,0 33.09186965246209,35.17674780472289,0 33.09142147060244,35.17704858175742,0 33.09055229443241,35.17733437398093,0 33.08988669054072,35.17730438432702,0 33.08955398638456,35.17712111446505,0 33.08858947256257,35.17695980401168,0 33.0885890823313,35.17695833771711,0 33.08824848077507,35.17567946345764,0 33.08779845670718,35.17487515614739,0 33.08752737924153,35.17413977698111,0 33.08715547629113,35.17354214801392,0 33.08701133971621,35.17292822026545,0 33.08664532119504,35.17259318271392,0 33.0841698441623,35.17007308316933,0 33.08436178971384,35.16845604178499,0 33.08333931721827,35.16839607426102,0 33.0833578232641,35.16777463631779,0</coordinates>
						</LinearRing>
					</outerBoundaryIs>
				</Polygon>
			</MultiGeometry>
		</Placemark>
	</Document>
</kml>