<?xml version='1.0' encoding='UTF-8'?>
<kml xmlns="http://www.opengis.net/kml/2.2">
	<Document>
		<name>CHARKEIA</name>
		<Style id="PolyStyle70">
			<LabelStyle>
				<color>00000000</color>
				<scale>0.000000</scale>
			</LabelStyle>
			<LineStyle>
				<color>ff0055ff</color>
				<width>2.000000</width>
			</LineStyle>
			<PolyStyle>
				<color>00828282</color>
				<outline>1</outline>
			</PolyStyle>
		</Style>
		<Placemark id="ID_70031">
			<name>CHARKEIA</name>
			<snippet />
			<description>&lt;html xmlns:fo="http://www.w3.org/1999/XSL/Format" xmlns:msxsl="urn:schemas-microsoft-com:xslt"&gt;

&lt;head&gt;

&lt;META http-equiv="Content-Type" content="text/html"&gt;

&lt;meta http-equiv="content-type" content="text/html; charset=UTF-8"&gt;

&lt;/head&gt;

&lt;body style="margin:0px 0px 0px 0px;overflow:auto;background:#FFFFFF;"&gt;

&lt;table style="font-family:Arial,Verdana,Times;font-size:12px;text-align:left;width:100%;border-collapse:collapse;padding:3px 3px 3px 3px"&gt;

&lt;tr style="text-align:center;font-weight:bold;background:#9CBCE2"&gt;

&lt;td&gt;2&lt;/td&gt;

&lt;/tr&gt;

&lt;tr&gt;

&lt;td&gt;

&lt;table style="font-family:Arial,Verdana,Times;font-size:12px;text-align:left;width:100%;border-spacing:0px; padding:3px 3px 3px 3px"&gt;

&lt;tr&gt;

&lt;td&gt;DIST_CODE&lt;/td&gt;

&lt;td&gt;2&lt;/td&gt;

&lt;/tr&gt;

&lt;tr bgcolor="#D4E4F3"&gt;

&lt;td&gt;VIL_CODE&lt;/td&gt;

&lt;td&gt;202&lt;/td&gt;

&lt;/tr&gt;

&lt;tr&gt;

&lt;td&gt;VIL_CCD&lt;/td&gt;

&lt;td&gt;2202&lt;/td&gt;

&lt;/tr&gt;

&lt;tr bgcolor="#D4E4F3"&gt;

&lt;td&gt;VIL_NM_E&lt;/td&gt;

&lt;td&gt;CHARKEIA&lt;/td&gt;

&lt;/tr&gt;

&lt;tr&gt;

&lt;td&gt;VIL_NM_G&lt;/td&gt;

&lt;td&gt;ΧΑΡΚΕΙΑ&lt;/td&gt;

&lt;/tr&gt;

&lt;/table&gt;

&lt;/td&gt;

&lt;/tr&gt;

&lt;/table&gt;

&lt;/body&gt;&lt;script type="text/javascript"&gt;

				function changeImage(attElement, nameElement) {

				document.getElementById('imageAttachment').src = attElement;

				document.getElementById('imageName').innerHTML = nameElement;}

			&lt;/script&gt;&lt;/html&gt;

</description>
			<styleUrl>#PolyStyle70</styleUrl>
			<MultiGeometry>
				<Polygon>
					<extrude>0</extrude>
					<altitudeMode>clampToGround</altitudeMode>
					<outerBoundaryIs>
						<LinearRing>
							<coordinates> 33.51999197148596,35.2795713560109,0 33.52017906144235,35.27982627506196,0 33.52023537931272,35.27986685340404,0 33.52033469709441,35.27991142644526,0 33.52134584541934,35.28027170848093,0 33.52369928391138,35.28115843965179,0 33.52401533205221,35.28125280140404,0 33.52435445827496,35.28131865010294,0 33.52454294945035,35.28131832418394,0 33.52471166668392,35.28134379181363,0 33.525133298852,35.28134577326266,0 33.52613548478458,35.28142266664346,0 33.52648282056419,35.28146544627271,0 33.52719396645121,35.28152860282162,0 33.52788523583255,35.28157755515562,0 33.52811683439806,35.28162188878123,0 33.52876240645187,35.28189869180094,0 33.5293798851482,35.28217960736923,0 33.53003586171519,35.28248037778445,0 33.53178423290458,35.28328199226131,0 33.53188964601424,35.28333032282651,0 33.5318959836381,35.28328179209047,0 33.53191227574688,35.28315703896201,0 33.53200753754779,35.28291756966568,0 33.5324964646714,35.2818025600156,0 33.53419203012491,35.28240317494588,0 33.53763831252925,35.2798605183431,0 33.53872994458792,35.28180679694947,0 33.54039114814112,35.28192336683406,0 33.5431717041432,35.27937229870687,0 33.54325335421971,35.2793036765168,0 33.54329338406446,35.27927728663109,0 33.54379667417409,35.27894548160985,0 33.5451316533152,35.27806745370567,0 33.54565056248921,35.27773731114208,0 33.54570484181895,35.2777345100155,0 33.54617905839436,35.27788874014232,0 33.54746336650404,35.2782923294823,0 33.54916920036109,35.27882459488858,0 33.54948531553736,35.27891436574448,0 33.5505883485368,35.27919821160873,0 33.55159922125268,35.27946738946373,0 33.55232888228829,35.27976948575938,0 33.55327251474633,35.2801651873942,0 33.55319572669504,35.28028782141633,0 33.55247189250187,35.28142239906123,0 33.55181352183151,35.28244622675204,0 33.5513942328174,35.28309119088303,0 33.55129947630137,35.28324548693507,0 33.54686426747574,35.29020651024742,0 33.54667731279493,35.29050657717023,0 33.54520720219007,35.29286606094556,0 33.55237962838331,35.29541444472663,0 33.55245584945654,35.29541565416837,0 33.55257505397191,35.29538417731452,0 33.55273218353257,35.29529014141691,0 33.55464033405491,35.29340367407628,0 33.555197090643,35.29286125940452,0 33.55534444657627,35.29282632815681,0 33.55543311916365,35.29283701866571,0 33.55558987947471,35.29290123070897,0 33.55660146683944,35.29343051904461,0 33.5572787708713,35.29378489358736,0 33.56307756286279,35.29692672386734,0 33.56335478633577,35.2970782753918,0 33.56453462243295,35.29772325073336,0 33.56989238508189,35.30065187615909,0 33.57736404882456,35.30473523465973,0 33.57717281526269,35.30494868988865,0 33.57216515542516,35.31053774971181,0 33.57177025716556,35.31049878109457,0 33.57161378894711,35.3110551277517,0 33.5715071725177,35.31102710431981,0 33.57133119507677,35.31135877439115,0 33.57124383019821,35.31147452780218,0 33.57116102382797,35.31154532919666,0 33.57126674456795,35.31178651593736,0 33.57105547902104,35.31185758783491,0 33.57094016447095,35.31205301500046,0 33.57087924295055,35.31210835989317,0 33.57080256510682,35.31213548793868,0 33.57071618465834,35.3121293931902,0 33.57071232207645,35.31221462931753,0 33.57070525012405,35.31237070366222,0 33.57068743169182,35.31248568674705,0 33.57062291168779,35.31261353999043,0 33.57055845124912,35.31276055146097,0 33.57044698972903,35.31282677431575,0 33.57033542923615,35.31286106662772,0 33.5701796734493,35.31288055407395,0 33.57003956654842,35.31292129207973,0 33.56993103546546,35.31298585565219,0 33.56960792376962,35.31317806667192,0 33.56945060378891,35.31325674877831,0 33.56906718381823,35.31359076768947,0 33.56868194073421,35.31401433388957,0 33.56840956456524,35.31425254409041,0 33.56833610680081,35.31427680531883,0 33.56795029038589,35.31451869787808,0 33.56770691811224,35.31462597119253,0 33.56727255894403,35.31479735746374,0 33.56698888170283,35.31478072820633,0 33.56683768448083,35.31480342949835,0 33.56682115965344,35.31489473154469,0 33.56765156372478,35.31506692617601,0 33.5682046152353,35.31522936341836,0 33.56810849189638,35.31539660116319,0 33.56795772365962,35.31555706575113,0 33.56786157223789,35.31571569357712,0 33.56784729889533,35.31585520736019,0 33.56765061441477,35.31611392246143,0 33.56707670424308,35.31667994387448,0 33.56662188137244,35.3170321846265,0 33.56655492214639,35.31712014631087,0 33.56650708440353,35.31727695124161,0 33.56634371969717,35.31744260428984,0 33.56607746898151,35.31762913673525,0 33.56604195425401,35.3176946475199,0 33.56595174503305,35.31773788466068,0 33.5655723779528,35.31803485974961,0 33.56517012546486,35.31840592743556,0 33.56467186853244,35.3183036355507,0 33.56451092052999,35.31857432633129,0 33.56437260396756,35.31868826468288,0 33.56408287892095,35.31875946436968,0 33.56402626164763,35.31879574435931,0 33.56400325677048,35.31883023066369,0 33.56401830526571,35.31894213174818,0 33.56408373298585,35.31903843132864,0 33.56425866759155,35.31921716268401,0 33.56421680518116,35.31926890894593,0 33.56415285051209,35.31931079998133,0 33.56407081229992,35.31948062597432,0 33.56395558375701,35.31971915738674,0 33.56382644517748,35.31976289088652,0 33.56374748753628,35.31995729875688,0 33.56351765890555,35.32013571740674,0 33.56313456044931,35.32005364276223,0 33.56308863510349,35.3202113072151,0 33.56305940312915,35.32040832956425,0 33.5629276073322,35.32066838782971,0 33.56287835090524,35.32082062525264,0 33.56278081458743,35.3209023274696,0 33.56276305517542,35.32105721697653,0 33.56263007579366,35.32120147565653,0 33.5626542410925,35.32124557338921,0 33.56249559341402,35.32139667645079,0 33.56262072445049,35.32166809394703,0 33.56289909968546,35.32164646980393,0 33.5629652987631,35.32188676400158,0 33.56298894127402,35.32203070294303,0 33.56297434416091,35.32213532660195,0 33.56306858977072,35.32233277622387,0 33.56309165812159,35.32256025455106,0 33.56300385986793,35.32257469766463,0 33.56255940738394,35.3224873130797,0 33.56245902983596,35.32245288099714,0 33.56224317870514,35.32259730838485,0 33.56205863939583,35.32268326247839,0 33.56195322900935,35.32290217401616,0 33.56186292794601,35.32291118729369,0 33.56178017718513,35.32295074875201,0 33.56168490278976,35.3229597723851,0 33.56147153446781,35.32310419407276,0 33.56145974082491,35.32331476453015,0 33.56122779311587,35.32334444081492,0 33.56107827467545,35.32350299537443,0 33.56072928161232,35.3237424369259,0 33.56059335299223,35.32373592031092,0 33.56043879229232,35.32387139095611,0 33.56020111798181,35.32392688709539,0 33.55973781551594,35.32418591383202,0 33.55971819058708,35.32427356872022,0 33.55946423504494,35.32442757689198,0 33.5592777455301,35.32469419281414,0 33.55868968659735,35.32480608492472,0 33.55838095107605,35.3249330334737,0 33.55818422848832,35.32510526253286,0 33.55802422809712,35.3253636734842,0 33.55796413514138,35.32549895099679,0 33.55806911121336,35.3256848363793,0 33.55777566420315,35.32593740188177,0 33.5578026301316,35.32608676798829,0 33.5576939281488,35.3263185867805,0 33.55763781620632,35.32639952227933,0 33.55720243099238,35.32657901919571,0 33.55709476177673,35.32660164837511,0 33.55686691963609,35.32662247845398,0 33.55679503510881,35.32669529460136,0 33.55674503556325,35.32674759310941,0 33.55670058236817,35.32679409011104,0 33.55663998126285,35.32685747640808,0 33.55632473242093,35.32696805927795,0 33.55624091093839,35.32714854580218,0 33.55643316675792,35.32727831941187,0 33.55650877860529,35.32767541478515,0 33.55619349804117,35.32789296965281,0 33.55604643506352,35.32794342668961,0 33.55582084199636,35.32828553510559,0 33.55583303514307,35.32849294621312,0 33.55567315286456,35.32868307504164,0 33.55553271628755,35.32873758598495,0 33.55548004312929,35.32882446088576,0 33.55544234032921,35.32893977805895,0 33.55535336877404,35.32905790863432,0 33.55528981396331,35.32938071249419,0 33.5554954909881,35.32957282556639,0 33.55541313463812,35.32969094380868,0 33.55551438306983,35.32980869622184,0 33.55550125780594,35.3298453285019,0 33.55543856729713,35.32990104054711,0 33.55519242831475,35.33000999236053,0 33.55507242701006,35.3302637628533,0 33.55500370318619,35.33051743123539,0 33.5548483484399,35.33056248064012,0 33.55433530645649,35.33047265783593,0 33.5540160517986,35.33046922141794,0 33.55366026348546,35.33041704792626,0 33.55305279755275,35.3302785979734,0 33.55262549436409,35.33009369448502,0 33.55258084561076,35.33009784924648,0 33.55239122162593,35.33030294613231,0 33.55218254674548,35.33021522853091,0 33.55218765594328,35.33026538327437,0 33.55204800641892,35.33059104596119,0 33.55215092509555,35.33071557633432,0 33.55208211297361,35.33094212862964,0 33.55198965976986,35.33100331989178,0 33.55196187918,35.33111997245485,0 33.55171299209383,35.33142415632583,0 33.55178310106687,35.33164230101833,0 33.55149860999998,35.33164963646312,0 33.55141435202788,35.33168505143146,0 33.55131210670135,35.3317923582872,0 33.55116018219012,35.33188078081727,0 33.55109588799092,35.33195547435334,0 33.55083511533626,35.33215664043891,0 33.55042455028367,35.33204084173662,0 33.55020140670224,35.33209821890318,0 33.55010207860143,35.33207129556013,0 33.54999627344522,35.33209183771999,0 33.5496323734729,35.3320966113918,0 33.54953996820068,35.33217542585024,0 33.54944080193322,35.33220409019074,0 33.54926254088279,35.33233865821944,0 33.54908415887319,35.33243119680157,0 33.54893671277151,35.33235284644441,0 33.5487480939067,35.33233694095664,0 33.548564690241,35.33240915235886,0 33.54850379769418,35.33251773211729,0 33.54836161043477,35.332542411125,0 33.54831718651534,35.33262520015464,0 33.54799335359233,35.33275869043559,0 33.54789249195673,35.33277379835944,0 33.54781135128633,35.33274344935256,0 33.54763764584012,35.33273700468735,0 33.54770489965509,35.33253892978718,0 33.54778716392954,35.33238421188133,0 33.5478066649484,35.33226215354639,0 33.54780144955939,35.33217403722534,0 33.54787221295102,35.332046456477,0 33.54790180405934,35.33198267790785,0 33.5479712090513,35.33195814006795,0 33.54797438465567,35.33191203708972,0 33.54791601192635,35.33174538691923,0 33.54786956025873,35.33169802429924,0 33.54786090818667,35.331565173486,0 33.54780602074728,35.33145952715467,0 33.54773968423292,35.33140000052587,0 33.54779038320395,35.33119788941777,0 33.54774705072874,35.33108408742476,0 33.54756817972093,35.33100579480982,0 33.54749046770795,35.33101679007358,0 33.54738774989645,35.33096004465546,0 33.54725499283914,35.33081116329512,0 33.54702635763334,35.33068280075551,0 33.54691544750138,35.33065318702987,0 33.54678102777087,35.3305002402895,0 33.54641039866227,35.33046298688536,0 33.54622892496678,35.33063145182426,0 33.54594658730605,35.33081366624135,0 33.54597014142048,35.33095326785167,0 33.54580879608983,35.33122066611661,0 33.54573299178078,35.33132113915703,0 33.54552339321422,35.33148897824267,0 33.54546778194195,35.33171143365582,0 33.54557576257264,35.33187392221007,0 33.545625841168,35.33203381016333,0 33.54558026793229,35.33229556397978,0 33.54560212928283,35.33242161133249,0 33.54550660373321,35.33256821853838,0 33.54538615335467,35.33267555477811,0 33.54519832181465,35.33293757964361,0 33.54522359169432,35.33309887036729,0 33.54489134539227,35.33318491632215,0 33.54482586135116,35.33342637158918,0 33.54452166628557,35.3334879586719,0 33.54445698228535,35.33342707076789,0 33.54452276646401,35.33329136786725,0 33.54452090847999,35.33321951402814,0 33.54450584926598,35.33315853241863,0 33.54452559970751,35.33312324426548,0 33.54446565150651,35.33298235602971,0 33.54445044236841,35.33286849922224,0 33.54453577026885,35.33262429482708,0 33.54469940768381,35.3325805995162,0 33.54474887089339,35.33252356181799,0 33.544775091602,35.33243674228061,0 33.54494857058056,35.33236319955707,0 33.54490683370266,35.33222769981664,0 33.54483037954652,35.33209904554874,0 33.5448334113857,35.33200142307684,0 33.54451360391067,35.33180408408097,0 33.54439223529847,35.3315860325181,0 33.54460711509806,35.33153003820562,0 33.54490255756955,35.33130034793585,0 33.54499515747197,35.33128932597985,0 33.54503801096854,35.33123501303299,0 33.54505759952764,35.33114278267891,0 33.54514511563176,35.33108838460369,0 33.54516928939154,35.33086327774972,0 33.54498714381702,35.3307958340796,0 33.54497416977994,35.33030235187923,0 33.54527468316233,35.33011332544557,0 33.54510061813388,35.32997807724338,0 33.54494840000755,35.32996345286467,0 33.54476133681469,35.32991093237063,0 33.54453745881263,35.32970798901285,0 33.54431269648619,35.3297775598873,0 33.54420516598043,35.32977234012146,0 33.54419838489449,35.3297140541123,0 33.54424589144102,35.32954991436243,0 33.54422907185137,35.32945097238976,0 33.54433455017572,35.32931519448454,0 33.54432281824915,35.3292609851099,0 33.54428306424922,35.32924072382261,0 33.54418040690533,35.3292043110747,0 33.54414059118218,35.32916235685696,0 33.54408062764118,35.32901469012351,0 33.54395662023208,35.32903254982959,0 33.54389719633092,35.32907604756166,0 33.54383816792991,35.32926054587867,0 33.54370799527313,35.32943840108288,0 33.54361725681934,35.32952263158703,0 33.54343492918352,35.32970852050757,0 33.54340149159752,35.32974261081286,0 33.54330632375876,35.33017342243308,0 33.54317380620561,35.33037864672482,0 33.54287844088446,35.33061238320024,0 33.54273177853758,35.33068411883453,0 33.54266326899461,35.33080271793276,0 33.54255782139925,35.33084240779625,0 33.54251435771129,35.33089138202318,0 33.54253057391164,35.33094588601652,0 33.54272607444695,35.33110535961413,0 33.54272180697293,35.33122007839051,0 33.54264861171148,35.33130483782348,0 33.54236185331739,35.33133546403371,0 33.54215084661855,35.33137535123043,0 33.54198135040644,35.33148849881478,0 33.54197458649856,35.33153176221543,0 33.54215025971364,35.33198651276524,0 33.54203131492203,35.33212401123095,0 33.54191204467531,35.33214492036851,0 33.54177426992511,35.33211321040007,0 33.54168941674972,35.33213217406738,0 33.54153393723472,35.33233555877072,0 33.54134363355467,35.33239421018754,0 33.54126789528732,35.33239059050634,0 33.54097210473589,35.33247576482552,0 33.54081169480033,35.33255692573078,0 33.54041023806179,35.33260468604075,0 33.54024752322675,35.3326820896977,0 33.53995213629347,35.33291393976032,0 33.53985566662097,35.33288214948567,0 33.53979146927266,35.33290295481478,0 33.53949374408482,35.33311976320502,0 33.53943871580596,35.33313679037044,0 33.5392211407594,35.33329327441572,0 33.5391317255315,35.33332352730833,0 33.53900586412866,35.33345163437868,0 33.53874257291086,35.33367402007049,0 33.53852524773471,35.33392264558574,0 33.53823393577011,35.33403524524255,0 33.53813833249692,35.33407219775658,0 33.53797329561906,35.33417178046787,0 33.53779700456374,35.33423067492843,0 33.53742047793317,35.33457729538694,0 33.537181605824,35.3346216622163,0 33.53696734718013,35.33468245479146,0 33.53665010379673,35.33465558224324,0 33.53626154043125,35.33468557868768,0 33.53598700874924,35.334759292941,0 33.5358260965743,35.3347248097508,0 33.53564490328861,35.33462447324558,0 33.53521371435575,35.33458499228077,0 33.53486038852067,35.33443005648957,0 33.53469068127659,35.33404172753757,0 33.53465858138411,35.33396827484368,0 33.53453688967309,35.33394404886326,0 33.53445871834887,35.33388965637144,0 33.53425428296451,35.33381668769925,0 33.53407294031512,35.3337982114539,0 33.53376509117908,35.33367089484854,0 33.53333108382347,35.33356448960249,0 33.53309469339447,35.33355551354283,0 33.53215592567054,35.33348574292645,0 33.53152030339002,35.3335019244249,0 33.53057922355059,35.33342462441729,0 33.53017057356472,35.33343364074093,0 33.52971178060296,35.33344376234386,0 33.52922237461058,35.33319046956289,0 33.52887250246543,35.33310020646736,0 33.52866552444033,35.33302201330874,0 33.52847376914635,35.33301465016172,0 33.5281954529342,35.33297201051046,0 33.52774061148469,35.33299437584591,0 33.52756751391291,35.33293306510349,0 33.52717648249018,35.33291680755023,0 33.52695530048204,35.33315749183497,0 33.52679987063068,35.3333841974698,0 33.52643820852418,35.3338192116517,0 33.52633800052374,35.33405659894859,0 33.52626405176988,35.33423177677832,0 33.5262180381741,35.33438535252649,0 33.52614367619002,35.33447513400408,0 33.52594178204201,35.33460588845719,0 33.5256817392517,35.33468784312712,0 33.52551111383703,35.3347316071163,0 33.52526254644923,35.33476328151001,0 33.5246327377692,35.33480376639048,0 33.52431299619419,35.33487631273824,0 33.52411423991216,35.33494049911702,0 33.52351763421946,35.3350012961421,0 33.52344317082287,35.33505304238383,0 33.52336527578462,35.33505861025496,0 33.52329076009237,35.33508998126147,0 33.52302261253506,35.33524393663833,0 33.52290018093213,35.3353365155096,0 33.52274617675845,35.33539926398516,0 33.52257056768642,35.33544031694813,0 33.52249934282772,35.33546217284994,0 33.52215988311877,35.33560538196502,0 33.52188520356462,35.33580009754532,0 33.52155247541569,35.33598404465842,0 33.52131913356082,35.33613929549125,0 33.52102431311963,35.33623760028672,0 33.52082562607179,35.33633030648424,0 33.52036333128742,35.33641123526126,0 33.52016454562536,35.33646590678124,0 33.52004290775933,35.33621753153638,0 33.52007909508141,35.33610608516084,0 33.52014504102112,35.33596334512185,0 33.52019610426123,35.33583421480766,0 33.52013948277619,35.33573107540975,0 33.51988697175164,35.33551552376407,0 33.51972296878821,35.33555790988655,0 33.51982095513585,35.33563109591587,0 33.51993069386639,35.33576267135888,0 33.51997242508568,35.3358767030061,0 33.51986303125345,35.33588232117567,0 33.51978685686645,35.335913692653,0 33.51981710177619,35.33607528651937,0 33.51977293978405,35.33631171619917,0 33.51995576123544,35.33650021857268,0 33.51989148611322,35.33664838925161,0 33.51995830198499,35.33685067205702,0 33.51989741036062,35.33702600344483,0 33.51991764251105,35.3371604479232,0 33.5198416955917,35.33728282751544,0 33.51972265379585,35.33740799908706,0 33.51964835446628,35.33752630180723,0 33.51963734630819,35.33776267539886,0 33.5197106385391,35.33790246314555,0 33.51984508008523,35.33796879524089,0 33.51992165406228,35.33809499327823,0 33.5200811190452,35.3382224084635,0 33.52021724597792,35.33829824679677,0 33.52035849945867,35.33843520160698,0 33.5205843258495,35.33858287976778,0 33.52065254752036,35.33868328196788,0 33.52076267395742,35.33896563434809,0 33.5204826173747,35.33900686017626,0 33.52035026836383,35.33911439583472,0 33.52029417237301,35.33922044402384,0 33.52027305138649,35.33939027458608,0 33.52029656919007,35.33951248679969,0 33.52029376894048,35.33971624610319,0 33.52013632120583,35.33973281382202,0 33.52013814377506,35.33979801162521,0 33.52020301298738,35.3398834775408,0 33.52030606615798,35.33999061374173,0 33.52031781389458,35.34004764481689,0 33.52021849589588,35.34010622382343,0 33.52015397431013,35.34015930883577,0 33.52011105052568,35.34023001631662,0 33.5198924040812,35.34030102084991,0 33.51987779219174,35.34042329795755,0 33.51991126265309,35.34054821027704,0 33.52009716239895,35.34063890634432,0 33.52015542476216,35.34073389296965,0 33.52007804835633,35.34094728690511,0 33.51990234788464,35.34095709329726,0 33.5198575954339,35.3410671693453,0 33.5197971144071,35.3413009360918,0 33.51978678563625,35.34131995152959,0 33.51965972069792,35.34155387829531,0 33.51945103722146,35.34154347030095,0 33.51933855589959,35.34149344562154,0 33.51909479311554,35.34145918527096,0 33.51900437267197,35.34147727091609,0 33.5189094767831,35.34145710555856,0 33.518779750849,35.34151232111958,0 33.51849682492674,35.34157138097734,0 33.51801257297061,35.34134265450285,0 33.51792530470273,35.34132308663956,0 33.51786826312934,35.34131029548231,0 33.51767004013813,35.34121870233336,0 33.51752597381249,35.34120360209579,0 33.51750295597958,35.34121426193007,0 33.51737605216076,35.34115074603631,0 33.51734150511072,35.34115906566555,0 33.51713683663503,35.34109922005521,0 33.51711489910925,35.3409659010721,0 33.5171809089016,35.34086783860695,0 33.51716750664057,35.34069083901831,0 33.51725815006511,35.34065292376285,0 33.51713496107474,35.3403451118705,0 33.51708286955947,35.34024842804327,0 33.51710871532218,35.3402165209315,0 33.51703219958029,35.34014347980462,0 33.51696663962491,35.33997843901426,0 33.51691184672687,35.33994840638464,0 33.51681614250407,35.33989595051801,0 33.51639506497665,35.33957126201112,0 33.51610362698157,35.33947955332332,0 33.5159444425729,35.33934152714121,0 33.51566290024105,35.3392362429494,0 33.51558328514697,35.33915773921203,0 33.51508977576418,35.33897959159678,0 33.51492433659082,35.33898800037763,0 33.51480508558333,35.33893938746848,0 33.51459289118095,35.33877433243214,0 33.51447365526515,35.33873114354498,0 33.51409961886771,35.33869108540421,0 33.5136394319171,35.33860507100943,0 33.51353370424633,35.33867303336604,0 33.51323238411043,35.33859760320144,0 33.51315310332167,35.33865467621649,0 33.51307708498027,35.33869276339205,0 33.51298439476177,35.33867935685238,0 33.51283863238771,35.33861451724187,0 33.51271262690683,35.33850897092008,0 33.51239146017823,35.33843628275358,0 33.51234501332126,35.33838754988491,0 33.512212482258,35.33831997727994,0 33.51223855359545,35.33815452841787,0 33.51230107943652,35.33801071287443,0 33.51234647888199,35.33762830628167,0 33.51268049691345,35.33754370225795,0 33.51297148837588,35.33745645591769,0 33.51318937479623,35.33724459716676,0 33.51320247932635,35.33719034331752,0 33.51305978460407,35.33702517072135,0 33.51300946814653,35.33674596086995,0 33.51305508772671,35.33645574741556,0 33.51298210371829,35.33637994310025,0 33.51291890121116,35.33624446647901,0 33.5127503884928,35.33634778200507,0 33.51256856641647,35.33642129147734,0 33.51248252414397,35.3364187205121,0 33.51259082829961,35.33604976944694,0 33.51260374729962,35.33591959168246,0 33.51258030709761,35.33580574399576,0 33.51248405529825,35.3356865912799,0 33.51246071982541,35.33561612856928,0 33.51240095973051,35.33553487856295,0 33.51234440403658,35.33541023850882,0 33.51216220190655,35.33532647683875,0 33.51193351768136,35.33517771142062,0 33.51173474536551,35.33508312986265,0 33.51164184420034,35.33498024094188,0 33.51151274633869,35.33496146916217,0 33.51144319819161,35.33493717774709,0 33.51143950307132,35.33477720089054,0 33.51158480321342,35.33465494404304,0 33.51162436171928,35.33459251296618,0 33.5116471826099,35.3344514742634,0 33.51153758578772,35.3342862453103,0 33.51139526769369,35.3342729186049,0 33.51122334349327,35.334332852885,0 33.51106809586216,35.33444699038737,0 33.51097908569571,35.3345854252948,0 33.51084431154349,35.33495712878614,0 33.51096044695404,35.3350898085251,0 33.51100386316106,35.33525514467695,0 33.51110343532948,35.33537971618547,0 33.51144484907089,35.33562049277649,0 33.51161045943789,35.3356853024117,0 33.51158767579881,35.33584261057904,0 33.51169755775476,35.33612443622253,0 33.51163184804156,35.33631977713208,0 33.51153935769813,35.33638771689404,0 33.51141364595976,35.33640147811565,0 33.51137775610843,35.33661303990014,0 33.5113815054004,35.33679470965321,0 33.51134198543829,35.33687340922236,0 33.51124271373346,35.33687356948919,0 33.51111355996044,35.33683310616845,0 33.51096430333242,35.33668963395681,0 33.5108517102815,35.33665456533668,0 33.51054039455902,35.33654660518327,0 33.51043451675378,35.33655219997738,0 33.51022268305704,35.33653084850397,0 33.5100771090196,35.33654192947851,0 33.50965021814002,35.3365344819053,0 33.50945149162041,35.33645887738867,0 33.50927285907929,35.33648356851999,0 33.50895184037826,35.33646781341676,0 33.50879956421419,35.33644365332076,0 33.50868044921165,35.33644926713676,0 33.50839245020246,35.33640363103021,0 33.50804166190048,35.33639334469882,0 33.50751204783202,35.33632639840167,0 33.50720483572876,35.33655194670342,0 33.50697343126304,35.33664993048686,0 33.50683436551724,35.33661490152928,0 33.50623533215106,35.33657788659571,0 33.50604735705728,35.3368520525388,0 33.50600458764043,35.33695787166973,0 33.50585902509733,35.3369743710409,0 33.50567047683135,35.33700449482632,0 33.50549867715144,35.3371213633595,0 33.50547242025078,35.33721359817014,0 33.50549928036165,35.33737896224254,0 33.50548625964626,35.33747117685791,0 33.50549330351217,35.33765284115946,0 33.50534097464242,35.33760698376089,0 33.50536763797425,35.33768828908531,0 33.50509951700253,35.33765346046919,0 33.50499680597805,35.33759939028027,0 33.50450373422495,35.33759474014608,0 33.50476253509445,35.33647174112436,0 33.50485414425122,35.33602418629174,0 33.50503145246954,35.33543278487241,0 33.50512312106648,35.33501234532791,0 33.50524443311446,35.33453220508679,0 33.505239031641,35.33434511479482,0 33.50527024503108,35.33425016058744,0 33.50526777836983,35.33409154751447,0 33.50526527930666,35.33393090739929,0 33.50542025391898,35.33333377033922,0 33.50542787820443,35.33305717754009,0 33.50549458732384,35.33257712276198,0 33.50562413055792,35.33208205607421,0 33.5056697910823,35.33179862319186,0 33.50598862786072,35.33089109726721,0 33.50623666366593,35.33013146303348,0 33.50645781072096,35.32919629593804,0 33.5064639469695,35.32899156162482,0 33.50651953231645,35.32870946941844,0 33.50668681378525,35.32738459671988,0 33.5067222405802,35.32683714961731,0 33.50674544181896,35.32647860373281,0 33.50678298643531,35.32623132201496,0 33.50678272354182,35.32611993661095,0 33.506813233077,35.32570151102718,0 33.50681095382871,35.32543799130434,0 33.50680832469148,35.32502641075687,0 33.50675804945391,35.3226860248208,0 33.50673087749358,35.32241031913608,0 33.50693580157418,35.321444196586,0 33.5070314214397,35.32052171291053,0 33.5071537945861,35.32039926527609,0 33.50718327477943,35.32024844002272,0 33.50716307610821,35.32011806878002,0 33.50711301199009,35.31997552001016,0 33.50701639802255,35.31977463424462,0 33.50704465065311,35.31961918562907,0 33.50704453431636,35.31958451767778,0 33.50704101508622,35.31853802987607,0 33.5069284474085,35.31826305256716,0 33.50691666415253,35.3181524697608,0 33.50681413207031,35.31794491680996,0 33.50680877407034,35.31776688286065,0 33.50672771742838,35.31759301590358,0 33.50664679050355,35.31747444912934,0 33.50647391643461,35.31675041678808,0 33.50647524231395,35.31661418552583,0 33.50636730150412,35.31620566839999,0 33.50633063922134,35.31601284870151,0 33.50633799821166,35.3149432360152,0 33.50637323630125,35.31453044697593,0 33.50636935044712,35.3142782267387,0 33.50644502880009,35.31286725929662,0 33.50649563859344,35.31233323007331,0 33.5065827622074,35.31141387358041,0 33.50656873508601,35.31107630262687,0 33.50647715173831,35.30905936330059,0 33.50632815452219,35.3086484540361,0 33.50631918262518,35.30835019302121,0 33.50629190989424,35.30800620277141,0 33.50626909113511,35.30779710736463,0 33.50628206540915,35.30733611655319,0 33.5063919775899,35.30695225211885,0 33.50640605264459,35.30660785882185,0 33.50635888536266,35.30624356278983,0 33.50641578110455,35.30582148128941,0 33.50647141621347,35.30556684273838,0 33.50649554065546,35.3050811011761,0 33.50652665601243,35.30445460106188,0 33.50648454592447,35.30416397624663,0 33.50646840639065,35.30364272603119,0 33.50642451954462,35.30330048527204,0 33.50639078957009,35.30269742086243,0 33.506381490407,35.30261865021566,0 33.50641829647141,35.30206369672753,0 33.50642981001707,35.30167518364419,0 33.50645054771229,35.30133419997895,0 33.50645000494433,35.30110327631955,0 33.50647525550271,35.30021486091884,0 33.50648585624845,35.29943853280656,0 33.50644380691392,35.29917235898054,0 33.50643903977004,35.29890680419992,0 33.50639044991217,35.29867731560437,0 33.50639068849821,35.29842669540123,0 33.50640328158465,35.29814549219439,0 33.50642531371732,35.2980021485263,0 33.50642947870344,35.29782904876413,0 33.50643281835779,35.29769024785002,0 33.50646031828088,35.29740630420957,0 33.50645633617301,35.2973299151919,0 33.50643949692215,35.29700697545829,0 33.50648672858878,35.29665915635627,0 33.50645523441728,35.29594877718804,0 33.50648879141406,35.29401439813034,0 33.50656370008002,35.29345870469109,0 33.50691091767119,35.29057612216945,0 33.50722078348547,35.28772129677392,0 33.50734462762986,35.2865746567962,0 33.50534547098476,35.28506066263268,0 33.50531807116813,35.284999653134,0 33.5060870398173,35.28414449504611,0 33.50626016183493,35.2840803752099,0 33.50727395633243,35.28332338177798,0 33.50831476748116,35.28254619000988,0 33.50915108171062,35.28332038737653,0 33.50968435747242,35.28381404329273,0 33.51165498874202,35.28331634769258,0 33.51244355026299,35.28311718093207,0 33.51269021712703,35.28304885992885,0 33.51341237231389,35.28299877788206,0 33.5152143808229,35.28284639099334,0 33.51676981173065,35.28269747271116,0 33.51787199871978,35.2825919352155,0 33.51792803094551,35.28251727161616,0 33.51741294204036,35.28217104717376,0 33.51676747260463,35.28175332712487,0 33.51603218093694,35.28127746867354,0 33.51541905954543,35.28086282122045,0 33.51463338938996,35.28033604913409,0 33.51389170296109,35.27984078274666,0 33.51350822442659,35.27984548662852,0 33.51198592438491,35.27986834750899,0 33.51101108324497,35.27988147493958,0 33.51054311265139,35.27988223125164,0 33.5093239378258,35.27989709799782,0 33.50814451385902,35.27990985114332,0 33.50810224891686,35.27990041010123,0 33.50790313165074,35.27976013517809,0 33.50777956242734,35.27969309229164,0 33.50742970741934,35.27955509420357,0 33.50697619056206,35.27936156592026,0 33.50669515166224,35.27925198155118,0 33.50662306026847,35.27923783264234,0 33.5064116997662,35.27917296502752,0 33.5062608592695,35.27913177258236,0 33.50603713180801,35.27909001593034,0 33.50578595580253,35.27899872140249,0 33.50553899210364,35.27893866211168,0 33.5054353781813,35.27890350697965,0 33.5052148490124,35.27881284216903,0 33.50494216700143,35.27873278659541,0 33.50485096760337,35.27869489484753,0 33.50466366643652,35.27864424840293,0 33.50441748238057,35.27856177357821,0 33.50421445313384,35.27851590530175,0 33.50411751523048,35.27850247318602,0 33.50359201502579,35.27833485364341,0 33.5040025095066,35.2781976963679,0 33.50417465165222,35.27813969760814,0 33.50486577671732,35.27794029308622,0 33.50502140004895,35.27790337220677,0 33.50549646104817,35.2777518464219,0 33.50556185379308,35.27773544215918,0 33.50567777953999,35.27772303426429,0 33.50571751416738,35.27771414286037,0 33.50590123055119,35.27764797187684,0 33.50636721291551,35.27751207803441,0 33.50656005629128,35.27745336368311,0 33.50665194820676,35.27743487926853,0 33.50702027418464,35.27733241733334,0 33.50720482743039,35.27727031868653,0 33.5074125737297,35.27721022088387,0 33.50766175140765,35.27715820636804,0 33.50798119558744,35.2770503851436,0 33.50807475717718,35.27703801117193,0 33.50814508517506,35.27700733585486,0 33.50860694260185,35.27688094851446,0 33.5086632440651,35.27687338723123,0 33.50893720436069,35.27679484208617,0 33.50911016160519,35.27673411704547,0 33.50931378570315,35.27668285148165,0 33.50965890545815,35.27657634371507,0 33.50976570880041,35.27655987178895,0 33.50994705433916,35.27654463775041,0 33.51013339773434,35.27654026286144,0 33.51039591036273,35.2765248976875,0 33.51066251386911,35.27648779064189,0 33.51083726896427,35.27648682931761,0 33.51112875947868,35.27646734079087,0 33.51140450195045,35.27644244318332,0 33.51177301756874,35.27642282758384,0 33.51213490524682,35.27640186342249,0 33.51265245985324,35.27636434379315,0 33.51300525969116,35.27635290070585,0 33.51351461991661,35.27635206744191,0 33.51371336790603,35.27634019444015,0 33.51434192392915,35.27631063576167,0 33.5145995133154,35.27631428698584,0 33.51497881462478,35.27630279482035,0 33.51486986698115,35.27645715022695,0 33.51483530156519,35.27654686061419,0 33.51482562535676,35.27665418790411,0 33.51482817798711,35.27668203041771,0 33.51486980526948,35.27676957684145,0 33.51487828170424,35.27684834974798,0 33.51489162779057,35.27688704123654,0 33.51492483688313,35.2769195873386,0 33.51499862669639,35.27695070867834,0 33.51540956186918,35.27700300596392,0 33.51559014419407,35.27701357397221,0 33.51572672563865,35.27698142567009,0 33.51575986206417,35.27698476641535,0 33.5157980117785,35.2770050793906,0 33.51582626023887,35.27704102925117,0 33.51590856125618,35.27716518516448,0 33.51598097390227,35.27730905208525,0 33.5160217155201,35.27737282902506,0 33.51605592209491,35.27747397145966,0 33.51608103018635,35.27757988310934,0 33.5161077176088,35.277653870347,0 33.51616084384264,35.27770200422845,0 33.5162984932703,35.27776697741755,0 33.51634573479635,35.27777912462217,0 33.51655537057719,35.27781545193969,0 33.51666807907707,35.27784243190671,0 33.51675788276442,35.27788190981609,0 33.51687415777693,35.27793302307473,0 33.5169403271121,35.2779471488155,0 33.51702061439872,35.2779870106155,0 33.5173568094844,35.27821219145094,0 33.51827798081631,35.27863908375782,0 33.51838685355035,35.27853857106102,0 33.51843820580975,35.27857780234657,0 33.51841199962598,35.27867682063072,0 33.51847334067005,35.27874315217377,0 33.51857761572249,35.27878771895073,0 33.51879254508507,35.27878329018824,0 33.51890827471604,35.27878038356159,0 33.51908195943226,35.2788112748656,0 33.51928214091673,35.27885974615864,0 33.51975723452088,35.27908671889963,0 33.51995589739498,35.27918806839036,0 33.51997419717323,35.27923277900823,0 33.51983252381955,35.27943910123516,0 33.51983760739676,35.27948790140886,0 33.51988233749994,35.27952307640022,0 33.51997831007155,35.27955274186982,0 33.51999197148596,35.2795713560109,0</coordinates>
						</LinearRing>
					</outerBoundaryIs>
				</Polygon>
			</MultiGeometry>
		</Placemark>
	</Document>
</kml>