<?xml version='1.0' encoding='UTF-8'?>
<kml xmlns="http://www.opengis.net/kml/2.2">
	<Document>
		<name>CHOIROKOITIA</name>
		<Style id="PolyStyle70">
			<LabelStyle>
				<color>00000000</color>
				<scale>0.000000</scale>
			</LabelStyle>
			<LineStyle>
				<color>ff0055ff</color>
				<width>2.000000</width>
			</LineStyle>
			<PolyStyle>
				<color>00828282</color>
				<outline>1</outline>
			</PolyStyle>
		</Style>
		<Placemark id="ID_70199">
			<name>CHOIROKOITIA</name>
			<snippet />
			<description>&lt;html xmlns:fo="http://www.w3.org/1999/XSL/Format" xmlns:msxsl="urn:schemas-microsoft-com:xslt"&gt;

&lt;head&gt;

&lt;META http-equiv="Content-Type" content="text/html"&gt;

&lt;meta http-equiv="content-type" content="text/html; charset=UTF-8"&gt;

&lt;/head&gt;

&lt;body style="margin:0px 0px 0px 0px;overflow:auto;background:#FFFFFF;"&gt;

&lt;table style="font-family:Arial,Verdana,Times;font-size:12px;text-align:left;width:100%;border-collapse:collapse;padding:3px 3px 3px 3px"&gt;

&lt;tr style="text-align:center;font-weight:bold;background:#9CBCE2"&gt;

&lt;td&gt;4&lt;/td&gt;

&lt;/tr&gt;

&lt;tr&gt;

&lt;td&gt;

&lt;table style="font-family:Arial,Verdana,Times;font-size:12px;text-align:left;width:100%;border-spacing:0px; padding:3px 3px 3px 3px"&gt;

&lt;tr&gt;

&lt;td&gt;DIST_CODE&lt;/td&gt;

&lt;td&gt;4&lt;/td&gt;

&lt;/tr&gt;

&lt;tr bgcolor="#D4E4F3"&gt;

&lt;td&gt;VIL_CODE&lt;/td&gt;

&lt;td&gt;304&lt;/td&gt;

&lt;/tr&gt;

&lt;tr&gt;

&lt;td&gt;VIL_CCD&lt;/td&gt;

&lt;td&gt;4304&lt;/td&gt;

&lt;/tr&gt;

&lt;tr bgcolor="#D4E4F3"&gt;

&lt;td&gt;VIL_NM_E&lt;/td&gt;

&lt;td&gt;CHOIROKOITIA&lt;/td&gt;

&lt;/tr&gt;

&lt;tr&gt;

&lt;td&gt;VIL_NM_G&lt;/td&gt;

&lt;td&gt;ΧΟΙΡΟΚΟΙΤΙΑ&lt;/td&gt;

&lt;/tr&gt;

&lt;/table&gt;

&lt;/td&gt;

&lt;/tr&gt;

&lt;/table&gt;

&lt;/body&gt;&lt;script type="text/javascript"&gt;

				function changeImage(attElement, nameElement) {

				document.getElementById('imageAttachment').src = attElement;

				document.getElementById('imageName').innerHTML = nameElement;}

			&lt;/script&gt;&lt;/html&gt;

</description>
			<styleUrl>#PolyStyle70</styleUrl>
			<MultiGeometry>
				<Polygon>
					<extrude>0</extrude>
					<altitudeMode>clampToGround</altitudeMode>
					<outerBoundaryIs>
						<LinearRing>
							<coordinates> 33.30176181691312,34.80954949064611,0 33.30175922449536,34.80950243587358,0 33.30191610104861,34.80891189408462,0 33.30198220585166,34.80854429639546,0 33.30201869237889,34.80816974984756,0 33.30194975390337,34.80771924981383,0 33.30200050048796,34.80747556591886,0 33.30200588330661,34.80733509187439,0 33.30206659480064,34.80711208686289,0 33.30213755518026,34.80701061811709,0 33.30261995957083,34.80644966354577,0 33.30263645287216,34.80590015482305,0 33.30271242954466,34.80558628833888,0 33.30273778390008,34.80547064643586,0 33.30282353498988,34.80524770580089,0 33.30290068001491,34.80519082236521,0 33.30303385709591,34.80518094534062,0 33.30323575594647,34.80515537484423,0 33.30348184979253,34.80510909111293,0 33.3037343333139,34.80502640470588,0 33.30396792942228,34.80492807246552,0 33.30419487364008,34.80481248907948,0 33.30473711494925,34.80440706088183,0 33.30482824042466,34.80440989039587,0 33.3055226689104,34.80374393798821,0 33.30581077506632,34.80345676965866,0 33.30600287116241,34.80312658587022,0 33.30612108689602,34.80291256583606,0 33.3062245012359,34.80282705978518,0 33.30649772995374,34.8029744554398,0 33.30696687900311,34.80303829390259,0 33.30722537227886,34.80293470744636,0 33.30779405858559,34.80262358182662,0 33.30800085229981,34.80248930469299,0 33.30836278724894,34.80203092250027,0 33.30856958052445,34.80185992551425,0 33.30893153620957,34.80126689692629,0 33.30903862470401,34.80110863459653,0 33.30938575220826,34.8007114423644,0 33.30959255643,34.80044864411727,0 33.30979198523899,34.80014298756904,0 33.30999883721155,34.79967208532685,0 33.31011702139228,34.79946420571687,0 33.31033314813669,34.79916573264666,0 33.31053993899043,34.79890906085528,0 33.31068763897393,34.79874408575015,0 33.31133737990378,34.79846992869845,0 33.31231191461342,34.79809237232126,0 33.31262198220014,34.79795833516494,0 33.31285827725613,34.79765277713487,0 33.31308973905322,34.79728094629666,0 33.31331864754807,34.79697537750341,0 33.31359187286832,34.79655972668085,0 33.31400525031282,34.79639531482358,0 33.31422666031541,34.79642025003348,0 33.31459566790313,34.79646384753282,0 33.31480970719711,34.79642144142174,0 33.31495739646423,34.79615244511181,0 33.3152706372278,34.79583735676979,0 33.31555854453021,34.79554417100895,0 33.31565457615093,34.79525058808142,0 33.31572844303774,34.79503652480505,0 33.3157359098559,34.79477335577423,0 33.31603126837665,34.79424148423348,0 33.31613504172535,34.79405284154805,0 33.31624576530863,34.79395514641828,0 33.31638590840767,34.79414518728789,0 33.31717539101168,34.79434884159932,0 33.3174411760425,34.79390262140554,0 33.31747080590296,34.79357218113061,0 33.31752990129007,34.79338257292782,0 33.3177559567613,34.79309776449732,0 33.31807432607796,34.79283833465956,0 33.31894703758613,34.79318424382122,0 33.31870970684707,34.79383942823795,0 33.31937507689795,34.79406497941672,0 33.31949416180622,34.79399763749196,0 33.31950659283275,34.79392480976778,0 33.31953152841674,34.79382599275574,0 33.31963157240906,34.79361807659714,0 33.31974426298902,34.79347264475314,0 33.31975669479221,34.79339981158727,0 33.3197754081293,34.79333219936321,0 33.3198692739247,34.79318150819196,0 33.32008299982677,34.79345793244344,0 33.32026520273926,34.79364057447899,0 33.32044077482749,34.79359419953688,0 33.32064714328998,34.79317317654885,0 33.32068049562092,34.79265037165317,0 33.32019733106546,34.79257619556402,0 33.32017183452205,34.79231584881859,0 33.31948775196943,34.79217343352321,0 33.31976316534141,34.79176290480138,0 33.31973730907789,34.79155048918419,0 33.31962421357292,34.79145125396451,0 33.32027004583072,34.79118229414855,0 33.32077785234375,34.79092336553209,0 33.32105965519968,34.7905700809595,0 33.32125374909298,34.79030724657985,0 33.32152611211242,34.7899026434894,0 33.32284492461341,34.79020516939156,0 33.32284101573349,34.79030715586116,0 33.32280708540504,34.79075195030213,0 33.32324071535921,34.79072184933215,0 33.32410449019126,34.79042689266038,0 33.32412078883367,34.79030705592496,0 33.32417341314631,34.78998953000551,0 33.32436152302104,34.78990918438009,0 33.32440353931391,34.78969822587918,0 33.32548992064005,34.7891591695858,0 33.32556255545133,34.78929422412313,0 33.32621218690247,34.7894209934805,0 33.32621056365608,34.78920966090617,0 33.32655264923426,34.78914969570154,0 33.3268189923435,34.78875308651482,0 33.32754119235015,34.7887448342409,0 33.32756342408598,34.78858290838784,0 33.32757040693899,34.7885800319865,0 33.32770671580487,34.78834899105204,0 33.32774553108668,34.78775491737701,0 33.32786423969219,34.78772046953463,0 33.32842965227368,34.78782290912861,0 33.32893377678869,34.78807931875933,0 33.32983499893549,34.78864022496901,0 33.33031996052433,34.78895937685635,0 33.33063089853926,34.78868532625867,0 33.33077053168218,34.78869430309471,0 33.33077061348301,34.78860176139104,0 33.33056128252683,34.78845382267744,0 33.3306380610809,34.78828751580264,0 33.33051609549048,34.78802011151829,0 33.33082088863168,34.78781038233178,0 33.33109997876332,34.78799605416739,0 33.33197907655785,34.78813010299694,0 33.33200639864715,34.78820395853987,0 33.33225428322719,34.7882044883231,0 33.33211951944885,34.78860893832729,0 33.33218512183612,34.78869129555335,0 33.33226133092845,34.78870198162736,0 33.33237001079309,34.78858238378135,0 33.33273302319971,34.78867570666274,0 33.33302280274597,34.78868500417927,0 33.33317274439216,34.78888198435867,0 33.33356018165149,34.78900138728386,0 33.33362992206302,34.78909118830729,0 33.33365786078478,34.78908546501926,0 33.33365319380798,34.78899590032678,0 33.33379659309013,34.78874749012608,0 33.33428907675736,34.788583688486,0 33.33440195432279,34.78830775525019,0 33.33454218390172,34.78775850606021,0 33.33491415767551,34.78754083850335,0 33.33474826353474,34.78734787520738,0 33.33436370997913,34.78658208479099,0 33.33512796938815,34.78637452452961,0 33.33544009645333,34.7865127664283,0 33.33606465027797,34.78651405552108,0 33.33615742175822,34.7867454109136,0 33.33746714223221,34.78599091703084,0 33.33764397625896,34.78544412097524,0 33.33744698780053,34.78482531751045,0 33.33800371783224,34.78465212967983,0 33.33882439467293,34.78381332087953,0 33.33849257802724,34.78340523689203,0 33.33895137661668,34.78320792002366,0 33.3390847001146,34.78286679793852,0 33.33941706207552,34.78282339424835,0 33.34057458893535,34.78322469631559,0 33.34133501173692,34.78261959066669,0 33.34133521271686,34.78245989559623,0 33.34068417181843,34.7821722937658,0 33.34068445775709,34.78194100399934,0 33.34111652382428,34.78193081466591,0 33.34254135104459,34.78089643013948,0 33.34274699254001,34.78123278452042,0 33.34326429784618,34.78215900504748,0 33.34400984337407,34.78142791746927,0 33.34412713701761,34.78142148130222,0 33.34413116444789,34.78142125987824,0 33.34440865071417,34.78146698930576,0 33.34511331008821,34.78172944713418,0 33.34520178141808,34.78166341623677,0 33.34604276032477,34.7823682305632,0 33.34623695962226,34.7828667542601,0 33.3468649650946,34.78290310788526,0 33.34688696487054,34.78257586769231,0 33.34716604030784,34.78249995662735,0 33.34607304324265,34.78143567977741,0 33.3465477489294,34.78114764870676,0 33.34681677075739,34.78148745127,0 33.34703121505773,34.78151688742796,0 33.34787344201416,34.78104617785708,0 33.34828698625054,34.78103904400146,0 33.34776082405104,34.78029202704163,0 33.34746640496237,34.78028508457954,0 33.34735222523362,34.77987923378183,0 33.34791045793422,34.77997458576792,0 33.34853845981505,34.78005306304931,0 33.34978093175523,34.7803996100774,0 33.34972997961469,34.78064680464406,0 33.3503139732578,34.7812702049935,0 33.35051802799743,34.78088252218433,0 33.35079206263284,34.78097092186046,0 33.35185235287489,34.78107593731708,0 33.35208203736609,34.78093261535039,0 33.35273736225629,34.78119223474277,0 33.35334507277087,34.78152349126443,0 33.35363626548047,34.78190259703014,0 33.35397661144825,34.78185052423676,0 33.3545077869759,34.78226325630677,0 33.35469154428129,34.78217331209394,0 33.35433737524163,34.78178720852159,0 33.35385383446591,34.78133092316273,0 33.35461271286196,34.78103153423255,0 33.35493108815378,34.78130389043218,0 33.35606662684231,34.78212791563819,0 33.35635416522896,34.78197754372785,0 33.35650180559306,34.78113764199584,0 33.3569325686063,34.78152652288871,0 33.3571418003207,34.78133966064892,0 33.35768320308075,34.7817608026912,0 33.35817859566399,34.78205274963345,0 33.3581497634726,34.78224516693076,0 33.35930528038004,34.78215346439252,0 33.35956717799571,34.78180226070361,0 33.35955679574794,34.78148486228873,0 33.35977615591015,34.78115473986094,0 33.35997867216897,34.78114904796012,0 33.36017274886873,34.78127397076822,0 33.36025113157461,34.78145089983709,0 33.36071047899418,34.78117826859949,0 33.36072734782709,34.78090580183411,0 33.36088042170798,34.78074142499296,0 33.36153573753437,34.78093920228211,0 33.36196779041998,34.78056264837667,0 33.36204150061175,34.78149797282079,0 33.36216067716197,34.78158219275868,0 33.36195175187671,34.78229151301424,0 33.36201325713004,34.78271141401012,0 33.36214777808029,34.78284197442278,0 33.36220908410363,34.78291076857828,0 33.36208190563632,34.78372398340064,0 33.36230336084312,34.78408764614969,0 33.36270502331723,34.78411417424221,0 33.3632458869369,34.78352690770842,0 33.36362139593602,34.78248888296312,0 33.36346989815839,34.78243417002025,0 33.3633456357161,34.78239068163565,0 33.36386964270786,34.78210677747219,0 33.36486510101556,34.78189149558544,0 33.36519860119247,34.78178462248315,0 33.36569030596497,34.78157234858321,0 33.36626528236177,34.78117043930904,0 33.36688974797099,34.78099462151152,0 33.36759085674436,34.78091847996701,0 33.36862893472986,34.78085342370722,0 33.36865284669901,34.78098823946825,0 33.36909699709665,34.78094310009634,0 33.36952569762541,34.78069572963981,0 33.37049820095454,34.78066569768015,0 33.37059943224388,34.7806625715999,0 33.37110516346109,34.77990617949563,0 33.3710440369153,34.77986299776433,0 33.37152366965058,34.77924344210594,0 33.37235235531851,34.77853730004563,0 33.37134800486841,34.77762317046717,0 33.37049587249543,34.77718547025012,0 33.37036911959714,34.7771203625561,0 33.37044828103022,34.77704443377605,0 33.37049575553938,34.77701119600907,0 33.37112093100107,34.77657348631646,0 33.37104376327261,34.77636531694733,0 33.37101432435468,34.77619763424226,0 33.37151422453557,34.77590697539569,0 33.37180129090743,34.77578861335674,0 33.37208062272713,34.77567344018911,0 33.37234539513934,34.77550331947045,0 33.37252841854773,34.77534403232765,0 33.37276043859594,34.77510916477274,0 33.37294993923077,34.77486352393558,0 33.37312308747148,34.77461789144796,0 33.37379033210312,34.77478486923161,0 33.37405196652466,34.77480902784594,0 33.37425150358605,34.7748817867253,0 33.37450988799974,34.77493562662719,0 33.3746669115503,34.7750111045717,0 33.37429126392819,34.77560762576247,0 33.37362708059526,34.7760225907266,0 33.37406701058686,34.77623982990226,0 33.37510319471554,34.77660979608329,0 33.37542522262739,34.77595728174218,0 33.37567935582631,34.77601353192013,0 33.3758011778001,34.77578668261944,0 33.37594065236186,34.77552696122831,0 33.37638642447298,34.77578638910242,0 33.37683255647082,34.77604602334732,0 33.37681454365797,34.77614802368254,0 33.37709204215821,34.77632947730757,0 33.37702886117897,34.77650364106739,0 33.37719470663737,34.77654335654531,0 33.37743568875921,34.77627208681983,0 33.37823462082279,34.77627913656691,0 33.37821186506557,34.77754451822523,0 33.37870035839747,34.77730145049021,0 33.37909745565233,34.77705232730771,0 33.37937777705525,34.77697755195972,0 33.37987866577768,34.77695733624211,0 33.38005109571183,34.77690098273585,0 33.38068661554991,34.77748432211364,0 33.38036722730797,34.7777208153941,0 33.37974313443637,34.77769875979641,0 33.37886898237594,34.77790569158826,0 33.37939393758409,34.77837805750165,0 33.37940626451009,34.77872382674942,0 33.37960232825053,34.77884810207568,0 33.37938842124549,34.77904224704142,0 33.37927398323718,34.77920648884611,0 33.37936453563886,34.77934077032386,0 33.37912648404589,34.77950756512735,0 33.37881900318717,34.77955996559084,0 33.37921455833723,34.78033588639633,0 33.3793954254627,34.78029350261136,0 33.37950710522595,34.78045762383501,0 33.3791483754822,34.78052249063325,0 33.37855733175085,34.78038349589293,0 33.3781233123315,34.78056034068431,0 33.37813245844176,34.7806896898154,0 33.37779489542363,34.78084160787413,0 33.37775929732422,34.78161029141592,0 33.37810952990047,34.78225937114065,0 33.37834213580871,34.78284632215279,0 33.37795642713673,34.78313010792275,0 33.37818580754192,34.78344093689061,0 33.37810205118773,34.78431412472842,0 33.37823187486659,34.78454291588405,0 33.37840378311324,34.78460501638585,0 33.37838589262778,34.78486871007274,0 33.37823222215847,34.78499814411774,0 33.37806371888162,34.78544848542774,0 33.3779190485441,34.78552318734324,0 33.37782269337976,34.78569736862104,0 33.37797354456025,34.78581918240738,0 33.37792538586505,34.7859311481588,0 33.3784202612792,34.78643836098824,0 33.37845059974935,34.7866821267892,0 33.37836928280421,34.78680157237367,0 33.37767586020461,34.78689894897246,0 33.37766702755027,34.78717756315152,0 33.37723587776017,34.78721509611004,0 33.37717238416168,34.786986271568,0 33.3769159846856,34.78683963405025,0 33.37662651953802,34.78682983066867,0 33.37659322320706,34.78665820330554,0 33.37596589865149,34.78643463772301,0 33.37518800938963,34.78647731204195,0 33.37510048479027,34.78636043976812,0 33.37482001996838,34.78628843654369,0 33.3747717048296,34.78619144472799,0 33.37466313800077,34.78615915985517,0 33.37380003133562,34.78507499258299,0 33.37320952487686,34.78573199956566,0 33.37366250053454,34.78672432941639,0 33.37351182532486,34.78684629328811,0 33.37340327516505,34.78683888284014,0 33.37338541259513,34.78716476509979,0 33.37312002567063,34.78709772740472,0 33.37329463584246,34.78670957989787,0 33.37320682923031,34.78618971704396,0 33.37282387222026,34.7861451228838,0 33.37194347892789,34.78620026449454,0 33.37158464739058,34.78616063003486,0 33.37077972915199,34.78635752069939,0 33.37052658600702,34.786556643651,0 33.3708584848886,34.78689480374737,0 33.3707319723495,34.78708143022453,0 33.37050247216872,34.78704650986604,0 33.3699110543538,34.7869565198952,0 33.3696932449687,34.78702122172567,0 33.36979546215895,34.78717285385906,0 33.3696082740648,34.78721507131535,0 33.36944840838395,34.78739490972603,0 33.36959144465047,34.78750158345741,0 33.36949622513724,34.78764206830793,0 33.36867937250563,34.78778849274534,0 33.36848544496851,34.7879402572317,0 33.3685366235002,34.78812281058529,0 33.36895525391859,34.78803555010438,0 33.36900977144715,34.78811698436717,0 33.36873094125789,34.78857494979452,0 33.36959912913003,34.78883298084592,0 33.36981338134459,34.788532335615,0 33.36973843693961,34.78844810436146,0 33.37000722569091,34.78825697919234,0 33.37013665923427,34.78838051201468,0 33.37050332603904,34.78832205689275,0 33.37154681039302,34.78815569346809,0 33.37233659419421,34.78784935086345,0 33.37255968164848,34.78779203088789,0 33.37262334142793,34.78828205599449,0 33.37228875044435,34.78842898172703,0 33.37240951573978,34.78865280811944,0 33.37288297445273,34.78874213675706,0 33.37314531180319,34.78875444987754,0 33.3733895132472,34.78870209376225,0 33.37390513139956,34.78871428339253,0 33.3741130706929,34.78855497708295,0 33.37440562901781,34.78866428826725,0 33.37439072598374,34.78890559168327,0 33.37430948156793,34.78914443892617,0 33.37407761805725,34.78957988082236,0 33.37365884330491,34.79007511078718,0 33.37334372041141,34.79029343145744,0 33.3728784179015,34.79061579555987,0 33.37283024014783,34.79067880592384,0 33.3724608655021,34.79114309669971,0 33.3724167452928,34.79126246139542,0 33.37283076230931,34.79142802212826,0 33.37400377533697,34.79089704052719,0 33.37405201555709,34.79092353832204,0 33.37373482258337,34.79129166878833,0 33.37381555998187,34.79181210239441,0 33.37369903656125,34.79182873411651,0 33.37352247311031,34.79218353597367,0 33.37359082963467,34.79224317539801,0 33.37422959587533,34.79199754882021,0 33.37482423856858,34.79186465336684,0 33.37547947465614,34.79217263512168,0 33.37496931118937,34.79243146693086,0 33.37504171920096,34.79253419868812,0 33.37498550420249,34.79259389927552,0 33.37425036420267,34.79294566024575,0 33.37397756660744,34.79359887053207,0 33.37255518488064,34.79387470572853,0 33.37222995334452,34.79426935674152,0 33.3717318998874,34.79463756698077,0 33.37175609826045,34.79476353046874,0 33.37158734585861,34.79481001982503,0 33.37158743414417,34.79493930938663,0 33.3715834518744,34.79499235305478,0 33.37120969145717,34.79495274341588,0 33.3710448111514,34.79478043423566,0 33.37050759818035,34.79470239771958,0 33.36980252531495,34.79463817618407,0 33.36944289824869,34.79390779136995,0 33.36907410976077,34.79404881646082,0 33.3689302300353,34.79396298189243,0 33.3686445965978,34.79410405649244,0 33.36859954588789,34.7943348853313,0 33.3680642898778,34.79455763761656,0 33.36780338058114,34.79470627077017,0 33.36731312934789,34.79478011441611,0 33.36702980369945,34.79476484123948,0 33.36690379991948,34.79489875863806,0 33.3669743841642,34.79545929584756,0 33.36645250724237,34.79566721508691,0 33.36623861259244,34.79572025218111,0 33.36606310221788,34.79585040805818,0 33.36580674787051,34.79580908550488,0 33.36499301152269,34.79535724084155,0 33.3647763034264,34.7951583135378,0 33.36434421445036,34.79551160403705,0 33.36393976037683,34.79517581074305,0 33.36356171857193,34.79542114482305,0 33.36378639424846,34.79561888129079,0 33.36384397507356,34.79585983135906,0 33.3640237111081,34.79603890192161,0 33.3639380414443,34.79624742686971,0 33.36369972685771,34.79616513534478,0 33.36371681670423,34.7966846973811,0 33.36381543997134,34.7970202078527,0 33.36348579662506,34.79770697491567,0 33.36325117361378,34.79794448134982,0 33.36387129884626,34.79869462350084,0 33.36485316502771,34.79929396722019,0 33.36436576745103,34.80045185876928,0 33.36486559215165,34.80067022170206,0 33.36506379496912,34.80048026488235,0 33.36555416737588,34.80076815341726,0 33.36568026213808,34.80068253338555,0 33.36562641558001,34.80046611880223,0 33.3657794670079,34.80043648884801,0 33.36581504141706,34.8010221746613,0 33.365562873844,34.80122535141079,0 33.36573381200734,34.80137854607493,0 33.36583257096132,34.80174804792048,0 33.36623032776555,34.80178019901336,0 33.36633369691945,34.80203780115499,0 33.36626605091561,34.8022130899727,0 33.36645997099958,34.80274141901418,0 33.36646430628751,34.80299894956861,0 33.36628802732677,34.80353066554539,0 33.36577922360271,34.80350756191142,0 33.36553603186963,34.8035594832855,0 33.36503171808062,34.80355878031895,0 33.36482744246552,34.80336403944978,0 33.36452552804103,34.80362117973539,0 33.36440350091954,34.80409694958959,0 33.36500232614193,34.80420232583009,0 33.36519133438553,34.80435566618793,0 33.36545975838052,34.80480253071568,0 33.36552753472106,34.80500966620893,0 33.36515829278304,34.80506850178318,0 33.36510065294332,34.80499028187234,0 33.36509254268853,34.80480268187979,0 33.36504762316903,34.80460397825355,0 33.36495322106904,34.80440595576043,0 33.36450295780718,34.80433065032602,0 33.36445333939373,34.80442018768244,0 33.36370403258541,34.80435101911316,0 33.36370828443454,34.80459371570192,0 33.36355065966115,34.80460096017767,0 33.36345529625419,34.804803307897,0 33.36297787284457,34.80615594864634,0 33.36275963003471,34.80621304551992,0 33.36256883523291,34.8063160396134,0 33.36241044703662,34.80630619970439,0 33.36232679716016,34.80633923904662,0 33.3625236664299,34.80708330668993,0 33.36252752864547,34.80747038066701,0 33.36180758704889,34.80813078659092,0 33.36182220605904,34.80824780274919,0 33.36179317110976,34.80837383969801,0 33.36169620579334,34.80849192223885,0 33.3615749846746,34.80853295230062,0 33.36106561994774,34.80844612975936,0 33.36090545529458,34.80828415812525,0 33.36004696488654,34.80841350453301,0 33.36005434254768,34.80859953933194,0 33.3600360701181,34.80881375182402,0 33.35966128467386,34.808481412735,0 33.35964305975573,34.80824262103403,0 33.35943892621591,34.80748654851125,0 33.35927156250155,34.80745060339528,0 33.35896591623572,34.80733969214583,0 33.35880941057707,34.80720172245298,0 33.35890755487495,34.80704565608515,0 33.35853273722273,34.80683875032418,0 33.35753240043201,34.80701313844092,0 33.35711399308082,34.80692326638238,0 33.35611723501975,34.80698361780352,0 33.35576872995959,34.80705062332385,0 33.35532628201575,34.80749722988318,0 33.35468753509715,34.8069870927244,0 33.35440387406447,34.80719122420894,0 33.35447104680397,34.80731927073638,0 33.35443742035528,34.80745905476059,0 33.3543789163079,34.80761485788075,0 33.35433798058681,34.80762248706549,0 33.35431283945648,34.8076831431539,0 33.35430601988261,34.80769010778415,0 33.35402626091741,34.80799399956042,0 33.35366974393217,34.80802667080915,0 33.35348019139352,34.80782757819183,0 33.35308346765021,34.80801798223435,0 33.35306501786753,34.80814073940988,0 33.35317132269419,34.8082333632826,0 33.35338723804661,34.80829544317317,0 33.35343711087074,34.80832589807338,0 33.35347470787873,34.80836505966275,0 33.35345414403052,34.80842567342718,0 33.3533302454076,34.80849330036209,0 33.35307961497598,34.80857379084397,0 33.35292510216437,34.80861261289618,0 33.35282675888887,34.80864173005786,0 33.35261372167042,34.80878437196097,0 33.35217719029774,34.80898727881581,0 33.35193143541297,34.80911644196578,0 33.35177845844651,34.80918218174191,0 33.35163694813545,34.80921928517035,0 33.35142652390746,34.80931095123804,0 33.35136582020263,34.80938815816914,0 33.35134313699108,34.80949809243746,0 33.35131445058636,34.80956255053394,0 33.35126615522643,34.80960094029316,0 33.35125170175502,34.80961427480032,0 33.35059918343484,34.80983496014176,0 33.35034521615631,34.80976543703844,0 33.35024354657229,34.80977535628968,0 33.35000008457004,34.80977055611514,0 33.35005954596782,34.80963698574424,0 33.34996613206158,34.80962762693501,0 33.34975206708108,34.8098151481971,0 33.34957377087134,34.80974318479699,0 33.34874095670295,34.8104725589141,0 33.34873751787295,34.81095865511526,0 33.34684956313127,34.81152327199736,0 33.34591796232917,34.81086938489364,0 33.34578697430496,34.81082440881161,0 33.34541232745745,34.81103454440291,0 33.34497932780764,34.81084861536842,0 33.34488842464485,34.81098666424031,0 33.34559799089902,34.81136156104252,0 33.34538701398208,34.81144863076052,0 33.3450558784157,34.81126867793492,0 33.34461950548463,34.81182388999782,0 33.34430700427995,34.81183443904975,0 33.34422662634709,34.81193800690547,0 33.34413785509608,34.81193403198844,0 33.34373515310867,34.81191600084272,0 33.34301679302933,34.81154293891895,0 33.3426001323896,34.81146809248455,0 33.34224766948286,34.81146247125641,0 33.34192700491356,34.8113185312523,0 33.34170962227751,34.81160567510439,0 33.34185718049999,34.81170157793014,0 33.34175494284119,34.81187176055567,0 33.3414092020712,34.81205237660196,0 33.34100527317869,34.81194029154631,0 33.34099893869729,34.81198285324813,0 33.34099299918424,34.81225421816914,0 33.34090995518853,34.81240845642549,0 33.34100635036539,34.81256284725976,0 33.34094229326826,34.81257875525726,0 33.34033336251456,34.81251438353458,0 33.33987148580231,34.81225325502649,0 33.3396921407256,34.81231163252517,0 33.3396034572423,34.81252889972236,0 33.3396372538228,34.81265439996574,0 33.33972577174978,34.81286707904027,0 33.33941170642152,34.81331641523948,0 33.33951688550775,34.8134524328145,0 33.33897983874954,34.8136157854453,0 33.33862708261013,34.81353880659317,0 33.33838365437875,34.81356996720751,0 33.33838811343661,34.8137233266464,0 33.33763054795685,34.81381839573197,0 33.33743298028098,34.81366486697484,0 33.33715191849546,34.8137901002586,0 33.3371936938082,34.81366814629207,0 33.33706775045034,34.81366803728474,0 33.33682848026169,34.81368177085887,0 33.33659319419715,34.81357003269816,0 33.33658890793613,34.81351774601416,0 33.33644611752533,34.81348625299534,0 33.3360850183654,34.81345456697609,0 33.33607644000854,34.81334650947828,0 33.33609732620416,34.81328378927428,0 33.3356165582177,34.81315714541909,0 33.33526333196772,34.81281525065774,0 33.33522569326907,34.81290235513686,0 33.33519702422178,34.81333453444585,0 33.33497067775364,34.81355392260929,0 33.33518907946434,34.81360639769762,0 33.33516412650118,34.81374928230229,0 33.33537864291684,34.81398997163628,0 33.33570632213372,34.81411573624846,0 33.33620300804672,34.81445659331482,0 33.3362328513065,34.81472848557796,0 33.33611592991128,34.81510481605636,0 33.33564605251606,34.8153065721216,0 33.33527238287637,34.81529928098622,0 33.33527634980849,34.81515986440604,0 33.33522150354366,34.81499948257382,0 33.33472246109896,34.81534411954232,0 33.33437635278132,34.81561836284133,0 33.33392793389267,34.81611989811966,0 33.33382309985721,34.81619997671455,0 33.3334826251434,34.81596614838399,0 33.33310504605225,34.81615056007437,0 33.33218743521898,34.81606590288825,0 33.33179260101263,34.81597841537319,0 33.33159933438504,34.81590504673664,0 33.33162399022248,34.81557392739262,0 33.3313550074301,34.81541683336653,0 33.33088046301615,34.81537458193409,0 33.33064942330601,34.81531511748815,0 33.3306154848009,34.81509897072333,0 33.33043075674897,34.81511623315989,0 33.3301998735544,34.81515436835161,0 33.32977447625976,34.81557581143068,0 33.32988810809494,34.81573625813167,0 33.32987997197174,34.81590008269977,0 33.3298338722371,34.81595581362109,0 33.32968266009844,34.81592779257203,0 33.32932996004336,34.81594490525754,0 33.3292503929115,34.81608077981477,0 33.32893085000826,34.81582602791464,0 33.32866662517893,34.81603145310971,0 33.3288223090233,34.81622679953018,0 33.32851587891849,34.81629972610543,0 33.32818013458193,34.81642491502265,0 33.32767865861822,34.81662141423058,0 33.32736055279778,34.81728693123903,0 33.32743120234834,34.81758168206755,0 33.32705381744303,34.81794387826232,0 33.32689912557761,34.81800247533651,0 33.32661312736769,34.81811080977643,0 33.32638220391732,34.81814546455605,0 33.32512648307453,34.81813387941315,0 33.32475217148787,34.81822343024258,0 33.32399812032131,34.81858105072921,0 33.32359848983781,34.8180542124559,0 33.3234958550713,34.81773957370185,0 33.32346257268572,34.81752346379758,0 33.32324180160119,34.81753146490704,0 33.32317120608567,34.81735448862523,0 33.32264323115051,34.81687533565296,0 33.32243215221715,34.81675752302355,0 33.32228709922217,34.81671909265774,0 33.32215198617549,34.81671623046842,0 33.32187522093411,34.81674605540347,0 33.32173359416596,34.81679515515126,0 33.3215557833773,34.81688798506158,0 33.32134864445102,34.81720234333924,0 33.32122171454462,34.81699902284669,0 33.32162009777417,34.8167586985581,0 33.32162619782073,34.81643320929072,0 33.32129313671972,34.81628245170964,0 33.32123931045031,34.8158948421445,0 33.32078785845616,34.81590808192816,0 33.32051020208324,34.81534707652269,0 33.31944296262645,34.81568520992424,0 33.31925686676114,34.81574809402745,0 33.31912835541578,34.81575890959627,0 33.31907279600335,34.81583876155076,0 33.31896408481751,34.8161034014278,0 33.31888869499389,34.81614494044461,0 33.31879600732203,34.81610323612036,0 33.31873316412727,34.81594999460894,0 33.31866352418873,34.81565724164195,0 33.31859411946204,34.81552314060156,0 33.3184753148573,34.8154136071463,0 33.31840275104292,34.81537250429646,0 33.31812447048575,34.81526236814531,0 33.31814081740826,34.81517211634137,0 33.31863801806225,34.81487445717931,0 33.31902410739755,34.81464825146151,0 33.31901390180266,34.81443214820055,0 33.31912593779091,34.81442405507667,0 33.31896767549371,34.81437192446735,0 33.31893793052683,34.81431445201601,0 33.31880601918254,34.81425414087114,0 33.31865473697575,34.81446734711191,0 33.31850996051702,34.81462311822817,0 33.31794633934037,34.81457604819462,0 33.31775663746613,34.81452210510781,0 33.31765970302933,34.8144731272677,0 33.31749947874813,34.81433330313182,0 33.31734791359065,34.81411899996684,0 33.31707438002575,34.81417688573978,0 33.31683259140345,34.81396944715716,0 33.31646667465039,34.8137944424516,0 33.31639401672179,34.8139445390676,0 33.31614763397356,34.81397565028454,0 33.31582366996268,34.81389845654436,0 33.31549505843375,34.81383027137043,0 33.31524703204122,34.81380204431466,0 33.31523463299919,34.81419781518238,0 33.31558953784052,34.81431461481409,0 33.31558071677651,34.81444264641351,0 33.31572735027447,34.81459324732948,0 33.31567303885189,34.81485624767739,0 33.31591698065927,34.81531974452304,0 33.31604062117867,34.81556625236853,0 33.3159390279173,34.81560572568794,0 33.31546037599657,34.81539575043126,0 33.31531348296661,34.8154980338508,0 33.31545097991545,34.81572630429443,0 33.315755276991,34.81578711747734,0 33.31601062477733,34.81620169248394,0 33.31554499316594,34.81663313615147,0 33.31453310562883,34.81677472992187,0 33.31373466511725,34.81644819535008,0 33.3135496880646,34.81648515384914,0 33.31336023044411,34.81633648698378,0 33.31289010747894,34.81647631462947,0 33.31266754132248,34.81645428015516,0 33.31262731643842,34.81654087408915,0 33.31241245991757,34.81652418026736,0 33.3123118198486,34.8167674868246,0 33.31138764279528,34.81657276941321,0 33.31118794302437,34.81647769407241,0 33.31125824109637,34.81636635999592,0 33.3110285732671,34.81625887144345,0 33.3112998073876,34.81580114683499,0 33.31136547415643,34.81555777822228,0 33.31136563751332,34.81549718678963,0 33.31128196166956,34.81502672455009,0 33.31119747961985,34.81484508103581,0 33.31097330828433,34.81455599271251,0 33.31071850580353,34.81448968203611,0 33.31041355024311,34.81447283067892,0 33.31017587029506,34.81449685465834,0 33.31004121139704,34.81436876991432,0 33.30981625863974,34.81433962202873,0 33.3096720873228,34.81402992771834,0 33.30823991866719,34.8146308555382,0 33.30791228048992,34.8147455761702,0 33.30774708069934,34.81478254071266,0 33.30753195413798,34.81477817078566,0 33.30731697699434,34.81471600987864,0 33.30719699083454,34.81467872053889,0 33.30702715603198,34.81457119590759,0 33.30691238054325,34.81445547320473,0 33.30674271489848,34.81428188580088,0 33.30644784003592,34.8141411676477,0 33.30618766427943,34.81411608345719,0 33.30548937405371,34.81405680396762,0 33.30491870444892,34.81405610697131,0 33.3047687056382,34.81398572513842,0 33.30465859748402,34.81397320115733,0 33.30442337655192,34.81393987454694,0 33.30363248876867,34.81384803473643,0 33.30333697563543,34.81386831251201,0 33.30285363410862,34.81395083184255,0 33.30235769436192,34.81397912220647,0 33.30141075794901,34.81403163269366,0 33.30099997442263,34.8140104620832,0 33.300488944112,34.81398502861715,0 33.30017302263073,34.81406725537558,0 33.29996707254433,34.8141191468692,0 33.2999893783652,34.81410394930111,0 33.30105642285981,34.81337693025914,0 33.30132702272118,34.81336076543224,0 33.30159374781648,34.81291085191219,0 33.30168445167596,34.81271269266851,0 33.30175639690403,34.81242062518401,0 33.30198935568665,34.81147496632637,0 33.30200983431703,34.81130975423207,0 33.30200032855824,34.81111678692977,0 33.30189175400053,34.81050105918688,0 33.30173285488073,34.80996784336558,0 33.30176878326656,34.8096759786301,0 33.30176181691312,34.80954949064611,0</coordinates>
						</LinearRing>
					</outerBoundaryIs>
				</Polygon>
			</MultiGeometry>
		</Placemark>
	</Document>
</kml>