<?xml version='1.0' encoding='UTF-8'?>
<kml xmlns="http://www.opengis.net/kml/2.2">
	<Document>
		<name>CHOLETRIA</name>
		<Style id="PolyStyle70">
			<LabelStyle>
				<color>00000000</color>
				<scale>0.000000</scale>
			</LabelStyle>
			<LineStyle>
				<color>ff0055ff</color>
				<width>2.000000</width>
			</LineStyle>
			<PolyStyle>
				<color>00828282</color>
				<outline>1</outline>
			</PolyStyle>
		</Style>
		<Placemark id="ID_70141">
			<name>CHOLETRIA</name>
			<snippet />
			<description>&lt;html xmlns:fo="http://www.w3.org/1999/XSL/Format" xmlns:msxsl="urn:schemas-microsoft-com:xslt"&gt;

&lt;head&gt;

&lt;META http-equiv="Content-Type" content="text/html"&gt;

&lt;meta http-equiv="content-type" content="text/html; charset=UTF-8"&gt;

&lt;/head&gt;

&lt;body style="margin:0px 0px 0px 0px;overflow:auto;background:#FFFFFF;"&gt;

&lt;table style="font-family:Arial,Verdana,Times;font-size:12px;text-align:left;width:100%;border-collapse:collapse;padding:3px 3px 3px 3px"&gt;

&lt;tr style="text-align:center;font-weight:bold;background:#9CBCE2"&gt;

&lt;td&gt;6&lt;/td&gt;

&lt;/tr&gt;

&lt;tr&gt;

&lt;td&gt;

&lt;table style="font-family:Arial,Verdana,Times;font-size:12px;text-align:left;width:100%;border-spacing:0px; padding:3px 3px 3px 3px"&gt;

&lt;tr&gt;

&lt;td&gt;DIST_CODE&lt;/td&gt;

&lt;td&gt;6&lt;/td&gt;

&lt;/tr&gt;

&lt;tr bgcolor="#D4E4F3"&gt;

&lt;td&gt;VIL_CODE&lt;/td&gt;

&lt;td&gt;114&lt;/td&gt;

&lt;/tr&gt;

&lt;tr&gt;

&lt;td&gt;VIL_CCD&lt;/td&gt;

&lt;td&gt;6114&lt;/td&gt;

&lt;/tr&gt;

&lt;tr bgcolor="#D4E4F3"&gt;

&lt;td&gt;VIL_NM_E&lt;/td&gt;

&lt;td&gt;CHOLETRIA&lt;/td&gt;

&lt;/tr&gt;

&lt;tr&gt;

&lt;td&gt;VIL_NM_G&lt;/td&gt;

&lt;td&gt;ΧΟΛΕΤΡΙΑ&lt;/td&gt;

&lt;/tr&gt;

&lt;/table&gt;

&lt;/td&gt;

&lt;/tr&gt;

&lt;/table&gt;

&lt;/body&gt;&lt;script type="text/javascript"&gt;

				function changeImage(attElement, nameElement) {

				document.getElementById('imageAttachment').src = attElement;

				document.getElementById('imageName').innerHTML = nameElement;}

			&lt;/script&gt;&lt;/html&gt;

</description>
			<styleUrl>#PolyStyle70</styleUrl>
			<MultiGeometry>
				<Polygon>
					<extrude>0</extrude>
					<altitudeMode>clampToGround</altitudeMode>
					<outerBoundaryIs>
						<LinearRing>
							<coordinates> 32.60594433998549,34.76196231188411,0 32.60714184529743,34.76238543864456,0 32.60248270488238,34.76677230300536,0 32.60258795256488,34.767605626138,0 32.60256330535935,34.76805740986142,0 32.60248856754005,34.76829686000802,0 32.60238873856478,34.76873749416004,0 32.60257882299524,34.76866792660937,0 32.60287705448563,34.76869965736084,0 32.60305766025862,34.7688270819004,0 32.60311597719635,34.76898806089122,0 32.60296685249786,34.76912426677261,0 32.60290279215413,34.7693295092942,0 32.6027610850408,34.7695085951604,0 32.6026882080563,34.76983372839076,0 32.60280278336459,34.77009356249558,0 32.60300242653057,34.77042243054107,0 32.60337297597908,34.77079942128238,0 32.6033352577309,34.77095983842531,0 32.6036967965006,34.77148027699018,0 32.60396208801991,34.77172171318779,0 32.60428034561394,34.77184137312975,0 32.60438071332765,34.77194262614626,0 32.60440192747069,34.77219334535727,0 32.60470718457168,34.7722400243693,0 32.60527800641213,34.77270734142753,0 32.60560440576037,34.77272724954418,0 32.60579211142691,34.77280020097975,0 32.60648105609597,34.77306795496372,0 32.6067089911425,34.77332331627386,0 32.6070580135594,34.77346362510107,0 32.60726663701459,34.7736264031787,0 32.60734621761694,34.77372184171495,0 32.60736397894136,34.77374494557593,0 32.607437082973,34.77384004404927,0 32.60717508231108,34.77397926960147,0 32.60691733209524,34.77407969259423,0 32.60666001042152,34.77412996492427,0 32.60647572562538,34.77412403908414,0 32.60622851177427,34.77413877810428,0 32.60577995828269,34.77422040807707,0 32.60567132258404,34.7742401776097,0 32.60548712296135,34.77432397497365,0 32.60516359425948,34.77444595388048,0 32.60522927063381,34.7745679091276,0 32.60545630143009,34.7746770413346,0 32.60566619784252,34.77483883104247,0 32.60567091454279,34.77493749152548,0 32.6057725554442,34.77508550319758,0 32.60590362702544,34.77520949165776,0 32.60598290501296,34.7753409954486,0 32.60598143762932,34.77551247427329,0 32.605872349339,34.77588555202083,0 32.60576561047262,34.77589700644532,0 32.60513693696399,34.77596447197496,0 32.60485616770784,34.77581693411835,0 32.60431972660769,34.77598925167517,0 32.60411146047051,34.77600096327245,0 32.60389989360992,34.77613639370524,0 32.60374115454972,34.77637555292331,0 32.60355796911641,34.77633385204142,0 32.60331539789552,34.77643031610568,0 32.60323109131679,34.77660342425353,0 32.60321386928138,34.77678431329819,0 32.60338858277402,34.77729136339512,0 32.60368461446195,34.77774741184689,0 32.60395316403587,34.77801492401932,0 32.60384336523592,34.77828945957155,0 32.60347307788544,34.77839995130525,0 32.60332690461714,34.77847851091961,0 32.60302470440992,34.77874083945211,0 32.60291961411949,34.77898769863756,0 32.60273005588057,34.77916573199054,0 32.60224792680043,34.77926633107624,0 32.60178343304943,34.77939842952311,0 32.60159834555292,34.77983688838503,0 32.60130665430022,34.78017684041939,0 32.60100454130691,34.78016768162369,0 32.60081612150604,34.7802127468477,0 32.60044750492087,34.78038787796837,0 32.60013662133574,34.78061690527645,0 32.60031395266573,34.78081925082142,0 32.60027485049539,34.78094091141805,0 32.60038901551977,34.78120013752176,0 32.60035237383433,34.78129595615173,0 32.60001484715475,34.78149897165069,0 32.5997107141049,34.78146394211505,0 32.59958846943493,34.78162204972689,0 32.59963880126819,34.7822742738607,0 32.60001831045899,34.78239470068853,0 32.59995455086798,34.78251991027461,0 32.59984478782278,34.78252849913036,0 32.59975683677605,34.78260370213201,0 32.59958160890326,34.78293510019532,0 32.59946417410211,34.78305445288603,0 32.5996225826206,34.78337488507371,0 32.60012067775993,34.78376195005033,0 32.60031037192869,34.78382955006374,0 32.60062233741173,34.78399574891945,0 32.60084626165207,34.78404095654081,0 32.60082763003365,34.7840823099723,0 32.60064830678451,34.78409932356099,0 32.60047722889541,34.7842091288073,0 32.60016893524232,34.78439569347869,0 32.60018817364966,34.78450107514784,0 32.60012944786961,34.78456167529308,0 32.60003162981555,34.78474208970234,0 32.6001673968002,34.78483338138405,0 32.60016373995984,34.78499772755863,0 32.60002777235606,34.7851889972236,0 32.59963100312119,34.78525130473691,0 32.59939610587118,34.78523330245592,0 32.59939001105115,34.78516124104245,0 32.59922195101712,34.78518056755466,0 32.59895737853637,34.78522887580068,0 32.5987507661978,34.7853052258052,0 32.59851212915294,34.78546080122733,0 32.59784005479946,34.78603489810021,0 32.59741791872743,34.78644055693987,0 32.59733549339264,34.78639390099674,0 32.59721205389818,34.78643010957392,0 32.59688554883521,34.78634986682392,0 32.59628995712443,34.78666290711269,0 32.59627537286021,34.78679579223996,0 32.59604272118154,34.78703450457153,0 32.59566264351912,34.78723540941893,0 32.5951951292121,34.78761616391414,0 32.59417065915686,34.78793087576431,0 32.59398426661899,34.78793650303901,0 32.59381504087052,34.78808878587509,0 32.5934141279964,34.78811041906035,0 32.59341163053694,34.78788324492763,0 32.59325124086286,34.78753509221336,0 32.59310708529864,34.78737910460477,0 32.59299297025561,34.78737288709198,0 32.59291265481508,34.78734101361941,0 32.59255798396192,34.78693815001419,0 32.59243781088375,34.78685617624241,0 32.59229013389841,34.78684791208052,0 32.59174483161637,34.7869979582545,0 32.59075650393922,34.78737806735107,0 32.59065000760505,34.78726847135647,0 32.59009493119587,34.78648765276649,0 32.58949765147482,34.7856714956888,0 32.58885865887986,34.78476274273373,0 32.58850526754308,34.78447252963076,0 32.58791672666266,34.78393897772926,0 32.5872367883053,34.78310753836845,0 32.58629343639023,34.78194024493682,0 32.58562598761718,34.78121968053841,0 32.58511832877925,34.78065705160024,0 32.584802734957,34.78014543628139,0 32.58432286762449,34.7792246858891,0 32.58389967604923,34.7784778768159,0 32.58349552808838,34.77785676321569,0 32.58260954932836,34.77679505371244,0 32.58202613234961,34.77594569811316,0 32.58141023028325,34.77497425325232,0 32.58119231204492,34.77455925186801,0 32.58098315215545,34.77391345052801,0 32.580934129387,34.77358843323231,0 32.58084317230037,34.7729853976688,0 32.58065568159132,34.77247430408627,0 32.58030772760512,34.77178895156597,0 32.5798607042025,34.77107414822562,0 32.57944345563547,34.77045742863932,0 32.57918300275342,34.77007245806831,0 32.57891123547734,34.76934515861324,0 32.57866819658642,34.76898481894649,0 32.57801475901773,34.76838450533698,0 32.57726135070469,34.76751970792571,0 32.57702680498523,34.76656569409449,0 32.577304988394,34.76549076743991,0 32.57788625654543,34.76449419887297,0 32.5781651404493,34.76405785451649,0 32.57882920825253,34.76345759410485,0 32.57912075295607,34.76303451829097,0 32.57929193172411,34.76284292333474,0 32.57951257086825,34.76266718786175,0 32.57989120425182,34.76236560963596,0 32.58016972920502,34.76198176356801,0 32.58031298994874,34.76163136431875,0 32.58033705467082,34.76125882905694,0 32.58006514982867,34.76031049483936,0 32.57981063282869,34.75974351200623,0 32.57962631822974,34.75945539276224,0 32.57954176568906,34.7593755825675,0 32.57922116020236,34.75907295725866,0 32.57787008317345,34.75779761845584,0 32.57670015431418,34.75721899560204,0 32.57468183741403,34.75524003069795,0 32.57537782049664,34.75446359282058,0 32.5759318062151,34.75442828143979,0 32.57617024210444,34.75455005174783,0 32.57646353817898,34.75455326363613,0 32.57722350419829,34.7543859809328,0 32.57784135604907,34.7541949135738,0 32.57796161763957,34.75413834489048,0 32.57823394079094,34.75396237314457,0 32.57840402318998,34.75396340201272,0 32.57851104903123,34.75344264889002,0 32.57841727345804,34.75325300228097,0 32.57852602728798,34.752928502065,0 32.57876168534266,34.75277665766119,0 32.5791500273266,34.75263003443192,0 32.57960231078038,34.75254782340767,0 32.57986544073612,34.75249999336123,0 32.58009928750401,34.75238181850187,0 32.58034631971554,34.75218526012566,0 32.58044362558963,34.75203621327699,0 32.58054896836454,34.75192867454241,0 32.58096166725502,34.75194691741014,0 32.58122555716481,34.751837584261,0 32.5812139713626,34.75132846582772,0 32.58127059589646,34.75099017894892,0 32.58142547761674,34.75076093553142,0 32.58153514418518,34.75048936460161,0 32.58211314678751,34.7497182069265,0 32.582523768918,34.74998405488751,0 32.58269362444361,34.75018426914312,0 32.5833675031614,34.75039857923618,0 32.58347752253385,34.75039038723459,0 32.58370715480196,34.75050242930461,0 32.58433360232878,34.7505909629359,0 32.58485111340081,34.75093202661134,0 32.58508313972755,34.75107727850546,0 32.58571289366989,34.75132175119546,0 32.58574602380595,34.75133861746973,0 32.58588974989914,34.75137946631131,0 32.58615906186659,34.75139865793935,0 32.58620706126911,34.75139425246306,0 32.58623630743898,34.75126489454304,0 32.58623539975283,34.75126184543687,0 32.58624564796904,34.75124208066163,0 32.58643046849202,34.75117822185443,0 32.5866473639544,34.75109220475735,0 32.58675495335098,34.75107314801081,0 32.5869203487898,34.75104590641833,0 32.58705003261007,34.75106463499328,0 32.58736808029715,34.75118414915448,0 32.58751430827112,34.75127085895879,0 32.5877522736806,34.7515816901403,0 32.58780979325152,34.75168464549673,0 32.58796441637192,34.75178096295365,0 32.58807921432879,34.75182315276312,0 32.58814542466542,34.75182014227719,0 32.58830099152861,34.75178210128176,0 32.58838119162307,34.75177975996711,0 32.58849303634882,34.75177926714948,0 32.58870379227327,34.75183310108148,0 32.58888344132133,34.75181672875937,0 32.58918600811948,34.75196077675207,0 32.58935081930132,34.75203588038769,0 32.58971155360165,34.75222784632534,0 32.58970631586578,34.75239647589663,0 32.58962701895404,34.7525093315969,0 32.58964996548506,34.75283666922298,0 32.58978851070545,34.75275021935439,0 32.58989334588379,34.75269648505347,0 32.59015576599889,34.75261328965555,0 32.59038764501588,34.75254723222476,0 32.59050286953487,34.7525309103396,0 32.59064033488529,34.75252932800768,0 32.59107697403787,34.75286831840658,0 32.59110342326334,34.7529969693584,0 32.591135128152,34.75301063281751,0 32.59153127775882,34.75318135405464,0 32.59151213182216,34.75325046490867,0 32.59192098822632,34.75321086989735,0 32.592327345131,34.75345178041685,0 32.59249427117624,34.75339437366055,0 32.59295764956585,34.7535268969381,0 32.59325438061515,34.75369617323662,0 32.59327703349366,34.75366491246314,0 32.59338849616459,34.75358868611752,0 32.59379189374895,34.75380195583653,0 32.59384773488382,34.75385672348817,0 32.59419675895622,34.75403960449624,0 32.59446494576804,34.75422477185764,0 32.59483955855913,34.75402181094998,0 32.59481318621874,34.75386677723191,0 32.59480700803417,34.75373944755793,0 32.59479068239425,34.75362100493113,0 32.59472658410188,34.75344542494772,0 32.59467255684505,34.75320556672191,0 32.59457816138727,34.75299377344663,0 32.59464579326586,34.7529865435415,0 32.59482361687129,34.75299378447105,0 32.5949551528315,34.75294130743485,0 32.59497134350673,34.7529223252229,0 32.59503307180535,34.75272673680105,0 32.5953489624933,34.75270414707173,0 32.59549646230017,34.75268304000249,0 32.59561128450537,34.75269060866424,0 32.59574201433991,34.75278587236527,0 32.59584909880105,34.75297002943958,0 32.59621325227315,34.75292034028516,0 32.59606789591334,34.75246620006104,0 32.59606838623854,34.75238725750055,0 32.59616326847578,34.75235902394432,0 32.59640194619411,34.75241536658798,0 32.59663398341922,34.75235405835915,0 32.59686455459821,34.75243479010818,0 32.59712511431257,34.75257745336887,0 32.59730776349432,34.7526664128858,0 32.59736172739628,34.75277928335075,0 32.59743409374967,34.75290413008279,0 32.59772991837385,34.75322392770404,0 32.59787462663896,34.75313368933057,0 32.59792640682374,34.75302827897143,0 32.59795571761585,34.7528010391299,0 32.59807381098815,34.75263217590682,0 32.59824190297043,34.75255726150181,0 32.59851239673703,34.75262028200486,0 32.59910902801622,34.75273360635628,0 32.59913901810313,34.75272719115174,0 32.59926349740343,34.75279976607986,0 32.59938566248307,34.75295399895803,0 32.5994133284641,34.75296182356785,0 32.59945708846798,34.75299128469194,0 32.59969623423603,34.75272717520504,0 32.60013481871265,34.75283955212298,0 32.60031458169279,34.75292602947333,0 32.60036850923896,34.75301808475667,0 32.60056535597968,34.75317081178423,0 32.6005214186892,34.75323136365829,0 32.60045802014594,34.75336044352466,0 32.6006902270003,34.75342810859117,0 32.60063322229202,34.75383216918811,0 32.60103080921584,34.75390221212938,0 32.60095881486851,34.75416009398334,0 32.6008732614604,34.75429102876016,0 32.60110663557057,34.75446044789422,0 32.60129314816101,34.75465382892922,0 32.6013145292071,34.755043185818,0 32.6010364959492,34.75546627807801,0 32.60081511056435,34.75562532492512,0 32.60067132199865,34.75582965450815,0 32.60086647326671,34.75611445505607,0 32.60080869371927,34.75646867058352,0 32.60078248648044,34.75680743764639,0 32.60065495472458,34.756992563547,0 32.60071188138848,34.75725046128133,0 32.60049903615739,34.75722928749033,0 32.60052705307452,34.75734485956983,0 32.60058069423486,34.75746730726606,0 32.60071840296483,34.75770408738246,0 32.60092745365502,34.75777569655651,0 32.60100150648728,34.75772998839179,0 32.60134642406238,34.75773811068039,0 32.60160446257845,34.75794273749693,0 32.60179527189751,34.75792895544974,0 32.60201933874133,34.75806970397486,0 32.60239569369525,34.75796567038797,0 32.6025328520729,34.75789551520193,0 32.60279359924274,34.75785069554367,0 32.6030187713186,34.75786307845603,0 32.60309211883402,34.75781411967142,0 32.60317967446085,34.75786401938402,0 32.60331876327324,34.75790688428494,0 32.60347964718545,34.75791003873108,0 32.60365173539168,34.75785792598595,0 32.60362340368842,34.75834689006665,0 32.60357070391753,34.75855020153656,0 32.6034369800261,34.75881943765469,0 32.60341385637218,34.75901406787673,0 32.60351829977783,34.7592173663522,0 32.60357780121995,34.75933318535549,0 32.60364894458388,34.75951137431053,0 32.60537417048661,34.76072726728985,0 32.605646755625,34.76133188072846,0 32.60580720866008,34.7618657881432,0 32.60594433998549,34.76196231188411,0</coordinates>
						</LinearRing>
					</outerBoundaryIs>
				</Polygon>
			</MultiGeometry>
		</Placemark>
	</Document>
</kml>