<?xml version='1.0' encoding='UTF-8'?>
<kml xmlns="http://www.opengis.net/kml/2.2">
	<Document>
		<name>DAVLOS</name>
		<Style id="PolyStyle70">
			<LabelStyle>
				<color>00000000</color>
				<scale>0.000000</scale>
			</LabelStyle>
			<LineStyle>
				<color>ff0055ff</color>
				<width>2.000000</width>
			</LineStyle>
			<PolyStyle>
				<color>00828282</color>
				<outline>1</outline>
			</PolyStyle>
		</Style>
		<Placemark id="ID_70241">
			<name>DAVLOS</name>
			<snippet />
			<description>&lt;html xmlns:fo="http://www.w3.org/1999/XSL/Format" xmlns:msxsl="urn:schemas-microsoft-com:xslt"&gt;

&lt;head&gt;

&lt;META http-equiv="Content-Type" content="text/html"&gt;

&lt;meta http-equiv="content-type" content="text/html; charset=UTF-8"&gt;

&lt;/head&gt;

&lt;body style="margin:0px 0px 0px 0px;overflow:auto;background:#FFFFFF;"&gt;

&lt;table style="font-family:Arial,Verdana,Times;font-size:12px;text-align:left;width:100%;border-collapse:collapse;padding:3px 3px 3px 3px"&gt;

&lt;tr style="text-align:center;font-weight:bold;background:#9CBCE2"&gt;

&lt;td&gt;3&lt;/td&gt;

&lt;/tr&gt;

&lt;tr&gt;

&lt;td&gt;

&lt;table style="font-family:Arial,Verdana,Times;font-size:12px;text-align:left;width:100%;border-spacing:0px; padding:3px 3px 3px 3px"&gt;

&lt;tr&gt;

&lt;td&gt;DIST_CODE&lt;/td&gt;

&lt;td&gt;3&lt;/td&gt;

&lt;/tr&gt;

&lt;tr bgcolor="#D4E4F3"&gt;

&lt;td&gt;VIL_CODE&lt;/td&gt;

&lt;td&gt;328&lt;/td&gt;

&lt;/tr&gt;

&lt;tr&gt;

&lt;td&gt;VIL_CCD&lt;/td&gt;

&lt;td&gt;3328&lt;/td&gt;

&lt;/tr&gt;

&lt;tr bgcolor="#D4E4F3"&gt;

&lt;td&gt;VIL_NM_E&lt;/td&gt;

&lt;td&gt;DAVLOS&lt;/td&gt;

&lt;/tr&gt;

&lt;tr&gt;

&lt;td&gt;VIL_NM_G&lt;/td&gt;

&lt;td&gt;ΔΑΥΛΟΣ&lt;/td&gt;

&lt;/tr&gt;

&lt;/table&gt;

&lt;/td&gt;

&lt;/tr&gt;

&lt;/table&gt;

&lt;/body&gt;&lt;script type="text/javascript"&gt;

				function changeImage(attElement, nameElement) {

				document.getElementById('imageAttachment').src = attElement;

				document.getElementById('imageName').innerHTML = nameElement;}

			&lt;/script&gt;&lt;/html&gt;

</description>
			<styleUrl>#PolyStyle70</styleUrl>
			<MultiGeometry>
				<Polygon>
					<extrude>0</extrude>
					<altitudeMode>clampToGround</altitudeMode>
					<outerBoundaryIs>
						<LinearRing>
							<coordinates> 33.92862993549531,35.40902045728379,0 33.92881619969261,35.40911724538116,0 33.92895807034893,35.40918972063172,0 33.93054055764883,35.40999812602153,0 33.93524399679645,35.41245529049821,0 33.93585442791353,35.41277416694834,0 33.93775183486638,35.41376529507102,0 33.93800243034624,35.41383562814675,0 33.94227196489419,35.41481037416514,0 33.94722566209079,35.41594109804311,0 33.94722005091454,35.41594699976657,0 33.94616940588163,35.41701956843588,0 33.94468645126759,35.41854129784021,0 33.94542012932283,35.41868116172716,0 33.94556769510108,35.41904184507294,0 33.94545031606993,35.41913329857803,0 33.94696266856473,35.41964675527937,0 33.94839624857004,35.42013095153538,0 33.95115040166462,35.42106724642678,0 33.95207990983889,35.42170415015781,0 33.9514256184327,35.42352723214896,0 33.95137259160352,35.42380991117631,0 33.95150862235849,35.42365662562902,0 33.95166774683796,35.423725299974,0 33.95159147939567,35.42440197757409,0 33.9512664660224,35.42472033783583,0 33.95096869603183,35.42504515337428,0 33.95073667525075,35.4254161544069,0 33.95048801248866,35.42575837423113,0 33.95027568526068,35.42595575153458,0 33.95013715347707,35.42619035564181,0 33.94997406530753,35.42664754532365,0 33.94997516206646,35.42674094174122,0 33.95036905739027,35.42687925625216,0 33.95103617577152,35.4271005099756,0 33.95109629883576,35.4270723477762,0 33.95156492777105,35.42724174488221,0 33.9516464992983,35.42767128194137,0 33.95186104947441,35.42768781559326,0 33.95183799843443,35.42785367851209,0 33.95185863186418,35.42792557393685,0 33.95218022723721,35.4281215511724,0 33.95199804867865,35.42865340359094,0 33.95181247319538,35.4287929780804,0 33.9518055671579,35.42899818713677,0 33.95165110682675,35.42902958178491,0 33.95164837943076,35.42916140102617,0 33.95154420996262,35.42940621008468,0 33.95204642715304,35.42968990849047,0 33.95221090778395,35.4297433830815,0 33.95224359861071,35.42978125663615,0 33.95208564281381,35.42987281206273,0 33.95183366322961,35.43009112063887,0 33.95169962449042,35.43039096657822,0 33.9516100408184,35.43060686523375,0 33.95167421765278,35.4308015516702,0 33.95256255139837,35.43111035311005,0 33.95237551872973,35.4313471872349,0 33.95266302786045,35.43152231473018,0 33.9528939929926,35.43129135439663,0 33.95310881373369,35.43140571044508,0 33.95323143114115,35.43133844300668,0 33.95339661516188,35.43137967493071,0 33.953490632401,35.43104210743071,0 33.95377370477144,35.43103988615854,0 33.95395209111317,35.43138241705395,0 33.95415339390573,35.43170002887136,0 33.95409430819624,35.43174724375552,0 33.95394326850661,35.43178816654114,0 33.9533085748285,35.43165810445957,0 33.95281876200638,35.43199074427699,0 33.95274934043547,35.43215560225368,0 33.95271311618504,35.4324813673036,0 33.95263391769914,35.432661246274,0 33.95297629529181,35.43285443425991,0 33.95301363556479,35.43293851501789,0 33.95306607164125,35.43296405289886,0 33.95312788577917,35.43293788177944,0 33.95325808133615,35.43303368119312,0 33.95324236430991,35.43311125859917,0 33.95380163964469,35.43330255675752,0 33.95380959458392,35.43357713306826,0 33.95388704704958,35.43392304887551,0 33.95391309680207,35.43395825240736,0 33.95405818021224,35.43405193146273,0 33.95405906687709,35.43411505034402,0 33.95406042533595,35.43421172081198,0 33.95428126891277,35.43423015884939,0 33.954788469775,35.43444036352037,0 33.95518411760636,35.43465119081923,0 33.9552808804947,35.43477175310073,0 33.95545320403146,35.43486588730306,0 33.95568647008484,35.43483455981668,0 33.95574219654152,35.43484927443511,0 33.95587904443151,35.43487620237349,0 33.95578790436421,35.43544180291222,0 33.9557723380835,35.4355041957449,0 33.95574088899573,35.43560229757826,0 33.95571592547227,35.43578930580254,0 33.95559017180415,35.43604934819414,0 33.95592473578881,35.43619284635406,0 33.95655769112886,35.43653932433368,0 33.95615206928542,35.43692240729928,0 33.95576007397212,35.43670663863561,0 33.9555823486459,35.43660095579042,0 33.95541628477315,35.43665152452741,0 33.95530308746291,35.43672662423091,0 33.95536940160362,35.43681950435866,0 33.9553126813223,35.43689482594134,0 33.95525896737663,35.43705059098633,0 33.95532123656417,35.43712407966089,0 33.95506591810703,35.43750635809972,0 33.9550389431031,35.43762822643411,0 33.95516119059891,35.43767686809378,0 33.95534362353416,35.43765612288632,0 33.95573577240185,35.43783109512131,0 33.95578206266886,35.43783072867746,0 33.95586080255899,35.43783389446914,0 33.95649354845693,35.43820432506119,0 33.95628295873654,35.43859114489749,0 33.95630552798413,35.43861409493415,0 33.95687160187999,35.43873807332609,0 33.95699679760865,35.43876451272568,0 33.95712178547732,35.43876352193686,0 33.95757539904657,35.43875613586536,0 33.95752830395618,35.4390178194614,0 33.95749835100837,35.43907366491215,0 33.95739422477942,35.43909477399293,0 33.95710369689351,35.43958204134626,0 33.95704993990798,35.43973401829595,0 33.95652371773111,35.44025725116003,0 33.956418007097,35.44032249792724,0 33.95620539707416,35.44038697343917,0 33.9560511045789,35.44056241167431,0 33.95586490914104,35.44091868914551,0 33.95580916463897,35.44115091144103,0 33.9557571955942,35.44136740641353,0 33.95571678031233,35.44153577130329,0 33.95581379857441,35.44157028995335,0 33.956054110899,35.44165578822417,0 33.95590524038109,35.44232367574441,0 33.95582207230656,35.44231924807639,0 33.95526076845717,35.44228936391003,0 33.95527151417384,35.44221390053355,0 33.95435688553902,35.44205435375833,0 33.95432352622139,35.44278549754979,0 33.95392478225012,35.44286176131422,0 33.95351036886491,35.44305447378161,0 33.9533722289595,35.44272594092617,0 33.95323739554374,35.44267775204191,0 33.95299165557405,35.44305853165366,0 33.95273856653078,35.44336581737917,0 33.95308880675513,35.44362867839106,0 33.95293194935969,35.44396258777112,0 33.9529755572091,35.44430881574628,0 33.95299960499004,35.44449973742334,0 33.95295419830978,35.44449045262602,0 33.95279323244039,35.44452202101217,0 33.95270301216605,35.44451713852555,0 33.95260059539579,35.44453203705241,0 33.95240973254157,35.44463038983878,0 33.95221921982402,35.44476187481242,0 33.95197159502469,35.44477596940136,0 33.95171777424407,35.44475289139177,0 33.951424980788,35.44469351375846,0 33.95110288615066,35.44458233661871,0 33.95100416719426,35.4444799770852,0 33.95095939299331,35.44439325859476,0 33.95096115204474,35.44432528605512,0 33.95099037053924,35.44427209699113,0 33.95107215201422,35.44418256899733,0 33.95118615247168,35.44408876991478,0 33.9514214658964,35.44396704992118,0 33.9514483577227,35.44392883109303,0 33.95146249477367,35.44359241525586,0 33.95142018089679,35.44345944067592,0 33.9513354712473,35.44335123227207,0 33.9511563875886,35.44331426509221,0 33.95103259278957,35.44334219706482,0 33.95087687941226,35.44340293782903,0 33.95070846502324,35.44343657654859,0 33.95054717484167,35.44344027384354,0 33.95038225558902,35.44341409095919,0 33.95025571384826,35.44341825609974,0 33.94998884133327,35.44345317079252,0 33.94968350325728,35.44352909384898,0 33.9496052225797,35.44352056390863,0 33.94954584774953,35.44347556198267,0 33.94939501461152,35.44324134210714,0 33.94934252636801,35.44312817128464,0 33.94916655352119,35.44283838585008,0 33.94904578063199,35.44276232643691,0 33.94888546468167,35.44270281140034,0 33.94862267090215,35.44265546347205,0 33.94822358227213,35.44255185069159,0 33.94798780787921,35.44247783447251,0 33.94783391242824,35.44243985245291,0 33.94778011357773,35.44239889245044,0 33.94775307906364,35.44234537061021,0 33.94778993496749,35.44222895052744,0 33.94794808337858,35.44188017196824,0 33.94802842986238,35.44176886781792,0 33.94824101374621,35.44152435889085,0 33.94830654461884,35.44146112121869,0 33.9483307684837,35.44141172960925,0 33.94835654662065,35.44135916665406,0 33.94847294526497,35.44119195575482,0 33.94847342807551,35.44100036437212,0 33.9484431842277,35.44087689740013,0 33.94833448276617,35.44068740391548,0 33.94818502249183,35.44055606553852,0 33.94807416023247,35.44055603935508,0 33.94797107001674,35.44058764160906,0 33.94783375093931,35.44066929519908,0 33.9474130755836,35.44103389637495,0 33.94721754614488,35.4410893206264,0 33.94694496222398,35.44109551759946,0 33.94670106053587,35.44103512924658,0 33.9465570201966,35.44097277496346,0 33.94634327465445,35.44080368169244,0 33.9463039054199,35.4407167765935,0 33.94628545802988,35.44060070386521,0 33.9463173593082,35.44041503752132,0 33.94638470346541,35.44028487884732,0 33.94664717680439,35.43997966692919,0 33.94676287090163,35.43988524128193,0 33.94717669897057,35.4394526165086,0 33.9471754454427,35.43941170182674,0 33.94714680294214,35.43936698842867,0 33.94689440640511,35.43891989541855,0 33.94683615458345,35.43888695017851,0 33.94678157610829,35.43888930341598,0 33.94623437403138,35.43901949446193,0 33.94598504163699,35.43915339825679,0 33.94575530036759,35.43921159025628,0 33.94550999907555,35.43922544236779,0 33.94534020671435,35.43920944315148,0 33.94529073313063,35.43922671408483,0 33.94510937860514,35.43937653835586,0 33.94490902088322,35.4394483538515,0 33.94463703875636,35.43963947771543,0 33.94449461167653,35.43971299971889,0 33.94432737222282,35.43970649887675,0 33.94404932481077,35.43962726595235,0 33.94371270987267,35.43948518673957,0 33.94350830857447,35.43932263640355,0 33.9434200173045,35.43926675847754,0 33.94310194245061,35.43915853593806,0 33.94277834976732,35.4390781965819,0 33.94257082879805,35.43902966371859,0 33.94251234603806,35.43901030651674,0 33.94224993685059,35.43892345282929,0 33.94192797680001,35.43875885273729,0 33.94171224281948,35.43870573974894,0 33.94130074805119,35.43869587229455,0 33.94124233334425,35.43869026271362,0 33.94091737106952,35.43861570648792,0 33.94066052408511,35.43850922473727,0 33.94039000940452,35.43834235843183,0 33.94001462904306,35.43804964064644,0 33.93961404460391,35.43778237197174,0 33.93912843602648,35.43775506360681,0 33.93867099728487,35.43762449325551,0 33.93811661333611,35.43731442611382,0 33.93802212955995,35.43721780562777,0 33.93788116853207,35.43693598264546,0 33.93776516835523,35.4368401663202,0 33.93739020375172,35.43667718510273,0 33.93707067092103,35.43650981478625,0 33.9370603931756,35.4364738677691,0 33.93721176230954,35.43628349073142,0 33.93725721045555,35.4360128770983,0 33.93725191048526,35.43589063572885,0 33.93713647648466,35.43557015505689,0 33.93695951790111,35.43533102294272,0 33.93681916235484,35.4352192159055,0 33.93667563271335,35.43514843902879,0 33.93652699077045,35.43509075820295,0 33.936419568329,35.43503915510409,0 33.93627381885976,35.43499251617498,0 33.93611099321942,35.43495142822037,0 33.93603985859432,35.43493347735245,0 33.93576712778768,35.4348986362534,0 33.93547205376525,35.43486595506903,0 33.93538437893464,35.43486237738079,0 33.93526095267543,35.43487050805506,0 33.93502872843282,35.43491933142254,0 33.93484572618927,35.43491897558925,0 33.93462254832687,35.43487332891615,0 33.93438047190629,35.43486909698405,0 33.93426039529206,35.43487462112563,0 33.93413421632096,35.43486192974251,0 33.93400485660673,35.43482614117858,0 33.93381655982553,35.43475818851523,0 33.93366846711352,35.43469537947725,0 33.93356557575093,35.43463511491402,0 33.93351472615626,35.43458916471709,0 33.93348472936233,35.43455283173914,0 33.93338312181917,35.43447066303703,0 33.93326344301455,35.43440764194651,0 33.93312421724269,35.43437961878148,0 33.9329831196024,35.43435848882218,0 33.93283891557991,35.43430797610824,0 33.93270783660898,35.43423900907599,0 33.93269705870843,35.43423293268725,0 33.9324309747597,35.43408290838209,0 33.93220570289834,35.43399582329576,0 33.93205542182246,35.43395723870623,0 33.93189213817125,35.4339465745481,0 33.93177120719498,35.43394790713652,0 33.93120916109655,35.43390475335896,0 33.93108133749622,35.43391586640447,0 33.93101339020366,35.43392177306246,0 33.93070756272323,35.43395365463704,0 33.93037673623784,35.43401725909127,0 33.93017190533661,35.4340890170543,0 33.93000786894214,35.43418365422781,0 33.92999412870569,35.43424757921039,0 33.92991280643133,35.43462591890265,0 33.9298311119288,35.43489541390685,0 33.92978684488322,35.4349951924674,0 33.92967954361599,35.43507206522749,0 33.92939370666961,35.43499357027683,0 33.92918504532575,35.43491483315793,0 33.92910967617193,35.43488639323223,0 33.92877658526807,35.43479958698563,0 33.92867120417356,35.43478249187099,0 33.92831150500634,35.43467844476159,0 33.92801856328096,35.43453394400973,0 33.92788107408207,35.43444635635892,0 33.92769419366146,35.43430128123487,0 33.92720445493753,35.43430188215608,0 33.92708841443037,35.43429911023346,0 33.92696148352366,35.43426926400753,0 33.92687075834649,35.43427138819798,0 33.92683397658872,35.43428466674508,0 33.92680396807577,35.43430008801425,0 33.92676406912403,35.43447833190682,0 33.92675652453725,35.43466048164881,0 33.9267379845546,35.43481687301367,0 33.92667023080107,35.43493684012896,0 33.92645798475167,35.43512079238982,0 33.92633682251417,35.43519892135348,0 33.92616659807638,35.43525896923762,0 33.92601427541263,35.43528086353341,0 33.9257445569968,35.4353387355438,0 33.92549238152439,35.43541350570906,0 33.92534677150262,35.43544623841183,0 33.92487618029044,35.43547597983376,0 33.92442489617071,35.43553688090374,0 33.92429675866346,35.43557971760975,0 33.92396938427603,35.43578880777271,0 33.92378701482316,35.43589108036773,0 33.92330041218204,35.43610037652283,0 33.92316704355503,35.43611537768427,0 33.92296459363925,35.43609948573519,0 33.92263802116394,35.43611485896083,0 33.92234959370852,35.43603145219273,0 33.92205728918219,35.43598137467098,0 33.92169377462005,35.43584398436397,0 33.9215367319245,35.43580608634735,0 33.92140197010966,35.4357551507838,0 33.92083605264325,35.43561272895987,0 33.92061076462306,35.43564861617148,0 33.92021385262788,35.43569223036255,0 33.92012943448483,35.43571444062691,0 33.92003363936847,35.43576594765506,0 33.91985803731427,35.43579476972064,0 33.9196746635365,35.43578624215148,0 33.91962050673393,35.43575594111815,0 33.91947467993764,35.43556840268181,0 33.91944828173939,35.43548288232438,0 33.91948362075797,35.43523523021106,0 33.91953406356685,35.43511327086495,0 33.91958496612838,35.43504841593263,0 33.91977663262449,35.43474896179712,0 33.91986224494887,35.43456632850122,0 33.91991897812375,35.43450552823126,0 33.91998856405311,35.43439300031388,0 33.91999240272304,35.4343549153276,0 33.91990008803667,35.43431279134229,0 33.91986525507859,35.43430192536194,0 33.9198330580631,35.43429188202887,0 33.91974660395072,35.43424156710277,0 33.91960668182884,35.4341320268023,0 33.91939738920163,35.43394810817475,0 33.91935210650615,35.43389443296785,0 33.91933782654945,35.43379157974203,0 33.91938039757069,35.43369332933824,0 33.91952736887801,35.43356389661356,0 33.91976415738715,35.43344992318176,0 33.91989204727235,35.43336593235824,0 33.92002426816151,35.43326354300088,0 33.92032766600048,35.43307081958604,0 33.92042269440817,35.43299191068156,0 33.92044286720319,35.43289869599624,0 33.92040312283887,35.43278987194319,0 33.92037679787411,35.43267730332934,0 33.92034060787984,35.4326382904279,0 33.92028351196951,35.43260183798878,0 33.92022329691397,35.43254947566943,0 33.9201407410563,35.43250703050242,0 33.92006133193845,35.43248417052889,0 33.92001012669531,35.43243666068049,0 33.91995840622899,35.43232545268013,0 33.91994534167473,35.43227914839652,0 33.91992147560904,35.43219456781036,0 33.91986234211127,35.43209075122497,0 33.91975653057082,35.43194430237935,0 33.91961876852401,35.43172819991122,0 33.91954329576563,35.43163672055666,0 33.91945740838892,35.43155141972742,0 33.9193943470203,35.43151622275875,0 33.91917923769245,35.43134707106079,0 33.91897232667284,35.4312685208921,0 33.91888682220259,35.4312309896797,0 33.91855111428615,35.43112247727829,0 33.91838044419102,35.43109028315617,0 33.91828929878158,35.43109565064343,0 33.91821779714982,35.43112786698307,0 33.91809924486711,35.43125954628589,0 33.91805785357953,35.43131855892161,0 33.91801911070579,35.43133468256667,0 33.91799371653812,35.43133726324655,0 33.9178240850173,35.43124871408308,0 33.91751646558456,35.43110329772696,0 33.91710569700354,35.4309596348043,0 33.91680457625192,35.43088155395755,0 33.91646490104663,35.43084531790611,0 33.91627628940969,35.43081688210493,0 33.915847787213,35.43074172941455,0 33.91562950280723,35.43070344534643,0 33.9148884263596,35.43062631203103,0 33.91447654174976,35.43064962097011,0 33.91405991220859,35.43063507268571,0 33.91344799471101,35.43052938654061,0 33.91306909997173,35.43042099622878,0 33.91303704800823,35.43038964171424,0 33.91305526844345,35.4302434440578,0 33.91325031908113,35.42976910178957,0 33.91323227925765,35.42960996219391,0 33.91307766466878,35.42920840723841,0 33.91278627556667,35.42898138234593,0 33.91224946591583,35.42853808474503,0 33.91194308149224,35.42844278632797,0 33.91171924682124,35.42841599108834,0 33.91166251108768,35.42842114781842,0 33.91149433727454,35.42839122702414,0 33.91098113053513,35.42822893592072,0 33.91061732701915,35.42826224133125,0 33.90959661549891,35.42822553074975,0 33.90947706679123,35.42822089078867,0 33.90910903343332,35.42824042781155,0 33.90849055757539,35.42849638335951,0 33.90835317997588,35.4286271808803,0 33.90824841161218,35.42877861670692,0 33.90821659176789,35.42898849109599,0 33.90822724930844,35.42907675716374,0 33.90829940727291,35.42912034604683,0 33.90853934183714,35.42920206868906,0 33.90870905768892,35.42923274541037,0 33.90881745195496,35.42927948541094,0 33.90877774059712,35.42931544437688,0 33.90870213858647,35.42930066736778,0 33.90863004354303,35.42925859608986,0 33.90856188524459,35.42924984152403,0 33.90854504481884,35.42927538384342,0 33.90859374652351,35.42934951202315,0 33.908801687269,35.42945595219781,0 33.90880482508584,35.42948078806673,0 33.9087375463037,35.42949142803476,0 33.90853874658952,35.42948271830479,0 33.90761191583884,35.42920893967498,0 33.90750398627055,35.4292298567815,0 33.90721417734675,35.42938890143577,0 33.90695492579593,35.42936737844812,0 33.90673539749363,35.42931027147733,0 33.90629875149953,35.42911784003055,0 33.90607098834793,35.42904864466534,0 33.9054686921532,35.42894836360527,0 33.90531531109043,35.42890044454834,0 33.90507174394747,35.42876888038695,0 33.90489026003033,35.42876414128501,0 33.90459702892235,35.42883314205077,0 33.90446487936444,35.42890807504536,0 33.90425097885127,35.42883538610396,0 33.90414032971856,35.42882701933519,0 33.90383630381017,35.42872898765696,0 33.90376640715101,35.42876020732556,0 33.90350294657527,35.42868734177661,0 33.90283616036232,35.42848120500985,0 33.90251381439705,35.42839503051335,0 33.90248501329717,35.42838733032244,0 33.90212954071956,35.42812463318413,0 33.90164472732371,35.42763824950561,0 33.90154837887705,35.42750753013766,0 33.90147690653684,35.42737125306395,0 33.9014352939819,35.42722939825001,0 33.90143425649608,35.42715042447618,0 33.90143874670499,35.42712370084799,0 33.90145453667213,35.42702971692928,0 33.90143862936915,35.42698351556377,0 33.90127887726064,35.42692194501111,0 33.90081753007694,35.42656606525681,0 33.90068494052429,35.42647486832953,0 33.90031904313734,35.42621405690284,0 33.90018353277538,35.42612756358579,0 33.89984172407647,35.42588511591485,0 33.8996942182399,35.42576968055889,0 33.89955398741822,35.42565080002712,0 33.89932611212349,35.42551584165483,0 33.89894692461809,35.42545976873656,0 33.89837977484628,35.42540195924892,0 33.89828694015995,35.42539249732445,0 33.89807310196733,35.42541098597476,0 33.89778117744552,35.42543622712387,0 33.89785084132804,35.42560434942812,0 33.89765240363688,35.42570919262545,0 33.89712306625243,35.42572695551639,0 33.89704221262782,35.42581526080343,0 33.89660179729283,35.42596075768108,0 33.89650129565276,35.425974241441,0 33.89616239811607,35.4264403839253,0 33.89621427571611,35.42648160330134,0 33.89626762802851,35.426511208914,0 33.89640928350626,35.42654608614401,0 33.89660758861687,35.4266079907236,0 33.89670051783641,35.42669044636401,0 33.89672953696736,35.42674732457761,0 33.89670364795006,35.42683275721105,0 33.89661478489109,35.42688429883739,0 33.89639769339338,35.42692520760276,0 33.89607713990906,35.42693397811981,0 33.89594394761477,35.42692067408825,0 33.89577694708009,35.42689160411836,0 33.89549359100126,35.42681871984111,0 33.89480747934681,35.42655704904825,0 33.89470256434588,35.42650791811567,0 33.894554372347,35.42644370310393,0 33.89448211612474,35.42642171868711,0 33.89441326638235,35.4264172073787,0 33.89430299768502,35.42643251203783,0 33.89398288737113,35.42651172781577,0 33.89378042597539,35.42656311236811,0 33.89364699363665,35.42656926093643,0 33.89332905151146,35.42657807783057,0 33.89310885735343,35.42659866517302,0 33.89271402308911,35.42660016251372,0 33.89251113539822,35.42661939050728,0 33.89242948411877,35.42660448393038,0 33.89227947463655,35.42659089453694,0 33.89202202827818,35.4265925271272,0 33.89167875729885,35.42662051596866,0 33.891514429628,35.42665933002761,0 33.89128469701845,35.42667718854935,0 33.89102684615465,35.42667341764044,0 33.89088210208644,35.42668817589422,0 33.89065800285263,35.42673473322171,0 33.89044442140196,35.42688248673154,0 33.89053089084219,35.42696806381945,0 33.89066080470763,35.42712374659395,0 33.89069124486466,35.42717473734025,0 33.89070177825517,35.42719238065841,0 33.89071009794245,35.42721619727829,0 33.89071691021662,35.4272446253964,0 33.89072884950286,35.42727553851218,0 33.89072340963676,35.42730904676108,0 33.89070631488721,35.42731687020318,0 33.89068227999358,35.42731865726376,0 33.89066307076286,35.42731456271024,0 33.890605829633,35.42727967627471,0 33.89055134785119,35.42723535959366,0 33.89052689730055,35.42720868934629,0 33.89050485394628,35.42717561362769,0 33.89049697803359,35.4271637949068,0 33.89040981382329,35.42701721290812,0 33.89038805665372,35.42692668799241,0 33.89035251300733,35.42695456227009,0 33.8902595515093,35.42699710086109,0 33.89018248287643,35.42702107383067,0 33.89000136819025,35.42705518748499,0 33.88986821488001,35.42711934112429,0 33.88979929017176,35.42717892931218,0 33.88977932047241,35.42719619449278,0 33.88973047752516,35.42724581198696,0 33.88968370724241,35.42730086091743,0 33.88964525981721,35.42738014742154,0 33.88962200955516,35.42743215861784,0 33.88960752460535,35.42749626685631,0 33.88959794353396,35.42752184503441,0 33.88956105274498,35.42760531212014,0 33.88953310579965,35.42764060490889,0 33.88950041312824,35.4276508045181,0 33.8894650794069,35.42764594885669,0 33.88941991529555,35.4276214661616,0 33.88936291479078,35.42758489999174,0 33.88931921227677,35.42754701635923,0 33.88927232926343,35.42748947382587,0 33.88924452478071,35.42745779319716,0 33.8892151240772,35.42741523807222,0 33.88917383563323,35.42736634130255,0 33.88915868635651,35.42734840014998,0 33.88904767990045,35.42718245732512,0 33.88897614044846,35.42707551412654,0 33.8889895361702,35.42696415552169,0 33.88891165902164,35.42680985446744,0 33.888853720994,35.42664318817764,0 33.8888054962647,35.42660577027351,0 33.88864539351259,35.42659996962949,0 33.88856620722676,35.42657251562951,0 33.88853294763452,35.42652766239434,0 33.88853470405172,35.42648264793745,0 33.88871766937978,35.42627804377607,0 33.88873220631525,35.42619205819797,0 33.88871366841707,35.42609477182816,0 33.88864002931312,35.42598301363415,0 33.88853964927868,35.42592047272429,0 33.88832231404605,35.42587565512633,0 33.88818314299856,35.42585502173402,0 33.88807190567678,35.42582035095691,0 33.88794547219868,35.42575056519014,0 33.88787100755321,35.42567071961888,0 33.88785356546153,35.42558979497606,0 33.88785384712929,35.42545642328789,0 33.88790634353897,35.42535881636447,0 33.88785934761723,35.42517739274082,0 33.88785480558464,35.42507677835238,0 33.88798235449849,35.42479843308794,0 33.88812693362738,35.4245257534685,0 33.88814353014111,35.42445000450175,0 33.88809153227979,35.42445351363989,0 33.88782195176617,35.42454902415987,0 33.88769503887983,35.42457393884712,0 33.88747848176165,35.42448574742986,0 33.88728398326738,35.42440727210504,0 33.88713949581026,35.42432693285735,0 33.88703216223441,35.42408444272655,0 33.88676483363363,35.42423290816189,0 33.8866713652808,35.42434132225566,0 33.88655428719885,35.42452675422408,0 33.88642269677828,35.42461734931521,0 33.88635895759459,35.42467327505935,0 33.88633523009563,35.42472738294536,0 33.88628541012307,35.42476688251406,0 33.88615147722165,35.42479367410104,0 33.88604187925513,35.42488253817334,0 33.88594394409931,35.42490589361452,0 33.88584180897244,35.42489163037287,0 33.88578741117473,35.42482150943327,0 33.88567491219504,35.42473856058024,0 33.88563054554286,35.42467330527607,0 33.8853880462615,35.4246056730974,0 33.88532554364843,35.42451595157659,0 33.88519299081752,35.42442491114,0 33.88518079751149,35.4243889653829,0 33.88520422911179,35.42427594811016,0 33.88519204383205,35.42424164000946,0 33.8851278805347,35.42421738327323,0 33.88486572931458,35.42422020045425,0 33.88471911007535,35.42411776700691,0 33.88464462726104,35.42403300998333,0 33.88439167467928,35.42387869130089,0 33.88417907775381,35.42378964289987,0 33.88393824686705,35.42365817602977,0 33.88297526827088,35.42320265170864,0 33.88257680353071,35.42296878895557,0 33.88252247656828,35.42291094028169,0 33.88239222480047,35.42288042490073,0 33.88214904709803,35.42288395196972,0 33.8820689079833,35.42286875959396,0 33.88199662660315,35.42282326205237,0 33.88163871439811,35.42249185189272,0 33.88153522867614,35.42240967423267,0 33.88149536076596,35.42234051239758,0 33.88149609482131,35.42228569537487,0 33.88152372827932,35.42220540059387,0 33.88150761583259,35.42218501926903,0 33.88139435916288,35.42215115287643,0 33.88126317270576,35.42213536360197,0 33.88106396831563,35.42212805084108,0 33.88084567284993,35.42210609519881,0 33.88080752656677,35.42208253597149,0 33.88076520408595,35.42202299816292,0 33.88052013260074,35.42184408044015,0 33.88042566348635,35.42176349811345,0 33.88040045101521,35.42172352047025,0 33.88040327321171,35.4216858765814,0 33.88044307803659,35.42163743733108,0 33.88065447999705,35.42147372765885,0 33.88072115921617,35.42139490678991,0 33.88072373076368,35.42130491277329,0 33.880660019291,35.42116694214572,0 33.88054002830558,35.42098013409188,0 33.88037493360763,35.4207787990126,0 33.88028542387328,35.42068674972911,0 33.88013980531855,35.42058185436559,0 33.88006956603753,35.42054331523993,0 33.87974758851339,35.42039336533013,0 33.87954288456192,35.42028053981809,0 33.87935938811398,35.42020852047843,0 33.87922519477362,35.42019273102521,0 33.87879548759617,35.42012420756539,0 33.87862625347687,35.42010774676842,0 33.87855921088241,35.42011212106781,0 33.87838826022968,35.42015865197885,0 33.8781922252878,35.42019301954598,0 33.87800615060727,35.42021753043867,0 33.87785717248564,35.42025579067548,0 33.87777112147074,35.42026433526748,0 33.87763093584233,35.42025593073482,0 33.87744457886473,35.42022072607336,0 33.877122051295,35.42018118698309,0 33.87694983648105,35.42017618787398,0 33.8768506727208,35.42016433618593,0 33.8767114000539,35.4201387463989,0 33.87638761567052,35.42004603416459,0 33.87608307811695,35.42000559469913,0 33.87597287641409,35.41998969787453,0 33.87590327378204,35.4199664112113,0 33.87588510482185,35.41996033372581,0 33.87580482367117,35.41991485888748,0 33.87578975410655,35.41990062259874,0 33.8756665266534,35.41978420082032,0 33.87556801751736,35.41972125680984,0 33.87556534971844,35.41970529465944,0 33.87575888285321,35.41967061240063,0 33.87642484190654,35.41955126614015,0 33.87681838330383,35.41954827330346,0 33.87694151471015,35.41953287681532,0 33.87722785889875,35.4193916344061,0 33.87742980927665,35.41923517807,0 33.87764760484659,35.41911112805161,0 33.87818098238032,35.41849452065237,0 33.87824665562981,35.41837312416322,0 33.87844791657909,35.41811482349145,0 33.87839645854075,35.41802227060271,0 33.87827819583096,35.41798323063772,0 33.87797869361795,35.41794186424978,0 33.87765560124456,35.41794161421012,0 33.87755866974442,35.41795107955242,0 33.87737216167828,35.41741863959137,0 33.8774673991844,35.4172580768007,0 33.87753027317268,35.41724041084223,0 33.87764246222376,35.41718605923747,0 33.87766695539327,35.41705012278955,0 33.87782108669315,35.41691821673866,0 33.8778950002758,35.41685068083238,0 33.87784030630907,35.41682113619967,0 33.87777309898326,35.416136529402,0 33.87785791482074,35.41604547696496,0 33.87776035090299,35.41542254257631,0 33.87761356013876,35.41489928525063,0 33.87738825754528,35.41459836613686,0 33.87712659747541,35.41451352719412,0 33.87705323518956,35.41436560442081,0 33.87691609853864,35.41377795519347,0 33.87719141352068,35.41292750914447,0 33.87708594554754,35.4128176168644,0 33.87689576388523,35.41272401285406,0 33.87675813166726,35.41265627203604,0 33.87652433259727,35.41240885186237,0 33.87644692161539,35.41221140011611,0 33.87632988530503,35.41205391876692,0 33.87639400510987,35.4115072789423,0 33.87635099289317,35.41143751250852,0 33.87572405405109,35.41102430983688,0 33.87559293672097,35.41094830837088,0 33.87538623830496,35.41092500025535,0 33.87572243945711,35.41062319730977,0 33.87595346045177,35.4104158119164,0 33.87651213465556,35.41083191095407,0 33.87655331170338,35.41081122398386,0 33.87661538911365,35.41085799329964,0 33.87709262684228,35.41043491162996,0 33.8768532707773,35.41025605337322,0 33.87674241493301,35.41019399566172,0 33.87674789999732,35.41009143655126,0 33.87682927862827,35.40980397165303,0 33.87701202398421,35.40943642641452,0 33.87763081884145,35.4094943406375,0 33.87765801998339,35.40937866252698,0 33.8784434510451,35.40879304089853,0 33.87878317901131,35.40860571534346,0 33.87891968623367,35.40846152292539,0 33.87901801100921,35.4083524906967,0 33.87935374352416,35.40827014101518,0 33.87939271875289,35.40805880765585,0 33.87961685967113,35.4080843452306,0 33.87966254643413,35.4080829326964,0 33.87974490947276,35.40803671007943,0 33.87978007496704,35.40798225233414,0 33.8798253367551,35.40787103626349,0 33.88002821870489,35.40773376621567,0 33.88008408567041,35.40769610709231,0 33.88007320804231,35.40755135221561,0 33.88018172139983,35.40740484763516,0 33.88023177279793,35.40738772711448,0 33.88042122643704,35.40720585721681,0 33.88059740405052,35.40702042170516,0 33.88068994988185,35.4069367333466,0 33.88074119589727,35.40684598941255,0 33.88082880308608,35.40662715517545,0 33.88124522760263,35.40642733244756,0 33.88120033865764,35.40625374522492,0 33.88162343337309,35.4062530200598,0 33.88190854569788,35.40601877889402,0 33.88219813291069,35.40579537083322,0 33.88229475756737,35.40561629232364,0 33.8823502930486,35.40545389742273,0 33.88236298702446,35.40541677796513,0 33.88269082531151,35.40499832492248,0 33.88300059251317,35.40474249616735,0 33.88302418236928,35.40465921637483,0 33.88298938863353,35.40441149081056,0 33.88310737069731,35.40400322246468,0 33.88318119602199,35.40381441328747,0 33.88330857183686,35.40371509241503,0 33.88368855234675,35.40360035311402,0 33.88394300545337,35.40337457143822,0 33.88442323539789,35.40295375089643,0 33.88439711444801,35.40283858964288,0 33.88467727670588,35.40269065102859,0 33.88480311590438,35.40252407791474,0 33.88477641457247,35.40228279754762,0 33.88484540701663,35.4021499765563,0 33.88512093960217,35.40195796503379,0 33.88527250326122,35.40179739597271,0 33.88533523586374,35.40147123429094,0 33.88540448747642,35.40136215938318,0 33.88545816534689,35.40134480282522,0 33.88561376429013,35.40137831922199,0 33.88569931735444,35.40134528541618,0 33.88577982830748,35.40113783652577,0 33.88583837494656,35.40102649099913,0 33.88611952627158,35.40086784118684,0 33.88621691316251,35.40066486859765,0 33.88633934477573,35.40056610268675,0 33.886490058475,35.40050301384269,0 33.88657670532154,35.40041103596254,0 33.8865476751707,35.40030685760109,0 33.88634868297894,35.40020010576557,0 33.88621514110885,35.40018932051427,0 33.88629465987302,35.40013835979423,0 33.88650392830064,35.40004130629758,0 33.88662244759617,35.3999490935588,0 33.88676600414765,35.39977840354501,0 33.88679226594058,35.39962977929049,0 33.88725913626326,35.39904370780282,0 33.88742492749827,35.39891722718856,0 33.88771647415147,35.39876407836016,0 33.88835170826301,35.3983824232041,0 33.88864336850886,35.39828440223072,0 33.88880897852116,35.39819099456231,0 33.88894415657703,35.39819737453774,0 33.88907495417925,35.3982148495602,0 33.88918326166419,35.39818944415247,0 33.88926311909997,35.39812496351306,0 33.88934288196963,35.39800637471534,0 33.88943811619585,35.39784738237507,0 33.88956419774846,35.39765442771331,0 33.88977459324191,35.39753856389312,0 33.88994421715181,35.39740087418198,0 33.89011797871879,35.39722996667376,0 33.89024208217813,35.39704836194172,0 33.8903082920957,35.39692618413273,0 33.89041304514286,35.39662303290425,0 33.89056274654123,35.39631217459838,0 33.88998431079827,35.39654137883009,0 33.89005993288005,35.39645600803144,0 33.88945715656679,35.39651944831077,0 33.88852194032739,35.39706840159968,0 33.88851135675127,35.39692466547861,0 33.88738903594476,35.39756679231661,0 33.88894356657526,35.39438341197104,0 33.89064233576785,35.39090435837066,0 33.89251241199139,35.38707410315366,0 33.89415809301291,35.38369002149665,0 33.89417933780589,35.38364682193926,0 33.89470554020428,35.38395276169822,0 33.89491322733017,35.38404266652609,0 33.89512405729165,35.38409064107352,0 33.89597604517821,35.38403654045497,0 33.89622769929211,35.38403105953302,0 33.89641591286095,35.38406245731097,0 33.8969403378807,35.3843154082875,0 33.8974301266904,35.38445827744644,0 33.8978347238331,35.38455285964827,0 33.89789562271377,35.38383704081236,0 33.8984232527925,35.38363987408281,0 33.90054727543834,35.38284612806383,0 33.90123137299588,35.38326977161932,0 33.90139829711308,35.38317516705848,0 33.90154064366878,35.3833084910976,0 33.90174427498752,35.38313480311754,0 33.90203164936896,35.38324345251131,0 33.9022163274492,35.38329742442686,0 33.90243773818182,35.38336225946586,0 33.90271407392017,35.38350151153557,0 33.90322100972873,35.38356984921629,0 33.90325688438629,35.38362765483487,0 33.90343077589293,35.38390785822941,0 33.90369569906416,35.38422902116729,0 33.90403520242955,35.38468654338914,0 33.90515283035999,35.39085127132775,0 33.90595700061053,35.39529396026835,0 33.9059818714319,35.39543135300739,0 33.90915672412383,35.39807382680272,0 33.9109960194799,35.39960457885403,0 33.91199004909014,35.40045320213593,0 33.91414495337303,35.40225796928765,0 33.91524947471919,35.40272542239687,0 33.9156329772092,35.40288624057788,0 33.91655194297709,35.40327159431973,0 33.92122331663997,35.40527015065266,0 33.92188647959811,35.40555384953637,0 33.9226268346172,35.4059008106369,0 33.92862993549531,35.40902045728379,0</coordinates>
						</LinearRing>
					</outerBoundaryIs>
				</Polygon>
				<Polygon>
					<extrude>0</extrude>
					<altitudeMode>clampToGround</altitudeMode>
					<outerBoundaryIs>
						<LinearRing>
							<coordinates> 33.9178013908592,35.431677513704,0 33.91797139665616,35.43161305014085,0 33.9180164045707,35.43162369420997,0 33.91802983571269,35.43164370336602,0 33.91797919088306,35.43169500158086,0 33.9178272912968,35.43172506904644,0 33.91779351949484,35.43171520477276,0 33.9178013908592,35.431677513704,0</coordinates>
						</LinearRing>
					</outerBoundaryIs>
				</Polygon>
				<Polygon>
					<extrude>0</extrude>
					<altitudeMode>clampToGround</altitudeMode>
					<outerBoundaryIs>
						<LinearRing>
							<coordinates> 33.89156373504704,35.42675971917488,0 33.89178800018104,35.42675952056644,0 33.89191467460952,35.42677940565443,0 33.89193105389315,35.42680838585542,0 33.89191044803462,35.42683062510721,0 33.89182580478782,35.42686487072444,0 33.89169103022709,35.42688797562489,0 33.89156133556825,35.42688801573392,0 33.89135883485995,35.42686450336083,0 33.8913271146046,35.42684727427208,0 33.89133035326043,35.42680860050745,0 33.89138934346156,35.42678755888885,0 33.89156373504704,35.42675971917488,0</coordinates>
						</LinearRing>
					</outerBoundaryIs>
				</Polygon>
				<Polygon>
					<extrude>0</extrude>
					<altitudeMode>clampToGround</altitudeMode>
					<outerBoundaryIs>
						<LinearRing>
							<coordinates> 33.89225684657308,35.42669744731687,0 33.89241956024603,35.42669782131054,0 33.89249150802321,35.42671862489767,0 33.89251404251332,35.42674345487572,0 33.8925023797762,35.42677110008933,0 33.89238374039062,35.42681688109174,0 33.89227666139018,35.42681795359774,0 33.8921375357911,35.42679089167095,0 33.8921156690943,35.42675471166989,0 33.89217137836935,35.42670808717489,0 33.89225684657308,35.42669744731687,0</coordinates>
						</LinearRing>
					</outerBoundaryIs>
				</Polygon>
			</MultiGeometry>
		</Placemark>
	</Document>
</kml>