<?xml version='1.0' encoding='UTF-8'?>
<kml xmlns="http://www.opengis.net/kml/2.2">
	<Document>
		<name>DIMOS AKANTHOU</name>
		<Style id="PolyStyle70">
			<LabelStyle>
				<color>00000000</color>
				<scale>0.000000</scale>
			</LabelStyle>
			<LineStyle>
				<color>ff0055ff</color>
				<width>2.000000</width>
			</LineStyle>
			<PolyStyle>
				<color>00828282</color>
				<outline>1</outline>
			</PolyStyle>
		</Style>
		<Placemark id="ID_70279">
			<name>DIMOS AKANTHOU</name>
			<snippet />
			<description>&lt;html xmlns:fo="http://www.w3.org/1999/XSL/Format" xmlns:msxsl="urn:schemas-microsoft-com:xslt"&gt;

&lt;head&gt;

&lt;META http-equiv="Content-Type" content="text/html"&gt;

&lt;meta http-equiv="content-type" content="text/html; charset=UTF-8"&gt;

&lt;/head&gt;

&lt;body style="margin:0px 0px 0px 0px;overflow:auto;background:#FFFFFF;"&gt;

&lt;table style="font-family:Arial,Verdana,Times;font-size:12px;text-align:left;width:100%;border-collapse:collapse;padding:3px 3px 3px 3px"&gt;

&lt;tr style="text-align:center;font-weight:bold;background:#9CBCE2"&gt;

&lt;td&gt;3&lt;/td&gt;

&lt;/tr&gt;

&lt;tr&gt;

&lt;td&gt;

&lt;table style="font-family:Arial,Verdana,Times;font-size:12px;text-align:left;width:100%;border-spacing:0px; padding:3px 3px 3px 3px"&gt;

&lt;tr&gt;

&lt;td&gt;DIST_CODE&lt;/td&gt;

&lt;td&gt;3&lt;/td&gt;

&lt;/tr&gt;

&lt;tr bgcolor="#D4E4F3"&gt;

&lt;td&gt;VIL_CODE&lt;/td&gt;

&lt;td&gt;304&lt;/td&gt;

&lt;/tr&gt;

&lt;tr&gt;

&lt;td&gt;VIL_CCD&lt;/td&gt;

&lt;td&gt;3304&lt;/td&gt;

&lt;/tr&gt;

&lt;tr bgcolor="#D4E4F3"&gt;

&lt;td&gt;VIL_NM_E&lt;/td&gt;

&lt;td&gt;DIMOS AKANTHOU&lt;/td&gt;

&lt;/tr&gt;

&lt;tr&gt;

&lt;td&gt;VIL_NM_G&lt;/td&gt;

&lt;td&gt;ΔΗΜΟΣ ΑΚΑΝΘΟΥ&lt;/td&gt;

&lt;/tr&gt;

&lt;/table&gt;

&lt;/td&gt;

&lt;/tr&gt;

&lt;/table&gt;

&lt;/body&gt;&lt;script type="text/javascript"&gt;

				function changeImage(attElement, nameElement) {

				document.getElementById('imageAttachment').src = attElement;

				document.getElementById('imageName').innerHTML = nameElement;}

			&lt;/script&gt;&lt;/html&gt;

</description>
			<styleUrl>#PolyStyle70</styleUrl>
			<MultiGeometry>
				<Polygon>
					<extrude>0</extrude>
					<altitudeMode>clampToGround</altitudeMode>
					<outerBoundaryIs>
						<LinearRing>
							<coordinates> 33.80557255960234,35.41491774845047,0 33.80559150847319,35.41505447199668,0 33.80556032734188,35.41522518853564,0 33.80552271616974,35.41533165020377,0 33.80545563808459,35.41539290626074,0 33.80533709121903,35.41543376755102,0 33.80521730452036,35.41543590205168,0 33.80509029949784,35.41541004667543,0 33.80473308973793,35.41527304471584,0 33.8044805659091,35.41516240703109,0 33.80429321082677,35.41505617590636,0 33.80420584552583,35.41498592074384,0 33.80416656645755,35.41481631456735,0 33.80414744869548,35.41481803993354,0 33.80407346595617,35.41492645497971,0 33.80401854085744,35.41497678895692,0 33.80392630181665,35.41501041895846,0 33.8037873208575,35.41504432844204,0 33.80364851819891,35.4150516309211,0 33.80354695194239,35.41507017213025,0 33.80324588523156,35.41506067564534,0 33.80308583495231,35.41506379418011,0 33.80274735758979,35.41502725183368,0 33.80227060906408,35.41493275541945,0 33.80211525056094,35.41487455419517,0 33.80207745808342,35.4148603955194,0 33.80195150220811,35.41476922078779,0 33.80188042910238,35.41466896650405,0 33.80176786009007,35.41436450224052,0 33.80162712392683,35.41423074065888,0 33.80135126364098,35.4140596129024,0 33.80071855354674,35.41387386613891,0 33.80040471406608,35.41374812334574,0 33.80012605897094,35.41366228498443,0 33.79978948990982,35.41347484680287,0 33.79962996212145,35.41329373114329,0 33.79957710459189,35.41321738900758,0 33.79954831047463,35.41312049388544,0 33.79955477090832,35.41304288833225,0 33.79956502453213,35.41291971939737,0 33.7996034470134,35.41282448118636,0 33.79964866731292,35.41261749250475,0 33.79967958437267,35.412515493454,0 33.7997083601348,35.41247191073208,0 33.79969846104816,35.41241218425672,0 33.79940231908805,35.41227957508619,0 33.79935744320102,35.41226685048632,0 33.79932597257984,35.41227614605747,0 33.79925582238307,35.41219900154897,0 33.79922295519248,35.41212405831794,0 33.79910756841616,35.41237957496161,0 33.79891215500312,35.41258207152471,0 33.79882707712146,35.41264489596644,0 33.79878314403989,35.4126511840408,0 33.79868884671084,35.41255919434403,0 33.79867947278711,35.41251780201975,0 33.79877263101102,35.41241895005717,0 33.79868994009326,35.41232555592348,0 33.79861428728485,35.41229937119662,0 33.79838520377525,35.41269895969244,0 33.7973109796838,35.41286421473938,0 33.7969265824606,35.41281820665268,0 33.79613945350267,35.41275085739414,0 33.79608142445357,35.41274589226936,0 33.79565312728837,35.41262062822786,0 33.7954951019192,35.41254545296762,0 33.79538260845295,35.41247807526633,0 33.79514337384916,35.41213192614913,0 33.79503573252538,35.41206054036834,0 33.79503875347922,35.41202196124943,0 33.79512275319341,35.41194183455774,0 33.79513716854006,35.41190720038743,0 33.79511264445053,35.41188070026804,0 33.79507357748789,35.41186755636365,0 33.79505070867064,35.41184636953724,0 33.79497935676348,35.41186793052318,0 33.79490321950913,35.41190413995891,0 33.7947976582952,35.41190987856766,0 33.79466426269472,35.41187849114981,0 33.79448672781236,35.41180073258705,0 33.79445879749102,35.41174764724427,0 33.7944666353989,35.41169974095209,0 33.79452436246185,35.41157184262124,0 33.79421498634394,35.411450720437,0 33.79420885094756,35.4115119192686,0 33.79418194331936,35.41163171547255,0 33.79412722196722,35.41171837479344,0 33.79422607527868,35.41195204288707,0 33.79428509952024,35.41204357136188,0 33.79429352873472,35.41209540324453,0 33.79423296300688,35.41229246535918,0 33.79416505680828,35.41234726077106,0 33.79404345513711,35.41238763805722,0 33.79388250504262,35.41236699912398,0 33.79385801999447,35.41234714676155,0 33.79378378471102,35.41215593814656,0 33.7938184075079,35.41196695780686,0 33.79386478555021,35.41184309486081,0 33.79388529828891,35.41174061220142,0 33.79386556878644,35.41170079368607,0 33.7938329934917,35.4116862943597,0 33.79365301069313,35.41146890635252,0 33.79362322121992,35.41137593169287,0 33.79325188874469,35.41134948687544,0 33.79321792734327,35.41133114596828,0 33.79294518214815,35.41134482200207,0 33.79295480530669,35.41140050658235,0 33.79295232019506,35.41152883738614,0 33.79291162870797,35.41159448489713,0 33.79287543862373,35.41169020482995,0 33.79284018266334,35.41176114083628,0 33.79274215017045,35.41181905084957,0 33.79265369019711,35.41185037518624,0 33.79247634362773,35.41184045613399,0 33.79241562982647,35.41181060739341,0 33.79215798505509,35.41174967707663,0 33.79204561261884,35.41175897046824,0 33.79176657891681,35.4117370624044,0 33.79165190722808,35.41172335573524,0 33.79151301119784,35.41181770870568,0 33.79147864268152,35.41185589829936,0 33.79137086389775,35.41191119139728,0 33.79137644594496,35.41194125771172,0 33.79142332920416,35.41200921604752,0 33.79141499869417,35.41206323104378,0 33.79142620991524,35.41213133028484,0 33.7914046726783,35.41214557374965,0 33.7913571871057,35.41215903542212,0 33.79132253725956,35.41214943786876,0 33.79128890657869,35.41212921586532,0 33.79119280055715,35.41196322052074,0 33.7911408654855,35.41195546040732,0 33.79107361934135,35.41191767243068,0 33.79100111816123,35.41190556821281,0 33.79094472939499,35.41187570212095,0 33.79086896568412,35.41186007062081,0 33.79080352327294,35.41176121222966,0 33.79076886830813,35.41175072853335,0 33.79067500726585,35.41178295657959,0 33.79055970810904,35.41184624258484,0 33.79037888473123,35.41179651127042,0 33.790194662484,35.41172024399012,0 33.7900586008659,35.41174555858142,0 33.78938132289053,35.41175780442391,0 33.78935790663036,35.41175822696867,0 33.78894440797504,35.41175157378566,0 33.78835993699682,35.41151432466094,0 33.78828236398142,35.41158019605015,0 33.78818547143775,35.41162953313183,0 33.78807073625923,35.41173226737786,0 33.78802275254731,35.41174469445325,0 33.7879216950708,35.41181240524179,0 33.78786097837048,35.41183886984136,0 33.78763783299014,35.4118476108066,0 33.78731692462196,35.41193978654816,0 33.78719853130411,35.41196472766706,0 33.78694653173491,35.41197008341737,0 33.78682916981105,35.41198890007075,0 33.78653944947805,35.41193495378446,0 33.78629528207156,35.41200147427551,0 33.78604787525961,35.41206188715756,0 33.78570207144635,35.41209732906263,0 33.78568185333344,35.41210964758736,0 33.78547587965309,35.41213318009242,0 33.78476744743938,35.41224871131569,0 33.78443623581865,35.41240648630567,0 33.78424675175155,35.41251125632387,0 33.78363342761028,35.41282311568923,0 33.78354810073877,35.41284180512754,0 33.78336444109682,35.41284601419867,0 33.78319910106156,35.41287900110712,0 33.7828526937499,35.41297799037195,0 33.78238899040083,35.41311049500901,0 33.78238747078652,35.41311092848238,0 33.7816497850216,35.41336980681971,0 33.78142435233255,35.41339441018818,0 33.78134717106549,35.4133411618152,0 33.7810793810179,35.41311555204356,0 33.78106389042009,35.41310250169327,0 33.78065215543221,35.41294798469234,0 33.78007008100983,35.41281513785415,0 33.77986823373196,35.4128235890136,0 33.77971340272065,35.41285591021755,0 33.7794943486722,35.41302510213224,0 33.77940565587837,35.41303669971246,0 33.77929775507186,35.41302317106373,0 33.779075173014,35.412958656111,0 33.77898411647931,35.41288480908712,0 33.77879368749934,35.41281338927349,0 33.77856412657638,35.41278510352394,0 33.77847918652596,35.41279719810667,0 33.77827226773741,35.41279338592697,0 33.77797634079547,35.41285541272956,0 33.77786009080103,35.41285739363582,0 33.77770617590256,35.41283137441785,0 33.77763289288001,35.41280504677736,0 33.77726695187796,35.41275630009758,0 33.77693324736119,35.41277036836287,0 33.77674218766334,35.41280717313528,0 33.77669432659656,35.4128544334895,0 33.77658640767234,35.41300247115542,0 33.7765419742931,35.41308868060342,0 33.77652092462418,35.41313304555094,0 33.77644465892511,35.41329378674204,0 33.7764551299781,35.41332733936798,0 33.77648354048645,35.41335452226587,0 33.77653506491554,35.4133816124272,0 33.77657749582495,35.41339089109191,0 33.77658402189977,35.41340871276571,0 33.77657640999798,35.41342449097667,0 33.77652899571493,35.41344147782334,0 33.77646096367278,35.4134459505192,0 33.77632577161734,35.4134689051103,0 33.77611635703354,35.41366921169555,0 33.77596143838062,35.41374646762466,0 33.77576873599551,35.41381354568063,0 33.77555336447488,35.41387214228897,0 33.77542641734164,35.41390099086781,0 33.77529630721547,35.41391608265217,0 33.77523851735538,35.41391421288896,0 33.77504940134853,35.41385092955742,0 33.77496819876151,35.41379771370962,0 33.77497430306433,35.41374415122642,0 33.7749599633118,35.41370746680573,0 33.77484673164842,35.41366592682937,0 33.77467522147819,35.41363274193239,0 33.77461981120084,35.4135983209721,0 33.77458747902048,35.41355855936103,0 33.77457173188346,35.4135008845202,0 33.77456511392992,35.41346731873325,0 33.77432086720972,35.41341475591044,0 33.77429654147578,35.41342640033682,0 33.77426596466481,35.41346641302036,0 33.77425349853898,35.41352944786986,0 33.77438577097097,35.41353521835984,0 33.77436831066856,35.41362241769448,0 33.77432120494956,35.41368978835601,0 33.77419283408457,35.41369239867514,0 33.77401014462635,35.41366661328255,0 33.77397283964803,35.41365416600845,0 33.77391210574207,35.41358722427183,0 33.7739013580446,35.4135064385161,0 33.77400442720411,35.4135679623054,0 33.77401162814859,35.41348290545596,0 33.77401197646783,35.41331876486004,0 33.77399775069117,35.41314265503863,0 33.77399316728348,35.41308590455027,0 33.7739693248239,35.4130701324839,0 33.77387857345744,35.41304949739745,0 33.77359862803312,35.41295384798202,0 33.77312896410715,35.41302240621585,0 33.7730958349039,35.41307753959054,0 33.77308399453229,35.41314612167146,0 33.7730822021597,35.41315650485518,0 33.77306830676679,35.41340935996276,0 33.77307055994338,35.41347177499708,0 33.77308971470914,35.41352333427383,0 33.77311523584605,35.41357676273137,0 33.77311738581899,35.41362145268744,0 33.7731071631521,35.41364615442973,0 33.77305923881571,35.41367023492032,0 33.77294440819932,35.41369612265697,0 33.77286133246522,35.41372296710428,0 33.77278899149112,35.41376178650088,0 33.7727441378203,35.41382669861383,0 33.7726766562272,35.41389015740564,0 33.77261838941246,35.41391813187771,0 33.77251099250901,35.41398590194623,0 33.77230498001866,35.41404990674516,0 33.77219440257777,35.41406709569133,0 33.77205303763478,35.41406611206041,0 33.77198127643874,35.41404250502401,0 33.77190568630795,35.41400889591966,0 33.77179591642209,35.41393226885634,0 33.77171392358142,35.41388002389622,0 33.77161736066027,35.4138374468949,0 33.77143000395485,35.41374033830024,0 33.77133600750479,35.41368166748905,0 33.77124052546761,35.41357465103908,0 33.77109868396133,35.41352390097669,0 33.77134925759488,35.41316701095044,0 33.77106420042059,35.41315376079717,0 33.7711041782196,35.4129322024009,0 33.77113255356365,35.41286506162688,0 33.77113458563232,35.41278215877486,0 33.77115663946956,35.4127022503226,0 33.77111235437918,35.41260826468922,0 33.77092982343316,35.41249484357105,0 33.77078907503932,35.41247541760776,0 33.77070071106332,35.41244021816692,0 33.7706669140964,35.41242675510176,0 33.77045524626124,35.41224487585896,0 33.77036247732488,35.41219866105457,0 33.7699614941566,35.41214183689144,0 33.7698261379665,35.41208094174209,0 33.76965047751057,35.41196595881545,0 33.7695757636513,35.41189821611635,0 33.76959139517295,35.41155597517553,0 33.76955661729295,35.41153111249174,0 33.76896944824895,35.41111134432951,0 33.76851881009514,35.41088484687161,0 33.76820023860493,35.41074955531654,0 33.76814370232133,35.41074019304683,0 33.76765872761086,35.41057671067568,0 33.76752425662337,35.41052069975057,0 33.76734004135711,35.41042009095059,0 33.76724226497234,35.41040446185393,0 33.7670677386193,35.41040618061187,0 33.7670125841934,35.41038412808003,0 33.76651008862594,35.41008264267916,0 33.76628971279462,35.40997910073936,0 33.7661944401954,35.40994480166783,0 33.76611162857988,35.40992645021012,0 33.76556299026518,35.40987518162002,0 33.76548929110182,35.40985572912328,0 33.76541467118187,35.40978803096794,0 33.7651282699726,35.40969739516698,0 33.76504662809041,35.4096550472938,0 33.76494817009007,35.40963355382247,0 33.76484331229591,35.40963234490167,0 33.76453048593439,35.40959139014203,0 33.76412087808754,35.40959637801639,0 33.7636896125377,35.40957132186419,0 33.76278552768998,35.40966157894965,0 33.76242514935578,35.40973648891487,0 33.7619822348269,35.40973782024565,0 33.76185902316535,35.40970297653301,0 33.76149999755768,35.40956963399452,0 33.76112002367927,35.40943286840422,0 33.7607606169803,35.40939262372195,0 33.76056550155529,35.40943972808132,0 33.76035165135,35.40951409124022,0 33.76025990235503,35.40952829166143,0 33.7600851988106,35.40949747925798,0 33.7599405816067,35.40949001401222,0 33.75982604171333,35.4095048307052,0 33.75958944288397,35.40958780732989,0 33.75950830308981,35.40963608955415,0 33.75918629527242,35.40982067789211,0 33.75890579470229,35.4094986169327,0 33.75859423705153,35.40935066587166,0 33.75840796991495,35.40921067574558,0 33.75835078040881,35.40923301133141,0 33.75830540622833,35.40903377810861,0 33.75832870976558,35.40900810221893,0 33.75837895645861,35.40902631108849,0 33.758538528436,35.40902945790403,0 33.75861962071588,35.40897211274152,0 33.75867439086868,35.40886528160509,0 33.75871299362755,35.40854151542349,0 33.75874893777093,35.40844568259277,0 33.75908713583237,35.4083169470983,0 33.758891241087,35.40809459957389,0 33.75856141588189,35.40769243714553,0 33.75840966180606,35.40761627499018,0 33.7583890960024,35.40766620051417,0 33.75839965840304,35.40769228570239,0 33.75832497229837,35.40784903996663,0 33.75810137810181,35.4079277002317,0 33.75781592742592,35.40788929264631,0 33.75718093544077,35.40788228772284,0 33.75672539799621,35.40794233361807,0 33.75625361422116,35.40874803193551,0 33.75606117979707,35.4090766605379,0 33.75599464896838,35.40921863530001,0 33.75599858478952,35.40932566654025,0 33.75596405134415,35.40936899202737,0 33.75577584780579,35.40931840313274,0 33.75571912658487,35.40931598191976,0 33.75551831388411,35.4093787484507,0 33.75541029320788,35.40938117541297,0 33.75534297780539,35.40933313941894,0 33.75529053150617,35.40920456120903,0 33.75524717167992,35.40884127011263,0 33.75515424830959,35.40876511996094,0 33.75497550926882,35.40872750221757,0 33.75453304498868,35.40893357096539,0 33.75443633155654,35.40895984260083,0 33.75436207568208,35.40889150162656,0 33.75409436229773,35.40875550704516,0 33.75405831521608,35.40863417181507,0 33.7539103735695,35.40860218287621,0 33.75379857442831,35.40859445673461,0 33.7537627509849,35.40863732005492,0 33.75361919435544,35.40871860739605,0 33.75352609162642,35.40883863221813,0 33.75341904470977,35.40890610742644,0 33.75314256812079,35.40890845186927,0 33.75302402583986,35.40887984062064,0 33.75290293450767,35.40876110020093,0 33.75289375513645,35.4086711774215,0 33.75296127081425,35.40852659601234,0 33.7531618459047,35.4083180675848,0 33.75321272289095,35.40829698251294,0 33.75329697571031,35.4083772316735,0 33.75346201393297,35.40842536409878,0 33.75350947636738,35.4083976032372,0 33.75365835575302,35.40812971327239,0 33.75377148392449,35.4080767529565,0 33.75413000874408,35.40789590425797,0 33.75428488705344,35.40782399707265,0 33.75439060374202,35.40774077125614,0 33.7543848202251,35.40770470865858,0 33.75423269593628,35.40769321298208,0 33.75417590901164,35.4076785305001,0 33.75408335686735,35.4077769597885,0 33.75403957905324,35.40779376009483,0 33.7539892443549,35.4077851843924,0 33.75382415415137,35.40770026565406,0 33.75373058274702,35.40761890866758,0 33.75366124708053,35.40754127434769,0 33.75327516973184,35.40770807483907,0 33.75325973266844,35.40782111369834,0 33.75322273572979,35.40790445260781,0 33.75309283795855,35.40802228466175,0 33.75306844288443,35.40806178572532,0 33.75303308823585,35.40814453026652,0 33.75259969163428,35.4077442418173,0 33.75235523797828,35.40765053624045,0 33.75211821351979,35.40750747691569,0 33.75214424840644,35.40731454037184,0 33.75220269274802,35.4072398824323,0 33.75217984998717,35.406774020269,0 33.7521599609036,35.40672973772832,0 33.7520646740558,35.40664568788129,0 33.75199174982782,35.40661442190822,0 33.75174645171026,35.40656188278633,0 33.75138581496091,35.40654917174827,0 33.75096692168928,35.40644733393927,0 33.75021301010221,35.40620886128482,0 33.74984328408323,35.40599958426537,0 33.74981897004219,35.40598006702491,0 33.74980261539338,35.40596693955637,0 33.74968239966307,35.40587043728119,0 33.74981279423152,35.40572274430258,0 33.74974743301263,35.40557226088453,0 33.74959857258855,35.40545725420163,0 33.74929098780733,35.40537618153481,0 33.7491685307902,35.40537662115421,0 33.74890860777873,35.40557314104007,0 33.74876426141157,35.40560981742269,0 33.74855538741192,35.40559248764674,0 33.74818711280518,35.40549113762135,0 33.74817925633616,35.40529953211279,0 33.74797472048125,35.40512450447566,0 33.74769922130094,35.4049849076904,0 33.74746177668067,35.40485815956652,0 33.74732613288614,35.40487245773458,0 33.74727329705542,35.4048964259323,0 33.74701467600712,35.40503918668382,0 33.74702784463329,35.4051842312531,0 33.74695130604253,35.40520212754303,0 33.74626724239083,35.40491858706402,0 33.7462602887914,35.40512077225817,0 33.7460863383083,35.40525287949353,0 33.7460140435666,35.40524820640675,0 33.74600845928462,35.40519582333691,0 33.74598009259292,35.40516349252589,0 33.74545704249566,35.40511779780917,0 33.74546642704335,35.40495462937504,0 33.74561760926883,35.40487981408818,0 33.74542505885779,35.40472271601337,0 33.74515965558557,35.40464476870373,0 33.74503911697421,35.40453808667417,0 33.74452852595078,35.40474692317345,0 33.74441707718933,35.40468192385762,0 33.74425100840889,35.40450661760421,0 33.74412711830751,35.40450216213742,0 33.74399693746327,35.40443897866072,0 33.74393686737114,35.40436750444032,0 33.74388180405492,35.40406090757863,0 33.74395361827692,35.40394116267654,0 33.74408980258669,35.40384765948932,0 33.74410872938038,35.40369687085608,0 33.74398187975265,35.40353049734228,0 33.74324067940876,35.40292781766775,0 33.74295712169413,35.40291596536215,0 33.74293545208614,35.40289677926437,0 33.74292350627184,35.4028862015702,0 33.74287081821159,35.40280556700604,0 33.74285117448738,35.40269832706578,0 33.74271726776273,35.40247467557154,0 33.74260111404663,35.40231412325106,0 33.74234488379851,35.40217444157724,0 33.74225514366673,35.40230312166809,0 33.74220690221964,35.40227884208397,0 33.74223406863055,35.4022393540678,0 33.74226148879013,35.40224808633505,0 33.74231491688204,35.4021548511781,0 33.74158519216272,35.40188915679491,0 33.741566091775,35.40188514951252,0 33.74135918364743,35.40181728387623,0 33.74098031390713,35.40186004826525,0 33.7407128678901,35.40195335788754,0 33.74053648165731,35.40201102841705,0 33.74040795330541,35.40202031057879,0 33.74024188280135,35.40198897380797,0 33.73999605936552,35.40209307181337,0 33.73989324627164,35.40210226258665,0 33.73983907913784,35.40205491151482,0 33.73985024060302,35.40196861795972,0 33.7400062023843,35.40188077851307,0 33.7400066470456,35.40188052791956,0 33.74001648438657,35.40187498748583,0 33.74001426138603,35.40187326241384,0 33.73975328347066,35.4016708031934,0 33.73961116635407,35.40161968488982,0 33.73929513318871,35.40172291161297,0 33.73929483025607,35.40172301081212,0 33.73927189745022,35.4017791227811,0 33.73920799965113,35.40193283952836,0 33.73916741282198,35.40194452774989,0 33.7390284539734,35.40233825458591,0 33.73904087782469,35.40249306177592,0 33.73897391018192,35.40253608429099,0 33.73890028943273,35.40273431999753,0 33.73872944663515,35.40290097594462,0 33.73865471162221,35.40288629673342,0 33.73846113165337,35.40267031975721,0 33.73843331597755,35.40258619980001,0 33.73825951163541,35.40243052222636,0 33.73794992780984,35.40215322380676,0 33.73795601777034,35.40204861004987,0 33.73787269828883,35.40197826805922,0 33.73794023095222,35.40188464669303,0 33.7379786829508,35.40178195788299,0 33.73804661131252,35.40172272299063,0 33.73820016169348,35.40146367060008,0 33.73823637452485,35.40124994537772,0 33.73823575334075,35.40113109262629,0 33.73819363308706,35.40100763074336,0 33.73813926562313,35.40092156741392,0 33.73802089454459,35.40081059711834,0 33.73784940444192,35.40069370127011,0 33.73737071021311,35.40052218645364,0 33.73714178514289,35.40052587310137,0 33.73699683732555,35.40056780745056,0 33.73689113251703,35.40065850648003,0 33.73683945397539,35.40076990060713,0 33.73681257135408,35.40109004604776,0 33.73680899073861,35.4011326843109,0 33.73675214665862,35.40114983297936,0 33.73677617590816,35.40120292246533,0 33.73661476599861,35.40142897054813,0 33.73652872347287,35.40147273627498,0 33.73576548656708,35.40113852760096,0 33.73573039285514,35.40108975063014,0 33.73553930480765,35.40103200615926,0 33.73539007822122,35.40104882616856,0 33.73517321267851,35.40113922965629,0 33.73503395418189,35.40115873044538,0 33.73403856385548,35.40148546975571,0 33.73398708670732,35.40147613999148,0 33.73404180184491,35.40082802261774,0 33.73420322465078,35.40060333706348,0 33.73416416786193,35.40042960428885,0 33.73432860452466,35.40014650037365,0 33.73424785489265,35.39993080392161,0 33.73431877739144,35.39985041638776,0 33.73433817375065,35.39975118940728,0 33.73397560923848,35.39925631352288,0 33.7339388352861,35.39888187891103,0 33.73388215858742,35.39882191342784,0 33.73382375067276,35.39878457676144,0 33.73377241915019,35.3987517623886,0 33.73359232136792,35.39871241655294,0 33.73344417900127,35.39872418363508,0 33.73316421377887,35.39878005487532,0 33.73306771386667,35.39873815658575,0 33.73270825802022,35.39849583614686,0 33.73243038712425,35.39822906764487,0 33.73236458467603,35.39813995771937,0 33.73233083420024,35.39787633706987,0 33.73226870852974,35.39770927276344,0 33.73200475279673,35.39745627703893,0 33.73164401112098,35.39691710242748,0 33.73156526495929,35.39674106995768,0 33.73144274753315,35.3965799475199,0 33.73138356081508,35.39652920325364,0 33.73128844630911,35.3964931899108,0 33.73115679195618,35.39641374283984,0 33.73113763715553,35.39629534908919,0 33.73113212141953,35.3961467399324,0 33.73130597050733,35.39595527043519,0 33.7311672217072,35.3958929323716,0 33.73080057092566,35.39571808368513,0 33.7305874914621,35.39563755479162,0 33.73046095890105,35.39562389215527,0 33.73001338347421,35.39571586061876,0 33.72992238665067,35.39566742150235,0 33.72989781822657,35.39565434361866,0 33.72987560054548,35.3956217842824,0 33.72978292613223,35.39548597432424,0 33.72978452955826,35.39532283474728,0 33.72980415598343,35.39510643217534,0 33.72981769967105,35.39505925057685,0 33.72964794204281,35.39501188283776,0 33.72961501406766,35.39499251442442,0 33.72960858561848,35.39498873335113,0 33.72954512557403,35.39495140434638,0 33.72953368739275,35.39494467638158,0 33.72945863070095,35.39486761487382,0 33.72934590117739,35.39472415065353,0 33.72929955614636,35.39467935689817,0 33.72919827591767,35.39462755779506,0 33.72909493806679,35.39460273746348,0 33.72898261560919,35.39453838959744,0 33.72890114509006,35.39449551389244,0 33.72878448405686,35.3944419693998,0 33.72864821675926,35.39441905989335,0 33.72842167754851,35.39434970837801,0 33.72821936740992,35.39429465803997,0 33.72799292115896,35.39424328608781,0 33.7278194238723,35.39424028266906,0 33.7277184290757,35.3942442233804,0 33.72751836114642,35.39419815558284,0 33.72732693007691,35.39412328704791,0 33.72719724311303,35.39409855522064,0 33.72715342460956,35.39411848363507,0 33.72706609012992,35.39421767955614,0 33.72698506827391,35.39426290814114,0 33.72681841576618,35.39431022745817,0 33.72670448289834,35.39436096278637,0 33.72655342883655,35.39445318125139,0 33.72642212858086,35.39454353483814,0 33.72634113350291,35.39459415828395,0 33.72624273640987,35.39467720672967,0 33.72615763313566,35.39478358582229,0 33.72613394294443,35.39487537068935,0 33.72614967887252,35.3949472421989,0 33.72626018808472,35.39508712010127,0 33.72636175008507,35.39519466186098,0 33.72629164820864,35.39522816632372,0 33.72610517345823,35.39526476246046,0 33.72593193992375,35.39531390117657,0 33.72585538108476,35.39537349937105,0 33.72579885186191,35.39548517587168,0 33.72574484421871,35.39566157540207,0 33.72569255163879,35.39574266899763,0 33.72563551057158,35.39575365112785,0 33.72528711816863,35.39547252814204,0 33.72499368025404,35.39520200674006,0 33.72490967109393,35.39509080809016,0 33.72488718302056,35.39498659250039,0 33.72484503341941,35.39490222442622,0 33.7244837249298,35.39467148963838,0 33.72429653512742,35.3945660343533,0 33.72400689726216,35.39417682106686,0 33.72381240347079,35.39392933782214,0 33.72367710160727,35.39366187377402,0 33.72345326500045,35.3932562533626,0 33.72343974665687,35.39318797086389,0 33.72323828048782,35.39286318932564,0 33.7232246700965,35.39277692550278,0 33.72306527998394,35.39252213000253,0 33.72285884628421,35.39208228557253,0 33.72259037229125,35.39157098900594,0 33.72255852102662,35.3915103278551,0 33.72251866817192,35.39147725787813,0 33.72245766121179,35.39135454034699,0 33.72221616660984,35.39119710767001,0 33.72160029295421,35.39087632863517,0 33.72128014923165,35.39051781742142,0 33.72116994866971,35.39039102588162,0 33.72110005295525,35.3904741812722,0 33.72079928117716,35.39036569018672,0 33.72085449944132,35.39028046472487,0 33.72076503999269,35.39016066697338,0 33.7207364932985,35.39014522056068,0 33.7205412323743,35.3900879465367,0 33.72019657551591,35.39000150120557,0 33.7198088312007,35.38992508942297,0 33.71974442189609,35.39008497721014,0 33.7193003504857,35.39002993408229,0 33.719046866751,35.38988807762733,0 33.71887068562762,35.38967743501021,0 33.71877585849065,35.38969188087349,0 33.71877811673569,35.38962546615108,0 33.71858183698813,35.38936331895906,0 33.71854272728356,35.38930551928954,0 33.71838804124769,35.38925305156691,0 33.71832905091135,35.38918754725705,0 33.71755759241039,35.38897464953661,0 33.71757811461606,35.38893784463999,0 33.71722404696982,35.38886555183333,0 33.71713927505517,35.38881991424057,0 33.71672912393858,35.38874639264711,0 33.71668042894535,35.38875591492337,0 33.71666659607394,35.38875374181347,0 33.71663639742324,35.38874899689574,0 33.7166135121925,35.38875998035335,0 33.7166097166191,35.38876180195545,0 33.71658901980056,35.38876285851563,0 33.71651354881817,35.38876671323889,0 33.71647044903406,35.38877392093766,0 33.71639971165336,35.3887748623064,0 33.71629295787394,35.3887960117555,0 33.71610131230373,35.38883398051151,0 33.71606336815449,35.38884157032215,0 33.71580988931466,35.38885617083564,0 33.71574405905636,35.38886462431357,0 33.71562256503362,35.38888022347721,0 33.71548503149933,35.38890988387922,0 33.71540035744095,35.38889454325129,0 33.71521878670284,35.38890804879019,0 33.71505888025641,35.3891102931209,0 33.715069114753,35.38916730942234,0 33.71409254762165,35.3892622262178,0 33.71391298019556,35.38934567778848,0 33.71379041074974,35.38938275785848,0 33.71375307155962,35.38937948484686,0 33.71351702366424,35.38927838706249,0 33.71348038730505,35.38924930335536,0 33.71331674884811,35.38919890461111,0 33.71323544391205,35.38919441822348,0 33.71316672570353,35.38921909536764,0 33.71297569951989,35.38916538944922,0 33.71276737449554,35.3891355123438,0 33.71253318978282,35.38907583564349,0 33.71241827538271,35.38898248754496,0 33.71232229069442,35.38885919313942,0 33.71221355307341,35.38867209718057,0 33.7118468396137,35.38864749390391,0 33.71172063431669,35.38861938174713,0 33.71151031792412,35.38852159138449,0 33.7111716850417,35.38830264888053,0 33.71100933597512,35.38817617471108,0 33.71098010941996,35.38813552019644,0 33.71083688076008,35.38801781243328,0 33.7106348523924,35.38791795634352,0 33.71054583033899,35.38786119573359,0 33.71039895792578,35.38784673475666,0 33.71009581980156,35.38776214979736,0 33.71005253035482,35.38772901111892,0 33.71008263159311,35.38760869903496,0 33.710072923661,35.3874885163692,0 33.70995678087291,35.38731231043536,0 33.709853729618,35.38709938588959,0 33.70965277183992,35.38687795170286,0 33.70958234244999,35.38689176481137,0 33.70949138031053,35.38694707481344,0 33.70945509772177,35.38699066071792,0 33.70940848295165,35.38729644162733,0 33.70939702556361,35.38766934671309,0 33.70937195901207,35.38780186756225,0 33.709319964518,35.38785433381299,0 33.70885786310478,35.38799778782148,0 33.70877184600753,35.38804696884995,0 33.70860864691014,35.38808621271478,0 33.70851953932304,35.38818226642635,0 33.70837068642274,35.38827240152924,0 33.70824063222534,35.38830542594646,0 33.70810046745282,35.38830588161471,0 33.70800738817326,35.38826747090562,0 33.70792580406678,35.38820457256341,0 33.70790500973819,35.38802126302156,0 33.70793323519626,35.38785545342335,0 33.70798322721696,35.38773168038923,0 33.70803679534371,35.38764256120829,0 33.70805562924184,35.38761123085926,0 33.70806854481263,35.38753783776426,0 33.70805006669921,35.3874903558198,0 33.70800170715962,35.38743753725112,0 33.70793261535783,35.38738546478358,0 33.7078683244949,35.38729670183901,0 33.70757870431675,35.3870911732448,0 33.7072990487108,35.3868876487884,0 33.70728564315136,35.38685984588665,0 33.70729384524865,35.38684080196899,0 33.70752488872579,35.38676805969375,0 33.70769292368598,35.38670027574207,0 33.70777884765926,35.38663207939075,0 33.70786207490656,35.38652042408241,0 33.70788151774585,35.3864252765834,0 33.70786526624759,35.38632345282834,0 33.70782999672087,35.38623323718241,0 33.7077800176207,35.38618857347596,0 33.70770769313543,35.38615349127475,0 33.70748016375394,35.38609514204917,0 33.70744040218799,35.38606168521185,0 33.70703514699971,35.38565376225814,0 33.70702331300747,35.38560761761115,0 33.70748890961875,35.3852994045207,0 33.70741854287243,35.38518728329361,0 33.7073527149532,35.38512365409908,0 33.70728723905675,35.38503212699328,0 33.70717873329932,35.38493120279703,0 33.70707453836547,35.38488141197245,0 33.70668707028521,35.38467687734167,0 33.70661600612532,35.38455893068846,0 33.70656225330581,35.38441919451685,0 33.70655723551247,35.38438056955496,0 33.7065593966573,35.38437193011499,0 33.70657904337111,35.38429335107371,0 33.70659796012121,35.38426068916054,0 33.70668448632578,35.38414562896676,0 33.70670501719398,35.38410345378207,0 33.70676526967713,35.38404349158142,0 33.70677833252692,35.38400066152576,0 33.70677147099179,35.38395382075318,0 33.70668956034065,35.3838223272214,0 33.70664084558368,35.38369547971737,0 33.70662900838761,35.383648654515,0 33.70652669803761,35.38349869978336,0 33.70644030249857,35.38342696012673,0 33.70642835319612,35.38341813459065,0 33.70642272975508,35.38340963170433,0 33.70635156316659,35.38338518590715,0 33.7063132322445,35.38336185687043,0 33.70623437855945,35.38333394789559,0 33.70612292670597,35.38326774903771,0 33.70602561165598,35.38319653528817,0 33.70583352225352,35.38301531400204,0 33.70575224117957,35.38293004086437,0 33.70564738873054,35.38286728852169,0 33.70550693565712,35.38279499949999,0 33.70543882648997,35.38277348631875,0 33.70524768229462,35.38269124372443,0 33.70519361891569,35.38265881781387,0 33.7050336370804,35.38250312418356,0 33.70494037362678,35.38242464085924,0 33.70478221568175,35.38230289995095,0 33.7046882471572,35.38225022794661,0 33.7043350977147,35.38212025406271,0 33.70427750930351,35.38210789878018,0 33.70421400088797,35.38210505385166,0 33.70414179545038,35.38211613132876,0 33.7040251546799,35.38215524094662,0 33.70393167185696,35.38220376261292,0 33.70378677588317,35.38230758939294,0 33.70369244563611,35.3824012715648,0 33.70365569748834,35.38241723124701,0 33.70344676908679,35.38235020316753,0 33.70336752246548,35.38233461873057,0 33.70297782758463,35.38230911620347,0 33.70279147234042,35.38229691987542,0 33.70269217414264,35.38228502998279,0 33.70262173090589,35.38225757897801,0 33.70260534021278,35.38223708118609,0 33.70261403016689,35.38219692424726,0 33.70268016129996,35.38208921518223,0 33.70269137414054,35.38205316182582,0 33.70268500605303,35.38202130194001,0 33.70264975588588,35.38199779787504,0 33.70251889878787,35.38193973951799,0 33.70241167600695,35.3819007171052,0 33.70230978700356,35.38187441497082,0 33.70219282914912,35.38185743644793,0 33.70200536662305,35.38181092288081,0 33.70192484953614,35.38179583791094,0 33.70188207573931,35.38178882063159,0 33.70180105629448,35.38175588278061,0 33.70168526942213,35.38172653766983,0 33.70160475549558,35.38171968268187,0 33.70156314997087,35.38168589656173,0 33.7015479657305,35.3816550801879,0 33.70153364741302,35.38158075518986,0 33.70151967893528,35.38153552369378,0 33.70150692280312,35.38147586538004,0 33.70149778472885,35.38139222370205,0 33.70147358633903,35.38129143206788,0 33.70143531030082,35.38116049452404,0 33.70144147208457,35.38110869789767,0 33.7014588696014,35.38103552454934,0 33.70149896545576,35.38097975965977,0 33.70153656674344,35.38089888143962,0 33.70154892777458,35.38082366331641,0 33.7015411373686,35.38074097103991,0 33.70149678032479,35.38063095757042,0 33.70139544215677,35.38042698387392,0 33.70128152446717,35.38022524453188,0 33.70121813472154,35.38011370005849,0 33.70117117731527,35.38000947919195,0 33.70109509630931,35.37982429778214,0 33.70098989140911,35.37960794808832,0 33.70096316449781,35.37954372970209,0 33.70089727120006,35.37944673201726,0 33.70085801300002,35.3793736854761,0 33.70081228549942,35.37924397257439,0 33.70075638242042,35.37913348405399,0 33.70064880052936,35.37899638271227,0 33.70059694747563,35.37892747600078,0 33.70045135368871,35.37872233300156,0 33.70035384236835,35.37860376152491,0 33.70017667580439,35.37842953718969,0 33.70008442525477,35.37835039066223,0 33.69979485480882,35.37811974985578,0 33.69966172920709,35.37802168425167,0 33.69947973920813,35.37789115987329,0 33.69913804140344,35.37767999632494,0 33.69899609589796,35.3775798186682,0 33.6989581179561,35.37754172560837,0 33.69891115564912,35.37745926510276,0 33.69888205136365,35.37743456521753,0 33.69880880479352,35.37741308066272,0 33.69875196954743,35.37739671275951,0 33.6987021260956,35.37737460786979,0 33.69862242613198,35.37731699657407,0 33.69856042559108,35.37726966013435,0 33.69850605664726,35.37724088880624,0 33.69846061074029,35.37723687732123,0 33.69825993048246,35.37723533496657,0 33.69809413358696,35.37724602756268,0 33.69781625110362,35.37726726863578,0 33.69781613782404,35.37726727740215,0 33.69780968253151,35.37726298279723,0 33.69763756827749,35.37714848495168,0 33.69722422168973,35.37688102026866,0 33.69678506274085,35.37662673381233,0 33.69679873121855,35.3765486404666,0 33.69626131305737,35.37639529389108,0 33.69620109871018,35.37639397245468,0 33.69561379659131,35.37623594035332,0 33.69527114142044,35.37618316904673,0 33.69456232978009,35.37635079371884,0 33.69455591149737,35.3764709958766,0 33.69442844732857,35.37654339573679,0 33.69433835286524,35.3765503338098,0 33.6942429141009,35.37652038142807,0 33.69422803138427,35.37649683083987,0 33.69426909697715,35.37624534269798,0 33.69407462804913,35.37609905856966,0 33.69396241626809,35.37590861689158,0 33.69338343295037,35.37534263905555,0 33.69284528698959,35.37517083161099,0 33.69258451003157,35.37518063617377,0 33.69254532158875,35.37525888887338,0 33.69251517496063,35.3754480576626,0 33.69230543460997,35.37546111592421,0 33.69211378267164,35.37539213387564,0 33.69195666821274,35.37520415397828,0 33.69165487011882,35.37510439346043,0 33.69118249338146,35.37504849790582,0 33.69110174039261,35.37499853015606,0 33.69104519770354,35.37454249174449,0 33.69123191384322,35.37435280627422,0 33.69001475389775,35.37381179057903,0 33.69037097863512,35.37336794623562,0 33.69000603533627,35.3731243396917,0 33.68974511503438,35.37309096331295,0 33.68965292395816,35.37321104648048,0 33.68956460434109,35.37327009685963,0 33.68948125050271,35.37321923608001,0 33.68923111741226,35.37297027957564,0 33.68913324699399,35.37288153555626,0 33.68901512979895,35.37282885908505,0 33.68846852925206,35.37268151485564,0 33.68736802047924,35.37237282466658,0 33.68723471703295,35.3723252731799,0 33.68708976547657,35.37223801386406,0 33.68696177155007,35.37212273321127,0 33.68681225249529,35.37190816836576,0 33.68637048487697,35.37147703397503,0 33.68624261911599,35.37123623144421,0 33.68615466756339,35.37102625547654,0 33.68587989580019,35.3708272223967,0 33.68573290247785,35.37049041496086,0 33.68571996049411,35.37042098069593,0 33.68574796677294,35.37021074921519,0 33.68584614990947,35.37000324262025,0 33.68583945343796,35.36993322309044,0 33.68581373128934,35.36966427241472,0 33.68561502245349,35.36963857939546,0 33.68544587720927,35.36952247324383,0 33.6851929467366,35.369383821447,0 33.68512667547596,35.36936765560175,0 33.68503015193303,35.36956437026485,0 33.68502401887564,35.36958894252453,0 33.68508446369248,35.36969719738567,0 33.68489362783686,35.36992320601122,0 33.68493334609725,35.36993599820597,0 33.6850740511204,35.36998131462629,0 33.6850371226455,35.37003770160991,0 33.68476347431083,35.37045221398296,0 33.6845085231008,35.37048720316294,0 33.68425800646906,35.37014670424711,0 33.6839504222846,35.37004333537497,0 33.68356945795527,35.36994016271104,0 33.68324951209275,35.36985351353838,0 33.68274753239272,35.36968693545403,0 33.68286194912112,35.36957814657364,0 33.68284295874165,35.36952193833749,0 33.68276789858316,35.36949556798604,0 33.68273343861926,35.36933301192602,0 33.68273620604432,35.36925537458725,0 33.68274230296611,35.36908439157865,0 33.68227351234712,35.3689916979392,0 33.68219263362347,35.36905946300269,0 33.6820541972799,35.36908683973955,0 33.68194224132677,35.36920446885851,0 33.68193325003462,35.36942546885064,0 33.6818044101888,35.36965910874981,0 33.68168207111562,35.36912034715162,0 33.6814147848703,35.36912013398988,0 33.68136637089065,35.36918577121508,0 33.68110187568291,35.36952723777419,0 33.68101181072398,35.36949682000595,0 33.68079866214877,35.36931536752229,0 33.68047457745324,35.36918335482006,0 33.6794070219939,35.36897992540101,0 33.67914442517346,35.36891115105887,0 33.67904306141376,35.3688674661198,0 33.67894757822432,35.36874294545365,0 33.67882494193898,35.36869011665254,0 33.67858546586397,35.36848520979517,0 33.67858398381567,35.36843303974788,0 33.67871425362306,35.36823827408475,0 33.67877742447154,35.36812043613097,0 33.67881452952122,35.36803950621351,0 33.67884390873186,35.36790642508748,0 33.67890500710148,35.36788373462092,0 33.67884591068213,35.36779593240549,0 33.67881828984891,35.36776379031576,0 33.67877930734613,35.36770457232574,0 33.67869404637992,35.36763117188201,0 33.67852622473021,35.36752835154955,0 33.67832043059541,35.36741445559995,0 33.6775371155079,35.36698604947316,0 33.6768749093809,35.36664838947926,0 33.6763413192465,35.36645365729012,0 33.67607821880991,35.36635763743664,0 33.67591732180182,35.3662839244266,0 33.67571256148531,35.36616043050416,0 33.67557133823981,35.36606642302898,0 33.67544486731244,35.36595685940974,0 33.6752784999802,35.36576310331891,0 33.67503651257638,35.36559992327614,0 33.67481259318615,35.36542589772213,0 33.67474159515137,35.36538429112269,0 33.67459808403991,35.3653310958933,0 33.67451568006719,35.36531717658911,0 33.67443830113542,35.36532212784777,0 33.67435276250918,35.36534396546607,0 33.67414968151731,35.36541235478639,0 33.67345987059869,35.36583393115446,0 33.67329267958991,35.36596032748234,0 33.67312667124261,35.3660858282577,0 33.67262081596468,35.36639758807272,0 33.67249754101237,35.36645191185975,0 33.67236101404242,35.36648873738317,0 33.67222606160415,35.36650937020548,0 33.67209756084546,35.36649895865787,0 33.67192602850166,35.36644010959353,0 33.67187480945172,35.36640248978613,0 33.67175556229382,35.36624905925102,0 33.67162046846446,35.36623731649042,0 33.67114043990436,35.36605661939064,0 33.67061775117656,35.36591111969187,0 33.67052836186257,35.36580616283031,0 33.67028490161314,35.36549256720869,0 33.67024008325636,35.36541176071916,0 33.67005478978552,35.36484169004678,0 33.66993519892635,35.36460866826322,0 33.66987226766761,35.36452791425985,0 33.66971388501542,35.36446227943958,0 33.66954574094114,35.36442365255922,0 33.66906320582168,35.36441966946017,0 33.66902363001329,35.36440764458047,0 33.66880211263322,35.36421404140964,0 33.66862218858816,35.36411744119163,0 33.6684557569203,35.36409364589651,0 33.66812992794644,35.36414855728874,0 33.66800820522038,35.36418128772966,0 33.6675424447736,35.36424739691352,0 33.66745033554646,35.36427329589896,0 33.66731032855544,35.36426695831209,0 33.66705346386463,35.36427580087571,0 33.66692181475291,35.3642977678742,0 33.66664516443641,35.36430127007885,0 33.66640951455544,35.36426553228069,0 33.6661618481409,35.36411651596605,0 33.66598500442958,35.3639699913846,0 33.66589559425961,35.36385828630424,0 33.66583073403886,35.36371143642204,0 33.66582849851697,35.36357519652945,0 33.66590259427277,35.36319187343099,0 33.6659479742151,35.36302311981493,0 33.66582742253827,35.36294522928961,0 33.66568182377099,35.36278782128321,0 33.66566568637931,35.36274133181886,0 33.66564972480959,35.36269534794423,0 33.66563354191133,35.36267427599877,0 33.66541869941171,35.36239452160731,0 33.66529252706648,35.36234969699809,0 33.66519850181556,35.36231287239402,0 33.66501011591614,35.36228000746453,0 33.66485241943401,35.36225249600267,0 33.66476498425877,35.36221632704353,0 33.66464401329026,35.36223185213089,0 33.6646185041915,35.36223546714037,0 33.66431633239554,35.36224117383784,0 33.66426953586836,35.36224205751105,0 33.66421263544333,35.36224313190227,0 33.66416572669906,35.36224401795474,0 33.66410963158949,35.36224507705538,0 33.66406209024569,35.36224597465617,0 33.66402871020144,35.36224660514355,0 33.66402841266375,35.36229989842468,0 33.66307712021893,35.36242640787147,0 33.66304377154363,35.36242630962111,0 33.66302789882344,35.36242626330535,0 33.66294539454891,35.3624424139057,0 33.66281884652933,35.3624576883431,0 33.66252544971411,35.36255682636168,0 33.66224663584323,35.36275119652617,0 33.66211677822707,35.36283894279974,0 33.66195086782071,35.36297969043348,0 33.66181959362536,35.36313231729041,0 33.66148774814989,35.3633462497674,0 33.66129949206507,35.36367105809687,0 33.66112377892116,35.36395920073894,0 33.660933634835,35.36403071856805,0 33.6606995132696,35.36406007505529,0 33.660715872605,35.36409711598298,0 33.66071738452209,35.3641468155761,0 33.66071209906483,35.36419254311075,0 33.66069671845467,35.36423956700161,0 33.66067892924342,35.36426310486386,0 33.66065565548892,35.36427269090697,0 33.66061298200616,35.3642880407936,0 33.66056561579007,35.36429451544767,0 33.66052211769234,35.36429590062878,0 33.66048322836497,35.36428140128552,0 33.66043945351819,35.36427380055072,0 33.66035394646593,35.36425688521437,0 33.66025992666152,35.36424951569544,0 33.66024040356604,35.36425904961936,0 33.6601525339681,35.36423198157934,0 33.66002875670341,35.36421509208962,0 33.65987230317342,35.36417859257948,0 33.65979127075911,35.36417051181721,0 33.65963042956034,35.36415570088924,0 33.65952916259334,35.36413746217355,0 33.65943491329719,35.36411984306754,0 33.65931597059458,35.36409095468222,0 33.65922309902697,35.36403394593919,0 33.6591530553019,35.36399476938613,0 33.65909548851179,35.36396952727733,0 33.65896464274947,35.36393918107462,0 33.65885424490318,35.36390963542091,0 33.65873500315349,35.36387678663964,0 33.65861140073447,35.36384664032936,0 33.65851715910492,35.36381892439611,0 33.65844175947197,35.36380198326951,0 33.6583233131155,35.36375267462736,0 33.65822743092278,35.36370325198279,0 33.65812555810606,35.3636673353254,0 33.65802756177155,35.36362950192623,0 33.65796530613991,35.36359601848724,0 33.65785616245467,35.36353066961348,0 33.65774934595226,35.36345688121403,0 33.65769757813787,35.36344227259295,0 33.6575796865101,35.36343275587917,0 33.65753038338397,35.36343387141738,0 33.65735256442944,35.36341008760492,0 33.65744403130791,35.3632474003802,0 33.65724169156815,35.36310862704259,0 33.65715466199097,35.36304237037097,0 33.6570399339433,35.36291191925891,0 33.65699959765901,35.36281862485795,0 33.65697746217127,35.36276620886358,0 33.65690322652905,35.3625811957296,0 33.65694091360673,35.36248957371656,0 33.65699706962948,35.36206709031207,0 33.65699186050546,35.3620094842324,0 33.6567656039524,35.36154373585381,0 33.65660672273151,35.36115711051225,0 33.65639862265494,35.3608750182561,0 33.65590137308146,35.36052052829712,0 33.65554808363685,35.36035069565292,0 33.65549236849546,35.36028780838807,0 33.65530490923725,35.36018936411131,0 33.65519125042471,35.36012460599486,0 33.65502591072322,35.35997186813544,0 33.65478112940812,35.35982206444304,0 33.65357751276954,35.35936922028673,0 33.65307386007397,35.35926081041057,0 33.65264325846487,35.35920439251255,0 33.65259713682391,35.35919118163631,0 33.65275687688972,35.35882502410298,0 33.65276568399719,35.35874961153339,0 33.65271971739905,35.35866280422204,0 33.65251946557563,35.35856284547501,0 33.65256712673749,35.3584587979955,0 33.65254601122969,35.35836648975655,0 33.65251891928519,35.35823208804538,0 33.65254797858898,35.35804183804528,0 33.65270257050358,35.35773034306801,0 33.65272357573077,35.35759716705903,0 33.65276956821198,35.35749108602883,0 33.65286858426143,35.35717499301644,0 33.65291460786291,35.35707638399338,0 33.65290386047432,35.35688488602089,0 33.65293507008427,35.35681280638526,0 33.65290051080618,35.35667774651752,0 33.65292181766886,35.35661724060233,0 33.65306876346056,35.35646197778338,0 33.653156383419,35.35639653189146,0 33.65318613203634,35.35617299902358,0 33.65351937016064,35.3557543738658,0 33.65358266377448,35.35562175768983,0 33.65363782428776,35.35552356045919,0 33.65367275323415,35.35546138262969,0 33.653651171351,35.35533610097194,0 33.65371980878994,35.35529911127089,0 33.65392404903894,35.35512489925841,0 33.65403615148083,35.3550751390493,0 33.65430425763994,35.35506633734794,0 33.65456758418721,35.35492185735824,0 33.65478849937895,35.3547073495162,0 33.65506753553733,35.35462722033556,0 33.6551554381586,35.35449818082796,0 33.65530546000661,35.35411713246625,0 33.65531645079324,35.35405960424405,0 33.65499682626141,35.35383396716122,0 33.65489851891612,35.35382504466148,0 33.65481028794945,35.35387588866337,0 33.65463702907711,35.35407186346075,0 33.6545371772607,35.3540295952695,0 33.65455521114584,35.35397779944937,0 33.65446936763877,35.35392859331423,0 33.65429949908717,35.35392791943356,0 33.65428382121436,35.3538716172965,0 33.65418947913805,35.35380403686107,0 33.65388568824283,35.35367034493574,0 33.65383132106201,35.35376249261623,0 33.65361467302987,35.35365385585459,0 33.65348222812558,35.35353808351233,0 33.65347219433535,35.35348866414544,0 33.65364502359571,35.35318919783538,0 33.65368910330701,35.35298668707454,0 33.65362428651368,35.35259244203225,0 33.65367634464345,35.35228411489054,0 33.65366373284751,35.35195297082522,0 33.65372907875513,35.35180099670221,0 33.65361963590401,35.35181395249916,0 33.6533102534778,35.35202180587424,0 33.65294994262202,35.35213550574009,0 33.65245632476699,35.35226337606636,0 33.65194297434677,35.35237290096354,0 33.65190483425117,35.35197743119075,0 33.65185663684965,35.35186487199904,0 33.65185591123305,35.35169008492755,0 33.65191926520274,35.35139552614994,0 33.65205618525353,35.35056144494601,0 33.65234500263649,35.35047324541758,0 33.65245026865918,35.3504683516231,0 33.65281328075198,35.35033049673525,0 33.65333291211347,35.35004731047151,0 33.65356795635526,35.34985691446528,0 33.65385799545158,35.34972616070824,0 33.65394218425998,35.3497167250338,0 33.65393679626163,35.35010771748068,0 33.65400307158892,35.35017882742946,0 33.65402068020889,35.35036161643067,0 33.65439402678482,35.35034562103487,0 33.65445503902479,35.35016490948193,0 33.65464457818283,35.35017127867881,0 33.65502177699777,35.3500701733594,0 33.65512902557082,35.34986863472962,0 33.65525917320134,35.34977167340396,0 33.65522984863725,35.34947392511619,0 33.65506912026492,35.34930763618203,0 33.65523595232526,35.34925542038546,0 33.65517187640387,35.3490394142615,0 33.65497815298848,35.34903880838781,0 33.65477563565725,35.34894968256367,0 33.65467549586516,35.34883727061902,0 33.65482644347441,35.34867930595387,0 33.65493448900254,35.34866865330881,0 33.65510060948883,35.3487820297422,0 33.65544804319661,35.34861431284586,0 33.65563410611227,35.34846199754041,0 33.6557743223532,35.34842365483384,0 33.65583904459616,35.34845912087059,0 33.6560755054699,35.34827446476461,0 33.65621041154679,35.34830858247627,0 33.65631714955311,35.34832093110099,0 33.65648561838324,35.34832505479595,0 33.6566370688973,35.34828782994931,0 33.6566426672054,35.34826304919122,0 33.65666496492688,35.34816436293083,0 33.65672539314385,35.34817097146174,0 33.65686706983297,35.34821598961327,0 33.65703716048355,35.34813144991946,0 33.65717679900315,35.34808563648635,0 33.65752153106901,35.34801551548865,0 33.65747946668697,35.34785090605295,0 33.65742787354251,35.34738872863992,0 33.65710098019512,35.34717543891567,0 33.65706394982175,35.3470270840438,0 33.65704941273491,35.34691527317131,0 33.65706128711212,35.34678779466169,0 33.65740159860203,35.34684784312085,0 33.65744647769989,35.34689516811633,0 33.65772987525732,35.34680081636323,0 33.65796797976669,35.34675675652554,0 33.65798485257643,35.34663807680425,0 33.65781658782852,35.3465660188251,0 33.65794242547938,35.34638737639505,0 33.65801244895718,35.3463153211485,0 33.65808336332238,35.34625817665972,0 33.658285920996,35.34622235163014,0 33.65877893338361,35.34600063600428,0 33.6590254196345,35.34578775389657,0 33.65925036216787,35.34556781488959,0 33.65927275020591,35.34538404227017,0 33.65925839566449,35.34531561565289,0 33.65927487577635,35.34529997736616,0 33.65951708591273,35.34524980163441,0 33.65953764264398,35.34521991495708,0 33.65979807080929,35.345173754853,0 33.65986409891499,35.34513560414186,0 33.66065526935183,35.34440427077439,0 33.66081810774945,35.34436855494602,0 33.66089728869068,35.34431070652627,0 33.66115494410515,35.3443913173645,0 33.66117495108407,35.34442651046683,0 33.66112062744596,35.3446869778865,0 33.66135258175561,35.3447547808702,0 33.6614994385911,35.34465742215516,0 33.66162269461754,35.34445844550489,0 33.66237344803886,35.34472880507889,0 33.66222849162492,35.34507698213176,0 33.66218726139558,35.34530283917355,0 33.66220899030142,35.34535361883371,0 33.66229490049985,35.34532151143691,0 33.66250203892342,35.3451968616334,0 33.66274329058196,35.34531005465841,0 33.6627057892043,35.34544031789046,0 33.66297092892354,35.34543305380799,0 33.66359777574979,35.34541587650086,0 33.66492727238285,35.34538622929797,0 33.66603213656941,35.34535925661249,0 33.66717431032625,35.34533420321734,0 33.66725381637747,35.34531767154136,0 33.66760659412629,35.34523650072753,0 33.66846370351681,35.34504246997987,0 33.66925951893057,35.34486015938752,0 33.67008599485438,35.34467639457969,0 33.67116918601464,35.34443549788712,0 33.67135587157867,35.34445771885571,0 33.67169982606879,35.34408585363428,0 33.67187093267196,35.34416481331466,0 33.67225118328139,35.34411275232001,0 33.67230028385851,35.34415675384768,0 33.67242371878761,35.34451635547373,0 33.67250735908678,35.34468590302013,0 33.67286076144306,35.34474870143394,0 33.67331612421531,35.34481119680156,0 33.67338000201551,35.34482255318311,0 33.67351729180851,35.34475151137011,0 33.67344558322732,35.34446850568479,0 33.6736783159413,35.3444236697254,0 33.67406782701415,35.34440417598201,0 33.67436095946013,35.34452148298843,0 33.67446694647137,35.3446821333891,0 33.67432150848719,35.34478512251766,0 33.67427695004214,35.34483143847929,0 33.67422191197041,35.34494434645716,0 33.67457363571793,35.34500171042832,0 33.67525216310435,35.34510428632276,0 33.67586017317659,35.34519348359817,0 33.67624696487049,35.34525362017304,0 33.67803501768611,35.34553159830868,0 33.68442393825229,35.34647793492979,0 33.68527749797618,35.34659743707223,0 33.68677161782946,35.34680717234475,0 33.68831291463781,35.34702422067431,0 33.68835843227003,35.34702771830918,0 33.68868709986889,35.34705297058704,0 33.68953237745691,35.34709229627403,0 33.68961855246432,35.34709630510839,0 33.69361955063429,35.34726207330549,0 33.69863737925195,35.34813715395712,0 33.70281795792395,35.34886604807847,0 33.70399619617346,35.34907144822655,0 33.71182256290665,35.34985881552767,0 33.7120112088324,35.3498649756045,0 33.71205257357088,35.34986670408409,0 33.71610128664987,35.35003578935815,0 33.7293817189614,35.35058945765612,0 33.73377314000342,35.35078616271021,0 33.73415231505447,35.35080314005307,0 33.7426626063091,35.35116879951579,0 33.74584525903151,35.35130539208426,0 33.74674979305876,35.3496059254779,0 33.75553720401812,35.350970473061,0 33.75593975063857,35.35104497185349,0 33.75636085472883,35.35112290268446,0 33.76084760899461,35.35184232701442,0 33.76856886182428,35.35303612389158,0 33.76922923826502,35.35311075192798,0 33.77013759999465,35.35321339760122,0 33.77099975633639,35.35331081494169,0 33.78184209483067,35.35505376071416,0 33.78210270870915,35.35509564292115,0 33.78242368685105,35.3551472243685,0 33.78251917957738,35.35515915828137,0 33.78291384290368,35.35520848115205,0 33.78611982830853,35.35567716662828,0 33.78700502552822,35.35615949653643,0 33.79027808648695,35.35789688490577,0 33.79239002519247,35.35902283068069,0 33.79583167380764,35.36087499907796,0 33.79844896478684,35.36228340508617,0 33.79869285096818,35.3624146390804,0 33.80913852018269,35.36537696907843,0 33.81477078812807,35.36697377869104,0 33.82242946373503,35.36707657108745,0 33.83571107682359,35.36725368124865,0 33.83763761949329,35.36727925037248,0 33.83915073688433,35.36753087215131,0 33.839265342819,35.36754992917025,0 33.83926192283619,35.36756003081737,0 33.83925910077841,35.3675683652886,0 33.83924127018514,35.3684693001271,0 33.83922117561232,35.36936553474256,0 33.83920079311841,35.37027458648859,0 33.83917877108729,35.37116538922881,0 33.83915659347451,35.37203555583009,0 33.83913553315403,35.37307756768994,0 33.83911239722425,35.37419730282483,0 33.83908801165418,35.3751719081697,0 33.83904789138757,35.37661826038421,0 33.83891672651936,35.38134642416638,0 33.84246482818299,35.38214599718624,0 33.84207019927442,35.38267746995441,0 33.84222544380798,35.38308429311611,0 33.84206702603502,35.38320995153419,0 33.84193668219775,35.38357183700649,0 33.84173413215119,35.38354283629781,0 33.8416064052512,35.38385910716542,0 33.84159805931944,35.38387977080264,0 33.84139622148212,35.38451359175074,0 33.84100490233391,35.38487951523081,0 33.84074484114094,35.38516527661598,0 33.84057918918852,35.38527661158682,0 33.84035724141788,35.38534367571224,0 33.84022150056082,35.38549534884084,0 33.83982068238011,35.38541345411487,0 33.83959770755295,35.38557629750414,0 33.83934627366032,35.38566911763617,0 33.83913400050036,35.38570376147104,0 33.83893677655846,35.38577341387212,0 33.83877431007075,35.38586854523749,0 33.8386782817825,35.38604837274106,0 33.83865690333097,35.38630881415214,0 33.83856253933656,35.38623637874569,0 33.8384414988652,35.38585919479912,0 33.8383872370819,35.38561931509091,0 33.83777462314593,35.38564624699043,0 33.83762548680208,35.38602055420145,0 33.83761497337517,35.38617842802487,0 33.8377032692458,35.38633182751813,0 33.83779784079185,35.38643663733429,0 33.83797772951782,35.38648846863428,0 33.83810376322848,35.38661877245043,0 33.83811173914257,35.38683322212386,0 33.83803318983701,35.38716945335117,0 33.83786807294032,35.387109463541,0 33.8377198527641,35.38711550105211,0 33.83774886901944,35.3870169016425,0 33.83767077802859,35.38691336919785,0 33.83748179632302,35.3869843321229,0 33.83730795646643,35.38684883830561,0 33.83712621070949,35.38676463920052,0 33.83698649709591,35.38681245609197,0 33.836831585795,35.38680233280151,0 33.83667124966906,35.38697299407908,0 33.83671288137558,35.3870429605751,0 33.83644351215349,35.38716552951074,0 33.83630859354928,35.38744669507155,0 33.83643278037056,35.38754598212774,0 33.83656151909631,35.38758454591611,0 33.83702431545017,35.38756905871146,0 33.8368946507162,35.38764246337292,0 33.83679026629419,35.38780478828154,0 33.8367779652816,35.38794108642819,0 33.83664839462058,35.38802932800536,0 33.83651839873816,35.38805147184571,0 33.83634199125466,35.38802930078071,0 33.83616881908227,35.38799767275649,0 33.8361644926651,35.38809346719116,0 33.83595610306099,35.38822116791835,0 33.83585642883335,35.38858797127707,0 33.83584832445969,35.38862466043977,0 33.83583250167403,35.38869629741129,0 33.83582402630199,35.38875133137144,0 33.83584968720066,35.38883664395787,0 33.83590523547331,35.38902131966918,0 33.83585151741624,35.38912145686488,0 33.83581358866306,35.38919215976109,0 33.83585314145328,35.38937433587407,0 33.83592613896158,35.38971054816917,0 33.8360825129731,35.3899472903859,0 33.83613373716651,35.39022765307402,0 33.83602159641509,35.39046555317331,0 33.83596080987766,35.39049144563437,0 33.83591566443144,35.3906440724223,0 33.83609148779071,35.39083081978799,0 33.83621353762317,35.39085322593321,0 33.83630789550057,35.39092431473897,0 33.83674221455259,35.39108836211336,0 33.83741882935166,35.39101664212927,0 33.83756262502757,35.39109021382677,0 33.83785720487413,35.39104307536134,0 33.83803191761277,35.39105715829311,0 33.83808780693119,35.39112638629096,0 33.83819032577033,35.3912533738378,0 33.83900047624086,35.39161456462763,0 33.83915622505695,35.39163693743623,0 33.8391787777724,35.39154058011555,0 33.839323193041,35.39160231893948,0 33.83942748654979,35.39160322300032,0 33.83943486025235,35.39146354736766,0 33.83950202704209,35.39135479393272,0 33.83953285406672,35.39125840157772,0 33.83966686402541,35.39124697412358,0 33.8396424298889,35.39130808969517,0 33.83966739985145,35.39132967352787,0 33.83975824018404,35.39129809647405,0 33.83964489160997,35.39143280868781,0 33.8396227961233,35.39159966373324,0 33.83946751619295,35.39190538413276,0 33.83930911456217,35.39198504443986,0 33.83930393147006,35.39207929274978,0 33.8394223601721,35.39234586335454,0 33.83942101528249,35.39239399870966,0 33.83933526277855,35.39244453404687,0 33.83919505593853,35.39264986294133,0 33.83920852212436,35.39268437624224,0 33.83927086503086,35.39272545602884,0 33.83943543736995,35.39283184751024,0 33.83941217746797,35.3930746293171,0 33.83942743075366,35.39312947155242,0 33.83954716462306,35.39321368787054,0 33.83949934452944,35.39337048514096,0 33.83938873054621,35.39392818375748,0 33.83947374262957,35.39414677027493,0 33.83930866346832,35.39434610515596,0 33.8391694104327,35.39444364636159,0 33.83906158897458,35.39453766118412,0 33.83895326691122,35.39468252020872,0 33.83894721547898,35.39477067064191,0 33.83890380274629,35.39484135844905,0 33.83902142481854,35.39511064523095,0 33.83912376535403,35.39519290244471,0 33.83919236554041,35.39530513358363,0 33.83909116453543,35.39565535884658,0 33.83905090168555,35.39570095142761,0 33.83898903465367,35.39573375805851,0 33.83852315670698,35.39575407950715,0 33.83844960865374,35.39577270058493,0 33.83828732650306,35.39602150795789,0 33.8382883021935,35.39617267071723,0 33.83835308182736,35.39633440411531,0 33.83840824474407,35.3964168667431,0 33.83857647991385,35.39657679580835,0 33.83864965943644,35.39662935307699,0 33.83865503811094,35.39669305106561,0 33.83863304026748,35.39687549645774,0 33.83847471546765,35.3970964928684,0 33.83831089608055,35.39723616803694,0 33.83830401319068,35.39693928661536,0 33.83821682406347,35.39676815995006,0 33.83813134993192,35.39673463562821,0 33.8378297699921,35.39669052249068,0 33.83749202013728,35.39668520414395,0 33.83728659334339,35.3967904856577,0 33.83687403930269,35.39673735977818,0 33.83655027649639,35.39671909874535,0 33.83609956617245,35.39703964665719,0 33.83608154052944,35.39693939763265,0 33.83605401075568,35.39664870508457,0 33.83589993484054,35.39665510458187,0 33.83520060661137,35.39668414903954,0 33.83513917015807,35.39680462559409,0 33.83508040072421,35.39682389507087,0 33.83491306316657,35.39698693642755,0 33.83481936938204,35.39712181380056,0 33.83468901116461,35.3973600826498,0 33.83475409055249,35.39754861266806,0 33.83475624579044,35.39762602803127,0 33.83469686641675,35.39780897802672,0 33.83456908225886,35.39780205717469,0 33.83454889824591,35.39788839778883,0 33.83455352513271,35.39796308665756,0 33.83431698998831,35.39794236925645,0 33.83429159446448,35.39799205870383,0 33.8340570106355,35.39801683672311,0 33.83402111590846,35.39811071634976,0 33.83378758320453,35.39817080548096,0 33.83371919549383,35.39839716337351,0 33.8337111422931,35.39842382011413,0 33.83325207746999,35.39855162364362,0 33.83323263163066,35.39862951251737,0 33.83298164160004,35.3986401938535,0 33.83268815447283,35.39860975299489,0 33.83266256133655,35.39851893133281,0 33.83264860693423,35.39840175275813,0 33.83263273334499,35.39826846338944,0 33.83232038167155,35.39832549302313,0 33.83216164632843,35.39827795141823,0 33.83211665538217,35.39824690203491,0 33.83197050331355,35.39809131854181,0 33.83186034662828,35.39811691894576,0 33.83161993601587,35.39813900131303,0 33.83133508797334,35.39808656363063,0 33.83126335440262,35.39776358719497,0 33.83117311715793,35.39779113919261,0 33.83110829308357,35.39777171974642,0 33.83099749007606,35.3976961261686,0 33.83066916000231,35.39771858159647,0 33.8302855663601,35.39765977196254,0 33.82984078245798,35.39789224485365,0 33.82951613409305,35.39758053077114,0 33.82944865617697,35.39753463474184,0 33.82894404042575,35.3976193001451,0 33.82837950612925,35.39767331697914,0 33.82827188885651,35.39783813170826,0 33.82793998408407,35.39782052356071,0 33.82771339180777,35.39779771507891,0 33.82763304290249,35.39781503410198,0 33.8275827370104,35.39786143170301,0 33.82743344761283,35.39799518176731,0 33.82740068514281,35.39806119931319,0 33.8274612702506,35.39806637530875,0 33.82786495496712,35.39802323482964,0 33.82797658761329,35.39796842731531,0 33.8281191265288,35.39794744683142,0 33.82826671847966,35.39793866989206,0 33.82832416644604,35.39797238528244,0 33.82850774685853,35.39814479236951,0 33.82813963283319,35.39830392220392,0 33.82820904079832,35.39842068509589,0 33.82826469655721,35.39851431117249,0 33.82913225816929,35.3986071603291,0 33.82907517337744,35.39885522971355,0 33.82892631263371,35.39887603388689,0 33.82892202238661,35.39893944987045,0 33.8290335449066,35.39895050285185,0 33.8291745279728,35.39898256196983,0 33.82942136373165,35.39905643545056,0 33.82962012673917,35.39913435571519,0 33.83003915796651,35.39935157996139,0 33.83010378997805,35.39936859381805,0 33.83018237996849,35.39936633846813,0 33.83027386124319,35.39936210615792,0 33.83043564542012,35.39934412639939,0 33.83052958257618,35.39935717367023,0 33.83069546198686,35.39942946856323,0 33.83077190594746,35.39945892040057,0 33.83084945680412,35.39947780000416,0 33.83128746362452,35.39954220917681,0 33.83129982151872,35.39982456167255,0 33.83142910030747,35.40022840732023,0 33.83145516070508,35.40026767945413,0 33.83150230693607,35.40030205819106,0 33.83190035521576,35.40053857641409,0 33.83213821218965,35.40067492007664,0 33.83246422837288,35.40083778144835,0 33.83274313044661,35.4009710658033,0 33.83283013543158,35.4010004705462,0 33.83295813994651,35.40102009421899,0 33.83313645589837,35.40101836870475,0 33.83336062409477,35.40103181606074,0 33.83344769737992,35.40107178625421,0 33.83357951658058,35.40113749983127,0 33.83387953154091,35.40126972998938,0 33.83388809630902,35.40150791393265,0 33.83399144060404,35.40152379945024,0 33.83444844824994,35.40162173437328,0 33.83436966975802,35.40177768519695,0 33.83414984572761,35.40207640382373,0 33.83400321165265,35.40226242287266,0 33.83378769148108,35.40268407592878,0 33.83375355207696,35.40266597119299,0 33.8334121465625,35.4028499429707,0 33.83310836701452,35.40341413627328,0 33.83345963029857,35.40348659329367,0 33.83375710804484,35.40340462958979,0 33.83403357892992,35.40334004556127,0 33.83416168629924,35.40337503589711,0 33.83434420487482,35.40347895309694,0 33.83454419206913,35.40356262338758,0 33.83471585759726,35.40362048011264,0 33.83492957855191,35.40365029826137,0 33.83529120428483,35.40369196798044,0 33.83562696622963,35.40372510233227,0 33.8359456833599,35.40377102109073,0 33.83618210625781,35.40380508382473,0 33.83665501953649,35.40384399333139,0 33.83678562864489,35.40393147176448,0 33.83716639705877,35.40403015513816,0 33.83742671778084,35.40406588490721,0 33.83762977156785,35.40414076419744,0 33.8380084500659,35.40430292604982,0 33.83832254636116,35.40453293413781,0 33.83851148437225,35.40474505533228,0 33.83875542812456,35.40495489063664,0 33.83904475761227,35.40522185858781,0 33.83967151795549,35.4054586968569,0 33.83986657167772,35.40545580213556,0 33.84037828389877,35.40562034013087,0 33.84055119057485,35.40567593642356,0 33.84040292881441,35.40621097144973,0 33.84081536869819,35.4062396468349,0 33.84082534155304,35.40645289101817,0 33.84089989670795,35.4064713171458,0 33.84096671391979,35.40706166814264,0 33.84131544504942,35.406978115759,0 33.84150288377065,35.40674526150271,0 33.84193422481833,35.40659806534045,0 33.84214212609614,35.40643074774923,0 33.8422484322406,35.40648887900177,0 33.84198178383993,35.40686739615404,0 33.84165591100628,35.40738445682754,0 33.84144086278926,35.40733382917775,0 33.8413381660076,35.40739052831162,0 33.84134788049255,35.40756392888304,0 33.84148651627288,35.40775082923903,0 33.8413666274059,35.40780525963623,0 33.84141319423908,35.40792224759385,0 33.84138784012644,35.40798564115183,0 33.84140012823512,35.40811449692425,0 33.84152487695552,35.40836708589891,0 33.84172081782619,35.40856076850118,0 33.84188991093394,35.40858815686645,0 33.84183939987651,35.40874541331215,0 33.84161999384646,35.40890574857497,0 33.84148642845096,35.40905867852371,0 33.84136883779444,35.40902637729221,0 33.84126322873354,35.40907605722435,0 33.84122419888804,35.40923795012466,0 33.84108419011595,35.40928074894606,0 33.84051990781826,35.4092386712812,0 33.84013565614171,35.40914424574496,0 33.83987429686831,35.40901647044206,0 33.83969391911621,35.40901490975392,0 33.83945794787576,35.4088284297442,0 33.83920301355114,35.40880844133113,0 33.83916058516556,35.40888831499598,0 33.83885060493336,35.40876778038729,0 33.83851872145858,35.40880203189178,0 33.83836355068227,35.40871363895103,0 33.83824341525809,35.4087305661247,0 33.83802913716985,35.40879946484343,0 33.83783461149567,35.40882374437453,0 33.83770867496295,35.40882897677729,0 33.83737246296148,35.40863589426168,0 33.83709106883779,35.40850819950687,0 33.83705564806068,35.40878726763408,0 33.83695840106217,35.40880175001727,0 33.83688747806211,35.40890284039153,0 33.8367698882755,35.40887053466049,0 33.83688049865712,35.40870833374579,0 33.83638752424319,35.40862374038662,0 33.83643513364981,35.40801414316907,0 33.83653766323952,35.40748634206296,0 33.83623111335861,35.40745250788449,0 33.83596897930303,35.40739357608674,0 33.83570654769029,35.40733457817547,0 33.83563645999578,35.40763789380255,0 33.83591943354366,35.4077342894082,0 33.83575387350923,35.40825629432972,0 33.83570283821499,35.4085608841995,0 33.83555649983511,35.4085954083099,0 33.8354463964184,35.40859927235546,0 33.83534594789236,35.40855903208227,0 33.83519118092423,35.40844174624535,0 33.83508907217694,35.40840083492481,0 33.8348122378031,35.4086162371831,0 33.83468264213086,35.40867916006052,0 33.83437582738362,35.40873877619413,0 33.83420086655862,35.40870021151623,0 33.83364531426322,35.40857922228956,0 33.83331774205389,35.40837116158103,0 33.83300461842644,35.40822133655819,0 33.83279653835346,35.40857133687548,0 33.83272641509735,35.40861163326021,0 33.83257083287465,35.40862517851908,0 33.83244208014928,35.40869080711438,0 33.83234778272694,35.40870612443307,0 33.83206858977996,35.40868291532016,0 33.83209907447649,35.40852958370726,0 33.83187950762527,35.40850747488903,0 33.83171786621971,35.40847969488382,0 33.83164081679354,35.40834309172624,0 33.83131323596433,35.4083926219265,0 33.83133482994012,35.40853285091914,0 33.83115384478014,35.40871800775061,0 33.83101692715958,35.4088019728124,0 33.83088545510382,35.40870085153998,0 33.83085524080671,35.40863725924653,0 33.83091079695576,35.40838959470636,0 33.83088538175009,35.40816939115879,0 33.83122645127929,35.40815776690178,0 33.83123510270915,35.40769609185646,0 33.83127593081183,35.40747628331663,0 33.83130869119645,35.40741987937958,0 33.83140584051378,35.40733269506382,0 33.83145486371087,35.40722944758028,0 33.83146080863845,35.40712299404328,0 33.83138070867358,35.40702707634748,0 33.83124359615263,35.40707985949237,0 33.83122885745552,35.40684605344337,0 33.83108474948603,35.40684056721511,0 33.83096783424936,35.40668447608704,0 33.83132064927698,35.40669788291608,0 33.83137062373818,35.40648413593868,0 33.83121553987464,35.40644548143583,0 33.83128094740662,35.40605474108256,0 33.83090319140659,35.40615532551139,0 33.83087264911662,35.40577990831454,0 33.83097897932655,35.4056608349953,0 33.83107236275171,35.40555625942451,0 33.83121643626237,35.40533471467415,0 33.8313993669957,35.40513509679025,0 33.83152024427338,35.4049559155032,0 33.83164322199091,35.4047383019788,0 33.83108422040036,35.40447077165956,0 33.83095875875529,35.40448283485817,0 33.83080432093596,35.40455073312223,0 33.83070283117245,35.40464242015874,0 33.83069584782398,35.40483552359928,0 33.830669609212,35.40495282368385,0 33.83061731659071,35.40503181317221,0 33.83046361602949,35.40521593684507,0 33.83055863703142,35.40539803840981,0 33.83030181362326,35.40541738381489,0 33.83023314253902,35.40531969944358,0 33.83017379644333,35.405212368833,0 33.83005134602311,35.40514469081327,0 33.8299219615833,35.40509337179427,0 33.8298450569871,35.40462302316899,0 33.82983055657316,35.40455680606824,0 33.82969417718881,35.40432781204439,0 33.82955590835644,35.4043552970971,0 33.82945882393324,35.40440181661969,0 33.82930488459273,35.40454847824131,0 33.8294014110223,35.40478340585949,0 33.82937771133356,35.40493143372672,0 33.82931654972388,35.40509210767625,0 33.82931007035935,35.4051805074588,0 33.82961955213671,35.40550866330423,0 33.82972305106583,35.40566619005021,0 33.82976279734678,35.4057266814882,0 33.82977999391265,35.40582693434457,0 33.82981881355172,35.40594200983503,0 33.83007265461529,35.40627715800247,0 33.8300921894145,35.40648450770806,0 33.83012930151522,35.40659145394945,0 33.82994660953843,35.40676848258703,0 33.82991804387637,35.40696383524344,0 33.8300682523924,35.40714757871349,0 33.83004758844046,35.40728324379563,0 33.83023597978525,35.40748173818279,0 33.83027956101333,35.40756425424565,0 33.83027619796615,35.4078164404945,0 33.82998636602108,35.40781225296446,0 33.82996085317893,35.40796691905165,0 33.82986758127131,35.40814356650194,0 33.82960184420276,35.40828298638429,0 33.82942941713868,35.40877315159717,0 33.8292581476415,35.40892437120107,0 33.82910473231813,35.40901857118158,0 33.82895279934668,35.40908565041716,0 33.82884174382978,35.409069853243,0 33.82881061534204,35.40912285989629,0 33.8288560929576,35.40924332950576,0 33.82876298073923,35.40944573517174,0 33.82864919800332,35.40952214155129,0 33.82833329145995,35.40958584904664,0 33.82827146078995,35.40949798724785,0 33.82810427975606,35.40951089875955,0 33.82762126044033,35.40986002416413,0 33.82731505039602,35.40988572714169,0 33.82727148510072,35.41032924658615,0 33.82760819282164,35.41015021402122,0 33.82808749265688,35.41025935233896,0 33.82880425547412,35.41020885621292,0 33.82888528900367,35.410190886309,0 33.82911226158143,35.41020483407591,0 33.82943234212352,35.4102766828796,0 33.82984189950805,35.41035628498064,0 33.83008943491219,35.41047860500406,0 33.83019880209095,35.41048898477556,0 33.83035602258367,35.41047204587072,0 33.83051703956222,35.41053101185668,0 33.83060817411438,35.41053875854472,0 33.83075277863718,35.4111414567803,0 33.8306997770833,35.41154159779516,0 33.83063433752286,35.41152699918108,0 33.83041061858233,35.411504227691,0 33.83017277418752,35.41147405917852,0 33.83004841862536,35.4114508635658,0 33.82993469413287,35.41140660807895,0 33.829771347552,35.41137205378344,0 33.82956829553743,35.41134376948179,0 33.82923794514613,35.4113505988572,0 33.8290119619646,35.41136240652896,0 33.82897390376043,35.41136731323999,0 33.82894919954056,35.4113891103448,0 33.82889438939712,35.41146246495015,0 33.82863123450055,35.41161604389222,0 33.82853554448754,35.41170879612671,0 33.82848955683678,35.41176932350974,0 33.82843886190675,35.41187122110951,0 33.82838950748952,35.41192295017839,0 33.82833256238782,35.41195301901978,0 33.82822256125561,35.41197382181502,0 33.82804626697126,35.4119867723357,0 33.82783509952509,35.4119849580088,0 33.82774393486455,35.41197246481548,0 33.82743889639803,35.4119229175399,0 33.82724733208482,35.41187831127647,0 33.82687973773247,35.41175717163091,0 33.82662671632247,35.41168384584667,0 33.8263595643537,35.41165637341453,0 33.8258553662336,35.41161576216233,0 33.82563852418809,35.41163294779277,0 33.82510015286037,35.411743004423,0 33.82506131258565,35.41175537019353,0 33.82492143328447,35.41189696018493,0 33.82483844411329,35.41199878394121,0 33.82478430552828,35.41209555512437,0 33.82478383975643,35.41212980184859,0 33.8248586269637,35.4122905391346,0 33.82485720123589,35.41234802253639,0 33.82483106605976,35.41240575401175,0 33.82477014195456,35.41246159681036,0 33.82474365248876,35.41246306481213,0 33.82467285975462,35.4123982861168,0 33.82464196593317,35.41239809686976,0 33.82461058668478,35.41242396403482,0 33.82458953362815,35.41244744515854,0 33.82456973004769,35.41245837476177,0 33.8244641501456,35.4124582266617,0 33.82441832578623,35.41247934950959,0 33.82437880988827,35.41251612153295,0 33.82434394363179,35.41256804210153,0 33.82428831197871,35.41259927271835,0 33.8242492079941,35.41258038892135,0 33.8242399921676,35.41256348056837,0 33.82423306124651,35.41244886265602,0 33.82422506328631,35.41242796749453,0 33.82419892175915,35.41241884140727,0 33.82417698654562,35.41242003484444,0 33.82400103009623,35.4124872087265,0 33.82403624050211,35.41236038671721,0 33.82398337184204,35.41218088048467,0 33.82393928346774,35.41201701829444,0 33.82395516854197,35.41217286443419,0 33.82399762250038,35.41234012318139,0 33.82397006505727,35.41243514251937,0 33.82375225534614,35.41243063623001,0 33.82359318329362,35.41241706988119,0 33.82331386502977,35.41237553894147,0 33.82322219401902,35.4124145634303,0 33.82313890230716,35.41246914457929,0 33.82306071019946,35.41254471817858,0 33.82296247177387,35.41272477055079,0 33.82280072842683,35.41281357524204,0 33.82273766100173,35.4128337675747,0 33.82271595170769,35.41282752138618,0 33.82267665192259,35.4128162132378,0 33.82250960312776,35.41276814799838,0 33.82211584674664,35.41258017302526,0 33.82189254445891,35.41257844173364,0 33.82178374363446,35.4126016866496,0 33.82168249449548,35.41258176198864,0 33.82159002087042,35.412595182853,0 33.82134932149066,35.41246204958411,0 33.82126170534089,35.41238863851996,0 33.82079116367679,35.41242902188709,0 33.82077760650649,35.41240529982642,0 33.82091808717087,35.41211691623424,0 33.8210512101675,35.41196270488484,0 33.82094062149189,35.41190829217383,0 33.82090613852836,35.41187368091108,0 33.82075301812064,35.41177806049876,0 33.82053007896613,35.41162533960634,0 33.82024452595234,35.41146617356621,0 33.82012300448395,35.41145021864151,0 33.81995432547709,35.41151707944609,0 33.81980082851445,35.41154922926386,0 33.819707091593,35.41155980272628,0 33.8194967594345,35.41163689814191,0 33.81933714447386,35.41172414700049,0 33.8191812798321,35.4119351561049,0 33.81912128603566,35.41199058777553,0 33.81920977311368,35.41217443521217,0 33.81924695263843,35.41228342224198,0 33.81922031047736,35.41231158133183,0 33.81896260731693,35.41231814401104,0 33.81884652190738,35.41233813949484,0 33.81878902425206,35.41231581925043,0 33.81871384656471,35.41223557098497,0 33.81857100646646,35.4120258077162,0 33.81836326913881,35.41180168047758,0 33.8181852549726,35.41168535231904,0 33.81805088523196,35.41163957240759,0 33.81783872725713,35.41154289698496,0 33.81755083064727,35.41148525520546,0 33.81724147845925,35.41145117643929,0 33.81712237537113,35.41146478037849,0 33.81699923997091,35.41142870818798,0 33.81680099831519,35.41153379646671,0 33.81654879323785,35.41158606051656,0 33.81645478251612,35.41177234431704,0 33.81660103939673,35.41184315235813,0 33.81669565440849,35.4119647076565,0 33.81664476157071,35.41204662272101,0 33.81636616161454,35.41225760450708,0 33.81634127902241,35.41235945784528,0 33.81635080421106,35.41242412562683,0 33.81622358574174,35.41257099021873,0 33.81603469706406,35.41274371880483,0 33.81582034962196,35.41289521323846,0 33.81572597841751,35.41293340665007,0 33.81538298309857,35.41291066656883,0 33.81517994598376,35.41293383959196,0 33.81510169186839,35.41297955264165,0 33.81500986825333,35.41303319252789,0 33.81496524126159,35.41305705820839,0 33.81488102976461,35.41307033436834,0 33.81475195388202,35.41307088883008,0 33.81457803095452,35.41306087642733,0 33.81438432577692,35.41304556932161,0 33.814271062159,35.41304498100931,0 33.81419605533534,35.41305391148266,0 33.81407715769381,35.41308538364608,0 33.81399000603617,35.4131274253223,0 33.8138865620959,35.41318441723215,0 33.813851135852,35.41321529058104,0 33.81382944465268,35.41324068137575,0 33.81381241217638,35.41328242256143,0 33.8137807353576,35.41333711277174,0 33.81375543884107,35.41336847306004,0 33.8137273351379,35.4133879383941,0 33.81364996321291,35.41339273291059,0 33.8136135103988,35.41338842313501,0 33.81359839861138,35.41344578322626,0 33.81359853161607,35.41347730656629,0 33.81355128642696,35.41363991492935,0 33.81352794836729,35.41369284717738,0 33.81349863900878,35.41371331114816,0 33.81341348915357,35.41378362015387,0 33.81335722129663,35.41381362332837,0 33.81330070042358,35.41383784520735,0 33.81325811118349,35.41387076668402,0 33.81318100546229,35.41391722878596,0 33.81309440254637,35.41395122890911,0 33.81300816014555,35.41399251835373,0 33.81292274954298,35.41402115278542,0 33.81286087576628,35.41402810843962,0 33.81280081574964,35.41403356735469,0 33.81273579765423,35.41403144511681,0 33.81261995998936,35.4139984398043,0 33.81248780724894,35.41396793718749,0 33.81241423587007,35.41392560962556,0 33.81232084477781,35.41386954105845,0 33.81223314642762,35.41382151461239,0 33.81215826576491,35.41379417590684,0 33.81202498752523,35.41375646424904,0 33.81191488188269,35.41373042670298,0 33.81183745196834,35.4137457300325,0 33.81176570188884,35.41376791920185,0 33.81169264152086,35.41380624384518,0 33.81163918135749,35.41382259734471,0 33.81153771762705,35.41382532611451,0 33.81149966459578,35.41382548446403,0 33.81144195133956,35.41383724620382,0 33.81139122111719,35.4138386109562,0 33.81135307850844,35.41382379325607,0 33.81132188655298,35.41379281836444,0 33.81131442491348,35.41372372787627,0 33.81130420579679,35.41366501857523,0 33.8113185243504,35.41362732313937,0 33.81130142791479,35.41357341007985,0 33.81128168880625,35.41352880844917,0 33.81125671402189,35.41348504958153,0 33.8112223975467,35.41344363834391,0 33.81118795904086,35.41341190917056,0 33.81113745585595,35.41338042127975,0 33.8111006458719,35.41336001347142,0 33.81105216536802,35.41334171563812,0 33.81097860580721,35.41331032572867,0 33.81090548521906,35.41328955687972,0 33.81077555935671,35.41323860412288,0 33.81071148612401,35.41321488833882,0 33.81050451421886,35.41315616916544,0 33.81044866944864,35.4131426146693,0 33.81025918463159,35.41311726508168,0 33.81008442705947,35.41309400485935,0 33.80996511982204,35.41307261324211,0 33.80979115780418,35.41306821583917,0 33.80974220133206,35.41306667651497,0 33.80965886891515,35.41306060857293,0 33.80949008826636,35.41304376820014,0 33.80942911964414,35.41303417830242,0 33.80938328843305,35.41302697011143,0 33.80840259329663,35.41301471399819,0 33.80815909771282,35.41314446501018,0 33.80748049027279,35.41329474657542,0 33.80717203832673,35.41339407171792,0 33.80679206021482,35.4134854455089,0 33.80657484335651,35.41352341403387,0 33.80625175004786,35.41353296863319,0 33.80594406218154,35.41359273038407,0 33.80582654409573,35.41363688507669,0 33.80518067147037,35.41404084462791,0 33.80511080937175,35.4141327293607,0 33.80510776196051,35.41413673718982,0 33.80510545614477,35.41414634008063,0 33.80508685719448,35.41422378073576,0 33.80508517723906,35.41423077549204,0 33.80508793504654,35.41423218752949,0 33.80512618362091,35.41425177457914,0 33.80520332822839,35.41429128052346,0 33.80537857373707,35.41447022342555,0 33.80545278962393,35.41459024171095,0 33.80557255960234,35.41491774845047,0</coordinates>
						</LinearRing>
					</outerBoundaryIs>
				</Polygon>
			</MultiGeometry>
		</Placemark>
	</Document>
</kml>