<?xml version='1.0' encoding='UTF-8'?>
<kml xmlns="http://www.opengis.net/kml/2.2">
	<Document>
		<name>DROMOLAXIA - MENEOU, KITI</name>
		<Style id="PolyStyle70">
			<LabelStyle>
				<color>00000000</color>
				<scale>0.000000</scale>
			</LabelStyle>
			<LineStyle>
				<color>ff0055ff</color>
				<width>2.000000</width>
			</LineStyle>
			<PolyStyle>
				<color>00828282</color>
				<outline>1</outline>
			</PolyStyle>
		</Style>
		<Placemark id="ID_70215">
			<name>DROMOLAXIA - MENEOU, KITI</name>
			<snippet />
			<description>&lt;html xmlns:fo="http://www.w3.org/1999/XSL/Format" xmlns:msxsl="urn:schemas-microsoft-com:xslt"&gt;

&lt;head&gt;

&lt;META http-equiv="Content-Type" content="text/html"&gt;

&lt;meta http-equiv="content-type" content="text/html; charset=UTF-8"&gt;

&lt;/head&gt;

&lt;body style="margin:0px 0px 0px 0px;overflow:auto;background:#FFFFFF;"&gt;

&lt;table style="font-family:Arial,Verdana,Times;font-size:12px;text-align:left;width:100%;border-collapse:collapse;padding:3px 3px 3px 3px"&gt;

&lt;tr style="text-align:center;font-weight:bold;background:#9CBCE2"&gt;

&lt;td&gt;4&lt;/td&gt;

&lt;/tr&gt;

&lt;tr&gt;

&lt;td&gt;

&lt;table style="font-family:Arial,Verdana,Times;font-size:12px;text-align:left;width:100%;border-spacing:0px; padding:3px 3px 3px 3px"&gt;

&lt;tr&gt;

&lt;td&gt;DIST_CODE&lt;/td&gt;

&lt;td&gt;4&lt;/td&gt;

&lt;/tr&gt;

&lt;tr bgcolor="#D4E4F3"&gt;

&lt;td&gt;VIL_CODE&lt;/td&gt;

&lt;td&gt;110&lt;/td&gt;

&lt;/tr&gt;

&lt;tr&gt;

&lt;td&gt;VIL_CCD&lt;/td&gt;

&lt;td&gt;4110&lt;/td&gt;

&lt;/tr&gt;

&lt;tr bgcolor="#D4E4F3"&gt;

&lt;td&gt;VIL_NM_E&lt;/td&gt;

&lt;td&gt;DROMOLAXIA - MENEOU, KITI&lt;/td&gt;

&lt;/tr&gt;

&lt;tr&gt;

&lt;td&gt;VIL_NM_G&lt;/td&gt;

&lt;td&gt;ΔΡΟΜΟΛΑΞΙΑ - ΜΕΝΕΟΥ, ΚΙΤΙ&lt;/td&gt;

&lt;/tr&gt;

&lt;/table&gt;

&lt;/td&gt;

&lt;/tr&gt;

&lt;/table&gt;

&lt;/body&gt;&lt;script type="text/javascript"&gt;

				function changeImage(attElement, nameElement) {

				document.getElementById('imageAttachment').src = attElement;

				document.getElementById('imageName').innerHTML = nameElement;}

			&lt;/script&gt;&lt;/html&gt;

</description>
			<styleUrl>#PolyStyle70</styleUrl>
			<MultiGeometry>
				<Polygon>
					<extrude>0</extrude>
					<altitudeMode>clampToGround</altitudeMode>
					<outerBoundaryIs>
						<LinearRing>
							<coordinates> 33.59492587384847,34.85117357768907,0 33.59494564762857,34.8513077440225,0 33.59483249245287,34.85138817528979,0 33.59457514907619,34.85155267416467,0 33.59430987139438,34.85172295700222,0 33.59416805738167,34.85180866315581,0 33.59413299958543,34.85182946822545,0 33.59409686317582,34.85185052103933,0 33.5937917927078,34.8520242296613,0 33.59368080513035,34.8520856587845,0 33.59364529967914,34.85210522192136,0 33.59354188234768,34.85216195085327,0 33.5933777994474,34.85225248646972,0 33.59319616900178,34.85235083273495,0 33.59315264356238,34.85237451112536,0 33.59311414978034,34.8523956634854,0 33.59268907396967,34.85262690346165,0 33.59267791199935,34.85263018498686,0 33.59246471735013,34.85271731870803,0 33.59238766505087,34.85274367063563,0 33.59206707631046,34.85283756102051,0 33.59202251988773,34.8528509676894,0 33.5918345533594,34.85290998349652,0 33.59169712654901,34.85297418968487,0 33.59133443021261,34.85316419457445,0 33.59103462263467,34.85332774400971,0 33.59100021959785,34.85334703149048,0 33.59079628592787,34.85346449648763,0 33.5907629799286,34.85348444473131,0 33.59055907271465,34.85361136884157,0 33.59052421307798,34.85363259378189,0 33.59032396288234,34.85375185108236,0 33.59029045789203,34.85377229504952,0 33.59009798733094,34.85389260675585,0 33.59006429386071,34.85391377722891,0 33.58992833309699,34.85399965197242,0 33.58971726546763,34.85413965494507,0 33.58947042263375,34.85430117418574,0 33.58939261447299,34.85435267516186,0 33.5897825753108,34.85489582349587,0 33.59024168884092,34.85546230021964,0 33.59055680022035,34.85592250416171,0 33.58762379659482,34.85813019907163,0 33.58744212276948,34.85798309850531,0 33.58648452126816,34.85714794567688,0 33.58597286584563,34.85736144109302,0 33.58474891536856,34.85808520455632,0 33.58464591684077,34.85794477427395,0 33.58413036290418,34.8581656922815,0 33.58332037690091,34.85850110006466,0 33.58328151352728,34.85845314996122,0 33.58256627987592,34.85900091118435,0 33.58262110297319,34.85905614434954,0 33.58190021492263,34.85941264382416,0 33.58147408474038,34.85962672611102,0 33.58169619870745,34.85973360683106,0 33.58189127358685,34.8598312866958,0 33.58170999406692,34.86006533565848,0 33.58137908467853,34.86047192004118,0 33.58168340051149,34.86076447513472,0 33.58169077959003,34.86079513902371,0 33.58165951414747,34.86083071216558,0 33.58158405987193,34.86089719582359,0 33.5811708980504,34.86121915795113,0 33.5810272411267,34.86136507780444,0 33.58099917359596,34.861447865148,0 33.58099108446391,34.86151993095116,0 33.58093839907362,34.86156505144989,0 33.58061321582041,34.86176851542649,0 33.58109717438296,34.86250719018431,0 33.58186379745013,34.86367205993361,0 33.5822624859526,34.8642886430092,0 33.58501472833083,34.86364941517058,0 33.58559136190819,34.86364470704059,0 33.58634499227103,34.86370159676589,0 33.58644041667026,34.86371017346639,0 33.58649977241667,34.86372015180855,0 33.58648601812213,34.863729636305,0 33.58642834618117,34.86378615657284,0 33.5864554818809,34.86386039743683,0 33.585662007495,34.8641400443482,0 33.58495686815412,34.86427120553511,0 33.58479685092218,34.86430086426412,0 33.58449412463655,34.86435680767325,0 33.58345674867051,34.86470863794416,0 33.58189555672153,34.86527961725149,0 33.58175630310507,34.86533194189465,0 33.58171096498923,34.86529595187932,0 33.5809696282432,34.86544623739486,0 33.58072817826972,34.86477220289447,0 33.5789947671074,34.86471131625707,0 33.57897549914868,34.86470964479683,0 33.57799306695172,34.8646782917861,0 33.57796463710029,34.86467767872568,0 33.57688287878052,34.86452998931647,0 33.5775851220648,34.86593300615854,0 33.57711394022066,34.86612007922663,0 33.57719021450614,34.86642411454605,0 33.57609022059247,34.86687725871455,0 33.57625085554169,34.86715540240674,0 33.57577407166642,34.86731675375232,0 33.57496604958598,34.86779806917902,0 33.5749609150857,34.86791158192247,0 33.57338095589031,34.86868949707146,0 33.57327855046231,34.86861651322526,0 33.57295136643118,34.86875473493443,0 33.57303197809635,34.86883101643684,0 33.57166800975818,34.8695113966427,0 33.57253618069495,34.87034544142643,0 33.57316171259801,34.87070094146687,0 33.5723109488879,34.87142110008637,0 33.57254687417221,34.87173149164456,0 33.57180626089906,34.87211001191254,0 33.57111689217663,34.87113293610496,0 33.57063557518219,34.87140393788693,0 33.57044958966375,34.8712412277966,0 33.57017183079465,34.87137425137828,0 33.5698240993365,34.87089590608849,0 33.56942081649534,34.87044314473046,0 33.5674213383539,34.8715272581558,0 33.56769582042303,34.87230130820883,0 33.56797500460579,34.87261162657789,0 33.56715357453427,34.87285778012318,0 33.56652341094236,34.87298636392467,0 33.56629701678489,34.87202894163411,0 33.56547492266647,34.87219638204579,0 33.56534308432882,34.87128821664933,0 33.56485076624467,34.87131329739794,0 33.56508392017513,34.87089569934404,0 33.56630047549817,34.8706582615194,0 33.56688585938058,34.87040750659143,0 33.56823930912317,34.86960122686254,0 33.56806847984344,34.86933901335872,0 33.56848567434964,34.86904508075031,0 33.56764841652922,34.86873580949283,0 33.5680716820719,34.86850790508528,0 33.56810215636685,34.86826141573253,0 33.56850152779487,34.86789503708098,0 33.56858965402422,34.86795768652406,0 33.56891102313362,34.86763977436759,0 33.56882446362333,34.86745632320263,0 33.56912072576345,34.86723026668607,0 33.56885228752753,34.86699401069118,0 33.56832084115608,34.8663845781663,0 33.56786557052125,34.86576533508547,0 33.56746545018699,34.86528289297903,0 33.56802242425356,34.86471488512553,0 33.56787338940496,34.86454443699045,0 33.56808199728324,34.86440391453502,0 33.56787995907237,34.864154643921,0 33.56806504733212,34.8639916170796,0 33.56797466915468,34.8638339423547,0 33.56825921830939,34.86361435265316,0 33.56848890572063,34.86334654692467,0 33.56882857582352,34.86264848443024,0 33.56891061720588,34.86264349612095,0 33.5689451654675,34.86256966127492,0 33.56908261636523,34.86227590186622,0 33.5692080493959,34.86220833563395,0 33.5702262045445,34.86246497306161,0 33.57271929601725,34.8623404986059,0 33.57153347563602,34.86046395588069,0 33.57203492314975,34.86009532334515,0 33.56983353560784,34.8588939328509,0 33.57111703170213,34.85741063560312,0 33.56904126577376,34.85618307425101,0 33.56863908602488,34.85609075825755,0 33.56863815103298,34.85573874816907,0 33.5688366362383,34.85480652502673,0 33.56827758672134,34.85476113449207,0 33.5675882873021,34.85533204235912,0 33.56747208612411,34.85651256713393,0 33.56718089558655,34.85801959493793,0 33.56767118288862,34.85817902362728,0 33.56730227254189,34.85879583382965,0 33.56666125163783,34.85863672482935,0 33.56631705886271,34.85910335702091,0 33.56573859731236,34.8588509301817,0 33.56643082817789,34.85699104013421,0 33.56633213090814,34.85528295507712,0 33.56609967161038,34.85524721376149,0 33.56617314146817,34.85452750200209,0 33.56591538861649,34.85442451748674,0 33.56643500995222,34.85380739056823,0 33.56688639036415,34.85351135944727,0 33.56733079172467,34.85295133176956,0 33.56751714961686,34.85217961232264,0 33.56602664641001,34.85135452412372,0 33.56514340301324,34.85220019292953,0 33.56416236804282,34.85167424871823,0 33.56385550478384,34.85200102481819,0 33.56389961198553,34.85205787483396,0 33.56379940354718,34.85216161949424,0 33.56268373112248,34.85056437842157,0 33.56233238780487,34.85068935484644,0 33.56226309542305,34.85060667286503,0 33.5610394747947,34.85097159582802,0 33.56091357450305,34.85085279497425,0 33.56013558476941,34.85112877614502,0 33.55985234014202,34.8507810788642,0 33.56023674992769,34.85064734135882,0 33.5607178692885,34.85052680635603,0 33.56179533078652,34.85035610987835,0 33.56305329766082,34.85020123680443,0 33.5641950738447,34.8497639933151,0 33.56414448494315,34.84962950669798,0 33.56314246404083,34.84825980228378,0 33.5629981668624,34.84831187194904,0 33.56270575416428,34.84807716805302,0 33.56258599143576,34.84798104041649,0 33.56273133902314,34.84787306205758,0 33.56244914643669,34.84759618705193,0 33.56355624742785,34.84660202001003,0 33.56320506453728,34.84638196561065,0 33.56243801105506,34.84709449501862,0 33.56210290386709,34.84676159531736,0 33.5614576210268,34.84726328597747,0 33.56135334512769,34.84733832231904,0 33.56118345513721,34.84714377240427,0 33.5610071515143,34.84687247925226,0 33.56117373568985,34.84675222638502,0 33.56130237393626,34.84664468287286,0 33.5611033048537,34.84646925711429,0 33.56089239124528,34.84628992292987,0 33.56106085236831,34.84616684817433,0 33.56122696260996,34.84603836820661,0 33.56101328720283,34.84585055813723,0 33.56033619052067,34.84527403076385,0 33.56044408071322,34.84519190145024,0 33.55986116842465,34.84472887973929,0 33.55958292528065,34.84451118688687,0 33.55955559390448,34.84448960423914,0 33.55924814306086,34.84424456378294,0 33.55921625682605,34.844204725381,0 33.55922703169559,34.84416697597909,0 33.55922785519301,34.84416409120296,0 33.55940675355242,34.84399081480867,0 33.55955162984925,34.84386142964574,0 33.55979812354698,34.84363015789391,0 33.55980724410693,34.84361942398314,0 33.56007640598898,34.84332897441617,0 33.56035980834704,34.84301270370997,0 33.56042034965986,34.84295295523481,0 33.55946460041078,34.84221354553205,0 33.55989133711739,34.84179692396084,0 33.55961801963505,34.84161380008926,0 33.55958932501044,34.84159517140355,0 33.55940651610939,34.84148020922139,0 33.55858684893269,34.8409502200931,0 33.55854928801615,34.84092598076626,0 33.55873935323953,34.84070212848514,0 33.55898845091856,34.84041216009333,0 33.55909603278853,34.84028613157937,0 33.55937364930143,34.8399651841403,0 33.55956822950971,34.83971573512446,0 33.55973972214365,34.83953500309573,0 33.5598333580832,34.83945042666599,0 33.55993180019285,34.83938006713704,0 33.56003026953449,34.83931359169441,0 33.56035254055783,34.83913993221464,0 33.56047141895375,34.8390733623979,0 33.56049292132061,34.83905801101119,0 33.56056343633072,34.83899277991889,0 33.56061869406254,34.83895870966109,0 33.56090410634185,34.83878987991967,0 33.56108657079085,34.83867773801234,0 33.56130924972714,34.83854131937151,0 33.56150333674815,34.83842974159384,0 33.56116195238293,34.83820713859194,0 33.56088667271784,34.83802480350978,0 33.56074783965356,34.83792705713537,0 33.56027040176291,34.83698164474728,0 33.56018619907383,34.83660402295585,0 33.56027075277268,34.83610652515286,0 33.56025952688851,34.83537644865194,0 33.5602138124714,34.83511774922653,0 33.56027285939226,34.83456340783412,0 33.56038660119027,34.8337395477937,0 33.56048427245293,34.83332484124468,0 33.56052588078132,34.83297770959162,0 33.56047855286544,34.83248081896531,0 33.56051970465641,34.8320663717938,0 33.56050612721359,34.83191626561505,0 33.56040484400449,34.83179763334631,0 33.56013337567821,34.83158657691249,0 33.55986734687465,34.83125121716979,0 33.55946703103942,34.8305591786275,0 33.55913779157126,34.83016196903619,0 33.55889248786571,34.82985768802953,0 33.55877966772614,34.82966206772041,0 33.55863641239024,34.82936238889334,0 33.55862777848068,34.82918467840837,0 33.5589520552468,34.82877252426248,0 33.55901671463313,34.82844124420314,0 33.55905853689919,34.82803038727993,0 33.55904700284742,34.82742363778723,0 33.55899306844525,34.82714193632859,0 33.5590215985698,34.82696405504738,0 33.55914650554575,34.82674895485562,0 33.55934660964997,34.82666222436929,0 33.55956182867536,34.82661220003346,0 33.55960364785755,34.82651072202854,0 33.55969206762018,34.82611341270265,0 33.55972876227611,34.82594739537171,0 33.55974073401015,34.82584213426811,0 33.55986371297587,34.82563761696781,0 33.55999269799624,34.82548232561413,0 33.56015611057219,34.82541152794087,0 33.5604001751689,34.82536472807883,0 33.56063209778176,34.82534211249389,0 33.56069769303709,34.82522318986816,0 33.56066255375897,34.82488702314578,0 33.5604929082602,34.82448065907213,0 33.56025811428935,34.82435026202131,0 33.56015049358086,34.82428806247328,0 33.56013568271423,34.82423171770469,0 33.56034975146333,34.82394135650051,0 33.56041270508185,34.8238547167896,0 33.56072921161687,34.82341912091207,0 33.56083395087861,34.82332629292176,0 33.56157731896539,34.82270950679118,0 33.56178973650716,34.82283815130815,0 33.56200203388779,34.82295625006677,0 33.56245638454231,34.82321131934992,0 33.56296987581436,34.823294611793,0 33.5633022335959,34.82333896663135,0 33.5633247709623,34.82335428320107,0 33.56358908285027,34.82328223126533,0 33.56382801227546,34.82297843004347,0 33.5637495087414,34.82293654066555,0 33.56394527458266,34.82267149284407,0 33.56400956565216,34.82266132046585,0 33.56407220040363,34.82262770389358,0 33.56413015959608,34.82256695401718,0 33.56431177042439,34.82242124694949,0 33.56485792283167,34.82276006773247,0 33.56476467308124,34.82301223557688,0 33.56466557200234,34.82315254840196,0 33.56477611606704,34.82321004020065,0 33.56533236532353,34.82351896706607,0 33.56551267118402,34.82363526750071,0 33.56565054180546,34.82370928645912,0 33.56571629371874,34.82373729944772,0 33.56581191369366,34.82379606851406,0 33.56585441713918,34.82382952966631,0 33.56585742742709,34.82383189906994,0 33.56570705520163,34.82400309828396,0 33.56694105449865,34.82480957939064,0 33.56642101244746,34.82541086873513,0 33.56688705593396,34.82569906226672,0 33.56699835067997,34.8257628026797,0 33.56712578147982,34.82583895269524,0 33.56716541429943,34.8258608612965,0 33.56720875027367,34.82580600775728,0 33.56753715489764,34.82604548211269,0 33.56785941698662,34.82628769666123,0 33.56816151149196,34.8265107272639,0 33.56848729760401,34.82677908519543,0 33.5688030756051,34.82704886642123,0 33.56898981850919,34.82722363481211,0 33.56886229119976,34.8273333628804,0 33.56856302727664,34.8276755901632,0 33.5684475205792,34.82781524795505,0 33.56835746360657,34.82793178925685,0 33.56811422527368,34.82824577393884,0 33.56786513918672,34.82856985989447,0 33.56760337517776,34.82888560758849,0 33.56753153099977,34.82894928680748,0 33.56757815926807,34.82897575184194,0 33.56847862309081,34.82948924868963,0 33.5685715171313,34.82953824582307,0 33.56853360111819,34.82960276765171,0 33.56873380253576,34.82972621047703,0 33.56919763140005,34.83000653288892,0 33.56872925915968,34.83058941422315,0 33.570287631146,34.83159393567903,0 33.569920623553,34.83228954422838,0 33.57031779417856,34.83247430566762,0 33.57086022739607,34.83273004127543,0 33.57116796845056,34.8328811704421,0 33.57147644700033,34.83303349607056,0 33.57189261478489,34.8332530856404,0 33.57189293150416,34.83325319683109,0 33.57189668411881,34.83332110607985,0 33.57181749014626,34.83351960250497,0 33.57175887425067,34.83368362585711,0 33.57166122008622,34.83393292468183,0 33.57159773588754,34.83408722719314,0 33.57158584064173,34.83411641662686,0 33.5715543762073,34.83419437109366,0 33.57154323061389,34.83422320093313,0 33.57147683007192,34.83440279517294,0 33.57147162967529,34.83442672751363,0 33.57145716486037,34.83462960254717,0 33.57143272399347,34.83483534683355,0 33.57139317557567,34.83515716166918,0 33.57137962820187,34.83540457055139,0 33.57337546123375,34.8362502374537,0 33.57334537493598,34.83637056509328,0 33.57411260407108,34.8368112718013,0 33.57426149392982,34.83662482713315,0 33.57499207685581,34.83687631666184,0 33.57501832547411,34.83683977185274,0 33.5754166706166,34.83695443312408,0 33.57568073585728,34.8361810773179,0 33.57580263658414,34.83592555971703,0 33.57589828871613,34.83570658699477,0 33.57628629972356,34.83497270456692,0 33.57652653973717,34.83458551338714,0 33.57831290045117,34.83548389464231,0 33.57746931722214,34.83612889552202,0 33.57924080832058,34.83742067042448,0 33.57957390824962,34.83774052690134,0 33.57997835653718,34.83740258805488,0 33.58037079013388,34.83793245001225,0 33.58082611166526,34.83771927226966,0 33.58096590512714,34.83765676078831,0 33.58114471874458,34.83757792883686,0 33.58137561613776,34.83748540369408,0 33.58238839611813,34.83711894987167,0 33.58254195189393,34.83725600179358,0 33.58264457289197,34.837211000109,0 33.58285405049377,34.83741222020745,0 33.58287849948325,34.83743570264959,0 33.58307537748172,34.83762478089086,0 33.58309982760776,34.83764825156294,0 33.58332835359101,34.83786753893247,0 33.58243930532283,34.83833088133625,0 33.58312316423657,34.83904609161846,0 33.58316521921651,34.83909415647739,0 33.58324491235715,34.83907140977513,0 33.58370633018547,34.83893367107147,0 33.58437289955543,34.83877089854439,0 33.58473347846932,34.83867209198276,0 33.58510694897161,34.83857189272894,0 33.58530005064812,34.83850979413099,0 33.58567316182825,34.83835906399987,0 33.58590469591751,34.83825821598437,0 33.58627126021133,34.83809421757972,0 33.5870682050672,34.8376688357009,0 33.58779117207259,34.83727439090894,0 33.5878329898699,34.8372582316231,0 33.58788461760196,34.83726064136204,0 33.58792666226447,34.83727639537398,0 33.58798532758687,34.83736121725715,0 33.58834670937387,34.83783021038268,0 33.58852261136703,34.83807137777715,0 33.5886395636935,34.83818783263623,0 33.5888118457086,34.83834048533452,0 33.58896191461859,34.83844330220853,0 33.58906035360748,34.83850647860802,0 33.58926308464752,34.83862056402282,0 33.58935555044958,34.83867887341944,0 33.58966578741228,34.83887812407367,0 33.58983033377827,34.83900037132548,0 33.59016406698368,34.83929220133277,0 33.59053574352971,34.83959505554435,0 33.59065900800053,34.83968452575469,0 33.59069280339706,34.83970676321081,0 33.59089065059965,34.83983344730292,0 33.59093192125765,34.83985353902066,0 33.59101857283321,34.83990646496036,0 33.59112885877274,34.83998409519548,0 33.59126222611285,34.84009485355351,0 33.59138564992571,34.84024139479042,0 33.59154265392872,34.84044873033271,0 33.59167175062158,34.84067511892269,0 33.59173221928841,34.84081671513577,0 33.5918466122588,34.84111439561148,0 33.59212964535538,34.84188175178623,0 33.59242322660839,34.84281488550754,0 33.59253795660022,34.84315884321359,0 33.59267785568623,34.84353352884222,0 33.59280458256409,34.84381058102203,0 33.59296873047029,34.84408745062975,0 33.59334140728205,34.84474124096739,0 33.59341779944813,34.8449568338929,0 33.59351973122165,34.84525457422898,0 33.59373090350969,34.84599913683077,0 33.59399140290424,34.84666375689365,0 33.59413105603696,34.84700244842121,0 33.59415069124807,34.84713090327797,0 33.59441652208597,34.84853594733848,0 33.59470667304234,34.84985217229304,0 33.59492587384847,34.85117357768907,0</coordinates>
						</LinearRing>
					</outerBoundaryIs>
				</Polygon>
			</MultiGeometry>
		</Placemark>
	</Document>
</kml>