<?xml version='1.0' encoding='UTF-8'?>
<kml xmlns="http://www.opengis.net/kml/2.2">
	<Document>
		<name>DRYMOU</name>
		<Style id="PolyStyle70">
			<LabelStyle>
				<color>00000000</color>
				<scale>0.000000</scale>
			</LabelStyle>
			<LineStyle>
				<color>ff0055ff</color>
				<width>2.000000</width>
			</LineStyle>
			<PolyStyle>
				<color>00828282</color>
				<outline>1</outline>
			</PolyStyle>
		</Style>
		<Placemark id="ID_70079">
			<name>DRYMOU</name>
			<snippet />
			<description>&lt;html xmlns:fo="http://www.w3.org/1999/XSL/Format" xmlns:msxsl="urn:schemas-microsoft-com:xslt"&gt;

&lt;head&gt;

&lt;META http-equiv="Content-Type" content="text/html"&gt;

&lt;meta http-equiv="content-type" content="text/html; charset=UTF-8"&gt;

&lt;/head&gt;

&lt;body style="margin:0px 0px 0px 0px;overflow:auto;background:#FFFFFF;"&gt;

&lt;table style="font-family:Arial,Verdana,Times;font-size:12px;text-align:left;width:100%;border-collapse:collapse;padding:3px 3px 3px 3px"&gt;

&lt;tr style="text-align:center;font-weight:bold;background:#9CBCE2"&gt;

&lt;td&gt;6&lt;/td&gt;

&lt;/tr&gt;

&lt;tr&gt;

&lt;td&gt;

&lt;table style="font-family:Arial,Verdana,Times;font-size:12px;text-align:left;width:100%;border-spacing:0px; padding:3px 3px 3px 3px"&gt;

&lt;tr&gt;

&lt;td&gt;DIST_CODE&lt;/td&gt;

&lt;td&gt;6&lt;/td&gt;

&lt;/tr&gt;

&lt;tr bgcolor="#D4E4F3"&gt;

&lt;td&gt;VIL_CODE&lt;/td&gt;

&lt;td&gt;308&lt;/td&gt;

&lt;/tr&gt;

&lt;tr&gt;

&lt;td&gt;VIL_CCD&lt;/td&gt;

&lt;td&gt;6308&lt;/td&gt;

&lt;/tr&gt;

&lt;tr bgcolor="#D4E4F3"&gt;

&lt;td&gt;VIL_NM_E&lt;/td&gt;

&lt;td&gt;DRYMOU&lt;/td&gt;

&lt;/tr&gt;

&lt;tr&gt;

&lt;td&gt;VIL_NM_G&lt;/td&gt;

&lt;td&gt;ΔΡΥΜΟΥ&lt;/td&gt;

&lt;/tr&gt;

&lt;/table&gt;

&lt;/td&gt;

&lt;/tr&gt;

&lt;/table&gt;

&lt;/body&gt;&lt;script type="text/javascript"&gt;

				function changeImage(attElement, nameElement) {

				document.getElementById('imageAttachment').src = attElement;

				document.getElementById('imageName').innerHTML = nameElement;}

			&lt;/script&gt;&lt;/html&gt;

</description>
			<styleUrl>#PolyStyle70</styleUrl>
			<MultiGeometry>
				<Polygon>
					<extrude>0</extrude>
					<altitudeMode>clampToGround</altitudeMode>
					<outerBoundaryIs>
						<LinearRing>
							<coordinates> 32.48785873722691,34.91023213772696,0 32.48805284826429,34.91034065198407,0 32.48832508727419,34.91042267468379,0 32.48860521055497,34.91025755905697,0 32.48896602875276,34.90986361454474,0 32.48920799476733,34.90999887526797,0 32.48936780035093,34.90969932319415,0 32.48923689639705,34.90954254644893,0 32.48924833419033,34.90948026971503,0 32.48940709611495,34.9095548377826,0 32.48954224179177,34.90955798268291,0 32.48984447256904,34.91015000143651,0 32.49003015511626,34.91024091913314,0 32.49019294255161,34.9102889866321,0 32.49030796580878,34.91030698475378,0 32.49073672490942,34.91014732724143,0 32.49079136963554,34.9100518280567,0 32.49083051208799,34.90941974953399,0 32.49078883884705,34.90926135248602,0 32.49080273389622,34.90922358944186,0 32.49094086060615,34.90946949022556,0 32.49106193346729,34.90952821249615,0 32.49142311618877,34.90963755614006,0 32.49155296796114,34.90962952777606,0 32.49177952487234,34.90941282082672,0 32.49193880970815,34.90916448142564,0 32.49203291540743,34.90921633738842,0 32.49210263970883,34.90954417300598,0 32.49225557647962,34.90966101077954,0 32.49244102708067,34.90949969854753,0 32.492769820416,34.90933267526661,0 32.49286798678173,34.90924871566784,0 32.49297320064856,34.90900000772403,0 32.49313936927752,34.90887419516939,0 32.49338049912259,34.90882237862303,0 32.49404874884581,34.90876958931915,0 32.49407977785692,34.90891618453734,0 32.49431958440849,34.90889736465079,0 32.49458251070697,34.90892848768243,0 32.49469068913741,34.90892476389757,0 32.49464847731445,34.90909150064895,0 32.4946638993132,34.90917177486009,0 32.49492034159056,34.90921136437166,0 32.49512761477028,34.90930184120731,0 32.49524000466313,34.90941840133124,0 32.49542011166498,34.90952205641144,0 32.49567441266246,34.90947220013349,0 32.49596831655394,34.9093653118802,0 32.49649874766707,34.90925763896326,0 32.49683160661052,34.90895256035428,0 32.49696699410531,34.90893120164955,0 32.49705327284315,34.90971630534034,0 32.49720450409546,34.91006186755459,0 32.49737444181841,34.90999597560302,0 32.49766288682667,34.91018520817141,0 32.49782318159067,34.91021673196563,0 32.49801802082882,34.91016894535503,0 32.49834002687818,34.9101027993774,0 32.49839684999504,34.9100542990423,0 32.49846631065461,34.90986547483627,0 32.49861359159979,34.90973507329645,0 32.49896514717263,34.90955764348872,0 32.49910158963427,34.90948878052276,0 32.49935183572091,34.90926722888005,0 32.49944131385455,34.90929354149367,0 32.49953152324216,34.90911118061429,0 32.49993689238282,34.90880990308213,0 32.49986924316293,34.90866823817419,0 32.49985852098549,34.90854852835906,0 32.49992389776182,34.90823298959757,0 32.50029120021726,34.90778229993604,0 32.50056726198362,34.90718235223964,0 32.50078105798688,34.90716852018118,0 32.50087579988747,34.90705666955925,0 32.50115333933924,34.9069038556222,0 32.50118961447146,34.90728053090317,0 32.50122886810021,34.90745351775417,0 32.50111640992325,34.90775087869985,0 32.50160321972795,34.9081228552815,0 32.50126796331504,34.90843483048852,0 32.50100552207486,34.90853913037343,0 32.50098157209451,34.90862666362675,0 32.50097264908997,34.90880704093406,0 32.50080746107295,34.90889811366093,0 32.50086041890168,34.90932210316647,0 32.50081559023192,34.9095218525242,0 32.50103731833487,34.90997442974827,0 32.5010537017431,34.91037778395074,0 32.5011340040116,34.91055169106169,0 32.50119317545667,34.91082862680149,0 32.50136708856697,34.91104193630115,0 32.5014502268733,34.91131567280348,0 32.5012742434196,34.91135627315985,0 32.50123789602004,34.9114813721899,0 32.50125940162599,34.91167434738971,0 32.50112899962775,34.91184059550857,0 32.50104684799297,34.91186254248254,0 32.5011276666067,34.91197556644675,0 32.50156699929697,34.9117941139498,0 32.502139983181,34.91139784966268,0 32.50218587694,34.9113314734144,0 32.50231140606785,34.91103218925333,0 32.50242933847404,34.91094298983956,0 32.50272323706336,34.91092516089322,0 32.50331575974177,34.91047802931523,0 32.50418027058682,34.90997387064199,0 32.5045218323898,34.90986435715508,0 32.50481945932734,34.90986438031617,0 32.50512234375473,34.90966899689027,0 32.50525518262088,34.9096505996003,0 32.5054984499134,34.90982379611732,0 32.50578756325533,34.90986947393775,0 32.50591411851332,34.9099265901913,0 32.50614821870595,34.91009363284046,0 32.50656172808177,34.91017213682068,0 32.50680311996123,34.91007960145061,0 32.50691219498838,34.91036863408714,0 32.50709649840267,34.91051303266791,0 32.50732892167569,34.91109315361182,0 32.50787714225572,34.91152043135495,0 32.5082158093243,34.91170703887045,0 32.50829541848812,34.91184485695504,0 32.50842095353275,34.91191237347685,0 32.50868723394989,34.91195336648826,0 32.50911061267914,34.91198699880792,0 32.50959511715059,34.91212609660584,0 32.5097657209847,34.91221156168006,0 32.5098156975135,34.91250267803889,0 32.50994413857349,34.91253566553555,0 32.5105288374665,34.91259417647079,0 32.51070850925466,34.91297460106272,0 32.51078953651613,34.91306834060905,0 32.51111164285705,34.91324723377977,0 32.51116901009075,34.91336652535994,0 32.51124818343374,34.91364986922743,0 32.51139094390159,34.91381471980388,0 32.51154454388231,34.91390610851826,0 32.51156628892561,34.91411806969448,0 32.51183763752618,34.91437286820744,0 32.51227111966767,34.91485035971538,0 32.51246620294557,34.91511249752687,0 32.51259384318082,34.91520944263873,0 32.51279306507768,34.91529117093823,0 32.51364078038358,34.916024396221,0 32.51385394613447,34.91653063094989,0 32.51447822375572,34.91708115874119,0 32.51452248874887,34.91720030620308,0 32.51447653949563,34.91751175026199,0 32.51427851521327,34.91781254911356,0 32.51440264563535,34.9182177219154,0 32.51440800038696,34.9182352003862,0 32.51435547359591,34.91836146546196,0 32.51449745388258,34.9185456322347,0 32.51503815912052,34.91891283576794,0 32.51528455429391,34.91927246133675,0 32.51551197407778,34.91947128418247,0 32.5155837437617,34.91948303197519,0 32.51575277877016,34.91934883662525,0 32.51595185281625,34.91929376642811,0 32.51605790231115,34.9193001030923,0 32.51619747854867,34.9193799512628,0 32.51637867158164,34.91940369321367,0 32.51633812361128,34.91970223379735,0 32.51641934533396,34.91979861150212,0 32.51642498811174,34.91992268047564,0 32.51659854590592,34.92002812336342,0 32.51669494588591,34.92032474605161,0 32.51667662890806,34.9204486584094,0 32.5168336070443,34.92085279642391,0 32.51709624134145,34.9209503645086,0 32.51750141997432,34.92117572305052,0 32.51769527426525,34.92130666614641,0 32.51808043241857,34.92147832902222,0 32.51820270724511,34.92157779436899,0 32.5182992727028,34.92185750018833,0 32.51844417461811,34.92209524128081,0 32.51870988730312,34.92222947557566,0 32.51927976554388,34.92241643774986,0 32.51951179199573,34.92249406973446,0 32.51974436842278,34.92251532450319,0 32.51986072181076,34.92251890415908,0 32.51976376422677,34.92263384706865,0 32.51957055119659,34.92279044297469,0 32.51982915102847,34.92295281453848,0 32.52026645867666,34.92304306212112,0 32.52073370132838,34.9232237114825,0 32.5209726360244,34.92329574662185,0 32.52098763660263,34.92351572095374,0 32.52107511526406,34.92367415379206,0 32.52142502718815,34.92359750930387,0 32.52218925729677,34.92315428900304,0 32.52235239569166,34.92327657006635,0 32.52245373369654,34.92341817715783,0 32.52258886574721,34.92360510645717,0 32.52260180097786,34.92368412331847,0 32.52250734186341,34.92389492621129,0 32.52251650245282,34.92401056319883,0 32.52256374645244,34.92408134511057,0 32.52256964304042,34.92418004584851,0 32.52211834086345,34.92412072187513,0 32.52194376408766,34.92411958264387,0 32.52190698352926,34.92438432176553,0 32.52131236972234,34.92463132481759,0 32.52114116171745,34.92463584424701,0 32.52094199611643,34.92469937789489,0 32.52082857319832,34.92474655852689,0 32.52088744688193,34.92503165463177,0 32.52061253463076,34.92513979638449,0 32.52054869125384,34.92537053095128,0 32.52018192532282,34.92541887177294,0 32.52011221304408,34.92554808661919,0 32.51991276862555,34.92563980781784,0 32.51973403069542,34.925714748418,0 32.5195960482823,34.92582378325357,0 32.5193724750102,34.92628744371996,0 32.51913564947333,34.92635072804002,0 32.51911681756916,34.92652819605497,0 32.51933848206536,34.92661703537393,0 32.51943612162577,34.9267868116105,0 32.51926729732268,34.92689846439882,0 32.51918355978246,34.92706141320151,0 32.5190179126011,34.9271984552033,0 32.51881219256065,34.92723093311024,0 32.51875799235085,34.92717138196599,0 32.5185495856131,34.92712773132102,0 32.518642501856,34.92707759966689,0 32.51892935058294,34.92679758577442,0 32.51882709170179,34.92675181289826,0 32.51829997527634,34.92674271932752,0 32.51821151705487,34.9266857607415,0 32.51798131808103,34.92677163722164,0 32.51765942820122,34.92678080107815,0 32.51775651900574,34.92700695266422,0 32.51784415967114,34.92714847397979,0 32.51784458277966,34.92745856049888,0 32.51803902499928,34.92753030945135,0 32.51826498649832,34.92752897180686,0 32.51833727080276,34.92784234766245,0 32.51904709832534,34.92807533453561,0 32.51925917773113,34.9280936380958,0 32.51951276984933,34.92806710888844,0 32.51966311875002,34.92809628311907,0 32.51978162919264,34.9282323668604,0 32.5197836634206,34.92837614721038,0 32.51982645274669,34.9285540201667,0 32.51990785028148,34.92863348175982,0 32.51991692119044,34.92875757568041,0 32.51977548076723,34.92886940673161,0 32.51964485155409,34.92892492941316,0 32.51952071552239,34.92901714229623,0 32.51928067777042,34.92905785410782,0 32.51908467814918,34.92914677593163,0 32.51899488311445,34.92922793567181,0 32.51892405578173,34.92911753326368,0 32.5187590288436,34.92918974483285,0 32.51861090235646,34.9292846165156,0 32.51849689608033,34.92939098933532,0 32.51846138279119,34.92952324575288,0 32.51859346626971,34.9300258822682,0 32.51871564356156,34.9301366207813,0 32.51840637225747,34.93025580707287,0 32.51825207633428,34.93028016492423,0 32.51815368762662,34.93054168087399,0 32.51827676346583,34.9305594014951,0 32.51846510198079,34.93055499822257,0 32.51853541231755,34.93071895803022,0 32.51857363278576,34.93101519588694,0 32.51878008814266,34.93126179692034,0 32.5191444526995,34.93146432899935,0 32.51945097821128,34.93162983497665,0 32.51919864900628,34.9318790674738,0 32.51880450463484,34.93263195828238,0 32.51874029599043,34.93275091137393,0 32.51860196003572,34.93300719610155,0 32.51849933172939,34.93316778426905,0 32.51803481987225,34.9335158709728,0 32.51883843988173,34.93370320963898,0 32.51885994775298,34.93376577541571,0 32.51879326967156,34.93380175050255,0 32.51772344804028,34.93403142426189,0 32.51747298060376,34.93412861766992,0 32.5173890980624,34.93431013561431,0 32.51734963821348,34.93447113772814,0 32.51735704907653,34.93468446815485,0 32.51732031483679,34.93488970416459,0 32.51714954530367,34.9352371168773,0 32.51685877396755,34.93558113785539,0 32.51669805647461,34.93586879102678,0 32.51642984584277,34.9361661418824,0 32.51618935086852,34.93621137799643,0 32.51527163168945,34.93671253215727,0 32.51476602253131,34.93706033567017,0 32.51438401771387,34.93736473442809,0 32.51414601457603,34.93747760862595,0 32.5133550219948,34.93761284498978,0 32.51253590407003,34.93771667664858,0 32.51195864415246,34.93795995526065,0 32.51170759891153,34.93811435322857,0 32.51088154673768,34.93828055423699,0 32.51082224858779,34.9382073324432,0 32.51090265522416,34.93805960780162,0 32.51081836868778,34.93795761284697,0 32.51032815382999,34.93769686925082,0 32.51026650865752,34.93754040005567,0 32.51014230214916,34.93732109348725,0 32.50992023928816,34.93741846143801,0 32.50984598441791,34.93725930809399,0 32.50959938599898,34.93695856086283,0 32.50918045455953,34.93683873632457,0 32.50938350884789,34.93674644910905,0 32.50966537855548,34.93667028708234,0 32.50920340077269,34.93643053263302,0 32.50898256598102,34.93640305905411,0 32.50871804277644,34.93632067382838,0 32.50817071173067,34.93608815037027,0 32.50763489346762,34.93597014680438,0 32.50741952920075,34.93602853716024,0 32.50709374911727,34.93607319038784,0 32.50671983709997,34.93587302645832,0 32.50634849208936,34.93573270215668,0 32.50574661217102,34.93558824171851,0 32.50576095871763,34.93541407156576,0 32.50562560499947,34.9353663528434,0 32.50553459601227,34.93530592136286,0 32.50564616778691,34.93520262487284,0 32.50570203191955,34.93498191535226,0 32.50572699946323,34.93469077067,0 32.50575657710151,34.93457392284627,0 32.50591709991166,34.93430969258544,0 32.50561027701001,34.93435446583982,0 32.50549231766888,34.93446552193465,0 32.50534620917299,34.9345477799281,0 32.50495436723207,34.93456597474043,0 32.50471340779955,34.93465800361422,0 32.50450836617885,34.93463062506466,0 32.50441572714869,34.93473664793954,0 32.50436367827785,34.93488975826596,0 32.50404943453037,34.93504632188462,0 32.50391545340306,34.93518067778146,0 32.50408203353208,34.93526502010146,0 32.50384137505769,34.93532583838082,0 32.5035856194667,34.93531632564174,0 32.50355031311724,34.93537331194663,0 32.50339912168268,34.93533068669409,0 32.50332693804777,34.93528338766835,0 32.50316143990123,34.93508980673679,0 32.50317375640321,34.93480117995092,0 32.50307781650964,34.93460026356922,0 32.50287667853604,34.93449748042886,0 32.50278970763835,34.93434864254159,0 32.50243720398394,34.9342214369643,0 32.5021332985783,34.93396970912077,0 32.50191082853821,34.9341086742445,0 32.50178644564067,34.93423008752221,0 32.50165133221468,34.9344788777199,0 32.5014994961077,34.93450126911988,0 32.50152579174718,34.93439740564117,0 32.5014667594943,34.93429817243108,0 32.50136479546988,34.93374868279577,0 32.50120227920791,34.93357332743597,0 32.50097731879029,34.9336446484404,0 32.50055529891426,34.93383949459557,0 32.50044131664265,34.93386734066952,0 32.50024156679922,34.93394403099168,0 32.5005800994211,34.93420639848673,0 32.50057183048191,34.93440401925572,0 32.50052879026745,34.93460400574224,0 32.50039410472218,34.93480858042774,0 32.49982961170197,34.93535620233076,0 32.49965209728389,34.93542003420557,0 32.49954157704347,34.93541669172581,0 32.4994526785967,34.93546291388041,0 32.49920513111407,34.93494365506771,0 32.49902202010293,34.93493462325092,0 32.49890546838531,34.93490262784507,0 32.49871524276937,34.93479262997491,0 32.49870240771392,34.93478520876204,0 32.49856041590151,34.93458426740099,0 32.49826957572755,34.93448130110382,0 32.49796126259682,34.93443394568551,0 32.49793938091246,34.93429447139977,0 32.49777012189872,34.93408782578587,0 32.49779669005823,34.93396783413985,0 32.49762866371137,34.93385001811834,0 32.4974654454778,34.93388723454607,0 32.49715733010034,34.9340331949878,0 32.49684075095793,34.9339666246869,0 32.4966687260856,34.93403861212479,0 32.49640037444945,34.93422663723742,0 32.49618210015988,34.93427044750177,0 32.4959504605009,34.93438208919371,0 32.49573289619886,34.93435449786192,0 32.49553403347628,34.93436012290732,0 32.49499869444121,34.93438611711678,0 32.49462999058694,34.93424430053386,0 32.4944211100983,34.93419412530625,0 32.49421339099618,34.93423974454996,0 32.49388523227779,34.93427409965204,0 32.49359214196734,34.93418503893268,0 32.49339806716424,34.93413496152077,0 32.49324956173368,34.93418098015245,0 32.49267508301391,34.93410220395199,0 32.49252056509745,34.93411509082951,0 32.49217769711574,34.9343513649991,0 32.49183181812501,34.93446570779457,0 32.49152426544041,34.93455418495509,0 32.49119445962006,34.93454150032109,0 32.49080845043466,34.93465034289315,0 32.49055909332013,34.93462949413686,0 32.49029575296889,34.93452669351204,0 32.49020864905928,34.93435455693331,0 32.49048478613524,34.93402378791554,0 32.49057571816516,34.93381367285318,0 32.49071777827966,34.93335485779578,0 32.49069830847835,34.93276432797091,0 32.49046977623962,34.93277670906219,0 32.49012912270044,34.93279181209474,0 32.4898203837912,34.93278797312259,0 32.48969647471421,34.93291252554946,0 32.48963255938608,34.93295911498193,0 32.48959459892991,34.93294840793428,0 32.48947808958263,34.93275604096672,0 32.48939409445956,34.93269625700181,0 32.48918492382307,34.93267567799349,0 32.48889490554895,34.93270331203216,0 32.48860864392862,34.9327779948719,0 32.48870406668132,34.932550302454,0 32.48876718716437,34.93239968474479,0 32.48896068430124,34.93232964492999,0 32.48897469980088,34.93222806002527,0 32.48939935685018,34.93200439705581,0 32.48962036831303,34.93199876419508,0 32.48961566190296,34.93203619235361,0 32.48980096103446,34.9321355640561,0 32.49007084596391,34.93222480693669,0 32.49020123872886,34.9321828798545,0 32.49058740249685,34.93190900132767,0 32.49115552342853,34.9314187266421,0 32.49074176309097,34.93120363998558,0 32.49088365496618,34.93087815642848,0 32.49096044096294,34.93056471701475,0 32.49040973115505,34.93061449648224,0 32.48983639296544,34.93054460067965,0 32.48956943446022,34.93059630211192,0 32.48950956874439,34.93051740478745,0 32.48936272775477,34.93047181108529,0 32.48909417487833,34.93046641746863,0 32.48881604262458,34.93033608859012,0 32.48889507566722,34.93023137701201,0 32.48902629119004,34.93032324697226,0 32.48925923613146,34.93020709602371,0 32.489115579631,34.93005984267146,0 32.48937086311976,34.92987605678251,0 32.48935301316038,34.92971181946039,0 32.4892072970872,34.92955384951141,0 32.48845841090817,34.92949345650743,0 32.48854834392427,34.92916583771071,0 32.48854306283275,34.92904449885041,0 32.48863587659753,34.92886139340493,0 32.48870364713792,34.92858357241204,0 32.48867518493765,34.92839785619222,0 32.48902612788061,34.92839489214956,0 32.4893971030689,34.92855439330014,0 32.48974505966874,34.92863346335173,0 32.49037473709108,34.92870017495598,0 32.49071211495718,34.92875419771531,0 32.49088127722417,34.92873393858171,0 32.49129745812883,34.92848880452303,0 32.49151034973296,34.9284278127458,0 32.49172913175163,34.92842751122897,0 32.49228421079217,34.9283724048036,0 32.49278554912412,34.92827590246247,0 32.49316937968269,34.92801627167015,0 32.49290147850187,34.92772904109735,0 32.49260081796047,34.92768597684756,0 32.49251320766766,34.92756586545676,0 32.49262699581775,34.92745068493451,0 32.49265757887726,34.92699065419823,0 32.49261678273104,34.92695469991478,0 32.49270658354323,34.92685541224431,0 32.49237290943916,34.92664800932843,0 32.49203385490499,34.92654581645319,0 32.49184840759872,34.92689598083558,0 32.49152348878671,34.9271131913419,0 32.49145000647415,34.92709663920052,0 32.49153970012193,34.92700805549227,0 32.49169625611876,34.92694846548851,0 32.4918215492813,34.92676557720745,0 32.49172769148461,34.92662044705884,0 32.49152779437821,34.92646568128482,0 32.49182843778467,34.92629289968673,0 32.49195669896167,34.92602975791446,0 32.49222364889803,34.92576041872503,0 32.49194650021377,34.92574962214925,0 32.49165225395886,34.92571551823558,0 32.49136645307298,34.92505355201581,0 32.49084034540228,34.92524620911072,0 32.49049987033825,34.92528670998426,0 32.49009825627318,34.92559259208527,0 32.49002008629688,34.9256116834563,0 32.48994905867595,34.92556660514954,0 32.48962173899321,34.92559113952063,0 32.48987947321898,34.92516119563445,0 32.4902405767571,34.92479082116962,0 32.4909392442241,34.92423721289751,0 32.49143698363553,34.92384813733158,0 32.49163387256586,34.92365324789256,0 32.49255858245863,34.92323673528175,0 32.4925530162113,34.92292630558334,0 32.49242528556147,34.92292008859658,0 32.49242170088552,34.92284514248554,0 32.49295535571989,34.92254549783808,0 32.49331129892406,34.92247298353018,0 32.49333160853526,34.92239106266909,0 32.49393033945825,34.92208115093842,0 32.49393657165223,34.92189031946928,0 32.49372569070388,34.92175153705633,0 32.49409505184338,34.92141866654674,0 32.49432409378036,34.92147372990659,0 32.494416496504,34.92132986166112,0 32.49443419642205,34.92107488809514,0 32.49429180489368,34.92101862612049,0 32.49468539297041,34.9208625199683,0 32.49500232307695,34.92057389059273,0 32.49485679137152,34.92039808871885,0 32.49494196538123,34.92032730929812,0 32.49511694696884,34.91972019199477,0 32.49481695410002,34.91961291835359,0 32.49455047819963,34.91962003846539,0 32.49431183507866,34.91965945569487,0 32.49401120474865,34.91983402773541,0 32.49379867554558,34.91986113371699,0 32.4932331412357,34.92010169867999,0 32.4931378648977,34.92009927128777,0 32.49280703657202,34.92004351587692,0 32.49249582592834,34.91932429516748,0 32.49257036739437,34.91923382367219,0 32.49287002404607,34.91915736071768,0 32.49308917270451,34.91911781451331,0 32.49316229602145,34.91895241005155,0 32.4933189757357,34.91887854691577,0 32.49350991847214,34.91862653026578,0 32.49373338041083,34.91858879560927,0 32.4939357921206,34.91845202403545,0 32.4940742314386,34.91826219456647,0 32.49428301162154,34.91812551381788,0 32.49431592449179,34.91808369562136,0 32.49464699807966,34.91766304049995,0 32.4944062656,34.91767254889458,0 32.49433534984153,34.9174627357916,0 32.49438262184672,34.91733166562602,0 32.49432544475743,34.91737136368095,0 32.49401964777877,34.91739824870535,0 32.49379958979529,34.91750365567589,0 32.49355098892615,34.91748861346218,0 32.49310389590232,34.91731411322505,0 32.49297427909075,34.91729764785602,0 32.49277145875186,34.91731248899674,0 32.49211720513969,34.91742546725713,0 32.49142300223514,34.91722701442161,0 32.49119866969284,34.91721881344826,0 32.49114449671215,34.9169578918327,0 32.49103880147326,34.91671221029064,0 32.49080633570035,34.91670617942721,0 32.49024286639406,34.91654424268504,0 32.49008786251809,34.91636280647181,0 32.49014063332098,34.9162228666424,0 32.49049417074342,34.91601816038099,0 32.49064473880951,34.91583211752502,0 32.49030497997958,34.91574073313619,0 32.49015205735922,34.9156216665178,0 32.48976490659238,34.91540302367515,0 32.48958785431892,34.91526374957685,0 32.48998120016476,34.91486334241299,0 32.49020430637296,34.91445287118003,0 32.49014006940376,34.91438785299083,0 32.48941827845933,34.9146479584773,0 32.48908612352404,34.91460784342694,0 32.48878571960206,34.91463697715113,0 32.48855848952642,34.91464879428764,0 32.48812509776621,34.91472824322324,0 32.48790519655573,34.91481805092464,0 32.4878710088409,34.91499152011657,0 32.48812726735331,34.91532062678054,0 32.4880981546943,34.91552753514229,0 32.48797222731173,34.91568256496299,0 32.48781151066841,34.91580172623294,0 32.48761043971108,34.9159005693236,0 32.48701770965925,34.91596111363766,0 32.48675087627198,34.91641581922473,0 32.48658455157878,34.91628552285059,0 32.48647808555263,34.91611777518673,0 32.4864779558783,34.9158616753553,0 32.48617464916316,34.91564136430996,0 32.48588202680173,34.91516502725039,0 32.48572328523935,34.91481876698623,0 32.48565109699686,34.91473810366441,0 32.48563244739257,34.91444179111468,0 32.48566489836532,34.91417255108449,0 32.48580461267006,34.91399089517991,0 32.485682305917,34.91405464223268,0 32.48557432318474,34.91403831553601,0 32.48552659968381,34.91394445782402,0 32.48524320283504,34.91389575697914,0 32.48514943167114,34.91381049298597,0 32.4850516124247,34.91385881694666,0 32.48476839532773,34.91379229993151,0 32.48489233832468,34.91356599807138,0 32.48491783493351,34.91345037086902,0 32.48498913662345,34.91335064517101,0 32.48505856059085,34.91316850920893,0 32.48508220630059,34.91296824532605,0 32.4850112308722,34.91276733350455,0 32.48505239685736,34.91243802686193,0 32.48493590983238,34.91219226536286,0 32.4847748704651,34.91207536426836,0 32.48461979738618,34.91190282956306,0 32.48457480275088,34.91180676280923,0 32.48471223890542,34.91158277905724,0 32.48477503535481,34.91125362004819,0 32.48472282614124,34.91106842465167,0 32.48473147411229,34.9110150381533,0 32.48483784958311,34.91092223273058,0 32.48536673200357,34.91102383077273,0 32.48550259904159,34.91102554184525,0 32.48562732795275,34.91099224010907,0 32.48584731724677,34.91082000476585,0 32.48585462725396,34.91063076361228,0 32.48597860987769,34.91040000670067,0 32.48615272350099,34.91029207396308,0 32.48672191105173,34.91014897600378,0 32.48676570827895,34.91040869764567,0 32.48687807769456,34.91048185704734,0 32.48700360091123,34.910461551339,0 32.48726937782446,34.91055355858681,0 32.48729042330377,34.91061160203397,0 32.48755781290892,34.91063792112946,0 32.48768987789292,34.91067890429864,0 32.48792397878817,34.91052015774301,0 32.48784756925396,34.91032143848822,0 32.48785873722691,34.91023213772696,0</coordinates>
						</LinearRing>
					</outerBoundaryIs>
				</Polygon>
			</MultiGeometry>
		</Placemark>
	</Document>
</kml>