<?xml version='1.0' encoding='UTF-8'?>
<kml xmlns="http://www.opengis.net/kml/2.2">
	<Document>
		<name>ELIA</name>
		<Style id="PolyStyle70">
			<LabelStyle>
				<color>00000000</color>
				<scale>0.000000</scale>
			</LabelStyle>
			<LineStyle>
				<color>ff0055ff</color>
				<width>2.000000</width>
			</LineStyle>
			<PolyStyle>
				<color>00828282</color>
				<outline>1</outline>
			</PolyStyle>
		</Style>
		<Placemark id="ID_70023">
			<name>ELIA</name>
			<snippet />
			<description>&lt;html xmlns:fo="http://www.w3.org/1999/XSL/Format" xmlns:msxsl="urn:schemas-microsoft-com:xslt"&gt;

&lt;head&gt;

&lt;META http-equiv="Content-Type" content="text/html"&gt;

&lt;meta http-equiv="content-type" content="text/html; charset=UTF-8"&gt;

&lt;/head&gt;

&lt;body style="margin:0px 0px 0px 0px;overflow:auto;background:#FFFFFF;"&gt;

&lt;table style="font-family:Arial,Verdana,Times;font-size:12px;text-align:left;width:100%;border-collapse:collapse;padding:3px 3px 3px 3px"&gt;

&lt;tr style="text-align:center;font-weight:bold;background:#9CBCE2"&gt;

&lt;td&gt;2&lt;/td&gt;

&lt;/tr&gt;

&lt;tr&gt;

&lt;td&gt;

&lt;table style="font-family:Arial,Verdana,Times;font-size:12px;text-align:left;width:100%;border-spacing:0px; padding:3px 3px 3px 3px"&gt;

&lt;tr&gt;

&lt;td&gt;DIST_CODE&lt;/td&gt;

&lt;td&gt;2&lt;/td&gt;

&lt;/tr&gt;

&lt;tr bgcolor="#D4E4F3"&gt;

&lt;td&gt;VIL_CODE&lt;/td&gt;

&lt;td&gt;216&lt;/td&gt;

&lt;/tr&gt;

&lt;tr&gt;

&lt;td&gt;VIL_CCD&lt;/td&gt;

&lt;td&gt;2216&lt;/td&gt;

&lt;/tr&gt;

&lt;tr bgcolor="#D4E4F3"&gt;

&lt;td&gt;VIL_NM_E&lt;/td&gt;

&lt;td&gt;ELIA&lt;/td&gt;

&lt;/tr&gt;

&lt;tr&gt;

&lt;td&gt;VIL_NM_G&lt;/td&gt;

&lt;td&gt;ΕΛΙΑ&lt;/td&gt;

&lt;/tr&gt;

&lt;/table&gt;

&lt;/td&gt;

&lt;/tr&gt;

&lt;/table&gt;

&lt;/body&gt;&lt;script type="text/javascript"&gt;

				function changeImage(attElement, nameElement) {

				document.getElementById('imageAttachment').src = attElement;

				document.getElementById('imageName').innerHTML = nameElement;}

			&lt;/script&gt;&lt;/html&gt;

</description>
			<styleUrl>#PolyStyle70</styleUrl>
			<MultiGeometry>
				<Polygon>
					<extrude>0</extrude>
					<altitudeMode>clampToGround</altitudeMode>
					<outerBoundaryIs>
						<LinearRing>
							<coordinates> 33.21877376510794,35.32759681222262,0 33.21897394889695,35.32761934301136,0 33.21897364819174,35.32787287836808,0 33.2191175275568,35.32793671642239,0 33.21933753298489,35.3279884116897,0 33.21960558569591,35.3279886236846,0 33.21973955312364,35.32803889524872,0 33.21969291872633,35.3282978175851,0 33.2199807598872,35.32835498865102,0 33.21996756190972,35.32846002667382,0 33.21991227919251,35.32889997028693,0 33.21997503516128,35.32900306106331,0 33.22004944848542,35.32904379407596,0 33.21994681886368,35.329077608483,0 33.22012856841183,35.32930281569696,0 33.22018466854698,35.3294384410477,0 33.22041915583048,35.329846723209,0 33.22032974322694,35.32989681884365,0 33.22049978133408,35.33023454761829,0 33.22070454950335,35.33058993019581,0 33.22073916407284,35.33070520083285,0 33.22081493691343,35.33100082662615,0 33.22068571739908,35.33113088330651,0 33.22074845652656,35.33125024351375,0 33.22080446641931,35.331465860441,0 33.22086060102703,35.3315743692563,0 33.22087697460582,35.33172352073847,0 33.22093818194865,35.33173848261894,0 33.22098443721208,35.33180495300735,0 33.22102397090852,35.33195954610238,0 33.22120737020555,35.33219695589291,0 33.22132143814055,35.33229059482501,0 33.22141042272683,35.33261199065776,0 33.22160072942496,35.33260129238811,0 33.22186370657373,35.33271131610247,0 33.22227863123845,35.33307363638818,0 33.22221880575465,35.3332959427873,0 33.22211782712916,35.33332976049387,0 33.22214090893397,35.33340299184871,0 33.22208627864678,35.33342328664428,0 33.22184638870094,35.33338107125375,0 33.22181647101119,35.33349629226592,0 33.22165426195515,35.33353277370638,0 33.22145409804379,35.33347838642887,0 33.2212720833861,35.33347146632035,0 33.22096202329586,35.33400541186561,0 33.22077346749217,35.3339306960512,0 33.22060802958123,35.33389667094247,0 33.22054178139036,35.33394678392779,0 33.22051183768455,35.33408234150314,0 33.22039769546929,35.33405106818027,0 33.22037427522524,35.33420356780833,0 33.22036724308936,35.33424935971033,0 33.22036414819075,35.3343257028836,0 33.22033103382943,35.33437246983662,0 33.22031586913265,35.33449067146699,0 33.22004075597182,35.33459142894487,0 33.21997596162779,35.33474283920256,0 33.22001039339526,35.33485369175562,0 33.2199697571252,35.33490784014125,0 33.22004333557059,35.33495469136389,0 33.21999044905174,35.33520339068204,0 33.22006077501248,35.33546080649948,0 33.22015522757987,35.3356468209176,0 33.21994027977777,35.33569590717808,0 33.21970573878957,35.33579546424522,0 33.21964569609717,35.33573877315249,0 33.21947646092809,35.33525470277102,0 33.21933216363257,35.33528537345986,0 33.2192193698396,35.33536162982463,0 33.21916217397456,35.33544039298786,0 33.21908232211509,35.33561518649518,0 33.21897246020306,35.33575301480121,0 33.21895132840317,35.33583180807973,0 33.21885205691662,35.33590930603911,0 33.21884293818902,35.33599549587201,0 33.21873915206256,35.33607791620998,0 33.21876610118275,35.33616167195536,0 33.21878221496566,35.33651140000667,0 33.21883607133223,35.33671585351392,0 33.21880593645789,35.33678232412056,0 33.21896954627609,35.33694253585063,0 33.21903390551856,35.33716054314343,0 33.21921864306978,35.33724565599618,0 33.21925011177886,35.33732079618517,0 33.21938986704313,35.3373209068021,0 33.21949501658733,35.33735793193073,0 33.21963892782939,35.3376572733583,0 33.21995266865991,35.33794320423527,0 33.22003815948421,35.33808488098812,0 33.22032045671907,35.33827473732885,0 33.22061771895299,35.33852001740318,0 33.22072130728601,35.33860875800885,0 33.2208609616931,35.33869752728322,0 33.22089093838247,35.33876650884887,0 33.2208967333435,35.33895122160547,0 33.22094922565783,35.33904238541708,0 33.22101666300342,35.33920375073137,0 33.22106314810144,35.33929121450983,0 33.22110350284151,35.33948088019065,0 33.22121308778053,35.33958440275926,0 33.22128206156739,35.33971744659456,0 33.22127893560045,35.33982088060772,0 33.22136140216926,35.33998348823326,0 33.22153396780629,35.34020527184814,0 33.22159096016825,35.34030382740201,0 33.22174382057788,35.34067336235618,0 33.22191795973242,35.34083604115258,0 33.22198223342681,35.34113778099824,0 33.22197154340945,35.34128677086019,0 33.22187225867291,35.34137165983104,0 33.22177753237963,35.34141345373568,0 33.22180315376193,35.34145677908528,0 33.22180533649505,35.34146047071742,0 33.22174608899568,35.34149276840949,0 33.22170196084787,35.34155163881901,0 33.22178756389189,35.34172461517473,0 33.2219219705397,35.3418064242647,0 33.22196590051784,35.34192046577536,0 33.22203306131243,35.34199842132765,0 33.22219988097538,35.34212585854938,0 33.22210694321502,35.34228159671162,0 33.22209522085674,35.34239179418563,0 33.22210435376277,35.34251720910792,0 33.2221922993725,35.34267118617298,0 33.2223011660069,35.34278147743284,0 33.22241236080647,35.34288416842436,0 33.22245161498864,35.34303050828233,0 33.22250480966121,35.34315595654414,0 33.22290827500695,35.34319426799615,0 33.22310300234889,35.34325522116799,0 33.22340890016451,35.3434435654004,0 33.22387703204881,35.34371943753253,0 33.22405326884887,35.3437290712013,0 33.22454021151987,35.34377694106499,0 33.22456094131203,35.34390236396937,0 33.22483734151407,35.34411506671339,0 33.22495151344722,35.34420292759908,0 33.22502149472372,35.34432392404245,0 33.22493352426347,35.3444175864297,0 33.22492680767359,35.34449364968614,0 33.22516498071361,35.34499778120733,0 33.22532910212829,35.34500605466972,0 33.22548798005638,35.34525611150546,0 33.22547778699683,35.34547887631484,0 33.22543959276529,35.34553589817699,0 33.22536331789636,35.34554670996972,0 33.22533505585495,35.34561732312999,0 33.22521724168779,35.34570960454343,0 33.22517225686892,35.34590925168694,0 33.2251770712634,35.34605324174463,0 33.22521181933586,35.34611439473566,0 33.22519010722823,35.34625836389926,0 33.22545837721525,35.34653838767166,0 33.22566553309335,35.3466132523297,0 33.22605817328555,35.34687163216593,0 33.22613434979188,35.34695183275144,0 33.22623849870185,35.34722494166383,0 33.22601785726087,35.34735110509562,0 33.22559308072994,35.34766457438524,0 33.22518332347986,35.34788839960527,0 33.22483297775901,35.34802984815619,0 33.22468613408036,35.3480884157478,0 33.22440544254168,35.34815470951722,0 33.22252412527542,35.34857320614776,0 33.22198897291347,35.34870904737473,0 33.22195693396868,35.34871718071629,0 33.22178637592155,35.34875960145666,0 33.2208704301981,35.34900059783077,0 33.2200525406479,35.34918012168794,0 33.2195723474109,35.34921274310537,0 33.2190594600121,35.34927031060344,0 33.21880571622958,35.34931737932596,0 33.21855302709125,35.34939298941226,0 33.2182926256243,35.34954440581188,0 33.21818364289418,35.34963083430016,0 33.21787528763625,35.34981967124558,0 33.21770319244536,35.34987393845412,0 33.21748431959839,35.34989427625446,0 33.21750737080026,35.34973999350841,0 33.21745868445176,35.34948308412567,0 33.21755045391251,35.34922539560088,0 33.21755494770199,35.34911034336955,0 33.21771644952754,35.34880989960306,0 33.21776834340479,35.34870571546804,0 33.21790279874966,35.3484357811888,0 33.21790511867768,35.34821526037945,0 33.21786621231449,35.34810580906607,0 33.21783144529591,35.34797111000415,0 33.21776789272825,35.34785322203814,0 33.21772894099589,35.34778248837501,0 33.21765715385045,35.34767806097523,0 33.21769629493824,35.34759224007301,0 33.21768400825754,35.34755856252837,0 33.21761216207602,35.34750463558752,0 33.21750324968743,35.34751969797136,0 33.21744574839585,35.34749608356715,0 33.21742730601553,35.34745566757976,0 33.21742125658631,35.34735971006339,0 33.2175488989486,35.34714770706956,0 33.21756360115489,35.34688174368903,0 33.21759454988602,35.34677403235843,0 33.2176891529846,35.34669835661578,0 33.2177959467999,35.34673547663026,0 33.21785969895558,35.34668502721029,0 33.21783728369028,35.34653182137436,0 33.21794833379742,35.34644605825301,0 33.21803665695998,35.34646632952062,0 33.21817040645915,35.34629809908236,0 33.21832686826895,35.34603561673612,0 33.21824686182105,35.34593286573269,0 33.21824692499366,35.34588068055396,0 33.21826140326989,35.34579988947271,0 33.21831715052373,35.34557099385969,0 33.21837266386013,35.3455373714754,0 33.21850822875921,35.34556778043907,0 33.21854316922949,35.34555770841398,0 33.21870765580374,35.3454551527088,0 33.21876120241632,35.34534745966062,0 33.21887847464964,35.34521119933449,0 33.21891756493837,35.34516577859987,0 33.21894036316492,35.34499914168757,0 33.21879247932416,35.34496198888396,0 33.2186199531686,35.34491471656995,0 33.21843291726776,35.34497516824919,0 33.21835284047603,35.34493301953106,0 33.21833029646515,35.34488586698932,0 33.21833467531572,35.34466029643141,0 33.21843760877939,35.34448699068503,0 33.21863910990879,35.34435584777597,0 33.21860221812383,35.34428006563263,0 33.21862083361034,35.34417571048411,0 33.21891474893138,35.34407662588492,0 33.21891889079939,35.34404969522753,0 33.21887581849727,35.34398737556945,0 33.21891293036758,35.3438779851525,0 33.21860073753324,35.34379861621272,0 33.21843852084248,35.34372273428105,0 33.21839548952148,35.34362842999612,0 33.218385437916,35.34344324991844,0 33.21834447616664,35.34333547984104,0 33.21839194181218,35.34315876251722,0 33.21836333261483,35.34302911899808,0 33.21836340497574,35.34296851674053,0 33.21846836129257,35.34282046378993,0 33.21846853896356,35.34267232523119,0 33.21837013428154,35.34249549105122,0 33.21832916378081,35.34239613890605,0 33.21837459454002,35.34220090198466,0 33.21833583938695,35.34196688042932,0 33.21816539752736,35.3418994083622,0 33.21808536643481,35.34182190833498,0 33.21801785701667,35.34158281331376,0 33.21804292877714,35.34145381198582,0 33.21805386306824,35.34139755457783,0 33.21804764438332,35.34130584277857,0 33.21786616398208,35.34100523782394,0 33.21771160487719,35.3408117846363,0 33.21768466955083,35.34071571501135,0 33.21769544753461,35.34050146127733,0 33.21762950518991,35.34035117925908,0 33.21766269383482,35.34024530617761,0 33.2178132054386,35.34005333061604,0 33.21781032621958,35.33994742872657,0 33.21775777757629,35.33990675148958,0 33.21751738376638,35.33986222637998,0 33.2174153275198,35.3397500877986,0 33.2172648850155,35.33988541853021,0 33.21712957370426,35.33993456484915,0 33.21702589137916,35.33992585986351,0 33.21688623238643,35.33984201309815,0 33.21676464896459,35.33972370032457,0 33.2167197718321,35.33955373183505,0 33.21672284593289,35.33949709021139,0 33.21679361087808,35.33938755439623,0 33.21672906065987,35.33932962607511,0 33.2166389286412,35.33930123025537,0 33.21649619021025,35.33927894887541,0 33.21634910307698,35.33912613703231,0 33.21628021473995,35.33893028957635,0 33.2163239509899,35.33880226108659,0 33.21641275769969,35.33868535149379,0 33.21660224050225,35.33857591236818,0 33.21624778045049,35.33841677273311,0 33.21594876640839,35.33838574286585,0 33.2158225935517,35.33833638351807,0 33.2157730522351,35.33829570724594,0 33.21570442824471,35.3378855974905,0 33.21578122053479,35.33776129055821,0 33.21582935847961,35.33772192538447,0 33.2158279375742,35.33765419765972,0 33.21561610146306,35.33761092474651,0 33.21538329844478,35.3375109904901,0 33.21529615956782,35.33749367884904,0 33.21514303590038,35.33736548739396,0 33.21507858091407,35.33723367494025,0 33.21516446585996,35.33704903845864,0 33.21514812863396,35.33689263738917,0 33.2150941337235,35.33680762737737,0 33.21485221626202,35.33678895559957,0 33.21479364600577,35.33675935393772,0 33.21473210564049,35.33670142728352,0 33.21471718821952,35.33661152352106,0 33.21472489816308,35.33645391148656,0 33.21474454634743,35.33636280518392,0 33.21483634433212,35.33625698191712,0 33.21498675934831,35.33614258773208,0 33.21500493617138,35.33602562082294,0 33.21485798210704,35.33577183200264,0 33.21464775816654,35.33564605517473,0 33.21454413153126,35.33559548264017,0 33.21443156887172,35.335482100866,0 33.21408148624793,35.33544240275037,0 33.21402292867285,35.33540294954619,0 33.21385632993886,35.33524026657476,0 33.21380533687496,35.33516141516002,0 33.21379946133562,35.33505304770702,0 33.21399353585476,35.33487342696178,0 33.21424739976494,35.33494875422206,0 33.21451639317228,35.33494159081856,0 33.21468761586692,35.33501069103261,0 33.21482570405036,35.33514010146078,0 33.21491288888221,35.33511800972027,0 33.2150347560459,35.33499866536891,0 33.21489052527534,35.3349751498322,0 33.21481849417022,35.33489504907057,0 33.21481556478138,35.3348334767737,0 33.21485770586052,35.33478179450563,0 33.21503515886653,35.33467234760855,0 33.21506079625635,35.33459848561774,0 33.21505640246821,35.33450612762707,0 33.21500235391878,35.33446667768645,0 33.2148009948023,35.33446404845265,0 33.21473504127155,35.33433100352468,0 33.21469584643784,35.33419897646763,0 33.21467959475555,35.33414423771431,0 33.2147467646402,35.33396583072977,0 33.21485929905982,35.33395778881447,0 33.21506603694797,35.33404473212254,0 33.21511727633306,35.33409222731131,0 33.21542663031891,35.33416298613971,0 33.21549282982353,35.33415626107462,0 33.21568484407212,35.33410761031826,0 33.21559566894821,35.33395839873406,0 33.21560568206971,35.33388926065142,0 33.21574815875999,35.33375379735374,0 33.21609404010533,35.33372425355798,0 33.21617024078106,35.33365788150878,0 33.21614886763786,35.33354397585962,0 33.21617389036693,35.33337858808001,0 33.21637587388201,35.33329333694581,0 33.21654653770604,35.33310908753892,0 33.21677199505592,35.33277031947794,0 33.21673732256237,35.33270656780466,0 33.2166496762912,35.3326617543314,0 33.21660022049879,35.33250850801739,0 33.21662514712916,35.33242175636253,0 33.21683388797631,35.3322199110335,0 33.21705083383831,35.33207501669526,0 33.21718018246587,35.33184327850157,0 33.21744190465354,35.33161435872766,0 33.21748991281193,35.33159677215173,0 33.21771826854348,35.33159288904498,0 33.21783732664503,35.33166077628145,0 33.21802263589149,35.33167719433473,0 33.2180558162709,35.3316053632993,0 33.2180659234542,35.33145623306926,0 33.21809921724265,35.33128949498515,0 33.21822849916414,35.33111063141481,0 33.21830645136655,35.3309588440034,0 33.21838267995579,35.33086399870632,0 33.21842260409981,35.33068777507442,0 33.21862138180371,35.33050761190648,0 33.21865297462844,35.33037883549371,0 33.21857373459814,35.33022420970399,0 33.21832738664273,35.33005453709401,0 33.21829442222581,35.32994740129794,0 33.21830781467068,35.3298172543791,0 33.21837091717298,35.32962884733643,0 33.21833296967259,35.32953662210334,0 33.21834298920469,35.32946070448249,0 33.21841426617206,35.32935500829949,0 33.21851525142983,35.32931305963429,0 33.21859651545914,35.32915720620816,0 33.21858041703327,35.32878163520063,0 33.21854080173819,35.32870025479552,0 33.2184004177478,35.32848050039493,0 33.21853296229349,35.32833553582412,0 33.21853965375118,35.32827452935647,0 33.2184868912315,35.32811856932585,0 33.21861950909702,35.32791123644536,0 33.21877376510794,35.32759681222262,0</coordinates>
						</LinearRing>
					</outerBoundaryIs>
				</Polygon>
			</MultiGeometry>
		</Placemark>
	</Document>
</kml>