<?xml version='1.0' encoding='UTF-8'?>
<kml xmlns="http://www.opengis.net/kml/2.2">
	<Document>
		<name>EMBA</name>
		<Style id="PolyStyle70">
			<LabelStyle>
				<color>00000000</color>
				<scale>0.000000</scale>
			</LabelStyle>
			<LineStyle>
				<color>ff0055ff</color>
				<width>2.000000</width>
			</LineStyle>
			<PolyStyle>
				<color>00828282</color>
				<outline>1</outline>
			</PolyStyle>
		</Style>
		<Placemark id="ID_70161">
			<name>EMBA</name>
			<snippet />
			<description>&lt;html xmlns:fo="http://www.w3.org/1999/XSL/Format" xmlns:msxsl="urn:schemas-microsoft-com:xslt"&gt;

&lt;head&gt;

&lt;META http-equiv="Content-Type" content="text/html"&gt;

&lt;meta http-equiv="content-type" content="text/html; charset=UTF-8"&gt;

&lt;/head&gt;

&lt;body style="margin:0px 0px 0px 0px;overflow:auto;background:#FFFFFF;"&gt;

&lt;table style="font-family:Arial,Verdana,Times;font-size:12px;text-align:left;width:100%;border-collapse:collapse;padding:3px 3px 3px 3px"&gt;

&lt;tr style="text-align:center;font-weight:bold;background:#9CBCE2"&gt;

&lt;td&gt;6&lt;/td&gt;

&lt;/tr&gt;

&lt;tr&gt;

&lt;td&gt;

&lt;table style="font-family:Arial,Verdana,Times;font-size:12px;text-align:left;width:100%;border-spacing:0px; padding:3px 3px 3px 3px"&gt;

&lt;tr&gt;

&lt;td&gt;DIST_CODE&lt;/td&gt;

&lt;td&gt;6&lt;/td&gt;

&lt;/tr&gt;

&lt;tr bgcolor="#D4E4F3"&gt;

&lt;td&gt;VIL_CODE&lt;/td&gt;

&lt;td&gt;22&lt;/td&gt;

&lt;/tr&gt;

&lt;tr&gt;

&lt;td&gt;VIL_CCD&lt;/td&gt;

&lt;td&gt;6022&lt;/td&gt;

&lt;/tr&gt;

&lt;tr bgcolor="#D4E4F3"&gt;

&lt;td&gt;VIL_NM_E&lt;/td&gt;

&lt;td&gt;EMBA&lt;/td&gt;

&lt;/tr&gt;

&lt;tr&gt;

&lt;td&gt;VIL_NM_G&lt;/td&gt;

&lt;td&gt;ΕΜΠΑ&lt;/td&gt;

&lt;/tr&gt;

&lt;/table&gt;

&lt;/td&gt;

&lt;/tr&gt;

&lt;/table&gt;

&lt;/body&gt;&lt;script type="text/javascript"&gt;

				function changeImage(attElement, nameElement) {

				document.getElementById('imageAttachment').src = attElement;

				document.getElementById('imageName').innerHTML = nameElement;}

			&lt;/script&gt;&lt;/html&gt;

</description>
			<styleUrl>#PolyStyle70</styleUrl>
			<MultiGeometry>
				<Polygon>
					<extrude>0</extrude>
					<altitudeMode>clampToGround</altitudeMode>
					<outerBoundaryIs>
						<LinearRing>
							<coordinates> 32.42524113625362,34.82433976658751,0 32.42521459501787,34.82441386021403,0 32.42549001721309,34.82453526603157,0 32.42542763097773,34.82465154540765,0 32.42542636696713,34.82506807598612,0 32.42556034165126,34.82517783222777,0 32.42571592044268,34.82537264723857,0 32.42590279083259,34.82564993805126,0 32.42552679100039,34.82560473912168,0 32.42527709667073,34.82548352343933,0 32.42504432870106,34.82528549186623,0 32.4249833584115,34.82526912476341,0 32.42492644156649,34.8251758525709,0 32.42484697894816,34.82508506269906,0 32.42472217650445,34.82502047413702,0 32.42451162411164,34.82485178653503,0 32.42437173553713,34.82469422944819,0 32.42425618978565,34.82466685230216,0 32.42402600763855,34.82452720364204,0 32.42389224627374,34.82439887349324,0 32.42365967963102,34.8241822678909,0 32.42358678713155,34.82407826348553,0 32.42341464309578,34.82392842653393,0 32.42305585432663,34.82377987505568,0 32.42305334972919,34.82377740135088,0 32.42278522626118,34.82351257789709,0 32.42254235125396,34.82335691616502,0 32.42224969129717,34.82304435298695,0 32.42219134771044,34.82308372117182,0 32.42195787255575,34.82295200545195,0 32.42175045516036,34.82279129487567,0 32.42148144530629,34.82267258296854,0 32.42135472411014,34.82248858633461,0 32.42116069526725,34.82228021808681,0 32.42107612965592,34.82266164605221,0 32.42095835655996,34.82313834033392,0 32.42080676737559,34.82346886754843,0 32.42065528394976,34.82370450066865,0 32.42061586379409,34.82376581806922,0 32.42052895112894,34.82390101107698,0 32.4205973097336,34.82435231075166,0 32.42055157672485,34.82460398986628,0 32.42048176196185,34.824692210091,0 32.42051467934628,34.82483443710258,0 32.42040280614368,34.82483005775715,0 32.42033264338683,34.82485977471794,0 32.42032827872701,34.82484694448987,0 32.42025761012384,34.82453357714017,0 32.42019080775489,34.82449811173362,0 32.42010879419939,34.8244328921425,0 32.41996673858824,34.82426812351795,0 32.41957491923046,34.82444224170038,0 32.41941488281782,34.82453602451136,0 32.41925011179625,34.8246386636711,0 32.41908336474332,34.82475489225979,0 32.41896733409543,34.82480676309843,0 32.41797166589316,34.82375319723965,0 32.41785016215585,34.82362555013062,0 32.41765031244106,34.82375165949415,0 32.41729976365225,34.82397286068417,0 32.41712538368854,34.82377633764447,0 32.41686267270357,34.8237478868785,0 32.41671736596662,34.82373214984462,0 32.41671774863851,34.82369771675337,0 32.41674757758631,34.82334080381737,0 32.41682155965997,34.82325510539347,0 32.41758134418654,34.82237497416426,0 32.41765034295835,34.82240983312791,0 32.41784097119405,34.82210987961999,0 32.41781573431378,34.82188078094865,0 32.41745930056406,34.82169495882648,0 32.41695767395835,34.82188382676581,0 32.41653577464665,34.82155253233213,0 32.41652936139115,34.82150479476507,0 32.4165994869136,34.8212268210137,0 32.41650357821646,34.82111545534602,0 32.41644252381231,34.8209890945874,0 32.41690651643354,34.82085716980862,0 32.41644226252005,34.82059231897264,0 32.41629709945043,34.82054353091188,0 32.41603328447412,34.82055870000625,0 32.41583152846307,34.82060867626778,0 32.41565086024792,34.82063401260099,0 32.41547973360876,34.82063271553927,0 32.41509535165611,34.82046575004771,0 32.41473891012632,34.82028182828274,0 32.41461336218799,34.82013208585002,0 32.41449092678887,34.81990987902165,0 32.4144667706996,34.81958350160214,0 32.41442613400611,34.81949353809987,0 32.413990321798,34.81882123034467,0 32.41420047397398,34.8186575585342,0 32.41371791743984,34.81821507178906,0 32.4137302879907,34.81810808737757,0 32.41345007264461,34.81793618109261,0 32.41325323926035,34.81782658618195,0 32.41300039986614,34.81771943680623,0 32.41296918111563,34.81747754832023,0 32.41233758757345,34.81737128566878,0 32.41223738366335,34.8171046194787,0 32.4121406086465,34.81681895662128,0 32.412044143025,34.81648983681511,0 32.41192402761515,34.81624480239999,0 32.41158782829058,34.8158194584864,0 32.41140256244265,34.81547361156668,0 32.41123044358438,34.8150586551612,0 32.41106909242737,34.81449318417651,0 32.41049087103163,34.81266980464952,0 32.41039090498109,34.81229831679904,0 32.41037116274126,34.81222495125916,0 32.41030260666343,34.81193934057897,0 32.41026224431605,34.81165968798852,0 32.41027067234299,34.81146760147757,0 32.41029354943937,34.81122900941765,0 32.41033797499106,34.81093812380013,0 32.41042483584604,34.81063579986935,0 32.41050434780955,34.81037419343384,0 32.41062126550468,34.80981584565126,0 32.41055910620838,34.8096234180532,0 32.41046817311975,34.80950653679164,0 32.4103916486256,34.8093489720934,0 32.41033625784309,34.80919733035064,0 32.41028805068559,34.80902825799999,0 32.41026807751379,34.80885932245996,0 32.41026242975252,34.80866134614686,0 32.41027812259897,34.80844018545571,0 32.41031079358928,34.80781738669647,0 32.41037970975924,34.80706085819037,0 32.41048948267225,34.8065141194955,0 32.41060228385406,34.80596672824668,0 32.41063570607786,34.80580453985036,0 32.41080206494685,34.80524060847335,0 32.41090962247273,34.80497314271583,0 32.41109478754677,34.80422477522961,0 32.41151208111129,34.80350395671572,0 32.41240013773691,34.80256154680426,0 32.4130533681551,34.80181946355831,0 32.41325949800427,34.80147154672881,0 32.41327557508848,34.80144511466466,0 32.41332967015579,34.8013530525748,0 32.41345948324505,34.8011321248345,0 32.41350119070555,34.80107416036012,0 32.41352107923364,34.801046519768,0 32.41352336638079,34.80104299083108,0 32.41356122555985,34.80099016763803,0 32.4136765422801,34.80081152219666,0 32.4139447996617,34.80036950721284,0 32.41408206429267,34.80015806174274,0 32.41418291638756,34.79999687557154,0 32.41430899555247,34.79981468904963,0 32.41441629759655,34.79964732638735,0 32.41451043068248,34.79950564903932,0 32.41452796653979,34.79947216733271,0 32.41463618118394,34.79926554928048,0 32.41473801286522,34.79908961163262,0 32.41483805365522,34.79887414609103,0 32.41496361778202,34.79859858866708,0 32.41502598665757,34.79846418426327,0 32.41508302983935,34.79832456372786,0 32.415164110315,34.79809001789045,0 32.41516416587561,34.79808988744841,0 32.4153020248384,34.79776649782222,0 32.41551970085481,34.79738018852075,0 32.41563034341871,34.79722566554579,0 32.41578849053818,34.79701555143068,0 32.41588526203477,34.7969027921279,0 32.41597375913383,34.79678425175644,0 32.41641701530188,34.79640063840866,0 32.41654194130762,34.79629533777644,0 32.41668827367054,34.79616575831074,0 32.41685129376364,34.79602119102093,0 32.41707351413593,34.7958353956618,0 32.41728778229879,34.79561531963684,0 32.41732336824509,34.79557876976904,0 32.41738521732531,34.79547497273852,0 32.41738926127368,34.79546818530792,0 32.41759546439631,34.79531521763049,0 32.41765526441203,34.79525503774281,0 32.41790048182092,34.79502047286793,0 32.41793404732857,34.79498850509832,0 32.41794291950949,34.79498008569127,0 32.41791057357002,34.79497037571036,0 32.41808939329432,34.79479924736142,0 32.41840136018878,34.79447897683562,0 32.41859643877195,34.79427735209372,0 32.41860746913447,34.79426595105908,0 32.41865458775487,34.79424683929041,0 32.41883310096495,34.79408671405772,0 32.41905073191311,34.79382817731555,0 32.41930923159389,34.79353646466273,0 32.41936169683326,34.7934444892912,0 32.41954960403373,34.79311507091204,0 32.41969314446859,34.79291429559393,0 32.41986496589864,34.79269714317527,0 32.42014976887797,34.79233683794841,0 32.42031632111271,34.79212716877454,0 32.42051633068623,34.7918907082237,0 32.42066878721676,34.79170793538843,0 32.42113220558852,34.79117910660268,0 32.42129195105759,34.79100680362176,0 32.42131532580443,34.79092205472373,0 32.4213264290869,34.79088179588644,0 32.42140473501684,34.79083436643568,0 32.42148259056319,34.7907662989609,0 32.42154220805811,34.79071541640679,0 32.42162492382947,34.79064607385881,0 32.42170503105958,34.79058097907911,0 32.42194071312352,34.79040610989759,0 32.4220234793537,34.79034635686275,0 32.42204055419976,34.79033531954371,0 32.42207958906646,34.79031029964167,0 32.42218438960996,34.79025439120147,0 32.42230583943456,34.79019579336038,0 32.42245844393067,34.79012431106539,0 32.42248594832646,34.79011280574195,0 32.42261970784411,34.79006597393295,0 32.42307680159601,34.78995736571427,0 32.42311906864089,34.78993917570517,0 32.42320379445946,34.78990271451977,0 32.42326564113553,34.78985078968508,0 32.42332298631635,34.78978373530283,0 32.42335924026254,34.78973900797939,0 32.42340945519756,34.78968032663391,0 32.42346420428351,34.78947034867755,0 32.42349365959058,34.7892610423563,0 32.42350172915656,34.78918612015813,0 32.42351100293332,34.7891000347792,0 32.42363693113769,34.78913567294765,0 32.42371630350402,34.78918017712185,0 32.42390045569989,34.78922262252819,0 32.42408736820891,34.78924808851043,0 32.42427825828221,34.78930262473547,0 32.42440997519051,34.78935034809372,0 32.42453031213666,34.7894971546376,0 32.42459503239799,34.7896258414626,0 32.42464035181222,34.78972250922688,0 32.42468249623558,34.78979507089467,0 32.42475230986032,34.78985012838319,0 32.42499253218519,34.78994823712228,0 32.42509156243443,34.79000138525856,0 32.42521438703304,34.79007737557311,0 32.42541319737508,34.79018310793698,0 32.42551438924676,34.79023692398793,0 32.42558839695473,34.7902813484381,0 32.42574553907657,34.79034540099462,0 32.42593637057129,34.79040970239048,0 32.42600539849168,34.79042191256231,0 32.42617189820297,34.79043923010325,0 32.42622321053229,34.79044984671339,0 32.42627605001061,34.79048387737618,0 32.42641148513751,34.79058872162987,0 32.42648896348221,34.79064048521425,0 32.4266036208772,34.79069096987526,0 32.42675255988556,34.79075655100185,0 32.42686757993921,34.79075355990334,0 32.42699483731154,34.79074294871435,0 32.42704440653173,34.79074100778141,0 32.4271779311602,34.79075589347795,0 32.42720493831845,34.790765351416,0 32.42722719807067,34.79078171369783,0 32.42725861387226,34.79081588199996,0 32.42732202099843,34.79083101179583,0 32.42754576884602,34.79088821974251,0 32.42769400150402,34.79092635105638,0 32.42799023823562,34.79102343360653,0 32.42815453603504,34.79113186409332,0 32.42824455986795,34.79119269362705,0 32.42834644505734,34.79128060317115,0 32.428447178139,34.79138855621905,0 32.42850460998479,34.7914375732425,0 32.42873352856825,34.79153569095359,0 32.42876148975802,34.7915436124584,0 32.42880442319972,34.79155010421957,0 32.4289332837241,34.79156418185261,0 32.42893707572094,34.79156461160363,0 32.42896969910971,34.79156831093999,0 32.42903695461194,34.79157344286526,0 32.42908250074348,34.7915976916951,0 32.4291346004545,34.79162121854058,0 32.42918864267602,34.79163781876933,0 32.42922784575067,34.79164351133557,0 32.42926427836349,34.79164609894782,0 32.42929492747916,34.79166483673185,0 32.42947329959797,34.79176874398951,0 32.4294919379896,34.79177428238147,0 32.4295264088565,34.79178533789261,0 32.42961055790941,34.79178442607792,0 32.42968716984566,34.79178885599786,0 32.42979137172492,34.79183929317986,0 32.42987142121631,34.79187803900442,0 32.42991208740627,34.79193742275596,0 32.43000029691242,34.79204372751917,0 32.43010348650007,34.79208826786074,0 32.4303549229778,34.79222007754105,0 32.43041202038805,34.79223995385009,0 32.4304456699076,34.7922457570554,0 32.43058412149968,34.79230306416913,0 32.43100061774191,34.7925264361707,0 32.43120196554746,34.79261339210066,0 32.43142583755885,34.7927220605149,0 32.43157788393957,34.79276903546584,0 32.43163073174039,34.79279235740735,0 32.43177324472676,34.792864290025,0 32.43210659784778,34.79306064323133,0 32.43257354776659,34.79329549527363,0 32.43304067596772,34.7935936087404,0 32.43350849210325,34.7940669145873,0 32.43373860726159,34.79431544868604,0 32.43378977186325,34.79436943075844,0 32.4338028798205,34.79438326037947,0 32.43397589391798,34.79456868697656,0 32.43407647778157,34.79466974764536,0 32.43410567375705,34.79474555503549,0 32.4341012702282,34.794847238973,0 32.4341238454054,34.79491887614641,0 32.43414048008457,34.795079814193,0 32.43415264453663,34.7951009338659,0 32.43424549706867,34.79526868506007,0 32.4342127093635,34.79528047225702,0 32.43428470973874,34.79542270218296,0 32.43432020064402,34.79549335908269,0 32.43437758779795,34.79568361210984,0 32.43448732974718,34.7958397228413,0 32.43457910535107,34.79610093126593,0 32.43478347669689,34.79650356890352,0 32.43480549915501,34.79655210479814,0 32.43495446087466,34.79675892489586,0 32.43490212818102,34.79704076771015,0 32.43499773953289,34.79732909186127,0 32.43497079493121,34.79769795251302,0 32.43503974965638,34.79801864985281,0 32.43516960931902,34.79848902950119,0 32.43512050755529,34.7987763239228,0 32.4352203907379,34.79897241583598,0 32.43526018021995,34.79956155340692,0 32.43514809007608,34.79983096744056,0 32.43511783038112,34.80010583001292,0 32.43515314050094,34.80026025592386,0 32.43548553313919,34.80103310916316,0 32.43555676790592,34.80125197710633,0 32.43556490811328,34.80158196523006,0 32.43550152090785,34.80173593321501,0 32.43576738267712,34.80236278405676,0 32.43585941389149,34.80234924827426,0 32.43610179921271,34.80262482918128,0 32.43622155064472,34.80279766219272,0 32.4361381398142,34.80284018529252,0 32.43652514918038,34.80322759125943,0 32.43673782104854,34.80403845192158,0 32.43687870292218,34.80471185803915,0 32.43730153822823,34.80517660058103,0 32.43774582820883,34.80554288434946,0 32.43807980706474,34.80608862909664,0 32.43765189742931,34.80636946621814,0 32.43735870530399,34.80670234477681,0 32.43679495497472,34.80633122227023,0 32.43667949915233,34.80650209066052,0 32.43657991878267,34.80663018061484,0 32.43648033918996,34.80675827138846,0 32.43585135952954,34.80757380275389,0 32.43552853151139,34.80796129021946,0 32.43535929259019,34.80825903984423,0 32.43570826143583,34.80839159560863,0 32.4359393960078,34.80842827322778,0 32.43676321998934,34.80863534335661,0 32.4369083764655,34.80888693939182,0 32.43679755175176,34.80898593119392,0 32.43650243889087,34.80918790033678,0 32.43630282735338,34.80923023869131,0 32.43609343320918,34.80916870069964,0 32.43574224324147,34.80913246282734,0 32.43546840391254,34.80929126522665,0 32.43512534174729,34.80960116613025,0 32.43506664116006,34.80974798714985,0 32.43504477481687,34.80987767419271,0 32.43536405348883,34.80997866075101,0 32.43581443455091,34.81008458040444,0 32.43645827165867,34.81028224709333,0 32.43650491846928,34.81036466190297,0 32.43633674739203,34.8104114727963,0 32.43586924235192,34.81050881009432,0 32.43577435650079,34.81057759090799,0 32.43575911048613,34.81065284731454,0 32.43646487381982,34.81085334677144,0 32.43639102785637,34.81091357256865,0 32.4362070006993,34.8109776147895,0 32.43605485890909,34.81098123579897,0 32.43588718644725,34.8109545007178,0 32.43576194877609,34.8108587423441,0 32.43562068053378,34.81080617143851,0 32.43547360586428,34.81083577311288,0 32.43523668380724,34.81096446227763,0 32.43509420523439,34.81108926344124,0 32.43502527822162,34.81119710099596,0 32.43483061068737,34.81128272269078,0 32.43462436057913,34.8115283626764,0 32.43463882603479,34.81171446018652,0 32.43459659683217,34.81175319989875,0 32.43421863828802,34.81179470595578,0 32.434070526125,34.81197572147128,0 32.43371236357152,34.81219036934959,0 32.43328639435443,34.81234845860751,0 32.43309850376566,34.81246143982658,0 32.43244531559947,34.81265805858037,0 32.43241539131072,34.81274262464632,0 32.43220949110168,34.81281426965738,0 32.43210662389486,34.81283799058213,0 32.43204072553997,34.81281953251278,0 32.43202659460995,34.81274081047926,0 32.43196848895666,34.81265583360336,0 32.43188066734823,34.8126251721692,0 32.43160857801585,34.81272070808293,0 32.43158368535051,34.81288081379824,0 32.43191519075193,34.81316765514862,0 32.43177956072413,34.81327192697086,0 32.43179957474977,34.81365893027916,0 32.4317054825249,34.81374927851075,0 32.43158501401327,34.81372565427132,0 32.431524924034,34.8138617605426,0 32.43199548339097,34.81404719827927,0 32.43214354284672,34.81407102029004,0 32.43218692188732,34.81420787113008,0 32.43241935552037,34.81440581655055,0 32.43261470146591,34.81452384900643,0 32.43288709750231,34.81485577430804,0 32.43304617482494,34.81481709474994,0 32.43310087162131,34.81486300032219,0 32.43310029596378,34.81491704257719,0 32.43351821982207,34.81518743331167,0 32.43375048236452,34.81507816462547,0 32.43393893195212,34.81519614393583,0 32.43390335184007,34.81529829185227,0 32.43377471180663,34.81539408337538,0 32.43383125367553,34.81559076304524,0 32.43345067832233,34.81602324588365,0 32.43336974891341,34.81612375097492,0 32.43331464973171,34.81619217778153,0 32.43290313110219,34.81633793889144,0 32.43256695532421,34.81633888482131,0 32.43232530837903,34.81631684876962,0 32.43195380772024,34.81655417139621,0 32.43168271108903,34.81660291103699,0 32.43135900549045,34.81658703511396,0 32.43118236952032,34.81661956005572,0 32.43105054879383,34.816679451976,0 32.43097607634167,34.81674313839116,0 32.4308427279852,34.81694500058373,0 32.43031116275414,34.81719805842753,0 32.43031339796666,34.81775586254111,0 32.4303332090477,34.81782023424142,0 32.43046588609507,34.818064599175,0 32.43069550766251,34.81844488951837,0 32.43054989587034,34.81864328288898,0 32.43041618279283,34.81887894769991,0 32.43020643753293,34.81932365344079,0 32.43011209563522,34.81971173009204,0 32.43011032420812,34.81987736304512,0 32.42993931229948,34.82014994317217,0 32.42997219615942,34.82052542221761,0 32.42990813597036,34.82076497426865,0 32.42980768311219,34.82095693372782,0 32.42979005831511,34.82107174403326,0 32.42960046213198,34.82116501963873,0 32.42963852750071,34.82143912103845,0 32.42969567047803,34.82146320041166,0 32.42986909446467,34.82173152510015,0 32.42997931518872,34.82177627334478,0 32.43005583017013,34.8219052905626,0 32.43005510651279,34.82197289598792,0 32.43002579837009,34.82203015240098,0 32.42984810093402,34.82216070091241,0 32.42969986583518,34.82222047107489,0 32.42924061103044,34.82260927057642,0 32.42929731530582,34.82267391372073,0 32.42905290630674,34.82290877087301,0 32.42902855877324,34.82288492894525,0 32.42881882605532,34.82294425254589,0 32.42858391352703,34.82305747983988,0 32.42819756770628,34.82314593746984,0 32.42762484941638,34.82340882176868,0 32.42724956247009,34.82369116110058,0 32.42720417631303,34.82372266724656,0 32.42713765297874,34.8237967010717,0 32.42676127236049,34.82421556736706,0 32.42594227817857,34.82437142441439,0 32.42576864485476,34.82435954256614,0 32.42545455107302,34.82424316326991,0 32.42524113625362,34.82433976658751,0</coordinates>
						</LinearRing>
					</outerBoundaryIs>
				</Polygon>
			</MultiGeometry>
		</Placemark>
	</Document>
</kml>