<?xml version='1.0' encoding='UTF-8'?>
<kml xmlns="http://www.opengis.net/kml/2.2">
	<Document>
		<name>EPICHO</name>
		<Style id="PolyStyle70">
			<LabelStyle>
				<color>00000000</color>
				<scale>0.000000</scale>
			</LabelStyle>
			<LineStyle>
				<color>ff0055ff</color>
				<width>2.000000</width>
			</LineStyle>
			<PolyStyle>
				<color>00828282</color>
				<outline>1</outline>
			</PolyStyle>
		</Style>
		<Placemark id="ID_70431">
			<name>EPICHO</name>
			<snippet />
			<description>&lt;html xmlns:fo="http://www.w3.org/1999/XSL/Format" xmlns:msxsl="urn:schemas-microsoft-com:xslt"&gt;

&lt;head&gt;

&lt;META http-equiv="Content-Type" content="text/html"&gt;

&lt;meta http-equiv="content-type" content="text/html; charset=UTF-8"&gt;

&lt;/head&gt;

&lt;body style="margin:0px 0px 0px 0px;overflow:auto;background:#FFFFFF;"&gt;

&lt;table style="font-family:Arial,Verdana,Times;font-size:12px;text-align:left;width:100%;border-collapse:collapse;padding:3px 3px 3px 3px"&gt;

&lt;tr style="text-align:center;font-weight:bold;background:#9CBCE2"&gt;

&lt;td&gt;1&lt;/td&gt;

&lt;/tr&gt;

&lt;tr&gt;

&lt;td&gt;

&lt;table style="font-family:Arial,Verdana,Times;font-size:12px;text-align:left;width:100%;border-spacing:0px; padding:3px 3px 3px 3px"&gt;

&lt;tr&gt;

&lt;td&gt;DIST_CODE&lt;/td&gt;

&lt;td&gt;1&lt;/td&gt;

&lt;/tr&gt;

&lt;tr bgcolor="#D4E4F3"&gt;

&lt;td&gt;VIL_CODE&lt;/td&gt;

&lt;td&gt;135&lt;/td&gt;

&lt;/tr&gt;

&lt;tr&gt;

&lt;td&gt;VIL_CCD&lt;/td&gt;

&lt;td&gt;1135&lt;/td&gt;

&lt;/tr&gt;

&lt;tr bgcolor="#D4E4F3"&gt;

&lt;td&gt;VIL_NM_E&lt;/td&gt;

&lt;td&gt;EPICHO&lt;/td&gt;

&lt;/tr&gt;

&lt;tr&gt;

&lt;td&gt;VIL_NM_G&lt;/td&gt;

&lt;td&gt;ΕΠΙΧΟ&lt;/td&gt;

&lt;/tr&gt;

&lt;/table&gt;

&lt;/td&gt;

&lt;/tr&gt;

&lt;/table&gt;

&lt;/body&gt;&lt;script type="text/javascript"&gt;

				function changeImage(attElement, nameElement) {

				document.getElementById('imageAttachment').src = attElement;

				document.getElementById('imageName').innerHTML = nameElement;}

			&lt;/script&gt;&lt;/html&gt;

</description>
			<styleUrl>#PolyStyle70</styleUrl>
			<MultiGeometry>
				<Polygon>
					<extrude>0</extrude>
					<altitudeMode>clampToGround</altitudeMode>
					<outerBoundaryIs>
						<LinearRing>
							<coordinates> 33.54181964654067,35.2242227425286,0 33.54220331849761,35.22435287058921,0 33.54266829861795,35.22454252972792,0 33.54314074598222,35.22475837112614,0 33.54332497979243,35.22484254008875,0 33.54353054616092,35.22494674893439,0 33.54372940745051,35.22502108513611,0 33.54396305251821,35.22510214675373,0 33.54402602851345,35.22511889894788,0 33.54402009676541,35.2252418550154,0 33.54400725455049,35.22550802376308,0 33.54411658480612,35.22553362646222,0 33.54433520614356,35.22556988864976,0 33.54492998924772,35.22573991810057,0 33.54487251308036,35.22649257272974,0 33.54487295680066,35.22665014466951,0 33.54485387306455,35.22692729149786,0 33.54517684562789,35.22698237285162,0 33.54511993910234,35.22734924488691,0 33.54512014519599,35.22742259739466,0 33.54515686863756,35.22752983960071,0 33.54524335932123,35.2276736646046,0 33.54546246167688,35.22787836439102,0 33.54568131560655,35.22799476928228,0 33.54582549299408,35.22804747105694,0 33.54614527460419,35.22814330746976,0 33.54632604515713,35.22825706618574,0 33.54650023491711,35.22838442191222,0 33.54682519738544,35.22855495753803,0 33.54684420305914,35.22883474750461,0 33.54683136844064,35.22897876129384,0 33.54684168766092,35.22911458059622,0 33.54670490914627,35.22933625827379,0 33.54667367915053,35.22941510421644,0 33.54663653472817,35.2297439051949,0 33.54609148142371,35.22960774844204,0 33.5460549053213,35.22955348361177,0 33.54607928898422,35.22939450537988,0 33.54607404870295,35.22929807053653,0 33.54599720202049,35.22905370691033,0 33.54570408964619,35.22902302335309,0 33.5454887550024,35.22898132348558,0 33.54518568394103,35.22894114784668,0 33.54381456784051,35.22881605639405,0 33.54321676888316,35.2287587735123,0 33.54315247698759,35.22895342664081,0 33.54312866438387,35.2290255231233,0 33.54303867170297,35.22929815993356,0 33.54301358826532,35.22933321716716,0 33.54300121762262,35.22941187121243,0 33.54295357561612,35.22988488856579,0 33.54291047697287,35.23023163008168,0 33.5427919544873,35.23062213378437,0 33.54214740751407,35.23050912918435,0 33.54169609572396,35.23045831980641,0 33.54144417826997,35.23042205855486,0 33.54136654178487,35.23042449880441,0 33.5411196310471,35.23042783014193,0 33.54075321104624,35.23046868936519,0 33.54014896853869,35.23051113716471,0 33.54004760622256,35.23053428258179,0 33.54009422234304,35.23069719646489,0 33.54017196805844,35.23098746622284,0 33.5402845396161,35.23147682873337,0 33.54038178601701,35.23198917799823,0 33.54049289558726,35.23250069004757,0 33.54069794277428,35.23344462852987,0 33.54042714481113,35.23340506036936,0 33.53999995271509,35.23338751606164,0 33.53921860303868,35.23342020674823,0 33.53921398103593,35.23354518742241,0 33.53937050739604,35.23357206594422,0 33.53937257648087,35.23372216349659,0 33.53934036287748,35.23404891477391,0 33.53931233032855,35.23439060128567,0 33.53934772606718,35.23461874500561,0 33.53932824792865,35.23506161469136,0 33.53937298166741,35.23507307921019,0 33.53926713624565,35.23571715022263,0 33.53920345194225,35.23603920567011,0 33.53906900807817,35.23682052704809,0 33.53899033231251,35.23680912614248,0 33.53843197902602,35.23666480991066,0 33.53762029201749,35.23651348526015,0 33.53748112339782,35.23647910186906,0 33.53725645923904,35.23636065571144,0 33.53714293193748,35.23631807453955,0 33.53663431703329,35.23619675057289,0 33.53603794765861,35.2360732081395,0 33.53553606224068,35.23598990327866,0 33.53547858928936,35.23616523972562,0 33.53538459875534,35.23630668265287,0 33.5352756204837,35.23641555193266,0 33.53523792083294,35.23655689271452,0 33.53524852982111,35.23680681636936,0 33.53519435216414,35.23697671358899,0 33.53515394731017,35.23734219249162,0 33.53519910825337,35.23751190913657,0 33.53518773423764,35.23759207493193,0 33.53521274578434,35.2376572314137,0 33.53518485278762,35.23775101077253,0 33.5351221020015,35.23781225211386,0 33.53502602143958,35.23779340988233,0 33.53499788895514,35.23779889383751,0 33.53498860095105,35.23803798700553,0 33.53490815343869,35.23829079367376,0 33.53479926298165,35.23843362067908,0 33.53466880061477,35.2385588289749,0 33.53466427164204,35.23872184449197,0 33.53462806969925,35.23880477085216,0 33.5344511814872,35.23890561237372,0 33.53436020884697,35.23893973644801,0 33.53421779414268,35.23893048600259,0 33.53406141101151,35.23926900676555,0 33.5341725918184,35.23936117610603,0 33.53415785409138,35.23942233031992,0 33.53409339218329,35.23946319848903,0 33.53395597885959,35.23946752207366,0 33.53389655646115,35.23953554809305,0 33.53380221709324,35.23954930281118,0 33.53370773156708,35.23950872116085,0 33.53352723389223,35.23949953868064,0 33.53339147275695,35.23950249956872,0 33.53338008990769,35.23957994845927,0 33.53342168361585,35.23965458503316,0 33.53351954400656,35.2397196109527,0 33.53369986200298,35.23966087531497,0 33.53377438647341,35.23966753326321,0 33.53381587748046,35.23970413465595,0 33.53381397675027,35.2397651655056,0 33.53381127281694,35.23985200818431,0 33.5338330156818,35.23993347267412,0 33.5338713393679,35.24002305665689,0 33.53394764801924,35.24007725437339,0 33.53397927988431,35.24014104152739,0 33.53407078281398,35.24030388204737,0 33.53405928363783,35.24033786249849,0 33.53394844643299,35.24037473929267,0 33.53383098397206,35.24041026970308,0 33.53380787996378,35.24043883715501,0 33.53376852478598,35.24058153947982,0 33.53370763041319,35.24071884647214,0 33.53365651956032,35.24080044202919,0 33.53360537345841,35.24086845303675,0 33.53360544593887,35.24089562027972,0 33.53363694989908,35.24091186394302,0 33.53368333274506,35.24091993138294,0 33.53369831466396,35.24094978839732,0 33.53372179046821,35.24105977479528,0 33.53374835229367,35.24108553715104,0 33.53380966172463,35.24110308521872,0 33.53391896105744,35.24110967982789,0 33.53409121089819,35.24112838601661,0 33.53413431195233,35.24114732487372,0 33.53415597942289,35.24120026367969,0 33.53414953817312,35.24126819388145,0 33.53405705683656,35.24135801517894,0 33.5340389527378,35.24139879862984,0 33.53401442541508,35.24151430678469,0 33.53399803597409,35.24157682211859,0 33.53393368800483,35.2416611577873,0 33.53390239914102,35.24172505845487,0 33.53384295584162,35.24178629353436,0 33.53384968424033,35.24182567394165,0 33.53389472256395,35.2419492057417,0 33.53392640166063,35.24203065159055,0 33.5339232603344,35.24209450199601,0 33.53388689969196,35.24211901855237,0 33.53382067896442,35.24212321271716,0 33.53379262197146,35.24215722379956,0 33.53375353458513,35.24240044485835,0 33.53376515430823,35.24241129128233,0 33.53383308203539,35.24242611051215,0 33.53384802119682,35.24243966805599,0 33.53384653213825,35.24250215639528,0 33.53390803766682,35.24259169846031,0 33.53394459696217,35.24264053432029,0 33.53399924376045,35.24264315239463,0 33.53433041074911,35.2426452701495,0 33.53443809171575,35.24266545069342,0 33.53461870109727,35.24271266676062,0 33.53473136196872,35.24273691369841,0 33.53542680623922,35.24273972597138,0 33.53597984618948,35.24274007685252,0 33.53625144418961,35.24275724025329,0 33.53627161826931,35.24286994937803,0 33.53626502156772,35.24287947012381,0 33.53593885521765,35.24288957354069,0 33.5359278933178,35.24312187849085,0 33.53563648781866,35.2431278421715,0 33.53566372207587,35.24340218689182,0 33.53590559957549,35.24344928937966,0 33.53619218779141,35.24349766886349,0 33.53647528695333,35.24348085020448,0 33.53661437866555,35.24348195430689,0 33.53663101791884,35.24351180899865,0 33.53664129591699,35.24363811955608,0 33.53669484353489,35.24384449606913,0 33.53670533882858,35.24405095170741,0 33.5366943870095,35.24428597248185,0 33.53656202150485,35.2443228912452,0 33.53655380111807,35.24434464009066,0 33.53663573863679,35.24463926006217,0 33.53665903808258,35.24468268520672,0 33.53674218062486,35.24481157955224,0 33.53676382783908,35.24485636677397,0 33.53672940991644,35.24498683527355,0 33.53667018117323,35.24512685662228,0 33.53666883094519,35.24523960519149,0 33.53667717314914,35.2452626822395,0 33.53678467422848,35.24521494262058,0 33.53680953666868,35.24522440588253,0 33.53682292101772,35.24527464161453,0 33.53683189894203,35.24553136025972,0 33.53685345441022,35.24554218754358,0 33.53702057654591,35.24549841339503,0 33.53735149129704,35.24540407739088,0 33.53750209623035,35.24537527479351,0 33.53768582075056,35.24534776977948,0 33.5380053179346,35.24531729758275,0 33.53803186052836,35.24533490789133,0 33.53803269614545,35.24564054345635,0 33.53806415666739,35.24564048561464,0 33.53840674821533,35.24557736812669,0 33.5385541260712,35.24557981312949,0 33.53870655716159,35.24561349164436,0 33.53870166042996,35.24563930997853,0 33.5385925202734,35.24569248758878,0 33.5384668346427,35.24575113076034,0 33.53844870173113,35.24578104885224,0 33.53847198045445,35.24581632346599,0 33.53848196051773,35.2458326057211,0 33.53844564713736,35.24587478322108,0 33.5382207702858,35.24599201800669,0 33.53810204008644,35.24617154431562,0 33.53795845467386,35.24634568078307,0 33.5376074811174,35.24637213554219,0 33.53719363987023,35.24641908085612,0 33.536807939286,35.24646325619765,0 33.53637261138871,35.24652517936786,0 33.53622030793841,35.2465390414409,0 33.53585772374626,35.2465587200434,0 33.53570310578163,35.24694070818359,0 33.53572313033066,35.24699772364109,0 33.53577280678248,35.24699763352876,0 33.5361420381164,35.24698609311148,0 33.53631915592531,35.24696267743312,0 33.53648955620268,35.24690531293177,0 33.53658224429939,35.24689020143848,0 33.53686212965326,35.24690463152999,0 33.53702940187889,35.24691519176199,0 33.53709416379483,35.24698163517674,0 33.53707600475715,35.24700204363946,0 33.53697745667518,35.24701163353082,0 33.53652318822027,35.24705584087673,0 33.53649029477056,35.24711284471577,0 33.53614167587091,35.24712568480872,0 33.53614191429127,35.24721381147237,0 33.53648568891555,35.24724165491038,0 33.53645614048027,35.24731356712278,0 33.53650275725599,35.24744228365072,0 33.53649484409439,35.24757110038796,0 33.53647264031417,35.24791280478779,0 33.5365224026888,35.2479832152484,0 33.53660417446956,35.24827863170077,0 33.5366109380176,35.24833556337558,0 33.53637794104537,35.24833327740218,0 33.53619292370104,35.2483525971604,0 33.5358131896981,35.24847124450068,0 33.53500423483435,35.24874116703891,0 33.53510579858721,35.24901960517171,0 33.53513075492281,35.24908802386283,0 33.53467669316605,35.24922036191873,0 33.53423920677653,35.2493716486797,0 33.53394862560666,35.24946436956606,0 33.53383635577407,35.24949982299388,0 33.53373559089171,35.24951220709499,0 33.533510929107,35.24953837230558,0 33.53332259631721,35.2495549819448,0 33.53313421956661,35.24955532161698,0 33.5330817187284,35.24969642020205,0 33.53307535470383,35.24978862672411,0 33.53309584085751,35.25003399063612,0 33.53312442595067,35.25021832894184,0 33.5330157411779,35.25035952805794,0 33.5329679995431,35.25042604906987,0 33.53295671795263,35.25053317880701,0 33.53296692270963,35.25064162457163,0 33.53292275938303,35.25081117979328,0 33.53292479205836,35.25095353621278,0 33.53281758214125,35.25102829802336,0 33.53270752281303,35.25127389683918,0 33.53252592100372,35.25133794666821,0 33.5324334011436,35.25134489145464,0 33.53245498532042,35.25138281568974,0 33.5324385711228,35.25142487497378,0 33.532341292833,35.25150639806409,0 33.53233659280149,35.25160266872641,0 33.5322693645747,35.25179938179613,0 33.53225968182119,35.25188617024356,0 33.53228455905989,35.25192002111901,0 33.53234081542234,35.25194703582171,0 33.53237559293939,35.25197544567853,0 33.53236581271112,35.25202562872308,0 33.53233450308431,35.2520582241544,0 33.53231314977318,35.25210707088302,0 33.53234312189721,35.25219243378221,0 33.53236658996663,35.25231712533797,0 33.53241316963744,35.25243364157004,0 33.53237205380263,35.2525069286644,0 33.5323573514198,35.25257067835486,0 33.53231138403764,35.2526846479002,0 33.53230826708381,35.25275515562502,0 33.53229019423758,35.25279450632723,0 33.53223740517272,35.25282849599441,0 33.53221929977308,35.25285564488473,0 33.53216651173775,35.25288963451641,0 33.53210534608875,35.25288160990964,0 33.53208227362078,35.25290469918363,0 33.53207749596299,35.25297249835309,0 33.53212239937299,35.25307952694703,0 33.53218707343354,35.25316482650941,0 33.53233662308683,35.25347368273552,0 33.53223674203224,35.25381959289768,0 33.53221201555689,35.25384268586306,0 33.5321342998315,35.25382519929428,0 33.53204351268882,35.25386332472353,0 33.53196430774192,35.25390685250207,0 33.53175486654526,35.25406856878304,0 33.53165418959129,35.25411620183826,0 33.5314246099413,35.25416270997395,0 33.5313717090695,35.25415466943836,0 33.53099974292616,35.25409974529155,0 33.53099484389746,35.25412144671172,0 33.53100841550878,35.25425429161316,0 33.53100446467748,35.25427462508884,0 33.53098045991926,35.25439818303111,0 33.53069292383261,35.25462894037851,0 33.53063281467766,35.25475605657216,0 33.53057138604924,35.25469707660321,0 33.53037185393811,35.25470422306868,0 33.53013295255517,35.25485407013419,0 33.5300776285851,35.25491189966853,0 33.52996303566492,35.25488376212621,0 33.5297755403607,35.25483772412296,0 33.52964626510304,35.25479856001265,0 33.52959646700477,35.25475382177756,0 33.52956475149875,35.25465879047245,0 33.52956130710562,35.2546085366436,0 33.52961825274375,35.25453746081662,0 33.52970662213703,35.25445036695125,0 33.52974626475185,35.25441158292465,0 33.52974375126291,35.254400720615,0 33.52972719351739,35.25440142947004,0 33.52966023194644,35.25444229897099,0 33.52957835076099,35.25447776146745,0 33.52953785055047,35.25450500164904,0 33.52946603202024,35.25458866895222,0 33.52940248223166,35.25466756870954,0 33.52937190454374,35.2546900349983,0 33.52934873161954,35.2546941520032,0 33.52932134478537,35.25467042857252,0 33.52929054152769,35.25460731817877,0 33.52928964853295,35.25458286862352,0 33.5293846112118,35.25448421753958,0 33.52949362904937,35.2543773915859,0 33.52954236357959,35.25433247903975,0 33.52954895973505,35.25432159939631,0 33.52954065974287,35.25431414346979,0 33.5294735980665,35.25431697879407,0 33.52939163132891,35.2543198405285,0 33.52937587770462,35.25431171863065,0 33.52936949399162,35.25427752937654,0 33.52936915924455,35.25427573349474,0 33.52935918327346,35.25426080886468,0 33.52928792664399,35.25424259634955,0 33.52921922791353,35.25425290570181,0 33.52917869660357,35.25426859925805,0 33.52917208890569,35.25427787898752,0 33.52915642230108,35.25429988160837,0 33.52912772829384,35.25440928193805,0 33.52911622068138,35.25444122388183,0 33.52906905859592,35.25445421161557,0 33.52904594344697,35.25448074195516,0 33.52904605997436,35.25452488909777,0 33.52906192904541,35.25457715818516,0 33.52913341020732,35.25468094840046,0 33.52916501527819,35.25473387066717,0 33.52918657553123,35.25474605764857,0 33.52927678828758,35.25473027660162,0 33.52931074358393,35.25473293316881,0 33.52931492080276,35.2547465094673,0 33.52931605163538,35.25486197003031,0 33.52932437278756,35.25487757703217,0 33.52937496935218,35.25491076794897,0 33.52940242631939,35.25496097982841,0 33.52941328208892,35.25499559929891,0 33.52939699104131,35.25509818598982,0 33.52937806641432,35.25514372522636,0 33.52935576751833,35.25516617872872,0 33.52932866168389,35.25524908698095,0 33.52931459946238,35.25525454593778,0 33.52929471840035,35.25525118513143,0 33.52926735362647,35.25523629148475,0 33.52924003106057,35.25523701851186,0 33.52920611998903,35.25525134187387,0 33.52918137529829,35.25528806221978,0 33.52916165082159,35.25534447011869,0 33.52915924730828,35.25537503821261,0 33.52919503770723,35.25544561095509,0 33.52920835249193,35.25547071737088,0 33.52920429408744,35.25550196693231,0 33.5291771391413,35.25556653864911,0 33.52916573133786,35.25563651466043,0 33.52916001579253,35.25566776786067,0 33.52914350553861,35.25568681494448,0 33.52907650931653,35.255714780158,0 33.5289979641675,35.25575974531504,0 33.5289252577309,35.25582100072562,0 33.52890303393136,35.25587130095616,0 33.52890314375304,35.25591341100651,0 33.52891918273949,35.25603020352667,0 33.52894839015279,35.25611640974556,0 33.52898256794006,35.25620328558439,0 33.52903169673862,35.2563077945852,0 33.52904675535767,35.25636685727325,0 33.52903468748079,35.25650067977435,0 33.52902660708023,35.25657744210442,0 33.52904740805178,35.25661544064714,0 33.52909387713503,35.25665271402137,0 33.52916517359388,35.25668518894636,0 33.52932257215351,35.25671207816755,0 33.52940620290659,35.25671125171028,0 33.5294889795004,35.25670091670293,0 33.52953950606667,35.25670694034405,0 33.52957846481731,35.25672249256742,0 33.52968874482801,35.25678002880986,0 33.52977668783497,35.25684439602981,0 33.52980577949118,35.2568864539975,0 33.5297984737709,35.25694216132448,0 33.52977868026166,35.25697207994973,0 33.52973651952074,35.25699864421814,0 33.52966289044246,35.25702390401361,0 33.52958430429683,35.25705324886549,0 33.52947511064627,35.25709487274629,0 33.52933860589652,35.25714129955642,0 33.52925669853958,35.25716793296097,0 33.52912265706833,35.25720620481488,0 33.52900515051299,35.25723561761529,0 33.52891172820738,35.25729147598852,0 33.52883813077389,35.25732896232097,0 33.52881169264963,35.25735210082679,0 33.52880517375884,35.25739218469605,0 33.5287881260852,35.25752194026936,0 33.52880078994043,35.2576149683029,0 33.52879261717111,35.25765573362717,0 33.52876217457514,35.25773049794553,0 33.52871771687105,35.25782837980817,0 33.52870873985304,35.2578786563612,0 33.52871132537769,35.2579173664048,0 33.52871812588941,35.25798459381476,0 33.52871488467939,35.2580110886211,0 33.52868352242321,35.25805121612728,0 33.52857607497319,35.25812747507987,0 33.52849340088128,35.25817720188443,0 33.52840739130632,35.25821878393634,0 33.52830808767563,35.25824273084687,0 33.5282419342504,35.25827748559342,0 33.52816344366953,35.25834418486009,0 33.52806676815005,35.25842382067277,0 33.52802386256451,35.25848230624306,0 33.52801566613351,35.25851492136675,0 33.52803652790982,35.25857601217385,0 33.52809800852222,35.25865401130589,0 33.52813218650584,35.25874088734719,0 33.52812895172656,35.25877077849453,0 33.5280942512854,35.25880072314155,0 33.52805452288979,35.25880758563529,0 33.52800312122384,35.25878390362664,0 33.5279558338583,35.25875070674089,0 33.52789285291731,35.25873247895867,0 33.52785062439982,35.25873323284652,0 33.52778944305309,35.25876933755122,0 33.52767039899763,35.25884493689575,0 33.52760425473617,35.25888376637726,0 33.52754555895599,35.25892054606877,0 33.52753570730468,35.25895316476939,0 33.52754584779039,35.25903125368657,0 33.52755340438904,35.259071313071,0 33.52759487175163,35.25909569118132,0 33.52767612508724,35.25913494156256,0 33.52771100455112,35.25917359371616,0 33.52771031718249,35.25922793079157,0 33.527692316358,35.25931082326423,0 33.52761917532263,35.25952421860529,0 33.52760449537753,35.2596105019817,0 33.5276104147008,35.25965735586238,0 33.52762462778942,35.25970962780753,0 33.52760166619042,35.25979592656063,0 33.52758361661942,35.25986048071871,0 33.52755139913234,35.25988974285627,0 33.52744963824716,35.25992523920046,0 33.52741741517472,35.25995246331451,0 33.52736395786199,35.26009382842506,0 33.52734511028207,35.26016993175424,0 33.52736184216595,35.2602351040649,0 33.5273826301062,35.26026834906789,0 33.52743080845423,35.26032599572349,0 33.52744245857684,35.26034770867518,0 33.52742684942324,35.26039528015129,0 33.52738902419387,35.26049722483528,0 33.52737756354837,35.26054818452408,0 33.52739262069395,35.26060656864873,0 33.52742838107094,35.26066491661309,0 33.52744429774469,35.26073552415357,0 33.52744942592086,35.26079664215715,0 33.52745073725215,35.26098205946595,0 33.52746249329302,35.26104452497665,0 33.52748332887148,35.26109542771075,0 33.5275148891166,35.2611313695141,0 33.52756379193623,35.26114894226517,0 33.52756714721074,35.26116523713855,0 33.52754650892211,35.26118972377034,0 33.5274208167495,35.26125786410775,0 33.52731992898368,35.26131101810351,0 33.5272413499635,35.26134511526229,0 33.5271230664509,35.26139626181141,0 33.52707678365468,35.26143098163099,0 33.52707025150814,35.26146699032086,0 33.52708693504687,35.26151382526764,0 33.52711416575637,35.26153371449436,0 33.52731674736295,35.26168167787896,0 33.52733419876881,35.26171757755222,0 33.52733593713431,35.26175079199896,0 33.52732694184529,35.26178741535713,0 33.5273039290921,35.26183762134586,0 33.52725529050972,35.26188651662498,0 33.52719503148755,35.26191645068852,0 33.52714796239437,35.26193348174772,0 33.52710829388286,35.26193558440712,0 33.52689088986229,35.26192647372553,0 33.52680246432902,35.26193137373264,0 33.52670085200401,35.26195188882991,0 33.5266389442406,35.2619838596933,0 33.52657954193305,35.26202531561985,0 33.52655317705654,35.26205790153035,0 33.52649726275524,35.2621698559953,0 33.52647257795753,35.26221328624521,0 33.52646350142324,35.26221872498039,0 33.52644863003984,35.26222146316583,0 33.52618160459019,35.26220091320447,0 33.52595495996529,35.26213487224857,0 33.52584244353369,35.26209371499066,0 33.52572911167639,35.26205662727847,0 33.52512963222084,35.26196479326272,0 33.52461742911998,35.26206262317717,0 33.52455958874274,35.26206950176076,0 33.52446865004594,35.26206220271794,0 33.5244413735384,35.26206157189993,0 33.52404477436518,35.26211649033269,0 33.52400926698381,35.26212943193398,0 33.52371632142805,35.26231568608131,0 33.5235949563619,35.26236945110963,0 33.52351984453957,35.26241025512041,0 33.52345387403374,35.26247002505785,0 33.52337472888161,35.26254947761164,0 33.52328318596018,35.26262895128085,0 33.52324275399492,35.26265613767229,0 33.52316846926223,35.26269693969107,0 33.52291241317766,35.26276517113004,0 33.52279927807614,35.26280468509062,0 33.52260696866414,35.2629134808948,0 33.52258300831895,35.26291759009594,0 33.52231600177954,35.2629051664503,0 33.52225568449384,35.26291340488874,0 33.52220447732058,35.26292840666695,0 33.52203938377516,35.26301410622655,0 33.52143023762601,35.26302260257188,0 33.52135845763187,35.26307356922675,0 33.5209755073053,35.26329928910731,0 33.52084920896924,35.26336458410417,0 33.52059980498075,35.26344974682695,0 33.5205355034872,35.26351697048898,0 33.52048940178959,35.26359026321492,0 33.52046694334055,35.26353471245599,0 33.52044128951637,35.26352255326828,0 33.5203958200959,35.26351856284342,0 33.52030660296787,35.26353905171958,0 33.5202710752689,35.26354453522751,0 33.52025536636309,35.26354320563902,0 33.52023138033882,35.2635364673236,0 33.52020572124516,35.26352227460355,0 33.52008282448222,35.26329741466674,0 33.52007700124378,35.26328251020037,0 33.52007778106321,35.2632642044022,0 33.5201088862932,35.26314280493684,0 33.52011047133836,35.26311636345941,0 33.52009799844324,35.2630865562776,0 33.52007227492412,35.26304660246805,0 33.52003501723381,35.26302158265343,0 33.51997047850308,35.26299457535192,0 33.51989932404735,35.26296622364564,0 33.51988110106596,35.26295066216198,0 33.51986367385229,35.26292289712712,0 33.51985948979966,35.26290256653154,0 33.51987013938351,35.26286458544921,0 33.51987830538008,35.26282525215549,0 33.51987903028153,35.26278457623332,0 33.51985657460236,35.26272970227276,0 33.5198482477957,35.26270531164788,0 33.51984655262562,35.26268836674443,0 33.51985638207688,35.26265309782174,0 33.51985965081332,35.26263817861736,0 33.51985548796035,35.26262598285184,0 33.51982066754022,35.26258401112678,0 33.51981733319725,35.26257317017478,0 33.51982289404084,35.26248367565864,0 33.51978115344901,35.26231901214472,0 33.51975126648814,35.26226618555991,0 33.51910746367136,35.26229642234141,0 33.51899897098514,35.26220983189667,0 33.51890317290741,35.26224253277285,0 33.51826824484733,35.26284762407294,0 33.51794831781615,35.26315864653978,0 33.5177361202273,35.263249842866,0 33.51763871359745,35.26330084937022,0 33.5170131866353,35.26370457682607,0 33.51672319604639,35.26387378527687,0 33.51592334206353,35.26434048878032,0 33.51574698197995,35.26419104159005,0 33.51536509622655,35.26407026455355,0 33.51488904327707,35.26377966661505,0 33.51477036902169,35.26367733892133,0 33.51455146311561,35.26361564509504,0 33.514414770037,35.26354302462342,0 33.51429445867483,35.26344339582673,0 33.51415585985409,35.26326420709304,0 33.51409618443587,35.26307409622168,0 33.51404667650923,35.26300672764819,0 33.51391974829477,35.26289092162548,0 33.51390960245472,35.26277762290884,0 33.51373463523375,35.2625215997336,0 33.51359785858795,35.26241390429723,0 33.51352690200819,35.26231824128363,0 33.51345414555976,35.26215917851255,0 33.51339140286907,35.26205945500963,0 33.51338777468887,35.26192051415043,0 33.513235717661,35.26155721928262,0 33.51304417576571,35.2610995822418,0 33.51304868942544,35.26091652678652,0 33.51301047688438,35.26083523406487,0 33.51286122968877,35.2606307349515,0 33.51284707534798,35.26024703364612,0 33.51267002773122,35.26016461202794,0 33.5124699918861,35.26014459971247,0 33.5123474796138,35.26005937681259,0 33.51204961371747,35.25990799934738,0 33.51199316987322,35.25980504131258,0 33.5116926041061,35.25990451144134,0 33.51152387608823,35.25984512550474,0 33.51137640376994,35.25972687069247,0 33.51134668778643,35.25970304126999,0 33.51110956155339,35.25937936159023,0 33.51108289908606,35.25928855858444,0 33.5113528837184,35.25884473710867,0 33.51135756019999,35.25872812057319,0 33.51139038081386,35.25863044201799,0 33.5113956819958,35.25808671142914,0 33.51129571080294,35.25775196205675,0 33.51131513563313,35.25758244172597,0 33.51127485624454,35.25732759416731,0 33.51122469104823,35.25708496686243,0 33.51114663076376,35.25692645043816,0 33.51110489183439,35.25675160532883,0 33.51090261341454,35.25648210569486,0 33.51091362843706,35.2562515813954,0 33.51095573783809,35.25589355209249,0 33.51101143394323,35.25568736287947,0 33.51119042773955,35.25520979057931,0 33.51118504640005,35.25503353082465,0 33.5110162216688,35.25492939829026,0 33.51078081617455,35.25462740925491,0 33.51070769813028,35.2544607501923,0 33.51076543946209,35.25439846013106,0 33.51082050661788,35.25435150295517,0 33.51089005521227,35.25430881754136,0 33.51103868780397,35.25421759423976,0 33.51118148641865,35.25418260533822,0 33.51124086368217,35.25412963199418,0 33.51133140408162,35.2539776349507,0 33.5114254717596,35.25391647193061,0 33.51154911954359,35.25378475732215,0 33.51174060172733,35.25368140514867,0 33.51193033627741,35.25353873744371,0 33.51202118083467,35.25351282967842,0 33.51207729331468,35.25347748717237,0 33.51219628853293,35.25347322572873,0 33.51221932656094,35.25343115914796,0 33.51222085099893,35.25337827965507,0 33.51233945613105,35.25321267753613,0 33.51232272460084,35.25312864527976,0 33.51227454509458,35.25302703767314,0 33.5122924682269,35.25291990060104,0 33.51225930662641,35.25287656750865,0 33.51214005178515,35.25277372113469,0 33.51213336887714,35.25274390388142,0 33.51216962311833,35.252699103379,0 33.51224057755093,35.25265017910706,0 33.51231987662825,35.25263513562664,0 33.51246698250637,35.2526362515149,0 33.51254623263329,35.25260087119718,0 33.51260390519201,35.25252756389726,0 33.51266800063119,35.25237696501541,0 33.51270269962042,35.25237284112994,0 33.51281841137031,35.25237807549141,0 33.51284976324279,35.25235633118289,0 33.51282308775217,35.25226146780018,0 33.5128296259217,35.25223162970992,0 33.51290383892747,35.25216371812758,0 33.51292864428287,35.25216910058225,0 33.51294371028516,35.25224771262717,0 33.51298014158913,35.25227612558295,0 33.51327585223298,35.25221598646542,0 33.51341794916773,35.2521967729297,0 33.51345423629987,35.25216552953373,0 33.51345415638764,35.25213299011649,0 33.51338614422033,35.25203141660848,0 33.51341576630801,35.25197849090056,0 33.51347849385456,35.25194584905133,0 33.51360906057823,35.25194292344752,0 33.51367016508584,35.25192248583903,0 33.51370810459942,35.25189157967914,0 33.51372780427945,35.2518366363653,0 33.51367872580855,35.25170520380314,0 33.51368859973775,35.25168756157689,0 33.51383080239307,35.25171173315397,0 33.51394730149414,35.251702050694,0 33.51398692744322,35.25168436140579,0 33.51400415710525,35.25163348924637,0 33.51398411891686,35.25154946313621,0 33.5139427152099,35.25151563538395,0 33.5139005395859,35.25150417950073,0 33.51390462197001,35.25148383608243,0 33.51397310561966,35.25143898199574,0 33.51399036403799,35.25139963563961,0 33.51396709131962,35.25134544085809,0 33.5139139550222,35.25124452104922,0 33.5139169905021,35.25113333935638,0 33.5139481434308,35.25103092494194,0 33.51402954080299,35.25085995910328,0 33.5140195325172,35.25082269175689,0 33.51396067182609,35.25074618487034,0 33.51397216746493,35.25071566044138,0 33.51410979405131,35.25055951594911,0 33.51413665375672,35.25039067459986,0 33.51420997490585,35.25029768063242,0 33.51445698769757,35.25026473462923,0 33.51452386667361,35.25024089818258,0 33.51457497164438,35.25018658195535,0 33.5145748409134,35.25013302710576,0 33.51454583133268,35.25009850236309,0 33.51447631293914,35.25005726420202,0 33.51434314395446,35.25000799664729,0 33.51429675115298,35.24996129688999,0 33.51429050020135,35.24977081618873,0 33.51424988151444,35.24971936233903,0 33.51424316829803,35.249677343356,0 33.51426292672062,35.24964680541693,0 33.51458002544793,35.24955069917548,0 33.5146476117413,35.24947805180293,0 33.5147175594071,35.24935726974333,0 33.51475858716188,35.24923856935281,0 33.51475757849797,35.24916400078349,0 33.5146935997743,35.24902242383928,0 33.51470506503258,35.24897969750001,0 33.51476525110785,35.2489226546508,0 33.51495186425673,35.24886133495754,0 33.51501289495867,35.24881174820141,0 33.51514306320916,35.24864883514729,0 33.51523601248513,35.24847310416579,0 33.51530186719124,35.24836927698975,0 33.51550620409213,35.24812353729718,0 33.51549951727009,35.24809236455364,0 33.51541893890087,35.2479216657206,0 33.51537570716832,35.24781598469226,0 33.51536632452252,35.24769668929977,0 33.51539597166005,35.24765528800515,0 33.51560886119116,35.24752748957214,0 33.51567402917937,35.24748060611372,0 33.51572651392693,35.24731714364972,0 33.51574533423442,35.24724118807495,0 33.51577266893548,35.24704862808451,0 33.51577882539538,35.24700524822397,0 33.51579525695904,35.24695360219222,0 33.51580794918042,35.24672808978273,0 33.51579953571326,35.24667376798153,0 33.51575464583671,35.24660048969463,0 33.51573633065769,35.24655976862772,0 33.51572627805312,35.24651224118878,0 33.51575085362952,35.24640488858125,0 33.51574404304683,35.24632882949622,0 33.51572405436501,35.24628131915899,0 33.51564929015409,35.24617956466646,0 33.51559276309942,35.24608728795129,0 33.51558607327402,35.24606013085823,0 33.51562223129147,35.24595004191345,0 33.51562049853845,35.24591880208767,0 33.51559719948133,35.24587129771687,0 33.51551751508487,35.2457885678714,0 33.51533686285222,35.24572230528553,0 33.51511155657004,35.24567785117363,0 33.51506845014956,35.24565618881262,0 33.51496710825192,35.245519158844,0 33.51492052352271,35.24542958148952,0 33.51488716576874,35.24533183272611,0 33.51478412419168,35.24517714729843,0 33.51467778903351,35.24502925866299,0 33.51445874042014,35.24483401200489,0 33.51386090515903,35.24480375152827,0 33.513874612259,35.24431335195208,0 33.51364578594336,35.24418196386583,0 33.51330253207612,35.24397740898957,0 33.5134788050005,35.24360764007508,0 33.5133361775408,35.24351414469017,0 33.51299658138677,35.24345085653561,0 33.51272805612525,35.24333447345448,0 33.51278388947915,35.24314284967145,0 33.51285325877372,35.24307074192224,0 33.51287240947673,35.24277458278267,0 33.51294658362491,35.24263590575152,0 33.51342522158819,35.24268130773495,0 33.51362343995173,35.24248537567951,0 33.51363300102692,35.24233186258652,0 33.51388778667472,35.24224722494242,0 33.51379964545765,35.24208979640519,0 33.51370824051327,35.24195139175089,0 33.51361192721573,35.24183744425925,0 33.51338454010345,35.24161368329077,0 33.5131605633421,35.24142930853985,0 33.51286363872443,35.24120701858243,0 33.51247380062689,35.24090473536415,0 33.5122731520181,35.24078009015479,0 33.51204604208686,35.24066771347248,0 33.51179730841976,35.24051461961881,0 33.51146078086776,35.24034536767167,0 33.51127838163515,35.2402342761427,0 33.51109770550502,35.24015170664245,0 33.5108838476246,35.24004066442398,0 33.51076277695667,35.239956640365,0 33.51064226254667,35.23980479488748,0 33.51057241681472,35.23971678943676,0 33.51035783922125,35.23947986794413,0 33.51031639901367,35.23942705773849,0 33.51012704269741,35.23936974128225,0 33.51003192230745,35.23932921948573,0 33.50980349358504,35.2391733299572,0 33.50964455731895,35.23905156209891,0 33.50917800170389,35.23882860157968,0 33.50884064452065,35.23873016630164,0 33.5078468474902,35.23847414771848,0 33.50630734165112,35.23805899649891,0 33.50491010106867,35.23770054741931,0 33.50418995765024,35.23750169145866,0 33.50423987167024,35.23729078393652,0 33.50423713463731,35.23717961180374,0 33.50439360753158,35.23695701371111,0 33.50445014480106,35.23675219706034,0 33.50444907945417,35.23664915652564,0 33.50449414924938,35.23648842190401,0 33.50448293151356,35.23628303400397,0 33.5044975098014,35.23615624266839,0 33.50455681090923,35.23607480087747,0 33.50457229638191,35.235982580924,0 33.50460106292937,35.23591745700225,0 33.50460988706132,35.23580355504784,0 33.50468315065373,35.23568616198487,0 33.5047169757442,35.23566441573916,0 33.50477288566495,35.23554569423502,0 33.50477603000366,35.23547654338416,0 33.50474501388035,35.23528542217532,0 33.50482809490362,35.23512666155179,0 33.50484122651517,35.2350886775621,0 33.50484338426337,35.23495038135793,0 33.50480580967989,35.23478164175772,0 33.50470309183851,35.23466791376986,0 33.50469392294318,35.23463335428279,0 33.5047325647792,35.23455126660863,0 33.50479601199174,35.23447659840276,0 33.50483544362069,35.23437891710918,0 33.50481713706682,35.23432335750028,0 33.50473274188511,35.23427196926032,0 33.50478269259956,35.23407868687514,0 33.50477312573029,35.23387329564324,0 33.50470183708622,35.2337730771665,0 33.50454360246061,35.23359028949521,0 33.50448340855822,35.23364258254747,0 33.50435426171089,35.23353228597351,0 33.50428766733361,35.23331884858938,0 33.50422294013377,35.23319760389639,0 33.50414019387575,35.23314417844718,0 33.5039325648466,35.23300016848487,0 33.50399343914978,35.23292273153351,0 33.50415400529858,35.23268656971922,0 33.50420758552904,35.23256277793974,0 33.50427936928143,35.23239692664598,0 33.50440868078239,35.232149183034,0 33.50455860424535,35.2319277106633,0 33.50462333894902,35.2318379002539,0 33.50484316749625,35.23162980913787,0 33.50502201785098,35.2314757416476,0 33.50532720214083,35.23120950862003,0 33.50537807309119,35.23116760913552,0 33.50551256582758,35.23102845017739,0 33.50582242982921,35.23065563679555,0 33.50600752657789,35.23036261085215,0 33.50616969777263,35.2301087418689,0 33.5063245772748,35.22990108726797,0 33.50634834371349,35.22987002268115,0 33.50660100025099,35.22964298999688,0 33.50673890121718,35.22955677248822,0 33.50697610936707,35.22940395948085,0 33.50687168972983,35.22939468167151,0 33.50653549582229,35.22940330813082,0 33.50617796574066,35.22942747977656,0 33.50560925106501,35.22948570891729,0 33.50536516674602,35.22951172351392,0 33.50535403761132,35.229322204827,0 33.50536267991707,35.22915019316143,0 33.50540503172935,35.22898150025578,0 33.50542514895161,35.22879598032697,0 33.5054413308123,35.22868533570758,0 33.50541497049318,35.22866109583458,0 33.50540006003492,35.22861255466184,0 33.50541277001267,35.22842299861374,0 33.505469997978,35.22828800843094,0 33.50552898539203,35.22820292761529,0 33.50555404621382,35.22802212105737,0 33.50556464219269,35.22798433232424,0 33.50559078632804,35.22791549183378,0 33.5056726025262,35.22774943546489,0 33.50576525386976,35.22764811340837,0 33.50592367112075,35.22754871220249,0 33.50602212246395,35.22746761706366,0 33.50614262219702,35.22732375744713,0 33.50629278028847,35.22720818073222,0 33.50639131185798,35.22716080927464,0 33.50648421306112,35.22716605875591,0 33.50660469288091,35.22701477948294,0 33.50665887074638,35.22698265461779,0 33.50670543278635,35.22685779764588,0 33.50670177342406,35.22669997009461,0 33.5066860886928,35.2266716647363,0 33.506672751171,35.22659276938,0 33.50673863122624,35.2262938593146,0 33.50679743348188,35.22613121107435,0 33.50692954607347,35.2260331986312,0 33.50701651130665,35.22596223814578,0 33.5070164331408,35.225929187482,0 33.50700566997627,35.22589615362727,0 33.50699150082023,35.22581321276975,0 33.50701510570262,35.22571402312575,0 33.50699644525204,35.22546920736593,0 33.50699454227903,35.22535859226062,0 33.50699507632162,35.22530616921951,0 33.50699631095756,35.22518483164397,0 33.50698211533277,35.22512180783587,0 33.50680921577406,35.22503124159304,0 33.50663133718204,35.22493254924191,0 33.50631382717776,35.22483543133391,0 33.50598395035229,35.22474985690874,0 33.50586901801802,35.22471478671053,0 33.50582192118497,35.22471418308248,0 33.50579388964027,35.22474066565128,0 33.50573684748538,35.2247271966442,0 33.50570712165358,35.22473537918834,0 33.50562713666311,35.22480532888721,0 33.5055843301885,35.22487251015521,0 33.50556387743209,35.2249599918371,0 33.50556150522875,35.2250054161079,0 33.50553272876569,35.22506715119765,0 33.50549318600628,35.22511737911751,0 33.50546684169,35.22515877244751,0 33.50545867809162,35.22520081547334,0 33.50542733419901,35.22522391357422,0 33.50540670681418,35.2252361485312,0 33.50536039145979,35.22521723978871,0 33.50533145612442,35.2252105064661,0 33.50520253996156,35.22520189551095,0 33.505109984919,35.2251959396102,0 33.50501903508572,35.22516964355147,0 33.50499930697944,35.22521373856543,0 33.50497210034634,35.22523886452693,0 33.50492921946425,35.22527553857574,0 33.50492608999362,35.22530942919516,0 33.50492511818322,35.22531994877881,0 33.50466633024509,35.22540053527904,0 33.50450026982914,35.22539270127815,0 33.50438678104066,35.22536994556263,0 33.5041845470511,35.22536081873001,0 33.50405968532431,35.2253960870092,0 33.50391336114942,35.2253922686086,0 33.50379334408168,35.22538975752516,0 33.50372103682381,35.22540201075959,0 33.50352541113426,35.2254063625478,0 33.50359555923635,35.22531150668596,0 33.50382140641651,35.22500610598708,0 33.50424976717591,35.22444819539087,0 33.50438648749971,35.22425952344323,0 33.50403624829418,35.22429938924605,0 33.5039454128278,35.22432122393693,0 33.50349938007597,35.22438292992673,0 33.50336854835766,35.22439812238732,0 33.5030585214986,35.22443412157822,0 33.50336761437691,35.22399339813624,0 33.50343381421201,35.2238990040509,0 33.50353597659331,35.22377275420237,0 33.50372732935151,35.22362738440625,0 33.50416943130654,35.22329723055817,0 33.50418068450808,35.22316163101043,0 33.50424778223434,35.22287951611005,0 33.50426760032171,35.22216225620108,0 33.50427258454016,35.22146128920512,0 33.50429747748465,35.22079418709825,0 33.50496639093932,35.2206562021182,0 33.50497289253093,35.220610094479,0 33.50557600149055,35.22059830115159,0 33.50560761333367,35.22033691668722,0 33.50649558625379,35.22025010003353,0 33.50701928587818,35.22020046265377,0 33.50694832771994,35.21989009173053,0 33.50689461586951,35.21953495253956,0 33.50685201002367,35.21933503551684,0 33.50679449760815,35.21912022962609,0 33.50699883632599,35.21888331523795,0 33.50719454499868,35.21848981765755,0 33.50728878973877,35.21816427029136,0 33.50731703706942,35.21805339801919,0 33.50733986217921,35.21796380669313,0 33.5074053594083,35.21766078086638,0 33.50749207686559,35.21723139209557,0 33.50762483125317,35.21667152329918,0 33.50764295514183,35.21663617615721,0 33.50789607760507,35.21658007964631,0 33.50869509285893,35.2163818386397,0 33.50939322181638,35.21622043099228,0 33.50975550192045,35.21612883628639,0 33.5102749333818,35.21599759519847,0 33.51063226803032,35.21591551569728,0 33.51097471102911,35.21583617510472,0 33.51113349122411,35.21578565834046,0 33.51113496504545,35.21570958614305,0 33.51111818782633,35.21561588421313,0 33.51112640397545,35.21559141932126,0 33.51120223444125,35.21546224994714,0 33.51126492146073,35.21537385243757,0 33.51131107747386,35.21529499104425,0 33.51135384594858,35.21518353367518,0 33.51134219349917,35.21515638543494,0 33.51124263876721,35.21505602483951,0 33.51123431106774,35.21503430420312,0 33.51126231143414,35.21497720678453,0 33.51133152748274,35.21485076399482,0 33.51139925352113,35.21479360241754,0 33.51153317512779,35.21473089885882,0 33.51158432254245,35.21466289597051,0 33.51161223823441,35.21457047990004,0 33.51160212004231,35.21449306763529,0 33.51156383833835,35.21440483517613,0 33.51156039686476,35.2143505043764,0 33.51159998113803,35.21429202928937,0 33.51170749406661,35.21426061239335,0 33.51181513707094,35.21428353027829,0 33.51182180772211,35.21430389498959,0 33.51188474450822,35.21432009359055,0 33.51189622294297,35.21427524807913,0 33.51196031292798,35.21408361056214,0 33.51204086990783,35.21385662770103,0 33.5120982316713,35.21362017469904,0 33.5121327792746,35.21353318111512,0 33.5121556306805,35.21340002123303,0 33.51220835345227,35.21329941465488,0 33.51221629604673,35.21316084552614,0 33.51219449853109,35.21304541815456,0 33.51212304135241,35.21292735336806,0 33.51202994922371,35.21276042225375,0 33.51196514158232,35.21265457364787,0 33.51189552229575,35.21261257597055,0 33.51180273317267,35.21257061670706,0 33.51159077914944,35.21253292603782,0 33.5114550051083,35.21251141214856,0 33.51142683096477,35.21249651500182,0 33.5114644678363,35.21231714639976,0 33.51151504202689,35.2120114256613,0 33.51154962428669,35.21193801683796,0 33.51158731241325,35.21178038124519,0 33.5116132316035,35.21154669599203,0 33.51160619961951,35.21137555010426,0 33.51157789283625,35.2113049588082,0 33.51157613500579,35.21126285175226,0 33.51159413207953,35.21117588585435,0 33.51163879504153,35.21116494631464,0 33.51170972749205,35.21106566822724,0 33.51176081351817,35.21097321453841,0 33.51175906992943,35.2109365409686,0 33.51170747805586,35.21081814313581,0 33.51171178178956,35.21079408502236,0 33.51174603759801,35.21060259974535,0 33.51173506683169,35.21054922826452,0 33.51164163227241,35.21046929805284,0 33.51183217524843,35.21035509132646,0 33.51196168676272,35.21010929325374,0 33.51196579070518,35.21001318650048,0 33.51199583095526,35.20988144560354,0 33.51208443383882,35.2097567266941,0 33.51236575391037,35.20952135863148,0 33.51249573591515,35.20947131709192,0 33.51256687523325,35.20929857746349,0 33.51271391094503,35.20912749406436,0 33.51292147770831,35.20888156719369,0 33.51326792520722,35.20867990331593,0 33.51346691118518,35.20847314099089,0 33.51355556130728,35.20836977730121,0 33.51360707381269,35.20815257835931,0 33.51373876294669,35.20791389184048,0 33.5138099273589,35.20775360848678,0 33.51389427058051,35.20766270914057,0 33.51414545637088,35.20752348483098,0 33.51428615855338,35.2074253754724,0 33.51453723934294,35.20724344047674,0 33.51463473059002,35.20720946758808,0 33.51467358617175,35.20713821831966,0 33.51472533019308,35.20701711724028,0 33.51478161380054,35.20697965256859,0 33.51497244152603,35.20698645691202,0 33.51500925943068,35.20696859982113,0 33.51503724604314,35.20688669091597,0 33.51506754157062,35.20686172618788,0 33.51514345833267,35.20687227843288,0 33.51522580170099,35.20685078789477,0 33.5154339127026,35.20683264605389,0 33.51557704670377,35.20684308854287,0 33.51569384663176,35.20672543904942,0 33.51603395375555,35.20659674243778,0 33.5161486224291,35.20649511288861,0 33.51643259432846,35.20640345437916,0 33.51645479569945,35.20640388429156,0 33.51648221063906,35.20644025451526,0 33.51651698305654,35.20645933903712,0 33.51655059896796,35.20647095419901,0 33.51658128721337,35.20646769186483,0 33.51671438517278,35.20645354097969,0 33.5170755616705,35.20628296603401,0 33.51731055888686,35.20626638633662,0 33.51749599401675,35.20614736469917,0 33.51779650594611,35.20603894226304,0 33.51803779893838,35.20591038403134,0 33.51811491151547,35.20585494612229,0 33.51821801728965,35.20567805518498,0 33.51849501047649,35.20536597270114,0 33.51864584755224,35.20521598073757,0 33.51885599926586,35.20512389539755,0 33.51913164785614,35.20493322295427,0 33.51922659783828,35.20478197626361,0 33.51932654272765,35.20465635157655,0 33.51945121554848,35.20456036192623,0 33.51968853068761,35.20415930983179,0 33.52003973739386,35.20352803393961,0 33.52011627110053,35.20339046572256,0 33.52012600797735,35.20331437943816,0 33.52015056313542,35.20320838373297,0 33.5203154926223,35.20299619394185,0 33.5203813403192,35.2028616018703,0 33.5204473798895,35.20280307864138,0 33.52059901530677,35.20256781965432,0 33.52074325965462,35.20202693339171,0 33.5208187218128,35.20176870986876,0 33.52112408035253,35.20147342007343,0 33.52129756081209,35.20137260335031,0 33.52149042200184,35.20108429496499,0 33.52150510393005,35.20100140793107,0 33.52159593484605,35.20093333348015,0 33.52111236681898,35.20076571612937,0 33.52024641832377,35.20052946553925,0 33.51950633275891,35.20033782463145,0 33.51958474579877,35.1999356071904,0 33.51917578060086,35.19982219123646,0 33.51875697983557,35.19974546727751,0 33.51836628122028,35.1996578274757,0 33.51791279475201,35.19960425152875,0 33.51676994405589,35.19946667275614,0 33.51656386239782,35.19940808310578,0 33.51692979761684,35.19886285148559,0 33.51701395738393,35.19877305667222,0 33.5173400001509,35.19814357568205,0 33.51775905576211,35.19699367289547,0 33.51769762233625,35.19690683819519,0 33.51733623830885,35.1966248948038,0 33.51700355896503,35.19657518894346,0 33.51655688289047,35.19657964334262,0 33.5161290007043,35.19658390782792,0 33.51559755862412,35.1966021010214,0 33.51426928729996,35.19678087842983,0 33.51387708989122,35.19681787951176,0 33.51385086613539,35.19628606819422,0 33.51384916162415,35.19625150094335,0 33.51389337419129,35.1962345529487,0 33.51411095275717,35.19616920192853,0 33.51419779640784,35.19615551882971,0 33.51445378252195,35.19605670328087,0 33.5146186018079,35.19600227042418,0 33.51482509219318,35.19589992636862,0 33.51518193338525,35.19567276110506,0 33.51545883772242,35.19558474138967,0 33.515688466984,35.19550131392337,0 33.51590049777076,35.19541701183586,0 33.51600152688274,35.19535997431792,0 33.51619579185411,35.19520619372005,0 33.51644276366084,35.19502163374565,0 33.51655286686717,35.1949519980504,0 33.51699948741906,35.19465074617499,0 33.51730757971874,35.19446612539611,0 33.51752379276657,35.19434870098345,0 33.51771934837986,35.1942664311448,0 33.51804329963254,35.19420416522878,0 33.51824154887286,35.19416232914602,0 33.51849811917069,35.19411400905969,0 33.5188298960615,35.19407088363617,0 33.51916307916424,35.19407245193997,0 33.51947289206289,35.19406022290045,0 33.51975805891365,35.19404165033072,0 33.52042694721295,35.19401604198518,0 33.52078347187351,35.19401969408619,0 33.52132806076906,35.19405601588501,0 33.52163796986788,35.19408209252372,0 33.52201930696533,35.19415700047541,0 33.5223799010757,35.19423087898167,0 33.52255246418339,35.19428592219802,0 33.5226783577129,35.19434104491779,0 33.5226803338612,35.19409840299504,0 33.52267478316531,35.19395474505089,0 33.52265498527724,35.19381643252009,0 33.52267308903891,35.1932885556224,0 33.52270369243711,35.19308736926067,0 33.52271763748108,35.19296389752739,0 33.52271613073344,35.19288089173257,0 33.52273921690697,35.19278294566433,0 33.52277118770859,35.19261048957459,0 33.5228134656292,35.19241247522597,0 33.5228546458557,35.19229321344265,0 33.52330717180457,35.19232649135618,0 33.52396707425119,35.19234131871792,0 33.52416544271198,35.19234948948372,0 33.52442870767868,35.19238734731348,0 33.52455108650922,35.19208383691927,0 33.5246586229151,35.19205917426407,0 33.52470908118938,35.19201971108161,0 33.52494690471669,35.19174260642653,0 33.52505436523452,35.19168814570928,0 33.52516273682664,35.19148469524664,0 33.5252725283967,35.19132913100314,0 33.52555916944992,35.19138397168798,0 33.52561863032084,35.19131682352684,0 33.52567054263007,35.1913390814951,0 33.5257731532725,35.19141552614554,0 33.52587176039502,35.19144728111565,0 33.52597810705806,35.19146412320143,0 33.52604295347809,35.19147465277715,0 33.52621037327287,35.19154672683426,0 33.52645714917686,35.19172614707532,0 33.5261141120827,35.19192149452762,0 33.52605069615625,35.19196310849997,0 33.52612209157827,35.19199916749812,0 33.52614549274123,35.19202466791522,0 33.52615337982339,35.19206722236169,0 33.52616939381234,35.19224385249321,0 33.52616971564407,35.19236836322216,0 33.52617770759308,35.19245135791471,0 33.52621278267156,35.1924789664148,0 33.52628934295336,35.19250756642816,0 33.52669922137054,35.19259092314575,0 33.52678611491415,35.19260460592645,0 33.52681720331051,35.19259497368344,0 33.52687674109136,35.19255762261768,0 33.52693374032821,35.19254155979557,0 33.52700767649316,35.19255739361788,0 33.52709074307766,35.19259449553013,0 33.52733883439826,35.19277923268514,0 33.52741024103693,35.192819547211,0 33.52746861085546,35.19283221616948,0 33.52760217948061,35.192846880381,0 33.52784720842364,35.19285070715616,0 33.52816482546361,35.1928501498238,0 33.52854455604383,35.19280584852375,0 33.52873641844833,35.19280444583283,0 33.52891399445308,35.19279242651054,0 33.529182362412,35.19279727448112,0 33.52933017675905,35.19280659060873,0 33.52954935566143,35.19284025734939,0 33.52970252104679,35.19291235190899,0 33.52979973008663,35.19286913426633,0 33.52997929127247,35.19278930242211,0 33.53072958277659,35.19288067028221,0 33.53058109384992,35.19366831760173,0 33.53115290019876,35.19374397830035,0 33.53117281831407,35.19389501011361,0 33.53147527438119,35.19386585912149,0 33.53164270755641,35.19391591549381,0 33.53166198867999,35.19382661346021,0 33.53200812880294,35.19397248526784,0 33.53209730347277,35.1939528696232,0 33.53218085303652,35.19391495255407,0 33.53226445870361,35.19389878021666,0 33.53228928345172,35.19379687938567,0 33.53250645487833,35.19367746718927,0 33.53251714881219,35.19350463528023,0 33.53298639426816,35.19328520263021,0 33.53309653881514,35.19328729307904,0 33.53321127887251,35.19344502084284,0 33.53325738474473,35.19348156102789,0 33.53331180310455,35.19349862890342,0 33.53361577594047,35.19351639294933,0 33.53392930423957,35.19345746023927,0 33.53405339913949,35.19346295774418,0 33.5340562985909,35.19350415271867,0 33.53389351336274,35.19362804758549,0 33.5338273472983,35.19390970238382,0 33.5336934052182,35.1943917590002,0 33.53340059336009,35.19437855299034,0 33.53306047194435,35.19439976662995,0 33.53303682271471,35.19441926404425,0 33.53271551004052,35.19522095800478,0 33.53268080589808,35.19527709933953,0 33.53224029218284,35.19625450144041,0 33.53212329208925,35.19660644333725,0 33.53196544629294,35.19698979304596,0 33.53185699340652,35.19727932573502,0 33.53039282701775,35.19679698921051,0 33.52999037114624,35.19667273123181,0 33.52980961677989,35.19662896217955,0 33.5294445968739,35.19654057508563,0 33.52909533508302,35.19648006460213,0 33.52851262171686,35.19635611950864,0 33.52844379703077,35.1966102609232,0 33.52836647855726,35.19678019673874,0 33.52821975483369,35.196982855406,0 33.5280873946063,35.1976174592737,0 33.52815933327286,35.19792161376838,0 33.52803658646083,35.19907103252489,0 33.52795452787073,35.19932791289336,0 33.52783402066357,35.1994340797015,0 33.5277347893251,35.19945055415794,0 33.52752657503984,35.19955144126316,0 33.5272922274106,35.19978277853081,0 33.5270922094963,35.19985512378779,0 33.52702950988173,35.19992179544165,0 33.52625107827151,35.19962159069007,0 33.52545788127198,35.19936759139798,0 33.52533403491287,35.19946289410388,0 33.52500036659018,35.19967945774247,0 33.52477756959149,35.19990126202452,0 33.52457610742911,35.20005646745028,0 33.52440622700411,35.20026731260491,0 33.52425134997728,35.20052295812081,0 33.52400794051159,35.20109797964709,0 33.52394414793113,35.20138606892056,0 33.52397976140754,35.20172424797827,0 33.52391747967503,35.20195664129179,0 33.5236244500376,35.20254125553674,0 33.52345863638732,35.20305229704386,0 33.52334340123856,35.20328342172721,0 33.52335103699511,35.20352238735971,0 33.52335307470729,35.20358615154165,0 33.52332223391171,35.20373729206057,0 33.52325267544265,35.20385275090451,0 33.52308319565738,35.20409990738661,0 33.52295619541974,35.20424851473708,0 33.52266949747675,35.20461323517742,0 33.5223827337284,35.2049536728059,0 33.52221871412488,35.20508817826718,0 33.52218351187297,35.20514085017243,0 33.52213276982796,35.20522389904392,0 33.52204675274641,35.20533061711419,0 33.52184096676238,35.20552320077663,0 33.52178845835206,35.20555768960033,0 33.52173193387686,35.20562860804547,0 33.52154593124431,35.2058447637026,0 33.52128267152733,35.2060583537477,0 33.52113676036699,35.20620564253527,0 33.52082690035783,35.20651711249958,0 33.52069489029666,35.20663672252878,0 33.52046130386083,35.20688735717653,0 33.52004901399336,35.20731939651648,0 33.51942114709269,35.20797809226537,0 33.51905542571566,35.20830381562235,0 33.51901472633734,35.20846104191634,0 33.51902752362448,35.2086492051517,0 33.51902279353517,35.20872947839023,0 33.5190120881778,35.2090498826147,0 33.51900153282487,35.20910116254974,0 33.51900607724608,35.20993280893162,0 33.51921383625159,35.21019416420879,0 33.51934755814127,35.21042664087707,0 33.51942358860808,35.21059446163402,0 33.51947447387086,35.21078123906823,0 33.51950067453639,35.21087740529224,0 33.51951170450127,35.21099167780677,0 33.51978781182794,35.21101902067632,0 33.51979485330251,35.21102613030978,0 33.51979447097538,35.21103800137661,0 33.51973936801925,35.21131042526562,0 33.51970056622987,35.21149226937874,0 33.5194826786613,35.21144651364851,0 33.5192920724905,35.21140444255563,0 33.51921143517046,35.21138151735059,0 33.51909438570542,35.21183548390902,0 33.51901196376803,35.21209099652415,0 33.51897623894173,35.21218194606652,0 33.51922223991617,35.21223172489567,0 33.51958069892807,35.21230479827502,0 33.51946644736762,35.21272043799137,0 33.51942237884071,35.21294502385871,0 33.51936227034694,35.21319948096185,0 33.51933871553116,35.213364682156,0 33.51934290003954,35.21338570160177,0 33.51948448435271,35.21348754456263,0 33.51950772075524,35.21352548866118,0 33.51951606782783,35.21355803245743,0 33.51947774915203,35.21376836349859,0 33.5194394027528,35.2142974878899,0 33.51940568315229,35.2146939997586,0 33.51937233221531,35.21490771394399,0 33.51896222855582,35.21484396899107,0 33.51888780058628,35.21482645863406,0 33.51877209171965,35.21482733126735,0 33.5187451317129,35.21495285898272,0 33.51868326432612,35.21533212156497,0 33.51860362752939,35.21587827203123,0 33.51858584087463,35.2160370187402,0 33.51849080310834,35.21604124855601,0 33.51846438827339,35.21605485809162,0 33.51844296815729,35.21608270431552,0 33.51843312130863,35.21611120856352,0 33.51840156280759,35.21638257355873,0 33.51837708701,35.21651081000112,0 33.51838013616746,35.21673938595079,0 33.51836730591761,35.21689744616483,0 33.51835358151563,35.21702837766468,0 33.51835396505507,35.21718234670254,0 33.5184482264584,35.21719711065563,0 33.51857554875112,35.21721249729985,0 33.51892869745506,35.21730211485288,0 33.51923051717232,35.21735722573592,0 33.51936777397097,35.21737869924402,0 33.51940831109304,35.21739355319514,0 33.51942406192007,35.2174125183238,0 33.51933718026498,35.21803372857887,0 33.51931890915431,35.21816437048749,0 33.51926689132181,35.21839217930427,0 33.51918762608947,35.21891111102499,0 33.51911118619055,35.21921701032908,0 33.51905818879585,35.21950266766474,0 33.51897701374546,35.21970573307135,0 33.51893405268488,35.21997668271187,0 33.51894910270559,35.2201786667535,0 33.5189317279043,35.22038988833685,0 33.51902573583389,35.22039615737022,0 33.51907270920966,35.22038689617546,0 33.51911403371002,35.22035560685671,0 33.5197738044655,35.22019196748096,0 33.51996730298197,35.22015950252453,0 33.52008150203807,35.22018593808496,0 33.5201823811433,35.22025463441044,0 33.52072077276253,35.22076792872788,0 33.52074217146408,35.22082298687564,0 33.52066458777601,35.22111786895997,0 33.52068181813604,35.22129505713514,0 33.52086517945165,35.22123597955706,0 33.5213300050494,35.22097257601435,0 33.52148013803941,35.22104853339005,0 33.52200541554683,35.22123862819611,0 33.52255529268668,35.22142133315758,0 33.52273106587354,35.22145867934609,0 33.52367287487478,35.22175364889935,0 33.52372658071954,35.22175172016852,0 33.5240513924522,35.22187236620437,0 33.52417898507879,35.22188408342024,0 33.52463475141214,35.22201735702303,0 33.52462266913727,35.22210552760649,0 33.52464605620023,35.22249756986285,0 33.52472708294407,35.22267648375461,0 33.5247305948225,35.22273708107065,0 33.52470171895943,35.22282160804448,0 33.52464707727417,35.22289516058017,0 33.52460127334604,35.22292462244803,0 33.52451753391313,35.22299639008556,0 33.52454332774744,35.22301838201488,0 33.52450019326292,35.22321587603261,0 33.52438418952948,35.22336023735102,0 33.52412891389249,35.22374082468575,0 33.5240618751525,35.22378042418716,0 33.52386988513366,35.22396715438702,0 33.52374579789644,35.22401511661959,0 33.52349467892254,35.22427265229106,0 33.52346126655785,35.22433423046043,0 33.52344283660766,35.22456657373627,0 33.5234742862106,35.22461243075531,0 33.52356509508638,35.22467838695807,0 33.52355969721632,35.22475552712788,0 33.52348263312248,35.2248135082795,0 33.5233640510592,35.2248265673435,0 33.52330593611325,35.22485605129592,0 33.52325918711414,35.22495346290268,0 33.52314111201589,35.22527951538278,0 33.52306692953705,35.22548436037182,0 33.52315473151912,35.22558182774693,0 33.52328029106476,35.22558567929196,0 33.52337808231793,35.22571295798499,0 33.52361779599296,35.22578304847161,0 33.52421810199611,35.22603283812617,0 33.52440007278137,35.22613149850331,0 33.52425507480233,35.22627817650579,0 33.5242339117692,35.22640023590262,0 33.52428436164875,35.22674723770042,0 33.52423385227159,35.22702119970436,0 33.52402608845271,35.22781741967448,0 33.52414292128424,35.22828226278662,0 33.52400939275294,35.22839366932468,0 33.52382822730706,35.22861091203601,0 33.52375598102824,35.22878458010004,0 33.52372164974705,35.22892564427394,0 33.52365081014718,35.22900304768194,0 33.5237614859808,35.22899878936269,0 33.5240098683103,35.22986879290768,0 33.52437820337898,35.22984104066447,0 33.5246968577324,35.22976591965416,0 33.52532258298157,35.22961027293798,0 33.52590384868727,35.22951164462918,0 33.52649015230848,35.22944554319459,0 33.52752844633154,35.22912239900122,0 33.52790653080077,35.229033607913,0 33.52835715997188,35.22888909924492,0 33.52883412549036,35.22870929114496,0 33.52913628579097,35.22864774583476,0 33.52954413526524,35.22857109904162,0 33.52989341482743,35.22846779564881,0 33.53010900895724,35.22840403175053,0 33.53028781560666,35.228362118562,0 33.5304635855168,35.22829941274127,0 33.53059154713887,35.22820008940833,0 33.5310339313426,35.22803536552377,0 33.53145095454579,35.22786579197312,0 33.53185441405059,35.22764241095503,0 33.53203440657276,35.22748671676687,0 33.53220568793,35.2274191228337,0 33.53240987698588,35.22739184151452,0 33.5326437417429,35.22731067722233,0 33.53273463694429,35.22729093990865,0 33.53280473212067,35.22729815433283,0 33.53328291866553,35.22714436877064,0 33.53344385518503,35.22711226997815,0 33.53368966872064,35.22703964568187,0 33.53385796893527,35.22697327852209,0 33.53395041127174,35.22697433464408,0 33.53457194582832,35.22690225277372,0 33.53497734801658,35.22685135818607,0 33.53516961699764,35.22682776377334,0 33.53516831762329,35.22689872352433,0 33.53529784162342,35.2268287544122,0 33.53578955431302,35.22671775351042,0 33.53611147352566,35.22667067689458,0 33.53620092945646,35.22667051323893,0 33.53643340259868,35.22662849387875,0 33.53672107883036,35.22659982936209,0 33.53682394911795,35.22659841774903,0 33.53693280144728,35.22660311160954,0 33.53701626863387,35.22659317139723,0 33.53709071556614,35.2265563324789,0 33.5373306297819,35.22650940371513,0 33.5374005872763,35.2264664569469,0 33.53753317779152,35.2264282878786,0 33.53776248718899,35.22632020699425,0 33.53784732059031,35.22626499819888,0 33.53807500912297,35.22610920662089,0 33.53822230977745,35.22599882938852,0 33.53839497637464,35.2258957449082,0 33.5386049860606,35.22581828344726,0 33.53894610964027,35.22570877074862,0 33.53914862922991,35.22561908741899,0 33.53938983884884,35.22550241798341,0 33.53958778166133,35.22537481699099,0 33.53978354390408,35.225249787123,0 33.54014311506044,35.22502013386466,0 33.54036940880825,35.22489804863674,0 33.54100086851339,35.224584675458,0 33.54137253511221,35.22442099696634,0 33.54181964654067,35.2242227425286,0</coordinates>
						</LinearRing>
					</outerBoundaryIs>
				</Polygon>
			</MultiGeometry>
		</Placemark>
	</Document>
</kml>