<?xml version='1.0' encoding='UTF-8'?>
<kml xmlns="http://www.opengis.net/kml/2.2">
	<Document>
		<name>FIKARDOU</name>
		<Style id="PolyStyle70">
			<LabelStyle>
				<color>00000000</color>
				<scale>0.000000</scale>
			</LabelStyle>
			<LineStyle>
				<color>ff0055ff</color>
				<width>2.000000</width>
			</LineStyle>
			<PolyStyle>
				<color>00828282</color>
				<outline>1</outline>
			</PolyStyle>
		</Style>
		<Placemark id="ID_70337">
			<name>FIKARDOU</name>
			<snippet />
			<description>&lt;html xmlns:fo="http://www.w3.org/1999/XSL/Format" xmlns:msxsl="urn:schemas-microsoft-com:xslt"&gt;

&lt;head&gt;

&lt;META http-equiv="Content-Type" content="text/html"&gt;

&lt;meta http-equiv="content-type" content="text/html; charset=UTF-8"&gt;

&lt;/head&gt;

&lt;body style="margin:0px 0px 0px 0px;overflow:auto;background:#FFFFFF;"&gt;

&lt;table style="font-family:Arial,Verdana,Times;font-size:12px;text-align:left;width:100%;border-collapse:collapse;padding:3px 3px 3px 3px"&gt;

&lt;tr style="text-align:center;font-weight:bold;background:#9CBCE2"&gt;

&lt;td&gt;1&lt;/td&gt;

&lt;/tr&gt;

&lt;tr&gt;

&lt;td&gt;

&lt;table style="font-family:Arial,Verdana,Times;font-size:12px;text-align:left;width:100%;border-spacing:0px; padding:3px 3px 3px 3px"&gt;

&lt;tr&gt;

&lt;td&gt;DIST_CODE&lt;/td&gt;

&lt;td&gt;1&lt;/td&gt;

&lt;/tr&gt;

&lt;tr bgcolor="#D4E4F3"&gt;

&lt;td&gt;VIL_CODE&lt;/td&gt;

&lt;td&gt;205&lt;/td&gt;

&lt;/tr&gt;

&lt;tr&gt;

&lt;td&gt;VIL_CCD&lt;/td&gt;

&lt;td&gt;1205&lt;/td&gt;

&lt;/tr&gt;

&lt;tr bgcolor="#D4E4F3"&gt;

&lt;td&gt;VIL_NM_E&lt;/td&gt;

&lt;td&gt;FIKARDOU&lt;/td&gt;

&lt;/tr&gt;

&lt;tr&gt;

&lt;td&gt;VIL_NM_G&lt;/td&gt;

&lt;td&gt;ΦΙΚΑΡΔΟΥ&lt;/td&gt;

&lt;/tr&gt;

&lt;/table&gt;

&lt;/td&gt;

&lt;/tr&gt;

&lt;/table&gt;

&lt;/body&gt;&lt;script type="text/javascript"&gt;

				function changeImage(attElement, nameElement) {

				document.getElementById('imageAttachment').src = attElement;

				document.getElementById('imageName').innerHTML = nameElement;}

			&lt;/script&gt;&lt;/html&gt;

</description>
			<styleUrl>#PolyStyle70</styleUrl>
			<MultiGeometry>
				<Polygon>
					<extrude>0</extrude>
					<altitudeMode>clampToGround</altitudeMode>
					<outerBoundaryIs>
						<LinearRing>
							<coordinates> 33.17098982786567,34.95273545141799,0 33.17237841610433,34.95262431349253,0 33.17261079464296,34.95254238843303,0 33.17302948094098,34.95263059479413,0 33.17324873234702,34.95241582760668,0 33.1733925296881,34.95248166326618,0 33.17364421009038,34.95230574593181,0 33.17397093774211,34.95242409190324,0 33.17464618082663,34.95290474001077,0 33.17516583893204,34.95314319166211,0 33.17547457047877,34.95336177638635,0 33.17593755535442,34.95352823966412,0 33.17642066293941,34.95456565401263,0 33.17660359911326,34.95461126482455,0 33.17676687069471,34.95449231667811,0 33.17718093116677,34.95532485859555,0 33.17730793851548,34.95524306291367,0 33.17789990205139,34.95613892051651,0 33.17825035229449,34.95659707479289,0 33.17821868311194,34.95670476588301,0 33.1784323945943,34.95705723512368,0 33.1783144727088,34.95716501774995,0 33.17853274061667,34.95728570908559,0 33.17851497564991,34.95767555893275,0 33.17843799577199,34.95787241155985,0 33.178497246162,34.95810255133609,0 33.17868780036916,34.9579798421628,0 33.17891658001179,34.95855796107737,0 33.17919395200634,34.95895501006898,0 33.17920823410969,34.95936129982374,0 33.17949894960542,34.95947243814594,0 33.17963991038684,34.95965798524414,0 33.17987306352101,34.95987871290066,0 33.18010049357412,34.96022760162873,0 33.18042908661267,34.96047054846963,0 33.18126997497836,34.96109007588984,0 33.18162121627694,34.96171198561439,0 33.1816580043908,34.96200285430314,0 33.18173519974615,34.9619842179963,0 33.18195292273367,34.9617314441486,0 33.18259828216758,34.96201322424547,0 33.18266378624249,34.96243029319127,0 33.18213672399229,34.96232670339476,0 33.18277776950229,34.96297755866617,0 33.183334840538,34.9641498695323,0 33.18352228399342,34.96430266758369,0 33.18368358113504,34.96457896317249,0 33.18376555858298,34.96483368832557,0 33.18380244137404,34.96507661251485,0 33.18383100653325,34.96509300778906,0 33.18386814058815,34.96511642395524,0 33.18391946383677,34.96523094074004,0 33.18395646559816,34.96537346143304,0 33.18403933602271,34.9655640256219,0 33.18413199681678,34.96574988746092,0 33.18416009358773,34.9658000428776,0 33.184168104226,34.96582962833308,0 33.18416707020305,34.96585591293976,0 33.18415297050413,34.96587642475928,0 33.18410870592125,34.96589934946723,0 33.18406144179594,34.96590748260815,0 33.1836601872419,34.96603539562058,0 33.18363095769203,34.96606245301609,0 33.18362030328912,34.96609496482866,0 33.18361761285567,34.9661264054179,0 33.18362422184095,34.96614918812079,0 33.18367040415465,34.96622786012984,0 33.18369821887913,34.96627778891541,0 33.18375516519426,34.9663852408364,0 33.18378478762072,34.96644238642996,0 33.18378264144749,34.9664968631789,0 33.18377219707559,34.96651897757461,0 33.18373675627569,34.9665342383448,0 33.18369297832112,34.96655118837727,0 33.18367628676064,34.9665698867739,0 33.18367417337721,34.9665954203106,0 33.18368869196845,34.9666550352517,0 33.18370529393756,34.96671295144667,0 33.18374690174113,34.96681769883215,0 33.18375101939964,34.9668619736157,0 33.18373432167355,34.96688578044032,0 33.18365925310088,34.96692991718791,0 33.1835674760768,34.96700637562707,0 33.18358828265137,34.96704645967462,0 33.18373607626162,34.96718463833437,0 33.18380476045731,34.96725797671868,0 33.1839048469193,34.96720707191605,0 33.183881994773,34.96714402976254,0 33.18388416589003,34.96706741292486,0 33.18390505302557,34.96702488241617,0 33.18396135996981,34.96698752295394,0 33.18403642066314,34.96695019544457,0 33.1841540786823,34.96692616612416,0 33.18421038877334,34.96688540093368,0 33.18430012437191,34.9667680751092,0 33.18436062747455,34.96670348135817,0 33.18439814821345,34.9666933310687,0 33.18450858342347,34.96670373893684,0 33.18471338392114,34.96672345653138,0 33.18474049022809,34.9667081802106,0 33.18477597714346,34.96665205448913,0 33.18480517333541,34.96663167377393,0 33.18484059855832,34.96663343805078,0 33.18487392121685,34.96665222454244,0 33.18495089690899,34.96677835461031,0 33.18490498683266,34.96683957040826,0 33.18488931953862,34.96688272234206,0 33.184900422453,34.96693012072768,0 33.18495838513453,34.96695391228627,0 33.18507414722165,34.96716550108088,0 33.18521674520436,34.96748267674577,0 33.1853435347599,34.9678328209575,0 33.18535239648069,34.9678948033636,0 33.18533887552618,34.96792141892273,0 33.18528753459841,34.96795777896585,0 33.18506211606495,34.96808496034421,0 33.1847652614483,34.96826669283933,0 33.18463318391028,34.9683438371631,0 33.18482715088606,34.9684353204337,0 33.18485167265704,34.96844994669217,0 33.18485165337012,34.96846817365869,0 33.18481813012955,34.96853008538888,0 33.18476215087717,34.96869857592216,0 33.18481773688826,34.96887184465113,0 33.18479536461886,34.96893378086694,0 33.18476411734619,34.96895012988845,0 33.18469942190389,34.96895365734026,0 33.1845946760854,34.96886232494976,0 33.18443343952072,34.96906723713209,0 33.18440884925805,34.96911641057741,0 33.18441321788036,34.96920209487791,0 33.18446676875591,34.96939095438864,0 33.18451126623846,34.96950041606414,0 33.18457803779938,34.96964455887723,0 33.18462260596627,34.96969021801959,0 33.18496397602018,34.96964709335273,0 33.18502634646494,34.96974018647157,0 33.18529887784942,34.97015385494966,0 33.18553081811562,34.97058068799973,0 33.18560152823365,34.9705680599824,0 33.18561445911522,34.9705428281018,0 33.18562249771853,34.97033629711597,0 33.18581690305028,34.97008442399428,0 33.18597548331282,34.97028298641707,0 33.18602200723439,34.97047635049608,0 33.18613070307656,34.97050992270398,0 33.18594415421466,34.97076580376122,0 33.1862747884447,34.97085910446157,0 33.18620620444192,34.97107431895297,0 33.18611962126934,34.97124124249786,0 33.18630108223269,34.97118582915441,0 33.18631940898227,34.97111532358159,0 33.18671375208925,34.97111962442208,0 33.18671637119274,34.97105720172848,0 33.18700229474243,34.97087448078273,0 33.18700308527757,34.9705901169287,0 33.18720075619586,34.97040243377614,0 33.18745638037873,34.97053776520016,0 33.18764696586203,34.97081584169524,0 33.18776472081927,34.97072579786469,0 33.18789679270673,34.97076809334978,0 33.18791400421568,34.97117709810485,0 33.18818539722703,34.97129477970003,0 33.1882553777055,34.9712197046617,0 33.18830613128688,34.9714513297033,0 33.18828515338259,34.97159965297145,0 33.18833771693018,34.97181380365162,0 33.18833728600599,34.97196619115331,0 33.18831898029347,34.97217297254613,0 33.18835382085637,34.97238708848148,0 33.18842576153751,34.97260528080052,0 33.18861822341572,34.97279641970587,0 33.18880352873018,34.97294281611148,0 33.18899257670787,34.97305343584571,0 33.18914057616532,34.97340208871442,0 33.18970051155485,34.97362951336502,0 33.19009143282471,34.97390081399855,0 33.19017707820804,34.97410985407789,0 33.19025434248557,34.97431255574281,0 33.19031167542876,34.97438218071138,0 33.19043196159111,34.97447209279072,0 33.19076020944595,34.97464980746544,0 33.19094634078828,34.97470841618252,0 33.19112317464758,34.97492404131899,0 33.19138558683862,34.97498475220679,0 33.19159355436662,34.97504799762238,0 33.19171177452007,34.97513994440443,0 33.19178520571359,34.97521608853257,0 33.19181354251193,34.97538130203264,0 33.19176815861299,34.97555816936307,0 33.19193848920744,34.97572411943296,0 33.19185324247917,34.97580609225873,0 33.19190666090199,34.97614635712358,0 33.19212891269698,34.97626819901185,0 33.19235437422402,34.97641964737448,0 33.19228605572539,34.97672064381804,0 33.19219137068014,34.97690506488032,0 33.19248859381453,34.97707257823782,0 33.19287561022774,34.97741822311465,0 33.19308621110475,34.97746785016631,0 33.19330933819435,34.9776555775622,0 33.19347122544723,34.97825028127684,0 33.19377063870771,34.97846007491513,0 33.19390162035829,34.97798585453967,0 33.19424825484472,34.97817740148307,0 33.19419564510135,34.97843491856499,0 33.19439112126799,34.9786898040794,0 33.19480965993687,34.97864502730739,0 33.19485882947109,34.9783026459076,0 33.19505871532755,34.97832418465536,0 33.19582160898707,34.97829207473291,0 33.19579974756942,34.97881791736967,0 33.19579718381797,34.97899834168949,0 33.19624243955639,34.97944933457003,0 33.19628294743574,34.9794903643578,0 33.19652120605428,34.97964617414966,0 33.19659703386203,34.97980595593749,0 33.19661263961283,34.98017208669993,0 33.19665179436345,34.98048525189274,0 33.19662390409697,34.98060605340198,0 33.19704696776566,34.98103713140043,0 33.19722278382666,34.98119320333608,0 33.19694348727231,34.98116349573642,0 33.19681015527475,34.98116054158904,0 33.1966853177579,34.9811882104042,0 33.19642351248972,34.98141909983583,0 33.19615313968345,34.98149834432554,0 33.1959912672606,34.98182717385535,0 33.19574615974577,34.98195741555901,0 33.19545067213054,34.98201289583389,0 33.19544324451149,34.98219464396782,0 33.19536468059653,34.98230730117167,0 33.19574028786599,34.98243548520987,0 33.19602871231761,34.98261846248955,0 33.19626379292756,34.98273916897387,0 33.19632532524532,34.98277076373727,0 33.19650647288535,34.98299318491562,0 33.19584894346333,34.98313841454494,0 33.195563009524,34.98343230036334,0 33.19549583394987,34.98356049434167,0 33.19576367239403,34.9837878628544,0 33.19563944927139,34.98393474984537,0 33.19588401789306,34.98438554488956,0 33.19620034327288,34.98431979417774,0 33.19656841146508,34.98458094577776,0 33.19661904831094,34.98470003173801,0 33.1966303841901,34.98512780428416,0 33.19668499095627,34.98520940508749,0 33.196736010945,34.98540005566623,0 33.1968112756352,34.98544751919556,0 33.19699083400221,34.98551509926219,0 33.19702027826327,34.98556611830659,0 33.19697495633762,34.98564987143218,0 33.19693757662572,34.98567384245256,0 33.19695118715917,34.98588166180321,0 33.19679043604791,34.98587205450961,0 33.1970824869152,34.9865773216201,0 33.19631235909299,34.98660483683589,0 33.19598742433653,34.9865495687627,0 33.19568523997009,34.98659301281519,0 33.19594837712068,34.98664489652123,0 33.19714875708637,34.98693179801867,0 33.19747795663922,34.98706989998934,0 33.19757753686543,34.98713142541877,0 33.19797198450377,34.98724259064623,0 33.19809379598401,34.98704317906611,0 33.19868518135916,34.98714762578315,0 33.19883566926476,34.98726614438761,0 33.19904365944778,34.98726743158112,0 33.19919570355927,34.98740996663614,0 33.19923918887719,34.98758183006287,0 33.19953712599789,34.98789716420612,0 33.19965538272459,34.98791032896737,0 33.19975833378646,34.98814773907858,0 33.19994123997261,34.98827021790726,0 33.199669993531,34.98837735007054,0 33.19977719411818,34.9885277833985,0 33.19969038547051,34.9887049008273,0 33.19976949956375,34.98890568181793,0 33.19983803033456,34.98890160997139,0 33.20016616519657,34.98906610735618,0 33.20018157184811,34.98928642605519,0 33.20054020347973,34.98958304486752,0 33.20078636495147,34.98994511471445,0 33.20080936864022,34.99012597155883,0 33.20090007848333,34.99028036675068,0 33.20117313276918,34.99048449451247,0 33.20113827202496,34.99064976861176,0 33.20109358493566,34.9906924368874,0 33.20099430181207,34.99069659641432,0 33.20087564725833,34.99061960985576,0 33.20092237275183,34.99096643429464,0 33.20082829189121,34.99105565098465,0 33.20066918394556,34.99093237522847,0 33.20064443320673,34.99122733074906,0 33.20042774769454,34.99137877690123,0 33.20043833416764,34.9915817698915,0 33.20040397332512,34.99179789064301,0 33.20138156210142,34.9922253101096,0 33.20124749999533,34.99235526130855,0 33.20125404241882,34.99260798542348,0 33.20142746897206,34.99277953328384,0 33.20145676308864,34.99291103355439,0 33.20162602188342,34.99273069340268,0 33.20220505820807,34.99332904244607,0 33.20238326759188,34.99354246215178,0 33.20244143605066,34.99409614154118,0 33.20248370258068,34.99418344547164,0 33.20220584405008,34.99420174420143,0 33.20206604253226,34.9943487292723,0 33.20199947656499,34.99442222340929,0 33.20196452098418,34.99444943975499,0 33.20192291906383,34.99446710210363,0 33.20187133306738,34.9944738593508,0 33.20182307346612,34.9944724387098,0 33.2016982781054,34.99446276285659,0 33.20164169904532,34.99446543221728,0 33.20159618382261,34.99448471090199,0 33.20152523898217,34.9945488272935,0 33.20145429964857,34.99459154285726,0 33.20137216197099,34.99461284552903,0 33.20129002572268,34.9946280382711,0 33.20122656264964,34.99463102713982,0 33.20109962152448,34.99463088681806,0 33.20099882796589,34.99463077519107,0 33.20093162174223,34.99465209430934,0 33.20078226933287,34.99470390211901,0 33.20059182445901,34.99480150252649,0 33.20042377983098,34.99489303150528,0 33.20022211609832,34.99503343337446,0 33.20001668990147,34.99520440939177,0 33.19996066733407,34.9952532580524,0 33.19991585355198,34.99525321016181,0 33.19978517650286,34.99521943607281,0 33.19955742472361,34.99513970534764,0 33.19946780813845,34.99512737867395,0 33.19937071919167,34.99512115514674,0 33.19928482073139,34.99514552563063,0 33.19920265718476,34.9952004663254,0 33.19909806286959,34.99527677962408,0 33.1990345582746,34.99533480132889,0 33.19900839526755,34.995383695244,0 33.1991016734067,34.99560698258258,0 33.19878778209608,34.99567476953342,0 33.19882432027742,34.99594481953608,0 33.19882023296094,34.99599815734198,0 33.19877947550474,34.9960847862915,0 33.19868170011544,34.99621469861062,0 33.19853912438344,34.99636456328511,0 33.19839654366166,34.99648443282392,0 33.1982784200082,34.99657098969183,0 33.19816436822997,34.99664088774246,0 33.19797382468533,34.9967024884159,0 33.19775434889617,34.99676579995499,0 33.19778373092635,34.99688195139679,0 33.19777567759191,34.99694766860389,0 33.19773818123797,34.99700897531317,0 33.19757484397459,34.99719723827322,0 33.19757215496892,34.9972279082813,0 33.1976309631163,34.99738791223564,0 33.19751569400516,34.99778437595639,0 33.19740060702701,34.99777769427321,0 33.19739270381296,34.99751694785953,0 33.19734993130756,34.99741173888587,0 33.19725630828869,34.99729332550004,0 33.19715466162369,34.99717272378587,0 33.19711761587109,34.9968593470781,0 33.19690714497509,34.99660906226013,0 33.19667357585033,34.99626213646548,0 33.1965509998194,34.99610855697464,0 33.19651860204544,34.99610473869488,0 33.19635574387411,34.99614774155439,0 33.19624497615964,34.99619924699615,0 33.19620035278366,34.9962369699137,0 33.1961710808337,34.99631878293499,0 33.19614795406213,34.99642577999627,0 33.19570618047349,34.99634505715378,0 33.19556099707145,34.99635570619079,0 33.19551480668214,34.99635836407585,0 33.19540598319579,34.99625022023294,0 33.19529056609939,34.99613126526776,0 33.19523778442295,34.99611770075575,0 33.19498480402103,34.99617768442622,0 33.19463752425249,34.99618738305679,0 33.194483871769,34.99616960797267,0 33.19449706605635,34.99612646077308,0 33.19450991348792,34.99605524459713,0 33.19450737536582,34.99601125723074,0 33.19446646466834,34.99596093481036,0 33.19439737651226,34.99593572527724,0 33.19428732214781,34.9959293228368,0 33.19411070681181,34.99595426568524,0 33.19397505280399,34.99596249438483,0 33.19391108320003,34.99593519770607,0 33.19382410543943,34.99585130378177,0 33.1937627406682,34.99576116349526,0 33.19372703119239,34.99556840346274,0 33.19370985267796,34.99530663665637,0 33.19363156469366,34.99519484848349,0 33.19359117428679,34.99512550301753,0 33.19356596039739,34.99503032548598,0 33.1935679833593,34.99496553850386,0 33.19359817583064,34.9948560039364,0 33.19371207898146,34.99469452720417,0 33.19352129989034,34.99469978119035,0 33.19349794527069,34.99458744291099,0 33.19312945663503,34.9944831269715,0 33.19298703630227,34.9943550452108,0 33.19294567985533,34.99433994893908,0 33.19289051629159,34.99433486781174,0 33.19275872343186,34.99434474223288,0 33.19262393737033,34.9942379801942,0 33.19261143280193,34.99426582438483,0 33.1920172458628,34.99451654024329,0 33.19142902595983,34.99454218898249,0 33.19103782001989,34.99421385458817,0 33.19094462807129,34.9942411314461,0 33.19085880000486,34.99417193944088,0 33.19058008438001,34.99382586865321,0 33.19047943668387,34.99370105993975,0 33.19037751966218,34.99358757685974,0 33.19029950664881,34.99349679563114,0 33.19024667596452,34.99342356804965,0 33.19021272056864,34.99336993945335,0 33.19019753686506,34.99331719729116,0 33.19018657198889,34.9931884059103,0 33.19007430648718,34.99285211133469,0 33.19006693896474,34.99275879087813,0 33.19019932016353,34.99219400602893,0 33.19014336341736,34.99206123227685,0 33.19038822155284,34.99193893048184,0 33.19039835524397,34.99183549110505,0 33.19046719193648,34.99177307736444,0 33.19047074584778,34.99167683718583,0 33.19040798147987,34.99168274082817,0 33.19031479399813,34.99171411328948,0 33.19026696038577,34.99183020378942,0 33.18987927600137,34.99172664896444,0 33.18969191153926,34.99158294329629,0 33.18948155559628,34.99168817270305,0 33.18935092013128,34.99183842724226,0 33.18913841466925,34.99189634257047,0 33.18884036806157,34.9917331496317,0 33.18861388136877,34.99139291619804,0 33.18848534169295,34.99125471512221,0 33.1878529704126,34.99127911879394,0 33.18761573422333,34.9911061825435,0 33.18721067573984,34.99095181000351,0 33.18693696701056,34.99079990036338,0 33.18661674456779,34.99056485711347,0 33.18639066072513,34.99024319455133,0 33.18613062295555,34.99004886612519,0 33.18591472762632,34.98981033293386,0 33.18566170252182,34.98963296393143,0 33.18557166269019,34.98953144304424,0 33.18554264570774,34.98933377809175,0 33.18552675441168,34.98928956750023,0 33.18548989678202,34.98919515235553,0 33.18549538482095,34.9891142317913,0 33.18550258632592,34.98900094193232,0 33.18542802316097,34.98888085851027,0 33.18543414112384,34.98882619648392,0 33.18521873875704,34.98871034290694,0 33.18504496671846,34.98857768237892,0 33.18493259991192,34.98853094235889,0 33.18486093541336,34.98842900171365,0 33.18470865599256,34.98826367086271,0 33.18463776996562,34.98819405140674,0 33.18459402405062,34.98812199194899,0 33.18447153004361,34.98785716633495,0 33.184303251202,34.98753849386257,0 33.18422025345036,34.98727103533157,0 33.18416143449471,34.98718910810229,0 33.1840827591513,34.98710345289432,0 33.18408691150643,34.98696596705408,0 33.1840558403145,34.98680276908219,0 33.18403598984064,34.98669598080602,0 33.18406665887007,34.98652978573264,0 33.18406610558183,34.98640247692948,0 33.18395472814923,34.98629308971026,0 33.1838736247535,34.98620950500648,0 33.18378594754489,34.98605730714921,0 33.18378010068049,34.98601900438548,0 33.18376500473969,34.98590405903842,0 33.18371982092979,34.98577139296099,0 33.18362658876224,34.98559302138809,0 33.18346648167066,34.98540964961911,0 33.18339940218903,34.98529148532374,0 33.18332368789239,34.9852260026994,0 33.18323678138117,34.98510613119045,0 33.18320339215076,34.98494904091984,0 33.18312880312448,34.98482696387591,0 33.18297333228763,34.98473445476353,0 33.18279350225532,34.98465649512657,0 33.18247843698748,34.98460896975027,0 33.1822563747575,34.98452157351945,0 33.18193358388098,34.98446002848529,0 33.18176945284424,34.98421006019829,0 33.18171952013377,34.98418862684508,0 33.18163450955306,34.98414754972853,0 33.18150586664487,34.98403846367826,0 33.18147484565459,34.98387731383009,0 33.1813705289285,34.98375167348801,0 33.1813678490966,34.98363855897955,0 33.18135438485142,34.98359230243334,0 33.18134083394023,34.98354200130309,0 33.18130296305115,34.98350825787605,0 33.18114630699444,34.98346832130608,0 33.18073305242369,34.98292532855645,0 33.18044638542313,34.98292587208879,0 33.18031924143627,34.98287942012715,0 33.18027173467013,34.98285592460687,0 33.18021143431712,34.98281446454617,0 33.18015454275361,34.98276413834994,0 33.18011047195037,34.98272515382082,0 33.17979973141544,34.98264729187635,0 33.17965765326004,34.98270007892765,0 33.17965916290303,34.98265963858495,0 33.1795234292801,34.98256281221399,0 33.17924515217825,34.98249857372301,0 33.17910230272914,34.98241398256351,0 33.17902848114866,34.98242728474439,0 33.17900098245546,34.98241358570201,0 33.17859599181044,34.98211095299264,0 33.17849096454999,34.98205808716056,0 33.17840617904695,34.98202510046397,0 33.1783613795985,34.98201167368503,0 33.17793581521047,34.98198617101973,0 33.17784576215097,34.98193912664953,0 33.177821012694,34.98193750066048,0 33.17766130070672,34.98197440999274,0 33.17744021745506,34.98192340858591,0 33.17732133741681,34.98191117317174,0 33.17694972508423,34.98186661857228,0 33.17648262696063,34.98185794963255,0 33.17600038895864,34.98173032659814,0 33.17583926779572,34.98170665231806,0 33.17561570253136,34.98165366893526,0 33.17532484995791,34.98147046718088,0 33.17523301161987,34.98145174274797,0 33.17501421191437,34.98139061597654,0 33.17487205652823,34.98133229187546,0 33.17459485149777,34.98120342579775,0 33.17431586513577,34.98110286381983,0 33.17407034118138,34.98095530498552,0 33.17331187699548,34.98073318423927,0 33.17312618545844,34.98081695845918,0 33.17298902781415,34.98065555557029,0 33.17280273881391,34.98050504861774,0 33.17233911393176,34.98011258776332,0 33.17222719750089,34.98018305986056,0 33.1720610926692,34.98005040748877,0 33.17159628569085,34.97971050058727,0 33.1713557779984,34.97956290208506,0 33.17112300243055,34.97906211293277,0 33.17117507229392,34.97879076416388,0 33.1712310723934,34.97859671734402,0 33.1712336941998,34.97852721611027,0 33.17121162948553,34.97842682883756,0 33.17112807806318,34.97807781109542,0 33.1710949812903,34.97792876212345,0 33.17108170604139,34.97776687319048,0 33.17107484540723,34.97755339809503,0 33.17109403106375,34.97729651038481,0 33.171096719383,34.97720734615171,0 33.17098785969312,34.97707360917483,0 33.17075154535392,34.97675709171761,0 33.17065770233606,34.97663530070353,0 33.17046231689839,34.97637687278653,0 33.17027552572508,34.97617206127987,0 33.17016314839631,34.97603808868872,0 33.17020057195653,34.97595158818108,0 33.17028784996192,34.97573146455638,0 33.17019661188687,34.97552173768766,0 33.17013873762863,34.97538587498052,0 33.17038612014114,34.97531117725814,0 33.17049516547576,34.9752850747341,0 33.17054846317708,34.97526594365595,0 33.17055593817859,34.97524772696896,0 33.17053883054236,34.97514987729288,0 33.17057118511775,34.9750851199686,0 33.17059981127911,34.97502541948881,0 33.17062096918814,34.97498190926898,0 33.17062593272881,34.97495196038328,0 33.17062860669677,34.97486992105151,0 33.17062866926162,34.97484358567434,0 33.17062499654477,34.97482635909107,0 33.17061758982082,34.97481621488402,0 33.17060025699747,34.9748141524237,0 33.1705519538571,34.97481708682093,0 33.17049746209011,34.97481899594724,0 33.17045535898058,34.97481789310861,0 33.17041946713733,34.97480971342305,0 33.17039926155001,34.9747990967851,0 33.17037329812478,34.97478182214402,0 33.17034612111939,34.9747544171217,0 33.17033255541256,34.97473109180645,0 33.17032272831289,34.97469865950295,0 33.17030565049763,34.9745922759007,0 33.17029585826719,34.97453593580679,0 33.1702058938325,34.97423715840267,0 33.17018746943494,34.9741753406831,0 33.17015915310405,34.97410843923139,0 33.17013444447216,34.97408509434835,0 33.17004537978528,34.97404945934529,0 33.16999441167184,34.97401749115745,0 33.16995487605738,34.9739819625237,0 33.16979027760375,34.97380988251474,0 33.1696506634169,34.97362679155732,0 33.16930669921912,34.97339460062449,0 33.16931840375139,34.97309328020462,0 33.16930509101598,34.9729717489486,0 33.16929531237177,34.97292211538324,0 33.16929039564743,34.97290793011216,0 33.16927802659816,34.97290385395735,0 33.16926563588621,34.97290787898933,0 33.1692346110528,34.97293717635921,0 33.16922094059036,34.97295739827415,0 33.16919344303416,34.97300422895398,0 33.16915161841899,34.97320791950887,0 33.16904232138192,34.97334438514122,0 33.1688790328083,34.97329139005738,0 33.16884692017514,34.97326195792735,0 33.16880617621504,34.97321833304223,0 33.16875430753124,34.97316860919824,0 33.1686736532198,34.9730733381634,0 33.16857241749167,34.97296478782252,0 33.16853296039609,34.97290395634999,0 33.16847971795876,34.97278483223783,0 33.16839577847292,34.97269252406475,0 33.16823596290042,34.9726067391563,0 33.16816814056137,34.97250738184086,0 33.16806282253575,34.97254361010825,0 33.16806284663284,34.97253449751102,0 33.16806288558123,34.97252032426081,0 33.16805672807676,34.9725081625649,0 33.16805055913198,34.97250005011161,0 33.16804067541058,34.97249294338644,0 33.168030772213,34.97249292283495,0 33.16801962921258,34.97249391179759,0 33.16800847245602,34.97249996321359,0 33.16798246948135,34.97250294596204,0 33.16797008448695,34.97250494533917,0 33.16795396985251,34.97251301019246,0 33.16793663489846,34.97251499928471,0 33.16792178636989,34.97251294382218,0 33.16790695050904,34.97250582590497,0 33.16788716591415,34.97249768539346,0 33.16787479346409,34.97249563551639,0 33.1678624118767,34.97249662166963,0 33.16785249369291,34.97250267586643,0 33.16783264940244,34.97251680798072,0 33.16782650911011,34.97249857150711,0 33.16781867668773,34.9724678994293,0 33.16780759339658,34.97244661573761,0 33.1677767037341,34.97242529180254,0 33.16776062809664,34.97241918337975,0 33.16774330010967,34.97241813641583,0 33.16772223783474,34.97242517863842,0 33.16764045672625,34.97245639182297,0 33.16761079068151,34.97244114450454,0 33.16745456351365,34.97253699462282,0 33.16750553434235,34.972456111057,0 33.16754147968004,34.97243796344537,0 33.16771763223538,34.97236899340771,0 33.16783406003792,34.97234291371792,0 33.16788238912804,34.97232276664366,0 33.16789728354471,34.97230761283179,0 33.16789608053008,34.97229444909775,0 33.16788621755702,34.97227924387647,0 33.16773251205295,34.97216400280915,0 33.16756195053849,34.97206950419159,0 33.16744072127824,34.97204192175177,0 33.16740238621605,34.97202868210134,0 33.16739747193851,34.97201551266022,0 33.16738404574615,34.9719147836448,0 33.16734260796485,34.97164775218025,0 33.16734531409224,34.97156273089359,0 33.16734795695886,34.97150099185162,0 33.16733443245004,34.97146385440492,0 33.16728142403331,34.97138580762241,0 33.16724565037448,34.97134221050703,0 33.16722712069542,34.97132901473561,0 33.16719247982864,34.97132388280876,0 33.1671306193813,34.97131565856641,0 33.16709723555988,34.9713034450434,0 33.16707871042659,34.97128923603454,0 33.16702925637939,34.97122595780181,0 33.16692500084309,34.97108683816825,0 33.1669058858783,34.97106200297274,0 33.16690467832501,34.97105137315477,0 33.1669046967374,34.97104479358438,0 33.16691027458187,34.97104126312593,0 33.16692760357153,34.97104079309962,0 33.16695173404082,34.97104185336499,0 33.16697772064611,34.97104342488923,0 33.16700680098767,34.97104449636641,0 33.16702290065036,34.9710404808859,0 33.16703282679504,34.97103139162633,0 33.16704384940735,34.9710218988195,0 33.16713329798162,34.9709565644273,0 33.16719748742332,34.97092112825597,0 33.1672754192963,34.97088197725536,0 33.1674219869244,34.97085606827534,0 33.16750443674442,34.97083938898383,0 33.16752740298162,34.97081135705348,0 33.16756254753221,34.97053905565014,0 33.16742873539353,34.97015930861852,0 33.16737431469419,34.96997016511774,0 33.16737899452723,34.96993274116086,0 33.16750997168702,34.96974210258416,0 33.1676384957078,34.96961135112724,0 33.16786022865839,34.96971659704118,0 33.16800190813445,34.96980297097824,0 33.16809389362137,34.96990894485001,0 33.16835158255599,34.97027631051736,0 33.16839967249756,34.9702689206171,0 33.16848438179427,34.97026347386564,0 33.16858151151946,34.97027510545571,0 33.16911442687974,34.97045212313427,0 33.1691419972471,34.97041286888071,0 33.16919294533978,34.97027763102303,0 33.16922528408605,34.97016351616764,0 33.16924388974801,34.97004750309659,0 33.16926799516495,34.96987999170578,0 33.16928187159714,34.96982386909112,0 33.16930709403435,34.96980707452266,0 33.16937581765032,34.96978662167527,0 33.16944916394792,34.96974933261895,0 33.16955473818234,34.96963911330879,0 33.16962813381608,34.96958123628769,0 33.16972204242055,34.96955896142779,0 33.16978843129765,34.96955722081398,0 33.17012090261294,34.96986911136228,0 33.17045444955388,34.97015241328776,0 33.17077563973714,34.96986852867261,0 33.17083800289927,34.96983599394773,0 33.17096203125077,34.96966590594944,0 33.17115470314778,34.96950905777428,0 33.17126477984957,34.96942878969756,0 33.17137763668061,34.96938635517215,0 33.17145553812532,34.96935843065572,0 33.17151282804691,34.96933421033481,0 33.17155409628991,34.96930808626154,0 33.17158623331431,34.96927071619971,0 33.17160237187303,34.96922208461991,0 33.17161396903537,34.96915659908522,0 33.17160723486709,34.96909856634489,0 33.17155030087207,34.96896931753742,0 33.17145176659291,34.96882173913951,0 33.17119614662202,34.96849374527069,0 33.1711758308406,34.96837206715305,0 33.17113246815925,34.96828447938744,0 33.17101399680892,34.96804847304634,0 33.17094577600069,34.96785935142311,0 33.17094838398442,34.96768622513756,0 33.17093024011444,34.967615089872,0 33.17086855744235,34.96756632449267,0 33.17073059761313,34.96742821728678,0 33.17059831675756,34.9672333856741,0 33.17049793404143,34.96710036086063,0 33.17044770945299,34.9670478824055,0 33.17027967691414,34.96698757706773,0 33.1701104579148,34.96693113579271,0 33.16995271777092,34.96686162008026,0 33.16987041347464,34.96682779272047,0 33.16985171683085,34.96698490594586,0 33.16982191372647,34.96700542905002,0 33.1696638942737,34.96705003278992,0 33.1695951774326,34.96707422493485,0 33.16955808431221,34.96711431921899,0 33.16952361220987,34.96717225096666,0 33.16948436810134,34.96730688045555,0 33.16946128520102,34.9673854156344,0 33.16942908467322,34.96744896731315,0 33.16935752512154,34.96756224184929,0 33.16909907873801,34.96799886776564,0 33.16903701281953,34.96810540240376,0 33.16899798551862,34.9681521057941,0 33.16895442998999,34.96818008913485,0 33.16889487111385,34.96820055784835,0 33.16838874356591,34.96833056287912,0 33.16830379699976,34.96818368240405,0 33.16823542485297,34.96807502844651,0 33.16830457712427,34.96788618550537,0 33.16783509355878,34.96801625463279,0 33.16780548849167,34.96796193832282,0 33.16755337120918,34.96788186340007,0 33.16763381207806,34.9677529225095,0 33.16727616720204,34.9675229700734,0 33.16691292214004,34.96731087802318,0 33.16648736375836,34.96729883939459,0 33.16648741183003,34.96728200419224,0 33.16649891484508,34.96725957703051,0 33.16674061951429,34.96699691350443,0 33.16681176660664,34.96691848229631,0 33.16686924179007,34.96681944958218,0 33.166970524541,34.96662785891285,0 33.1669756567051,34.96642585453436,0 33.16713625519395,34.96626529687058,0 33.1671592115632,34.9662372830326,0 33.16716384836224,34.96621484632461,0 33.16714562140199,34.96618675665592,0 33.16704965065632,34.96613185899253,0 33.16692625748212,34.96607551699216,0 33.16665168098136,34.96599318950574,0 33.16653887406914,34.96596937427093,0 33.16651267897149,34.96595001227715,0 33.166504929124,34.96590493328362,0 33.16653764198686,34.96556287347796,0 33.16655087943589,34.96552212953602,0 33.16657984243449,34.96548999613621,0 33.16661928031233,34.96546646514656,0 33.16691878628932,34.96536831433377,0 33.16705539256051,34.96532779644887,0 33.16709481153907,34.96531070335698,0 33.1671158515484,34.96529572145613,0 33.16711854228512,34.9652721236756,0 33.16710052551264,34.96523688354848,0 33.16681858437321,34.96471803732271,0 33.1670495523252,34.96472060354434,0 33.16706326448672,34.96450607992867,0 33.16718944283116,34.96443550896834,0 33.1672129765752,34.96446773251166,0 33.1672312685196,34.96449780253533,0 33.16725484405293,34.964515009057,0 33.16736246336385,34.96451305794162,0 33.1674254969891,34.96449815332599,0 33.1674885613232,34.96447252159454,0 33.16757794116911,34.96442119155757,0 33.16760955337978,34.96437833983132,0 33.1676175197851,34.96434402754626,0 33.16762817677207,34.96428183025457,0 33.16762705483574,34.96420946483973,0 33.16750198725968,34.96418465329948,0 33.16749076998367,34.96407218086664,0 33.1675529532311,34.96405605681802,0 33.16757665326905,34.96397201966603,0 33.1675358493474,34.9637930461378,0 33.16771897742481,34.96364679834821,0 33.16808141835899,34.96340983002472,0 33.16845846050401,34.96301417838171,0 33.16846287868724,34.96289213996703,0 33.16836378844829,34.96283157041456,0 33.1683431150624,34.96210235748141,0 33.16819694782643,34.96188024513233,0 33.16771436380609,34.96210102512231,0 33.16759239947902,34.961798253606,0 33.16779351140574,34.96173211187725,0 33.16763759718427,34.96141615425599,0 33.16754833753223,34.96131027166723,0 33.16767504437981,34.9612716903809,0 33.16775270542274,34.96116333101915,0 33.16745908052123,34.96097520249796,0 33.16736703678211,34.96087294015306,0 33.16776700478803,34.96073844358779,0 33.16794831530706,34.96074066023602,0 33.16806633252563,34.96079001177778,0 33.16831106228436,34.96100642774899,0 33.16842996929913,34.96103655555488,0 33.1686889406563,34.96090451129137,0 33.1687580510214,34.96097744574302,0 33.16882137918452,34.96099387919147,0 33.16887611034315,34.96108801632192,0 33.16895958661502,34.96110207976069,0 33.16903439867411,34.96105493441369,0 33.16928586231364,34.96105986117652,0 33.16911594298578,34.96085985908106,0 33.16932595920385,34.96066663287694,0 33.1690981142413,34.96006482578765,0 33.16924191142682,34.9598434076265,0 33.16904862629944,34.9597718785838,0 33.1689248754211,34.95978374955009,0 33.16928180979176,34.95922441661349,0 33.16941417342294,34.95917251416401,0 33.16950079910514,34.95907491146782,0 33.16956118197007,34.95896656961899,0 33.16965323036778,34.95886997245157,0 33.16966182787753,34.95879934129556,0 33.16939704199132,34.95878779843284,0 33.16844749351968,34.95912052626996,0 33.16829793520719,34.95931368257001,0 33.16800319722142,34.9594037588237,0 33.16798885849553,34.95951676513631,0 33.16759457472433,34.95942998712646,0 33.16723356912773,34.95950104976925,0 33.16718170863354,34.95933631401473,0 33.16711552260118,34.95932930631334,0 33.16710975544004,34.95929635606311,0 33.16733988522258,34.95911491343622,0 33.16777145987145,34.95896154865927,0 33.16819495275029,34.95808597723246,0 33.16833598178899,34.95814234497563,0 33.16848373123056,34.95804654315745,0 33.16844342075742,34.95799479461637,0 33.16855556205141,34.95780874554456,0 33.16824473750303,34.957710164883,0 33.16832498110531,34.95749973857045,0 33.16864730438699,34.95757241210746,0 33.16878247870454,34.95741694169504,0 33.16848583410783,34.95716192527363,0 33.16847417661686,34.95702069949999,0 33.16885397622404,34.95694738229638,0 33.16893179568002,34.95674873705492,0 33.16869581777619,34.95670659489905,0 33.16862965856772,34.9567560825967,0 33.16856634929441,34.95674672796012,0 33.16856631641392,34.95667612145269,0 33.16874754316267,34.95656062429286,0 33.1686408810512,34.95629621441094,0 33.1686897854004,34.95627027897636,0 33.16863771232594,34.95579583142066,0 33.16858581748157,34.95551988909123,0 33.16865509750652,34.95536789419091,0 33.16879314259081,34.95523126329221,0 33.16956179891432,34.95479189598845,0 33.16982703310222,34.9546161461705,0 33.17036193438644,34.9540507969129,0 33.17062176037817,34.95373088756563,0 33.17079994253222,34.95334712674804,0 33.17098982786567,34.95273545141799,0</coordinates>
						</LinearRing>
					</outerBoundaryIs>
				</Polygon>
			</MultiGeometry>
		</Placemark>
	</Document>
</kml>