<?xml version='1.0' encoding='UTF-8'?>
<kml xmlns="http://www.opengis.net/kml/2.2">
	<Document>
		<name>FOINIKAS</name>
		<Style id="PolyStyle70">
			<LabelStyle>
				<color>00000000</color>
				<scale>0.000000</scale>
			</LabelStyle>
			<LineStyle>
				<color>ff0055ff</color>
				<width>2.000000</width>
			</LineStyle>
			<PolyStyle>
				<color>00828282</color>
				<outline>1</outline>
			</PolyStyle>
		</Style>
		<Placemark id="ID_70102">
			<name>FOINIKAS</name>
			<snippet />
			<description>&lt;html xmlns:fo="http://www.w3.org/1999/XSL/Format" xmlns:msxsl="urn:schemas-microsoft-com:xslt"&gt;

&lt;head&gt;

&lt;META http-equiv="Content-Type" content="text/html"&gt;

&lt;meta http-equiv="content-type" content="text/html; charset=UTF-8"&gt;

&lt;/head&gt;

&lt;body style="margin:0px 0px 0px 0px;overflow:auto;background:#FFFFFF;"&gt;

&lt;table style="font-family:Arial,Verdana,Times;font-size:12px;text-align:left;width:100%;border-collapse:collapse;padding:3px 3px 3px 3px"&gt;

&lt;tr style="text-align:center;font-weight:bold;background:#9CBCE2"&gt;

&lt;td&gt;6&lt;/td&gt;

&lt;/tr&gt;

&lt;tr&gt;

&lt;td&gt;

&lt;table style="font-family:Arial,Verdana,Times;font-size:12px;text-align:left;width:100%;border-spacing:0px; padding:3px 3px 3px 3px"&gt;

&lt;tr&gt;

&lt;td&gt;DIST_CODE&lt;/td&gt;

&lt;td&gt;6&lt;/td&gt;

&lt;/tr&gt;

&lt;tr bgcolor="#D4E4F3"&gt;

&lt;td&gt;VIL_CODE&lt;/td&gt;

&lt;td&gt;108&lt;/td&gt;

&lt;/tr&gt;

&lt;tr&gt;

&lt;td&gt;VIL_CCD&lt;/td&gt;

&lt;td&gt;6108&lt;/td&gt;

&lt;/tr&gt;

&lt;tr bgcolor="#D4E4F3"&gt;

&lt;td&gt;VIL_NM_E&lt;/td&gt;

&lt;td&gt;FOINIKAS&lt;/td&gt;

&lt;/tr&gt;

&lt;tr&gt;

&lt;td&gt;VIL_NM_G&lt;/td&gt;

&lt;td&gt;ΦΟΙΝΙΚΑΣ&lt;/td&gt;

&lt;/tr&gt;

&lt;/table&gt;

&lt;/td&gt;

&lt;/tr&gt;

&lt;/table&gt;

&lt;/body&gt;&lt;script type="text/javascript"&gt;

				function changeImage(attElement, nameElement) {

				document.getElementById('imageAttachment').src = attElement;

				document.getElementById('imageName').innerHTML = nameElement;}

			&lt;/script&gt;&lt;/html&gt;

</description>
			<styleUrl>#PolyStyle70</styleUrl>
			<MultiGeometry>
				<Polygon>
					<extrude>0</extrude>
					<altitudeMode>clampToGround</altitudeMode>
					<outerBoundaryIs>
						<LinearRing>
							<coordinates> 32.55842957582357,34.72794859998639,0 32.55885718698764,34.72817986085678,0 32.55997980234287,34.72864007557565,0 32.56098699056449,34.72866202000782,0 32.56117721477123,34.72874596596755,0 32.56181251844025,34.72871043760686,0 32.56204047840652,34.72884585875124,0 32.56256874726614,34.72903436070048,0 32.56275953536341,34.72905523654213,0 32.56301649313426,34.72915141396312,0 32.5633363933391,34.72914942674504,0 32.5634936227485,34.72918586472073,0 32.56376128956443,34.72915202185048,0 32.56395572755073,34.7292990599671,0 32.56484761053137,34.72940304862078,0 32.56552817178095,34.72964765393694,0 32.56569042262196,34.72965652595101,0 32.56574374398781,34.72956618612435,0 32.56589564043799,34.72966565905218,0 32.56591842529004,34.72978799702234,0 32.56635355695784,34.72994406682786,0 32.56642009649249,34.72998458448032,0 32.56651890508993,34.73004475245073,0 32.56661914320667,34.73014402350643,0 32.56669826207205,34.73029306733428,0 32.56671992873347,34.73047321714105,0 32.56681860599475,34.73056645351932,0 32.56691554562898,34.73061773424778,0 32.56713774197573,34.73086727711412,0 32.56746706635345,34.73097765868246,0 32.56763123926469,34.73108702687939,0 32.56800554616621,34.7311400075987,0 32.5682062449126,34.73142611927848,0 32.56861446292299,34.73147581081955,0 32.56904043483864,34.73167067164359,0 32.56927917396511,34.73172980979699,0 32.56946464963082,34.73182532240811,0 32.56953566666926,34.7319341171553,0 32.57022964936603,34.73223023589548,0 32.57013347493138,34.73256521396917,0 32.57035720852236,34.73288117494479,0 32.57060254084976,34.73291413286645,0 32.57054540450383,34.73314623284481,0 32.57054423134171,34.73398514145592,0 32.57061348106411,34.73429141905691,0 32.57068188228724,34.73445612586464,0 32.57073005064492,34.73475178831958,0 32.5706420308681,34.73488582604848,0 32.57067106330123,34.7349541651824,0 32.57089684345593,34.73504293141042,0 32.57105023676678,34.73517494941235,0 32.57115242561556,34.73535034722496,0 32.57114058409284,34.73549009378627,0 32.57126463605735,34.73558872545704,0 32.57148977460558,34.73574914345077,0 32.57164686085171,34.73594235386201,0 32.57179300484737,34.73641163957443,0 32.57203334339824,34.73653020480074,0 32.5720749579292,34.73661260186637,0 32.57202972664243,34.73669796519498,0 32.57193965071401,34.73682500127866,0 32.57187947023,34.7369242548635,0 32.57193993495619,34.73702948815775,0 32.57206110594014,34.73721374019586,0 32.57236250974993,34.73784476477192,0 32.57239399721669,34.73811236136916,0 32.57243507856172,34.73825417873438,0 32.57222835330594,34.73840147498549,0 32.57228614100244,34.73856961143954,0 32.57242992720716,34.73859320802516,0 32.57251839363736,34.73864617902059,0 32.57263919392555,34.7388723739867,0 32.57271954075343,34.73912279062295,0 32.57292376779484,34.73925511524742,0 32.57302498498116,34.73930292105666,0 32.57313828379078,34.73942070963721,0 32.57314301206694,34.73960250338763,0 32.57334723450241,34.73997252098212,0 32.57346768451789,34.74000121798179,0 32.5736184357599,34.73995669456022,0 32.57374893242377,34.73980893092099,0 32.57385314302995,34.73975888154718,0 32.57397103870815,34.73983649934435,0 32.57428110937808,34.74021065366514,0 32.57458270174848,34.74034881107504,0 32.57486579888744,34.74042393725508,0 32.57512368706952,34.74047618869215,0 32.57524348431998,34.74057828466711,0 32.57532936914707,34.74068367069687,0 32.57572636326041,34.74081017119617,0 32.57589302888817,34.74088109241005,0 32.57643202735711,34.74123216216883,0 32.5767442914893,34.74136164055697,0 32.57705005083839,34.74150855499062,0 32.57726663762087,34.74168114640734,0 32.57768111803827,34.7415088824124,0 32.57790514585014,34.74155917608923,0 32.57797843749407,34.74165224866798,0 32.57800276155105,34.74177473739088,0 32.5779741928399,34.74189166384291,0 32.57828315282353,34.74215569464577,0 32.57849550898449,34.74232825660563,0 32.57872200842496,34.74257780562594,0 32.57892667101427,34.74266293398222,0 32.57919297063983,34.74296165991215,0 32.57940780702054,34.74309403645379,0 32.57968345343886,34.74339343451572,0 32.57983413309855,34.74355709571785,0 32.57990418607587,34.74381717800199,0 32.58000342038212,34.74401828565763,0 32.58013864495135,34.74422953610418,0 32.58059632097694,34.74457608097827,0 32.58082969111921,34.74475278489054,0 32.58077150154129,34.74511540317624,0 32.58083399188222,34.74547875864054,0 32.58082737557093,34.74554627755801,0 32.58081925420178,34.74562917015565,0 32.58106284291458,34.74593574746802,0 32.58122481912148,34.74631080954236,0 32.58145819619705,34.74675735534002,0 32.5813536820526,34.74705330146683,0 32.58130575104074,34.74731860318408,0 32.58147099793692,34.74743247442059,0 32.58135216153764,34.74819080880182,0 32.5814672835255,34.74843795849416,0 32.58178891675536,34.74884918934566,0 32.58207012107069,34.74912479524146,0 32.58211051352535,34.74926481921754,0 32.58205437097109,34.74969350723856,0 32.58211314678751,34.7497182069265,0 32.58153514418518,34.75048936460161,0 32.58142547761674,34.75076093553142,0 32.58127059589646,34.75099017894892,0 32.5812139713626,34.75132846582772,0 32.58122555716481,34.751837584261,0 32.58096166725502,34.75194691741014,0 32.58054896836454,34.75192867454241,0 32.58044362558963,34.75203621327699,0 32.58034631971554,34.75218526012566,0 32.58009928750401,34.75238181850187,0 32.57986544073612,34.75249999336123,0 32.57960231078038,34.75254782340767,0 32.5791500273266,34.75263003443192,0 32.57876168534266,34.75277665766119,0 32.57852602728798,34.752928502065,0 32.57841727345804,34.75325300228097,0 32.57851104903123,34.75344264889002,0 32.57840402318998,34.75396340201272,0 32.57823394079094,34.75396237314457,0 32.57796161763957,34.75413834489048,0 32.57784135604907,34.7541949135738,0 32.57722350419829,34.7543859809328,0 32.57646353817898,34.75455326363613,0 32.57617024210444,34.75455005174783,0 32.5759318062151,34.75442828143979,0 32.57537782049664,34.75446359282058,0 32.57468183741403,34.75524003069795,0 32.57670015431418,34.75721899560204,0 32.57787008317345,34.75779761845584,0 32.57922116020236,34.75907295725866,0 32.57954176568906,34.7593755825675,0 32.57962631822974,34.75945539276224,0 32.57981063282869,34.75974351200623,0 32.58006514982867,34.76031049483936,0 32.58033705467082,34.76125882905694,0 32.58031298994874,34.76163136431875,0 32.58016972920502,34.76198176356801,0 32.57989120425182,34.76236560963596,0 32.57951257086825,34.76266718786175,0 32.57929193172411,34.76284292333474,0 32.57912075295607,34.76303451829097,0 32.57857202343695,34.76289134704799,0 32.5784976975264,34.76261910557523,0 32.57802612069988,34.76207002867108,0 32.5778701935988,34.76198464507964,0 32.5772910952828,34.76202071892781,0 32.57707780160766,34.76191387524948,0 32.57692573055878,34.76175462782435,0 32.5767523609595,34.76183273944321,0 32.57656093451451,34.76178408134616,0 32.57647255716906,34.76165424574629,0 32.57641156905642,34.76168026412722,0 32.57639755760106,34.76181739425844,0 32.57600360704351,34.76153001765744,0 32.57449365782708,34.76088754094125,0 32.57360797388613,34.76052327934334,0 32.572620664854,34.76008186784058,0 32.5725073849316,34.76023422531616,0 32.57241863626444,34.7601466051038,0 32.57229713396895,34.76014586377854,0 32.57228199686242,34.76005077653761,0 32.57229881229488,34.75995852212127,0 32.57194917655436,34.7597241782083,0 32.57154149029252,34.75918866029666,0 32.57143038484619,34.75909826443732,0 32.57144928532932,34.75905542981613,0 32.57145437023088,34.75902577271695,0 32.57148882337702,34.75882486590554,0 32.57143898515424,34.7587119193944,0 32.5713710284692,34.75867947842745,0 32.57119871974481,34.75879327632172,0 32.5711253122496,34.75862276089857,0 32.57088262511962,34.75902227899653,0 32.57087267816555,34.75903865492894,0 32.57076487885411,34.75914433385243,0 32.57058156121624,34.75926195748873,0 32.57037074644449,34.75923691964677,0 32.57040705466487,34.75911048168047,0 32.57045273687544,34.75904412358055,0 32.57045388050022,34.75901965852316,0 32.57046061038447,34.75887554863824,0 32.57037845821284,34.75826268771865,0 32.57043582527235,34.75805963633848,0 32.57042062859276,34.75791558520045,0 32.57030985255319,34.7575911816495,0 32.57008135887867,34.7570390199466,0 32.5700197583115,34.75694052219685,0 32.56978388527984,34.75672708087798,0 32.56956377464817,34.7565946680326,0 32.5693565140702,34.75648095314549,0 32.56926601304806,34.7564116428842,0 32.56909527786358,34.75628955872699,0 32.56868297325198,34.75600914280812,0 32.56866438700941,34.7555671285984,0 32.56854274470099,34.75548688371047,0 32.56830252145118,34.75546822137658,0 32.56810274474392,34.7554877659803,0 32.56812390355389,34.75554734158143,0 32.56796973417417,34.75570611070751,0 32.56774132151671,34.75582145082776,0 32.56727977922201,34.75599766871862,0 32.56717863180436,34.75585810292645,0 32.56728688084261,34.75569117573757,0 32.56720314614262,34.7557379314209,0 32.56705279759265,34.75595401846038,0 32.56701227259867,34.75602109318134,0 32.5668109411558,34.75611654437421,0 32.56625842481514,34.75627572713779,0 32.56606796618525,34.75651233771345,0 32.56619993711019,34.7566019582223,0 32.56582031184936,34.75712388726372,0 32.56574219733346,34.75712483920237,0 32.56571419421159,34.75724642223309,0 32.56564407936411,34.75741859704522,0 32.56544332565012,34.75764153445264,0 32.56539949488915,34.75768996644488,0 32.56534444785073,34.75782713996993,0 32.56534899495161,34.75818813657629,0 32.56568689633881,34.75882692497491,0 32.5657040090162,34.75895021757425,0 32.56567513105499,34.75897653981777,0 32.56560232415107,34.75896606482063,0 32.56560257835941,34.758989894781,0 32.56560416676832,34.75913958519529,0 32.56546961518093,34.75937551520556,0 32.56529850985319,34.75938356836815,0 32.56518158513128,34.75950122702714,0 32.56512081899726,34.75950995966227,0 32.56494176274229,34.75978659124593,0 32.56475237346484,34.75998575788383,0 32.56494451957016,34.76009166052017,0 32.56489762746825,34.76039642617553,0 32.56495790232977,34.76044232725232,0 32.56501735120985,34.76057928667075,0 32.56525371376281,34.76067635475496,0 32.56499174154405,34.76097068962002,0 32.56462951498956,34.76075901719265,0 32.56434529986948,34.76107142641153,0 32.56415158766286,34.76113852705466,0 32.56404428943404,34.76141104290119,0 32.56395551774701,34.76146513501192,0 32.56390413081384,34.76165604215294,0 32.56373870237693,34.76164591757988,0 32.56382504540556,34.76125033794219,0 32.56389307748445,34.76044031839454,0 32.56368166465481,34.76002468555421,0 32.5637329671135,34.75984288194044,0 32.56360299397092,34.75957344921787,0 32.56284989895823,34.75926829817174,0 32.56293951739404,34.75907166106779,0 32.56283040822246,34.75897279990285,0 32.56263918516267,34.75879953515079,0 32.56245395366611,34.75874539180909,0 32.56239761268902,34.75864190969269,0 32.56177685540882,34.7581897243074,0 32.56153384947288,34.75799914290486,0 32.56100696016241,34.75791423318465,0 32.56068454979923,34.75767588688654,0 32.55949128061413,34.75719579183475,0 32.55904256682288,34.75691368554343,0 32.55887429361359,34.75671353456117,0 32.55884078454358,34.75620052145332,0 32.55869921531221,34.75573697259905,0 32.55859598197583,34.75563749429233,0 32.55846989942189,34.75556938751752,0 32.55831401027312,34.75553404045043,0 32.55821633867625,34.75539592219911,0 32.55818276643827,34.75508058143795,0 32.55813893516771,34.7549385000362,0 32.55805775755361,34.75489502305478,0 32.55779263317206,34.75484753738463,0 32.55751623957295,34.75470400884083,0 32.55753864850239,34.75453082610684,0 32.5574300412638,34.75444993511202,0 32.55724156167681,34.75437284444235,0 32.55703417242825,34.75427558134873,0 32.55697247745111,34.75418925263208,0 32.55697696995288,34.75407755255371,0 32.55716511455443,34.75400137341929,0 32.55744187599665,34.75391428574975,0 32.55748897175964,34.75388879517466,0 32.55752372530151,34.75369420264502,0 32.55752905440175,34.75349083299317,0 32.55767915359404,34.75301906894185,0 32.55755376898676,34.75287504768906,0 32.55744713517378,34.75276838494982,0 32.55747262479436,34.75263819385402,0 32.55752649386788,34.7524408564008,0 32.55757932044362,34.75216759275597,0 32.55751783823288,34.75205834736285,0 32.55748563579301,34.75197363417202,0 32.55751437105842,34.75186781397117,0 32.55773294338857,34.75169012069116,0 32.55814811814285,34.75145921814001,0 32.55820287384584,34.75135499219292,0 32.55825402835806,34.75088404554423,0 32.55831101733014,34.75072540135424,0 32.55846320351803,34.75059456517,0 32.5587260166988,34.75051311750438,0 32.55894742966312,34.75021368437141,0 32.55891702503862,34.75012182138472,0 32.55878981675085,34.74998781622338,0 32.55867774340125,34.74990690472776,0 32.55857793570895,34.74981317832243,0 32.55856829412266,34.74972860575468,0 32.55877401844894,34.74943623842642,0 32.55885174926765,34.74928631675112,0 32.55895697227888,34.74916664738627,0 32.55914568994717,34.74902600945309,0 32.5592697148151,34.74893796964552,0 32.55936503204136,34.74876237379992,0 32.55932472604879,34.74861458479889,0 32.55903786219319,34.74809856627115,0 32.55896844513445,34.74790762359781,0 32.55898906140309,34.74774015904084,0 32.55913463949719,34.7475720372117,0 32.55923282706492,34.7474623509635,0 32.55987671100635,34.74707959195566,0 32.55993833561004,34.74679205899821,0 32.56000702072889,34.74668218797157,0 32.56039787068472,34.74645112645244,0 32.56058236874164,34.74639210865519,0 32.56069754199804,34.74632263334257,0 32.56079380811801,34.74623298725836,0 32.56110043012869,34.74610310382819,0 32.5613929895651,34.7459931858155,0 32.56151156705686,34.74593089306968,0 32.56165295194091,34.74584152592301,0 32.56173172703721,34.74557558318563,0 32.56178331795816,34.74547924266869,0 32.56182882361693,34.7453942665321,0 32.56198011855406,34.74516887960932,0 32.56211355097286,34.74499924735993,0 32.56214487123705,34.74479890215417,0 32.56220327134356,34.74467464347115,0 32.56236911533266,34.74456680419348,0 32.56259345522317,34.74451519130687,0 32.56264581005856,34.74446650324555,0 32.56274319394206,34.74437594100599,0 32.56413692055884,34.74368012356614,0 32.56377110305066,34.74312646865133,0 32.56278484160249,34.7415453300282,0 32.56192174660853,34.7408382167543,0 32.56115334093083,34.74026623255698,0 32.56010237584749,34.73948143131587,0 32.55896743608606,34.73844282711351,0 32.55874265182087,34.7382039867351,0 32.55819258804085,34.73717955959944,0 32.55760536022081,34.73602562127791,0 32.55711031322123,34.73493029533451,0 32.55696033454824,34.73455208953219,0 32.55686575517765,34.73405814135968,0 32.55671367881819,34.73321031028555,0 32.55674822192798,34.73187819613044,0 32.55635860820485,34.73079143898846,0 32.55616432334938,34.72992112125657,0 32.55578446266463,34.72902842480057,0 32.55538987304345,34.72846116302835,0 32.55523485356911,34.7281777914819,0 32.55492027238363,34.72683676540063,0 32.55458428646931,34.72611726383158,0 32.55637223043336,34.7267102377258,0 32.55658268791075,34.72672703011073,0 32.55698393322192,34.72709278220662,0 32.55767859617048,34.72752576402307,0 32.55796004050534,34.72776509172567,0 32.55842957582357,34.72794859998639,0</coordinates>
						</LinearRing>
					</outerBoundaryIs>
				</Polygon>
			</MultiGeometry>
		</Placemark>
	</Document>
</kml>