<?xml version='1.0' encoding='UTF-8'?>
<kml xmlns="http://www.opengis.net/kml/2.2">
	<Document>
		<name>FOTA</name>
		<Style id="PolyStyle70">
			<LabelStyle>
				<color>00000000</color>
				<scale>0.000000</scale>
			</LabelStyle>
			<LineStyle>
				<color>ff0055ff</color>
				<width>2.000000</width>
			</LineStyle>
			<PolyStyle>
				<color>00828282</color>
				<outline>1</outline>
			</PolyStyle>
		</Style>
		<Placemark id="ID_70010">
			<name>FOTA</name>
			<snippet />
			<description>&lt;html xmlns:fo="http://www.w3.org/1999/XSL/Format" xmlns:msxsl="urn:schemas-microsoft-com:xslt"&gt;

&lt;head&gt;

&lt;META http-equiv="Content-Type" content="text/html"&gt;

&lt;meta http-equiv="content-type" content="text/html; charset=UTF-8"&gt;

&lt;/head&gt;

&lt;body style="margin:0px 0px 0px 0px;overflow:auto;background:#FFFFFF;"&gt;

&lt;table style="font-family:Arial,Verdana,Times;font-size:12px;text-align:left;width:100%;border-collapse:collapse;padding:3px 3px 3px 3px"&gt;

&lt;tr style="text-align:center;font-weight:bold;background:#9CBCE2"&gt;

&lt;td&gt;2&lt;/td&gt;

&lt;/tr&gt;

&lt;tr&gt;

&lt;td&gt;

&lt;table style="font-family:Arial,Verdana,Times;font-size:12px;text-align:left;width:100%;border-spacing:0px; padding:3px 3px 3px 3px"&gt;

&lt;tr&gt;

&lt;td&gt;DIST_CODE&lt;/td&gt;

&lt;td&gt;2&lt;/td&gt;

&lt;/tr&gt;

&lt;tr bgcolor="#D4E4F3"&gt;

&lt;td&gt;VIL_CODE&lt;/td&gt;

&lt;td&gt;110&lt;/td&gt;

&lt;/tr&gt;

&lt;tr&gt;

&lt;td&gt;VIL_CCD&lt;/td&gt;

&lt;td&gt;2110&lt;/td&gt;

&lt;/tr&gt;

&lt;tr bgcolor="#D4E4F3"&gt;

&lt;td&gt;VIL_NM_E&lt;/td&gt;

&lt;td&gt;FOTA&lt;/td&gt;

&lt;/tr&gt;

&lt;tr&gt;

&lt;td&gt;VIL_NM_G&lt;/td&gt;

&lt;td&gt;ΦΟΤΑ&lt;/td&gt;

&lt;/tr&gt;

&lt;/table&gt;

&lt;/td&gt;

&lt;/tr&gt;

&lt;/table&gt;

&lt;/body&gt;&lt;script type="text/javascript"&gt;

				function changeImage(attElement, nameElement) {

				document.getElementById('imageAttachment').src = attElement;

				document.getElementById('imageName').innerHTML = nameElement;}

			&lt;/script&gt;&lt;/html&gt;

</description>
			<styleUrl>#PolyStyle70</styleUrl>
			<MultiGeometry>
				<Polygon>
					<extrude>0</extrude>
					<altitudeMode>clampToGround</altitudeMode>
					<outerBoundaryIs>
						<LinearRing>
							<coordinates> 33.21712213607491,35.27597126336662,0 33.21716532157277,35.27581131355192,0 33.21706464025273,35.27565667057969,0 33.21702188062557,35.27546411144098,0 33.21712128239813,35.2753082747491,0 33.21715113981899,35.27523101845173,0 33.21711322317945,35.27513608143796,0 33.21717621744305,35.27500326378924,0 33.21719947080197,35.27491651152299,0 33.21719133800273,35.27480532857665,0 33.21697830835858,35.27457602441429,0 33.21701147383311,35.27449741554038,0 33.21703307783336,35.27440794948289,0 33.21695716720419,35.27428179889164,0 33.21668949999147,35.27411346089163,0 33.21671773079083,35.27401315467684,0 33.21671613670065,35.27396434392633,0 33.21662864260099,35.27384631821946,0 33.21657576156301,35.27382051519769,0 33.2164384896979,35.27384480709698,0 33.2163971680685,35.27383121601427,0 33.2163329869845,35.27357898352644,0 33.21627854205534,35.27347996545834,0 33.21612159587706,35.27336730506132,0 33.21606372669798,35.27336318993755,0 33.21600912785766,35.27339026138056,0 33.21590800711009,35.27360032760456,0 33.21580547300376,35.27361380146246,0 33.21568663450932,35.27343880573961,0 33.21566208764025,35.27322999134301,0 33.21583235521176,35.27326538257189,0 33.21589534743961,35.27313527691816,0 33.2157732365287,35.27293180603611,0 33.21566436015456,35.27272427863505,0 33.21547938123128,35.27254922749245,0 33.21541988323757,35.2725274856664,0 33.21534209458949,35.27258843249681,0 33.21532235193468,35.27250706803557,0 33.21478655890409,35.27255678894519,0 33.21469711549349,35.27268144793572,0 33.2147068791518,35.27280890181076,0 33.21435964056956,35.27281132390142,0 33.21411155529054,35.2728599260074,0 33.21272738570018,35.27300925558354,0 33.21263521386037,35.27267293768818,0 33.21175716329387,35.272706084738,0 33.2116979008849,35.27249995147704,0 33.2118523358972,35.27198081126934,0 33.21206405443956,35.27192269220559,0 33.2120263840601,35.27163929773465,0 33.21203781493916,35.27110105228898,0 33.21165390505793,35.27114288535741,0 33.2098115315725,35.27134362210268,0 33.2096907054999,35.27116005887649,0 33.20969344846377,35.27107372842225,0 33.2097120394294,35.27094424460422,0 33.20969903963046,35.27082120816423,0 33.20961494209966,35.27072832638294,0 33.20960474897194,35.27047147706215,0 33.20960231863512,35.27031607516242,0 33.20956047927675,35.27010883882846,0 33.20954751317575,35.2699599036797,0 33.20946883206454,35.26975047673596,0 33.20917181596495,35.26946100033022,0 33.20903781304026,35.26929469096096,0 33.20894245282383,35.2689246889241,0 33.20892897114661,35.268872375933,0 33.20878706345242,35.26874914273088,0 33.20841439862934,35.26880157525836,0 33.20797676975381,35.26892383692246,0 33.20792241229167,35.26893902225068,0 33.20758932234367,35.26901220353541,0 33.20743066546284,35.26918143593012,0 33.20700886003077,35.26938059574527,0 33.20603804477788,35.26969294883651,0 33.20551430746594,35.26994769597753,0 33.20529069723231,35.27002637897858,0 33.20501058834042,35.27004236587072,0 33.20411358893266,35.27015523332921,0 33.20399658420209,35.2701406794794,0 33.20390720194548,35.2697983188304,0 33.20381524560464,35.26962812264259,0 33.20378384875585,35.26941309131494,0 33.20375530184306,35.26922168951315,0 33.20350946132341,35.26894515961422,0 33.20349551412596,35.26891978021038,0 33.20336976007358,35.26869094223199,0 33.20287679573126,35.26850582286836,0 33.20277769242091,35.2684507718861,0 33.20247509068849,35.26823504962352,0 33.20228220676221,35.26815353088522,0 33.20212966551938,35.2679753194525,0 33.2020252654923,35.26787409777697,0 33.20192083453711,35.26779485816757,0 33.20174428382357,35.26753528571041,0 33.20171252229425,35.26724507063523,0 33.20169117318932,35.26717690192477,0 33.20160022369453,35.26704271537849,0 33.20143951440186,35.26695682852831,0 33.20119028195535,35.26691922091995,0 33.20112599397059,35.26688838320361,0 33.20058256243191,35.2663866424619,0 33.20043268062562,35.26622821706236,0 33.20022131859987,35.26594882348644,0 33.19988664185166,35.26568030391557,0 33.19949307643509,35.26535676792479,0 33.19933789446539,35.26515876637836,0 33.1990060084194,35.26481770153148,0 33.19851312790984,35.26459738925969,0 33.19839869910485,35.26452901655524,0 33.19833806179922,35.26449278466701,0 33.1979749353378,35.26426251704353,0 33.19777100853655,35.26406813473463,0 33.19740768240622,35.26358960121266,0 33.19728083069692,35.26330912249773,0 33.19719513290767,35.26322165638332,0 33.19696291595156,35.26315103684885,0 33.19692449781624,35.26311337633022,0 33.19671627578067,35.26282432199529,0 33.19648596082284,35.26246606761556,0 33.19642240786458,35.26241381823003,0 33.19615181654942,35.26227883636732,0 33.19587988246351,35.2620504002419,0 33.1956567510931,35.26184264534466,0 33.19560871526509,35.2617485226281,0 33.19563648966008,35.26169252050574,0 33.19562437544612,35.26166005319181,0 33.19554762980322,35.26145435716635,0 33.19619966626497,35.26124298550527,0 33.19663409556453,35.26128175569451,0 33.19711562841285,35.26107472220433,0 33.19719796869139,35.26118081113554,0 33.19721696342035,35.26135901149335,0 33.19737081242072,35.26146065887756,0 33.19751389325096,35.26139989906137,0 33.19732731075148,35.26111552823014,0 33.19728640498041,35.26087866255848,0 33.19713286134865,35.2605695133737,0 33.19712473563722,35.26048379655405,0 33.19713858934251,35.26041163504673,0 33.19754565090811,35.2603579011098,0 33.19773592755315,35.2599859320513,0 33.1978321260618,35.26001760280943,0 33.19792275038458,35.26010114303562,0 33.19795842180071,35.26015305327867,0 33.19794960068552,35.26055000809071,0 33.19816677586739,35.26059758390343,0 33.19827403655218,35.26058641037245,0 33.19838762616109,35.26052560409254,0 33.1984044652422,35.26051274433297,0 33.1984869625088,35.26044974087464,0 33.19849771701319,35.25986919635849,0 33.1984284150596,35.25976061530521,0 33.19843184544561,35.25967380696262,0 33.19889227158514,35.25919949809995,0 33.19854514327119,35.2590879355306,0 33.19843227773442,35.25890885539363,0 33.19840681138231,35.25887810124198,0 33.1982712255632,35.25871436195764,0 33.19808450676005,35.25852697719665,0 33.19800233335225,35.25830360448126,0 33.19800241490586,35.25824721803718,0 33.19808504859833,35.25815031251413,0 33.19829965695284,35.2580670676033,0 33.19840802531956,35.25803244524045,0 33.19861951620813,35.25796487640117,0 33.19860658305082,35.25775868533848,0 33.19865988147992,35.25749287592937,0 33.19882230307952,35.25724344754352,0 33.19904067750542,35.25718397463754,0 33.19924295582265,35.25681521837804,0 33.1990813750022,35.25647866627022,0 33.19950814052375,35.25640040170072,0 33.19975350417236,35.25596657621665,0 33.20002793883988,35.25602109585684,0 33.20015348758333,35.25611345270609,0 33.20037858208123,35.25597530934282,0 33.20045830760122,35.25573122744086,0 33.20024362482396,35.2555194195474,0 33.20017788521044,35.2552317916942,0 33.20041934808239,35.25521303075713,0 33.20052861534489,35.25512632278958,0 33.20094866698199,35.25511044302718,0 33.20136567515617,35.25490465700207,0 33.20149139521014,35.25487493448983,0 33.20162688623999,35.25495644850303,0 33.20193774793471,35.25497572915792,0 33.20217594855649,35.25492440751302,0 33.20227527029716,35.25485125253232,0 33.20233180655099,35.25462613637142,0 33.20219149468846,35.25441414984228,0 33.20212864496213,35.25431919442909,0 33.20205110800271,35.25421201363782,0 33.20173398536821,35.25404630866776,0 33.2015870703982,35.25390923418578,0 33.20125037775398,35.25355640706793,0 33.20112177391395,35.25332851010702,0 33.20136807377651,35.25331111656353,0 33.20166564005287,35.25327614475457,0 33.20180110182359,35.25332779294489,0 33.20207560820151,35.25323314339911,0 33.20223153313192,35.25283332537633,0 33.20221328680762,35.25265121229272,0 33.20221331868597,35.2526512167464,0 33.20225492399555,35.25265777332652,0 33.20234903556415,35.25273107195521,0 33.20241347358406,35.2527501123899,0 33.20268294844092,35.25270562223199,0 33.20282178071216,35.25271117294267,0 33.20287634542512,35.25269359634812,0 33.20298223289937,35.25261912635105,0 33.20319064704623,35.25250678719238,0 33.20334276677006,35.25246489925571,0 33.20354778675522,35.25241763642123,0 33.20385525241788,35.25239080284963,0 33.20408339097337,35.25235711924183,0 33.20425858758063,35.25236134953881,0 33.20434945433539,35.25238990085446,0 33.20440400407835,35.25238452659398,0 33.20452635848173,35.25235074405141,0 33.2046818118308,35.25228987637262,0 33.20487523865447,35.25225615623184,0 33.20509020326068,35.25218584978212,0 33.20540286964543,35.25197869511153,0 33.20554676470554,35.25190425840612,0 33.20551046922269,35.25185677360331,0 33.20601817416202,35.25164572548751,0 33.20617189401006,35.25163637320063,0 33.20585514945049,35.25119138664893,0 33.2057859738186,35.25101371078915,0 33.20572175210471,35.25083603818115,0 33.20613845765429,35.25068863170359,0 33.20636176132742,35.25056138788542,0 33.20658827267276,35.25050465021467,0 33.2065487480357,35.25039750559834,0 33.20655048931506,35.25033106847143,0 33.20674230643215,35.25025667382494,0 33.20673741464566,35.25020786026077,0 33.20660232260368,35.24988098957681,0 33.20674948971853,35.24982824497157,0 33.20670997685811,35.24971703421043,0 33.20672492303981,35.2496641674629,0 33.20695307199303,35.24961556675132,0 33.20692673517398,35.24953555042508,0 33.2069086442723,35.24946774282795,0 33.20691044204619,35.24935792444565,0 33.20675504411169,35.24938625477002,0 33.20656652650553,35.24945929713716,0 33.20652852572639,35.24944977752413,0 33.20646250006679,35.24938463863718,0 33.20656837584055,35.24931287416818,0 33.20679983137305,35.24926427350866,0 33.2069022884839,35.24927521251597,0 33.20692049510712,35.24925624771402,0 33.20692719368572,35.24918710603955,0 33.20690904498129,35.24916268869688,0 33.20684627004156,35.24914229481439,0 33.20686945474786,35.24910705865196,0 33.20699513765079,35.2490488754292,0 33.20701998685388,35.24901229151828,0 33.20701844424092,35.24892416085071,0 33.20694918558183,35.2488061468673,0 33.20676103990403,35.24860396329353,0 33.20675282587541,35.24857005805713,0 33.20679424809208,35.24848874238792,0 33.20688194043078,35.24841832022619,0 33.20699771202243,35.24836012329094,0 33.20711016294205,35.2483127711309,0 33.20755990053813,35.24817081158028,0 33.20771537338681,35.24808282976875,0 33.20775003386576,35.24812488587803,0 33.20780126401476,35.24812628521804,0 33.20803276976121,35.24803700692943,0 33.20832708254112,35.24794371798728,0 33.20881976359892,35.24782348442741,0 33.20932232285634,35.24772901871697,0 33.20953393635094,35.24767903827173,0 33.20971916759236,35.24758564991065,0 33.21009113794481,35.24750598088784,0 33.21021017584916,35.24747625820196,0 33.21044153162498,35.24749950588454,0 33.21084653128403,35.24743613371144,0 33.21080367752742,35.24734255042583,0 33.21023503606565,35.24742340172897,0 33.20987800817289,35.24745291903282,0 33.20985990559312,35.24738646666513,0 33.20989630901016,35.24735667301749,0 33.21017736976082,35.24728370544496,0 33.21030628033965,35.24728516980838,0 33.21051956587482,35.24722298893835,0 33.21077741069065,35.2472096529935,0 33.21091524010585,35.24718141392337,0 33.21095067049132,35.24716981709577,0 33.2110284247515,35.24714437233905,0 33.21107058482921,35.24714067253035,0 33.21114156403882,35.24716998178154,0 33.21114159263782,35.24716999344971,0 33.21129910599343,35.24723503591231,0 33.21133136951074,35.24725897275541,0 33.21133607393023,35.24728159301353,0 33.21132570724566,35.24738045294031,0 33.2114982289261,35.24737284491373,0 33.21158336214494,35.24732897873734,0 33.21168418784281,35.24734453437142,0 33.21168421971959,35.24734453882261,0 33.21172755511036,35.24735122253475,0 33.21194067057679,35.24728780004993,0 33.21224562797629,35.24717092603446,0 33.2130879033903,35.24684812419872,0 33.21351674553489,35.24656916183122,0 33.21420399825951,35.24615310557231,0 33.21441259149429,35.24608423332973,0 33.21449963053718,35.24607881138146,0 33.2147082993372,35.24594873867119,0 33.21508824290359,35.2457536866544,0 33.21520221939521,35.24562981163049,0 33.21522905049152,35.24558824953282,0 33.21526563368839,35.24539055125505,0 33.21536806477904,35.24531453153356,0 33.2153729008982,35.24526981131165,0 33.21518659242174,35.24511195337924,0 33.21516488356877,35.24487968589863,0 33.21510007566489,35.2446889670376,0 33.21493498554097,35.2443859698149,0 33.21463302164002,35.24417151978199,0 33.21435887206133,35.24389275245224,0 33.2142302065063,35.24352622376069,0 33.21414239206036,35.24338570649185,0 33.21400788983722,35.24309999293748,0 33.21399190155767,35.24288734551283,0 33.21395194301334,35.24271390944445,0 33.21381826875103,35.24253490791673,0 33.21366841429349,35.24229233453657,0 33.21332564739291,35.2418275524696,0 33.21287171282473,35.24154784454851,0 33.21274751689408,35.24143396587548,0 33.21355805245983,35.24106195358957,0 33.21383943498499,35.240901342873,0 33.21411022878527,35.24078780639799,0 33.21418657165322,35.24092360454772,0 33.21384308689559,35.24104022349765,0 33.2136096091613,35.24113340052743,0 33.21364394719141,35.2412087484056,0 33.21393387275101,35.24109757715571,0 33.21450595058045,35.24097173203626,0 33.21517362304807,35.24087735129243,0 33.21532544966622,35.24107598019785,0 33.21540578624385,35.24107290773247,0 33.21555313959208,35.24101732799695,0 33.21575572415285,35.24115636519858,0 33.21620546015939,35.2409660715688,0 33.21656614649623,35.24086123056254,0 33.21676058884908,35.24061422973998,0 33.21696634908043,35.24050219777842,0 33.21715483397278,35.24043722648699,0 33.21733665546346,35.24034322227696,0 33.21733384974968,35.24029064923306,0 33.21730519984732,35.24025767374182,0 33.21743732931638,35.24013224148001,0 33.21754319340357,35.23992309100169,0 33.21754871492202,35.23991218777809,0 33.21752766794879,35.23989809541416,0 33.21749834522763,35.23984642273893,0 33.21742726687119,35.23961910357025,0 33.21675155091985,35.23962027495406,0 33.2167390832864,35.23951180055001,0 33.21653971110518,35.23952885204466,0 33.21645807899864,35.23934973678698,0 33.21635945168745,35.23935309503457,0 33.21623999451797,35.23921871201915,0 33.21622538549101,35.23915671706077,0 33.21615036509389,35.2387245172342,0 33.2161002040101,35.23855402859668,0 33.21590351291627,35.23808901969433,0 33.21573602000742,35.23777209470844,0 33.2154763408237,35.2373431844103,0 33.21582895579709,35.23728321583118,0 33.21582515802603,35.23695609174324,0 33.21629953651937,35.23684974080125,0 33.21626878771536,35.2362505719814,0 33.21635273602084,35.23624203181574,0 33.21648705922446,35.23621803730152,0 33.21651435271867,35.23620428914783,0 33.21643743608,35.23561196962304,0 33.21703346748905,35.23554531089037,0 33.21748675636646,35.23551296663575,0 33.21745356287994,35.23519959376478,0 33.21809365239447,35.23513296513288,0 33.21942417307516,35.23502211690337,0 33.22038742162263,35.23494540186433,0 33.22034313856323,35.2351313068967,0 33.22027987699786,35.23539467230533,0 33.22016617082806,35.23573203085146,0 33.22014927545303,35.23582498774874,0 33.22012599998178,35.23599024957797,0 33.22009402433365,35.23642236407462,0 33.22057666088197,35.23642618537174,0 33.22089982625843,35.23642127206084,0 33.22142444758013,35.23640962931596,0 33.22198473175532,35.23640834077641,0 33.22341591382045,35.23636467089793,0 33.22381252168919,35.23635464216068,0 33.22385250499489,35.23625309238253,0 33.22391158114047,35.23596906221829,0 33.22393274492754,35.23580896314122,0 33.22396046294278,35.2354181644335,0 33.22397100356824,35.23538029553679,0 33.22413468545831,35.23537353229311,0 33.22463416772175,35.23531709243228,0 33.22495830944318,35.23527236197175,0 33.22586351948133,35.2351474489526,0 33.22591358123294,35.23518002012306,0 33.22626326755054,35.23513146977637,0 33.22656177034431,35.23511969993022,0 33.22673296309156,35.23509328051762,0 33.22693544332581,35.2350797290518,0 33.22692490513289,35.23517476890186,0 33.22690607014954,35.23522527938155,0 33.22719090211528,35.23530426398263,0 33.22708819764623,35.2356955214026,0 33.22712048259955,35.23576576027659,0 33.22803648299853,35.23609095887021,0 33.22813370510018,35.23594203272184,0 33.22833123993915,35.23568185968674,0 33.22854854747023,35.2354747913694,0 33.22892051357659,35.23508201602205,0 33.2290741219488,35.23490401445692,0 33.22925495297638,35.23464297280422,0 33.22949946135633,35.23436827397376,0 33.22967394120794,35.23419542857509,0 33.22977970232639,35.23425347752549,0 33.23000980407664,35.23437976972585,0 33.23016825838803,35.23455542268802,0 33.23021932158044,35.2346273872546,0 33.23025470657775,35.23472160360621,0 33.23027644427083,35.2348954459106,0 33.23024115862312,35.2357046246136,0 33.23007001208529,35.23569337257867,0 33.22997683660902,35.2359613275115,0 33.2300036819376,35.23623878937489,0 33.23008380958302,35.23646747847466,0 33.23011299125804,35.2365111683764,0 33.23027367360908,35.23655580521734,0 33.23032587184224,35.23654299900274,0 33.23076323333158,35.23648764988537,0 33.23135029999107,35.23751646945973,0 33.2313920461418,35.23751649782783,0 33.23235039225207,35.23729280821267,0 33.23250105837067,35.23693155448273,0 33.2330770390973,35.2370723769432,0 33.23318559898467,35.2370570380163,0 33.23359268535538,35.23701621062183,0 33.2345132995657,35.23693804935903,0 33.23448233526939,35.23658694664471,0 33.23444100890524,35.23616219424314,0 33.23327492485754,35.23541129582194,0 33.23326242964465,35.23538045809565,0 33.23371968898643,35.23525574573173,0 33.23400363041162,35.23519599652247,0 33.23411427837345,35.23517723194956,0 33.23430009591926,35.23513282867047,0 33.23452976276693,35.23506961737183,0 33.23404863494696,35.23401947404859,0 33.23478761823313,35.23394461654414,0 33.23505220250043,35.23446198890398,0 33.23527769153875,35.23440391140621,0 33.23580383152342,35.23426553820551,0 33.23575833513322,35.23382879851883,0 33.2357627477814,35.2335856100498,0 33.23580034339162,35.23356508336283,0 33.23613647513454,35.23348652541536,0 33.23602759391107,35.23268436390315,0 33.23599535403927,35.23244679129861,0 33.23634176716663,35.23246596496115,0 33.23666124871176,35.23247091045575,0 33.23784875829732,35.23243535765668,0 33.23785507163493,35.23268554609231,0 33.23786615598025,35.23312457190352,0 33.23763420240627,35.23339843730867,0 33.23746910916717,35.23360298847923,0 33.23740005386576,35.23378447921844,0 33.23733452670382,35.2339884914506,0 33.23711907012185,35.2340403308273,0 33.23709921277876,35.23406343901372,0 33.23719026878909,35.23489153934512,0 33.23749710738952,35.23489173722805,0 33.23775698964678,35.23487734923436,0 33.23779540887447,35.23508630710396,0 33.23778703423015,35.23511199154904,0 33.23776198491393,35.23511711197752,0 33.23768996856359,35.23512134843192,0 33.23755634370851,35.23515637016997,0 33.23751040575298,35.23517346504743,0 33.23748217700479,35.23521969235438,0 33.23748839843865,35.2352633678359,0 33.23750920989173,35.23532931689006,0 33.23757171787319,35.23544495527924,0 33.23752766856033,35.23567355859991,0 33.2363389004278,35.23568734671121,0 33.23639814708977,35.23593656639704,0 33.23594099973647,35.23595339402985,0 33.23574375219034,35.23594470225299,0 33.23533665227123,35.23600865576209,0 33.23518902060201,35.23648294780128,0 33.2349840562102,35.23688955378174,0 33.23496833389456,35.23695719037046,0 33.23490817829079,35.23763790896515,0 33.23496453022274,35.23764479978254,0 33.2353568387757,35.23777264702518,0 33.23567606946393,35.2379150007559,0 33.23563473143976,35.23856404957405,0 33.23569284946677,35.23890318081823,0 33.23568130675637,35.23896739577437,0 33.23565936112743,35.23899306682098,0 33.23486835499488,35.23885982128639,0 33.23426310960107,35.23874467435729,0 33.23406751931336,35.23915984895318,0 33.23430645681037,35.23922936695451,0 33.23418928349292,35.23951443742102,0 33.23449398746518,35.23957886292433,0 33.23478197180997,35.23966725469507,0 33.2351043435458,35.23980961460029,0 33.23514292521512,35.23984303529559,0 33.23516376261278,35.23988586400723,0 33.23527333597618,35.23993610815953,0 33.23533255634248,35.23996326277491,0 33.23539921138322,35.23999070306472,0 33.23546482165109,35.24000713577605,0 33.23561316446305,35.24004001283171,0 33.23565926100322,35.2400439910618,0 33.23598173459477,35.24001147701313,0 33.2359759868058,35.240060620268,0 33.23594368309449,35.24018022824926,0 33.23595880708083,35.24029224781263,0 33.23590146991148,35.24039957086365,0 33.23577851171063,35.24063615120676,0 33.23581268181167,35.24069810204655,0 33.23569157356685,35.24086305517191,0 33.23558872300134,35.24101195674643,0 33.23555627535888,35.24106767349436,0 33.23546383971786,35.24127307091141,0 33.23550377689406,35.24128480862397,0 33.23575062216574,35.24125921265525,0 33.23603791973488,35.24122750520256,0 33.23612686809654,35.24123074166224,0 33.2364288370855,35.24122949235628,0 33.23673828776732,35.24126888213291,0 33.23696785972392,35.24129883314488,0 33.23710319192114,35.24135537367428,0 33.23742199711468,35.24134397711954,0 33.23746254928207,35.24132874520824,0 33.2378152274544,35.24116103430293,0 33.23811512025649,35.24108484064274,0 33.23821158423672,35.24118029816862,0 33.23835699741805,35.24132419184002,0 33.23834098859611,35.24134167426561,0 33.23821140002079,35.24137355372974,0 33.23818592585785,35.24137982074659,0 33.23818257657084,35.24147288137615,0 33.23821128750546,35.2414913826785,0 33.23848728171722,35.24166924216509,0 33.23850048550247,35.24180373769823,0 33.2384577357425,35.24190976853382,0 33.23821076694814,35.24204567238162,0 33.23819304111789,35.2420554269487,0 33.238042338769,35.24224016482269,0 33.23799930977449,35.24232160343476,0 33.2379105423724,35.24250904428743,0 33.23788024942596,35.24270666672658,0 33.23771982128298,35.2428661654699,0 33.23768705866858,35.24288937478629,0 33.23748564502215,35.24298121069164,0 33.23746231667847,35.24301479895971,0 33.23744829328032,35.24306826803694,0 33.23744353701203,35.24317802060333,0 33.23743873543361,35.24334686743004,0 33.23744797485824,35.24340606876993,0 33.23745818312703,35.24345651031054,0 33.23751242417206,35.24355721704571,0 33.23755616719907,35.24362603879049,0 33.23764658714516,35.24374485276023,0 33.23769507197549,35.24382324961186,0 33.23780770168893,35.24398768060142,0 33.23789449557781,35.24410203692194,0 33.23793823760968,35.24420942535477,0 33.23791858475648,35.24427847884108,0 33.23797640496336,35.24439890521504,0 33.23807602159926,35.24459504804987,0 33.23813734042574,35.24477813201784,0 33.23812596884643,35.24495499608514,0 33.23804830584928,35.24513173185258,0 33.23792523972023,35.24541966472658,0 33.23779172641525,35.24566536629044,0 33.23775688851358,35.24576998592159,0 33.23773103604061,35.24585492499633,0 33.23773681030431,35.24587154878428,0 33.23780034864384,35.24602669989443,0 33.23773968993998,35.24617185612178,0 33.23772699518658,35.24621384791544,0 33.2376852659784,35.24625880371046,0 33.23756840027492,35.24631832381364,0 33.23755838503526,35.24633383654207,0 33.2375481347873,35.24638405590107,0 33.23757967501437,35.24641516581556,0 33.23768188358215,35.24649401872664,0 33.23781142356515,35.24637452495224,0 33.23798241620158,35.24622616458613,0 33.23799525732293,35.24620873802562,0 33.23803491697252,35.24594484607455,0 33.2382071401835,35.24588182104523,0 33.23837541175437,35.2458202421704,0 33.23838751364657,35.24570872104648,0 33.23898210690256,35.2455516478197,0 33.23918480859414,35.24543587593605,0 33.23955148636794,35.24527647293995,0 33.23975274463276,35.24527331617304,0 33.24014875422781,35.24510080565448,0 33.24074358631241,35.24467365637158,0 33.24079693099073,35.24464307609396,0 33.24153008572613,35.24452762376579,0 33.24174473486533,35.24445449729855,0 33.24230067396083,35.24428317091174,0 33.242441989334,35.24424170706281,0 33.24333380852527,35.24405089516551,0 33.24377251348722,35.24381279471683,0 33.24400587614434,35.24367297784435,0 33.24423391579705,35.24352441066226,0 33.24447798596371,35.24332992906601,0 33.24460605769632,35.24318458452308,0 33.24472196926605,35.24324150818952,0 33.24565240174432,35.2430714809036,0 33.24593303394322,35.24376157235554,0 33.2459595378463,35.24394308887163,0 33.24593681593002,35.24401743022223,0 33.24608578115701,35.24438926672141,0 33.24631769018172,35.24438612234877,0 33.24639494580836,35.24444520617096,0 33.24658419567766,35.24445515336404,0 33.24736542492447,35.24421942163144,0 33.2478279676892,35.2441486132461,0 33.24788522267513,35.2442186177347,0 33.24856371540254,35.24410091007872,0 33.24891851637646,35.24540661853821,0 33.24930330707296,35.24589885633051,0 33.24946178870675,35.24605748422899,0 33.24960300592976,35.24613190916184,0 33.24943726638923,35.2467091322631,0 33.24868664146655,35.24699518761602,0 33.24855373320403,35.24719638191664,0 33.24830323716098,35.24757558467105,0 33.24829692043322,35.24763983416663,0 33.24827493567729,35.24770150628512,0 33.24827486171728,35.24779403033838,0 33.24855846435057,35.24866416217532,0 33.24854035714162,35.24877980689725,0 33.24834443071148,35.24891912382962,0 33.24832325969511,35.24894577985397,0 33.24834826357467,35.2490164712873,0 33.24834979103188,35.24906658803461,0 33.24832622588333,35.24914881864532,0 33.24825877907432,35.24925158455861,0 33.24827587516898,35.24941865240878,0 33.24829931599995,35.24948805896955,0 33.2483775363525,35.24961531867002,0 33.2476861178945,35.25032620646373,0 33.24753569254302,35.25036210553802,0 33.24736650868811,35.25036072530975,0 33.24699207165528,35.25040292147298,0 33.24647046494532,35.25034479886514,0 33.24637334100139,35.25034345886025,0 33.24624329925552,35.25036651602347,0 33.24600041035519,35.25045633032303,0 33.24591420532865,35.2505102525802,0 33.24585931819351,35.25057832874756,0 33.24584044611792,35.25066441627958,0 33.24585122440466,35.25088416537014,0 33.24580889551599,35.2509226919404,0 33.24566788136513,35.25095216701961,0 33.24561145352263,35.25098940160715,0 33.24545297006207,35.2512964365847,0 33.24538530539139,35.25164850083684,0 33.24529748604369,35.25175510842958,0 33.24525966434548,35.25201595114884,0 33.24520627271573,35.25216627019467,0 33.24506987086517,35.25229341140263,0 33.24493188163569,35.2524449670484,0 33.24491280074175,35.25277264294382,0 33.24493145229312,35.25294227969271,0 33.24493442481723,35.25312861392323,0 33.24484512659124,35.25313113192502,0 33.24484034991277,35.2532210820391,0 33.24489971428594,35.25341387327223,0 33.24497008088159,35.25356426436719,0 33.24496305926178,35.25370497525104,0 33.24490401118052,35.25387906254227,0 33.24487724933949,35.25402939781402,0 33.24493049698118,35.25404870323558,0 33.24502600925234,35.2541078716544,0 33.24506200633169,35.25414644394614,0 33.24510573194092,35.25431095503856,0 33.245086262332,35.25444659558084,0 33.24500730304877,35.25486280430941,0 33.24534801878743,35.25557039706003,0 33.24535117192342,35.25574665422405,0 33.24531059346333,35.25584221592304,0 33.24541798839788,35.25589515477255,0 33.24549475189241,35.25600773195119,0 33.24535663888484,35.25611747290315,0 33.24517804545963,35.25620888669016,0 33.24515152115722,35.25629767747869,0 33.24517052247618,35.25630785710745,0 33.24529368104254,35.25628826916739,0 33.24534235558074,35.25638930431985,0 33.24557628414201,35.25634266438254,0 33.24567041637816,35.25644237043998,0 33.24573638426963,35.2566166305515,0 33.24562970689957,35.25669046070568,0 33.2454997664966,35.25690799471088,0 33.24533857481534,35.25694382995593,0 33.24507822341504,35.25695927186212,0 33.24505016018969,35.25691586922181,0 33.24465014114239,35.25692716083619,0 33.24459982335432,35.25681595477946,0 33.24445930447503,35.2568382433878,0 33.24422945718054,35.25694047228271,0 33.24371375733151,35.25692254320015,0 33.24318057473658,35.25704696164195,0 33.24318467881465,35.25707882643909,0 33.24317638853856,35.25710864836169,0 33.2430458023268,35.25711263884598,0 33.24288466339741,35.25708745943707,0 33.24244077708821,35.25716922019973,0 33.24205398863967,35.25716830890356,0 33.24180608157288,35.2571301954189,0 33.24144898477772,35.25719912541895,0 33.24113335087819,35.25711283763406,0 33.24108323609205,35.25678470008658,0 33.24044676761907,35.25688124843182,0 33.24026485670557,35.25697739925282,0 33.23998050819323,35.25702535391184,0 33.23987881453682,35.25706460993874,0 33.23982586714148,35.25712287598402,0 33.23943397915331,35.25727380417013,0 33.23898766605515,35.25729521732254,0 33.23900491411982,35.25740911677912,0 33.23911066567091,35.25744985697795,0 33.23945946789489,35.25741618100147,0 33.23947432813107,35.2574331382334,0 33.23934864681132,35.25749542665102,0 33.23825102566586,35.25756387977766,0 33.2381960320293,35.25761325875632,0 33.2381743607455,35.25763271819017,0 33.23767807822164,35.25781128884208,0 33.23743501850178,35.25785451788106,0 33.23735731569391,35.25785717977907,0 33.23737723402039,35.25777313233881,0 33.23745668088937,35.25767556447148,0 33.23700531719857,35.25772137085909,0 33.23668128682031,35.25772658410321,0 33.23638696983114,35.25777655810848,0 33.2364331372946,35.25790403491242,0 33.2363817635318,35.25803144808207,0 33.2368446548256,35.25803581609392,0 33.23739515237722,35.25805244062856,0 33.23778308041351,35.25865467168185,0 33.23789207830358,35.2587740525612,0 33.23795150525704,35.25886764119275,0 33.23809192373742,35.25897755142132,0 33.23819481249322,35.25890206060127,0 33.23841686403016,35.25873913570828,0 33.23873241308674,35.25891898114932,0 33.23874714381979,35.25907423038872,0 33.23856773040421,35.25914258575752,0 33.23867587314074,35.25927891277364,0 33.23881113357724,35.25958134510324,0 33.23893665834723,35.25968988928078,0 33.23886046341381,35.2598579617414,0 33.23914271605916,35.26029606678028,0 33.2392997654436,35.26028125119108,0 33.23952132120776,35.26022308984803,0 33.23953119707055,35.26026919425242,0 33.23939888641277,35.26034368076837,0 33.23944498610469,35.26054165934364,0 33.23944159698893,35.2606324960702,0 33.23946421412716,35.26119517249546,0 33.23950057132424,35.26120468588432,0 33.23959782741923,35.26149895737418,0 33.24032688625609,35.26141941907493,0 33.24036806461987,35.26157807413495,0 33.24045846561317,35.26167074994268,0 33.24045075623908,35.2616960707837,0 33.24036129090974,35.26198987513631,0 33.24026742979633,35.26211121057212,0 33.24008296320977,35.2623889522076,0 33.23994390220218,35.26247552586029,0 33.2399594486723,35.26256051108,0 33.2395416813031,35.26256227356525,0 33.23961943806133,35.26296022315284,0 33.23921479542094,35.26299571273164,0 33.23924175905715,35.26318321445508,0 33.23936100161455,35.2631853123223,0 33.23925724752906,35.26421068196812,0 33.23925222771945,35.26430172376986,0 33.23944914962002,35.26478742014847,0 33.23950857691883,35.26543960846008,0 33.23949786885429,35.2654571363713,0 33.2392157432493,35.26550281874214,0 33.23914229274373,35.26577691851949,0 33.23908206955177,35.26597717942769,0 33.23897761487811,35.26598588043602,0 33.23881953071577,35.2661806845636,0 33.23887720903211,35.26694043974519,0 33.23888205498222,35.26703485933621,0 33.23826353842657,35.26709651228605,0 33.2381870498404,35.2671005920216,0 33.23801122001403,35.26710996900589,0 33.23758884452432,35.26713414951618,0 33.23760163084909,35.26762045799287,0 33.2371311867218,35.2676785657014,0 33.23712450329115,35.26773968823352,0 33.23706149869328,35.26780756704129,0 33.23703978263912,35.26799908460528,0 33.23673496685592,35.26805593865502,0 33.2367117596636,35.26807629948597,0 33.23669174541067,35.26822027548216,0 33.23668998220823,35.26833166133265,0 33.2365506824017,35.26850680162996,0 33.23594435050641,35.2686313770804,0 33.2356030918769,35.26868956308103,0 33.23537449264309,35.26871657994184,0 33.23502991601541,35.26878155460795,0 33.23452135245797,35.26885456932932,0 33.23396125726881,35.26894408768624,0 33.23346307621596,35.26902370757438,0 33.23368598311577,35.26921658296832,0 33.23396533426995,35.26948634154223,0 33.23425521463026,35.26963778847143,0 33.23363045604153,35.26971055473867,0 33.23364669669643,35.26983010385916,0 33.23364797770817,35.27003624640108,0 33.23353346864221,35.27001909237273,0 33.2333549609823,35.27004336676529,0 33.23296834623915,35.26994674236019,0 33.2326441259485,35.26992456566454,0 33.23243187013031,35.26949627923364,0 33.23216891119464,35.26920213292609,0 33.23198755563908,35.26910442627326,0 33.23151441468214,35.26926754946061,0 33.23099221253489,35.26940746095378,0 33.23064855818287,35.26948406728592,0 33.23045518750635,35.26949856947718,0 33.23026626935219,35.26952283210115,0 33.23016521430914,35.26944103616361,0 33.23002101282698,35.26937384709933,0 33.22987379980524,35.26934080896667,0 33.22968782051125,35.26939922761339,0 33.22932489687346,35.269411168022,0 33.22921031008509,35.26946841580919,0 33.22910015387201,35.26955738116234,0 33.22907480330079,35.26961835200087,0 33.22838298885864,35.26980448260716,0 33.22834134666954,35.26980079341184,0 33.22765996195379,35.26996619177184,0 33.22694738584622,35.27009009093778,0 33.22553413104363,35.27033056590469,0 33.22565875418353,35.27061730580116,0 33.22573135973796,35.27086741386593,0 33.2257475601612,35.27101379836137,0 33.2257444918878,35.2710979610235,0 33.22568488897891,35.27119671892068,0 33.22552412566305,35.27131125845474,0 33.22543776114018,35.27139901873018,0 33.22533058167051,35.27147822390345,0 33.22512520841797,35.27158175172757,0 33.2249179480387,35.27166044504049,0 33.2248110007091,35.27170105110349,0 33.2247646617751,35.27173897915142,0 33.22474803041843,35.27182438294442,0 33.22418088700795,35.27182531254233,0 33.22436851972009,35.27259826215877,0 33.22442927798491,35.27297522137934,0 33.22424578086095,35.27293847683886,0 33.22325860991028,35.27296349062058,0 33.22316936484823,35.27292545998022,0 33.22314794915053,35.27285494176078,0 33.22307853893722,35.2728223494809,0 33.22299255600037,35.27282228444268,0 33.22291811557827,35.27285205465554,0 33.22277706175378,35.2732966504258,0 33.22277196272587,35.27341866948822,0 33.22293493105357,35.27406144528045,0 33.22310818912487,35.27438154659613,0 33.22315440302486,35.27445750669808,0 33.22339223942515,35.27469766451851,0 33.22228582616049,35.27486900679217,0 33.22137116334389,35.27508794011725,0 33.22166799233268,35.27579318808842,0 33.22159186888028,35.27584464967826,0 33.22142318678583,35.27586078863398,0 33.2212759758023,35.27589863669574,0 33.22113212491814,35.27589039063862,0 33.22041299660732,35.27574340169467,0 33.2193928530772,35.27565582594499,0 33.2191370863271,35.27520278477004,0 33.21712213607491,35.27597126336662,0</coordinates>
						</LinearRing>
					</outerBoundaryIs>
				</Polygon>
			</MultiGeometry>
		</Placemark>
	</Document>
</kml>