<?xml version='1.0' encoding='UTF-8'?>
<kml xmlns="http://www.opengis.net/kml/2.2">
	<Document>
		<name>GAIDOURAS-NEA SPARTI</name>
		<Style id="PolyStyle70">
			<LabelStyle>
				<color>00000000</color>
				<scale>0.000000</scale>
			</LabelStyle>
			<LineStyle>
				<color>ff0055ff</color>
				<width>2.000000</width>
			</LineStyle>
			<PolyStyle>
				<color>00828282</color>
				<outline>1</outline>
			</PolyStyle>
		</Style>
		<Placemark id="ID_70310">
			<name>GAIDOURAS-NEA SPARTI</name>
			<snippet />
			<description>&lt;html xmlns:fo="http://www.w3.org/1999/XSL/Format" xmlns:msxsl="urn:schemas-microsoft-com:xslt"&gt;

&lt;head&gt;

&lt;META http-equiv="Content-Type" content="text/html"&gt;

&lt;meta http-equiv="content-type" content="text/html; charset=UTF-8"&gt;

&lt;/head&gt;

&lt;body style="margin:0px 0px 0px 0px;overflow:auto;background:#FFFFFF;"&gt;

&lt;table style="font-family:Arial,Verdana,Times;font-size:12px;text-align:left;width:100%;border-collapse:collapse;padding:3px 3px 3px 3px"&gt;

&lt;tr style="text-align:center;font-weight:bold;background:#9CBCE2"&gt;

&lt;td&gt;3&lt;/td&gt;

&lt;/tr&gt;

&lt;tr&gt;

&lt;td&gt;

&lt;table style="font-family:Arial,Verdana,Times;font-size:12px;text-align:left;width:100%;border-spacing:0px; padding:3px 3px 3px 3px"&gt;

&lt;tr&gt;

&lt;td&gt;DIST_CODE&lt;/td&gt;

&lt;td&gt;3&lt;/td&gt;

&lt;/tr&gt;

&lt;tr bgcolor="#D4E4F3"&gt;

&lt;td&gt;VIL_CODE&lt;/td&gt;

&lt;td&gt;210&lt;/td&gt;

&lt;/tr&gt;

&lt;tr&gt;

&lt;td&gt;VIL_CCD&lt;/td&gt;

&lt;td&gt;3210&lt;/td&gt;

&lt;/tr&gt;

&lt;tr bgcolor="#D4E4F3"&gt;

&lt;td&gt;VIL_NM_E&lt;/td&gt;

&lt;td&gt;GAIDOURAS-NEA SPARTI&lt;/td&gt;

&lt;/tr&gt;

&lt;tr&gt;

&lt;td&gt;VIL_NM_G&lt;/td&gt;

&lt;td&gt;ΓΑΪΔΟΥΡΑΣ-ΝΕΑ ΣΠΑΡΤΗ&lt;/td&gt;

&lt;/tr&gt;

&lt;/table&gt;

&lt;/td&gt;

&lt;/tr&gt;

&lt;/table&gt;

&lt;/body&gt;&lt;script type="text/javascript"&gt;

				function changeImage(attElement, nameElement) {

				document.getElementById('imageAttachment').src = attElement;

				document.getElementById('imageName').innerHTML = nameElement;}

			&lt;/script&gt;&lt;/html&gt;

</description>
			<styleUrl>#PolyStyle70</styleUrl>
			<MultiGeometry>
				<Polygon>
					<extrude>0</extrude>
					<altitudeMode>clampToGround</altitudeMode>
					<outerBoundaryIs>
						<LinearRing>
							<coordinates> 33.84568972406375,35.13659225530182,0 33.84593347332319,35.13664540622878,0 33.84578848982115,35.13691945891375,0 33.84569148927742,35.13691349907751,0 33.84562611283752,35.13684095931591,0 33.84537591096689,35.1368626136729,0 33.84490815985686,35.13693887186642,0 33.84445006145791,35.13716768890298,0 33.84427351683399,35.13728173143353,0 33.84389578123352,35.13747017095999,0 33.84345376384092,35.13769223724585,0 33.84321898629354,35.13770577380176,0 33.8432065147182,35.13771249650128,0 33.8429545151734,35.13784833907782,0 33.84272963657926,35.13797598742087,0 33.84254439474707,35.13803036376945,0 33.84214132508634,35.13811279751076,0 33.84172990256807,35.13816874426426,0 33.84130259822462,35.13825134355999,0 33.84089952505307,35.13833377410933,0 33.84065766775099,35.13838190362514,0 33.84044694348584,35.1384551994411,0 33.84037424337295,35.13847155971616,0 33.84027937303892,35.13851724756783,0 33.8399574179229,35.1386322920701,0 33.8396994706924,35.13868716802862,0 33.83924019092441,35.13880316214109,0 33.83903919668333,35.13889745776103,0 33.83879055209142,35.13907171572232,0 33.838492758007,35.13917995318852,0 33.83808153141389,35.13925579400007,0 33.83766249921531,35.13935823105489,0 33.83728548081196,35.13946730163536,0 33.83688837067421,35.13957111778715,0 33.83640619476174,35.13970155332715,0 33.8362182981666,35.13975487204362,0 33.83582588317809,35.13987525023838,0 33.83539863026243,35.13996446525998,0 33.83506958079979,35.14006612067061,0 33.83463717392664,35.14020508835897,0 33.83427163588903,35.14035711837612,0 33.83408678894268,35.14045129465171,0 33.83393337354578,35.14045898647624,0 33.83377215084142,35.14049327640861,0 33.83356726009568,35.14057968024682,0 33.83302161470618,35.14075689846747,0 33.83266122950464,35.14087916810148,0 33.8322419792233,35.1409616802249,0 33.83174282337046,35.14113100817091,0 33.83131562772323,35.14122684347912,0 33.83103376930712,35.14131504560849,0 33.83071980035326,35.14142337408688,0 33.83040603274562,35.14155160903996,0 33.82983456968535,35.1417612410878,0 33.82958515586795,35.14186248860941,0 33.82905461840845,35.14212492417219,0 33.82889419754101,35.14223883410989,0 33.82850866091089,35.14246045979311,0 33.82821864971778,35.14254207432767,0 33.82796943307552,35.14266322585796,0 33.82776060660952,35.14278410096908,0 33.82757541068893,35.14284509014225,0 33.82729673578461,35.14294585859168,0 33.82728573288448,35.14295987978372,0 33.82690866935034,35.14322125898265,0 33.82627403480276,35.1435772965749,0 33.82584296493236,35.14376994044323,0 33.82564140985572,35.14386469730831,0 33.82689866324682,35.14462816221886,0 33.82532861100905,35.14595943353522,0 33.82372295175164,35.14477849273023,0 33.8231632843096,35.14502203387781,0 33.8228191734365,35.14520195456814,0 33.8224969483779,35.14540836315471,0 33.82185592260922,35.14567992082997,0 33.82152883575967,35.14588552696165,0 33.8212195348242,35.14600087959865,0 33.82105460631933,35.14609275492489,0 33.82014190262191,35.14664077329289,0 33.8192821242348,35.14714382424086,0 33.81870354002425,35.14745775119383,0 33.81803149377033,35.14781863349105,0 33.81762650554361,35.14806068385874,0 33.81745505981121,35.14821278668879,0 33.81694071769289,35.14866909376013,0 33.81650070857098,35.14899170972583,0 33.81523311671364,35.1497993707257,0 33.81481462687074,35.15011295726181,0 33.81371837112623,35.15075962467888,0 33.81287487558268,35.15123554739314,0 33.8123681491893,35.15148745862501,0 33.81212659482617,35.15158718902251,0 33.81169524405139,35.15169662928223,0 33.81136100970803,35.15178765971233,0 33.81054180921307,35.15203288058846,0 33.80971161825579,35.15226041141468,0 33.80875328064135,35.1526486166138,0 33.80912601879567,35.1531699997185,0 33.80999797955817,35.1538833855261,0 33.81058623826154,35.15433228914933,0 33.81127162238402,35.15476278153518,0 33.81174009469206,35.15512368978568,0 33.81218747961587,35.15553801235744,0 33.812178433437,35.15571565631706,0 33.81178871776205,35.15566499252036,0 33.81139909071618,35.1556232072107,0 33.81056490290334,35.1554512077896,0 33.81009880912418,35.15533001671158,0 33.81042700537022,35.15571850531406,0 33.80991064103436,35.15597945389118,0 33.80985544268187,35.15586439379867,0 33.80916970484652,35.15539837989881,0 33.80881066683217,35.15516991912352,0 33.80872470817328,35.15522376777646,0 33.80886720249347,35.15533767595356,0 33.80889099731078,35.15531875858603,0 33.80891150621569,35.1553139318045,0 33.80894364767009,35.15533059994283,0 33.80894620999353,35.15535872013692,0 33.80892589603714,35.15538324155429,0 33.80962929702334,35.1559546969454,0 33.80972009350951,35.15638916905132,0 33.80864129412679,35.15662723345862,0 33.80844916434896,35.15578499430852,0 33.80681118748403,35.15632866351815,0 33.80622994247265,35.15659002944035,0 33.80638602624945,35.15706846502231,0 33.8059650131037,35.15713342083132,0 33.80544801266878,35.15733220134761,0 33.80440345609668,35.15775646239358,0 33.80436161017062,35.15789880674615,0 33.80351616497657,35.15768243824784,0 33.80254064570241,35.15853242497577,0 33.80305697199076,35.1593636454796,0 33.80384767889463,35.15950934743991,0 33.80348284958796,35.1604268922099,0 33.80464153813136,35.16048451812497,0 33.80449684349793,35.1619547004481,0 33.80539383924228,35.16181778335523,0 33.80511645254469,35.16234240948176,0 33.80498731394316,35.16256641623026,0 33.80475933509867,35.16315263214194,0 33.80464530278398,35.16365062330884,0 33.80459456722619,35.16398836872096,0 33.80457539130519,35.16423711200019,0 33.80464186975223,35.16549751144737,0 33.8047463503576,35.16622490879163,0 33.8056761949691,35.16621872804423,0 33.805745535283,35.16667110402466,0 33.80627550833499,35.1666853356851,0 33.80627433608144,35.16766205038184,0 33.80520286456974,35.1675626278417,0 33.8051909544288,35.16854829327562,0 33.80440138274144,35.16852690169445,0 33.80432059586275,35.17020559847393,0 33.80415461406038,35.17201804716199,0 33.80372976379665,35.17170121775079,0 33.802883217554,35.17138718266278,0 33.80290153633159,35.17215066791273,0 33.80290607541398,35.1726123540921,0 33.80288593376277,35.17276343320934,0 33.80241068399146,35.17281985713855,0 33.80243405968976,35.17388073819481,0 33.80166121412447,35.17428605589468,0 33.80135424085699,35.17446557547806,0 33.80073411544996,35.17483449164666,0 33.79999246612164,35.17529013154922,0 33.79822854137902,35.17637343107624,0 33.79562082106746,35.17796210029822,0 33.79287019577955,35.17980421365563,0 33.7925822035391,35.18006567840742,0 33.79091554358485,35.18267237404461,0 33.79000479541054,35.18392710825383,0 33.78950535197102,35.18435548798172,0 33.78950179147776,35.18435742390255,0 33.78949963739545,35.18413470271135,0 33.78950380905268,35.18394826014513,0 33.78953723950795,35.1836978538887,0 33.78955952636082,35.18353091517334,0 33.78954605816856,35.18337402187935,0 33.7894771080665,35.18304088628505,0 33.7894265571437,35.18275668696436,0 33.78918737279116,35.18212050981482,0 33.78909438361266,35.18177281295308,0 33.78897645407656,35.18131735448428,0 33.78888152448163,35.1807685378616,0 33.78876222223565,35.18017082355048,0 33.78864979736282,35.17966627248101,0 33.78855686083916,35.17932347995993,0 33.78845719308928,35.17890224145134,0 33.78836459096211,35.1785937870424,0 33.788229787917,35.17824636232638,0 33.7882155183114,35.17800607714623,0 33.7882227793496,35.17752036850809,0 33.78822658355666,35.17667656872518,0 33.7882409075902,35.17630364426879,0 33.78601807539643,35.17690186467529,0 33.7851771872523,35.17706429999048,0 33.78449116116585,35.1771766702351,0 33.78448978411217,35.17641139359373,0 33.78302572295502,35.17638652757635,0 33.78302337199387,35.17551823906521,0 33.78216358223408,35.17557775675938,0 33.78231935645627,35.17375183980251,0 33.78182307316072,35.17371089303253,0 33.78121878512671,35.17362158359202,0 33.78135692304167,35.17244823596612,0 33.7816273550902,35.17261328413777,0 33.78280416583179,35.17259587315707,0 33.78292830787562,35.17183469166783,0 33.7829969876382,35.17152028387335,0 33.78218908023177,35.17137833352934,0 33.78138952701234,35.17140100583066,0 33.78084520030936,35.17141643753106,0 33.78077196336844,35.17125502282347,0 33.78029427491319,35.1712826291129,0 33.78047255288602,35.16993241894031,0 33.77986810688822,35.16982348150957,0 33.77952656272539,35.16971775476348,0 33.77911202140226,35.16947513791686,0 33.77949728288208,35.16915379000915,0 33.77968050699835,35.16894657192363,0 33.7805428742508,35.16853875279677,0 33.78054097340142,35.16771461028862,0 33.77908854829382,35.16764056420331,0 33.77906656653976,35.16564899956147,0 33.779520750208,35.16566569980876,0 33.77939028555187,35.15950499856208,0 33.77936256473886,35.15597376152038,0 33.77935633076433,35.1558615649259,0 33.77948861574671,35.15588859617125,0 33.77941415151658,35.15480478052187,0 33.77927713109009,35.1525007611494,0 33.77926492050347,35.15201135770418,0 33.77920061478361,35.15159664115721,0 33.77902883978773,35.14940437116512,0 33.78223307018726,35.14802680884743,0 33.78566100033812,35.14835160516954,0 33.79059973847291,35.14143268774258,0 33.79154850965793,35.14101638678559,0 33.79213390334368,35.14103877981679,0 33.79211852302552,35.14054946377895,0 33.79151244805084,35.14058838225233,0 33.79119470365212,35.13963784235073,0 33.78320643927375,35.13901726520388,0 33.78323466054194,35.13811495861371,0 33.78331444442414,35.13556394598388,0 33.78365101496253,35.1351597485534,0 33.78409555506011,35.13492090372651,0 33.78447735472786,35.134796078679,0 33.78478393038212,35.13459308254579,0 33.78523893447372,35.13433668623475,0 33.78527159729251,35.13440901578376,0 33.78543996300311,35.13442690050917,0 33.78562310638693,35.13448143482352,0 33.78581648049062,35.13451447132869,0 33.78621320901873,35.13453333022339,0 33.78669908740583,35.13459875755275,0 33.78696529872909,35.13460988817179,0 33.78732985657301,35.1345389397026,0 33.78761598785843,35.13445135384721,0 33.78819913820982,35.13432325953812,0 33.78880323984936,35.1342035981753,0 33.78977816535725,35.13401531321583,0 33.79010179768232,35.13395994387772,0 33.79047823725648,35.13388001910084,0 33.79093105849405,35.13377538634079,0 33.79105987365028,35.13368739213123,0 33.7918700433506,35.13335769740928,0 33.79232734555153,35.13310777387099,0 33.79256818228384,35.13302388782238,0 33.79284466044975,35.13296881956695,0 33.79351178689097,35.13278046375816,0 33.79449935266555,35.13251253314194,0 33.79496913562387,35.13233514645813,0 33.79499336783239,35.13240277298561,0 33.795275594821,35.13233313577172,0 33.79575744429488,35.13218471739619,0 33.79692666622412,35.13206876885328,0 33.79719814684652,35.13135414508942,0 33.79712629975762,35.13129078113721,0 33.79706035785808,35.13116886169264,0 33.79722668546672,35.13096029909678,0 33.79781528461374,35.13089259005229,0 33.79899263678173,35.13077311949609,0 33.79987239871217,35.13068220169249,0 33.80087528553557,35.13060110199243,0 33.80104875464303,35.13046164348245,0 33.80169211801138,35.13069677559594,0 33.8019646918185,35.13075880871107,0 33.80243793663326,35.13081419274243,0 33.80360348042527,35.13081178968844,0 33.80407056613025,35.13089912597971,0 33.80424559943517,35.13091924338813,0 33.80440099780346,35.13091821203387,0 33.80475054135365,35.13090525247299,0 33.80510713487561,35.13095076074206,0 33.80537965958966,35.13100746654091,0 33.80601551560337,35.13113623128589,0 33.80713131047113,35.13134159350776,0 33.80812424327787,35.13156372274241,0 33.80864292654822,35.13162941933103,0 33.80914197638006,35.13167396505286,0 33.80968671919481,35.13175544206118,0 33.81115418680862,35.13216056444371,0 33.81201732246902,35.13235161253068,0 33.81276359266661,35.13251152049042,0 33.81404209301481,35.13279552188795,0 33.81484744232455,35.13303481540232,0 33.81549043996122,35.13322731858002,0 33.81630880045088,35.13347183377558,0 33.81690515056532,35.13353165173224,0 33.81817624709309,35.1337199049954,0 33.81932421538252,35.13389833754515,0 33.81948031174282,35.13396643841978,0 33.8196425117435,35.13399725923386,0 33.81972551551181,35.13387966486105,0 33.81980846681669,35.13375675086036,0 33.81991116307785,35.13366562186604,0 33.82001873447496,35.13357354309683,0 33.82017868635886,35.13347631441345,0 33.82134355233526,35.13292760091231,0 33.82316438801562,35.13214607485028,0 33.82362312717277,35.13193864658359,0 33.82384140456605,35.13182298915225,0 33.82401591596653,35.13171964697658,0 33.82425033545437,35.13148194261862,0 33.82397895336283,35.13222391747049,0 33.8238546336144,35.13304676221542,0 33.82369195260143,35.13365198858268,0 33.82340742504424,35.13412929545864,0 33.82451796336487,35.13427029872185,0 33.82592827561861,35.13425079163616,0 33.82680907805192,35.13432401365011,0 33.8274246743115,35.13439904121074,0 33.82807553519022,35.13438469210787,0 33.82838347902432,35.13146102271051,0 33.83005060215706,35.13180614606466,0 33.83034311665707,35.13093262405481,0 33.83051598732344,35.13014905473705,0 33.83055054030091,35.12999035957408,0 33.83074359347112,35.12882041076895,0 33.82980167456024,35.12865850184128,0 33.82861697399532,35.12832988476884,0 33.82866328378761,35.12814139941165,0 33.8280108699863,35.127997304393,0 33.82813474018938,35.12713484351058,0 33.82844863865328,35.12718221627445,0 33.82875501405906,35.12648686804072,0 33.82912958009153,35.12657343971572,0 33.82926046459875,35.1264041823316,0 33.82890338348972,35.12566385333052,0 33.82937819537508,35.12493764103625,0 33.82971739875713,35.12510368039798,0 33.83017833828796,35.12419929455704,0 33.83078963837212,35.12385838282472,0 33.83097305229457,35.12411462008897,0 33.83090163687123,35.12420424149411,0 33.83180586609417,35.12540628098152,0 33.83275446167809,35.12504323625112,0 33.83291498783947,35.12541847066561,0 33.83233702518098,35.12548186361111,0 33.83228632897519,35.12642305452877,0 33.83234881380952,35.1266405053124,0 33.83300762470692,35.12859689397989,0 33.83368532845298,35.13003816142224,0 33.83427497196038,35.12993506778331,0 33.83442154058195,35.13012222730057,0 33.83471852131314,35.13087285640015,0 33.8353455279461,35.13206687207162,0 33.83574037813825,35.13295547416117,0 33.83580338347541,35.1332224363095,0 33.83580682441346,35.13355913492542,0 33.83579101316662,35.1343713399793,0 33.83579323970631,35.13458920327393,0 33.83581927299571,35.13477719213368,0 33.83597679623442,35.13485533466462,0 33.84161435782624,35.13454735660475,0 33.84287185628872,35.13448758643983,0 33.84381056632024,35.13443718030083,0 33.84461883834906,35.13437945914735,0 33.84450406856321,35.13493981165693,0 33.84448236135118,35.13517269694812,0 33.84452644623539,35.13535560672863,0 33.84456404209265,35.13549399504997,0 33.84468786451482,35.1358100462865,0 33.84483503130576,35.13605165867121,0 33.84490256205475,35.13617003136613,0 33.84507302000647,35.13633225114059,0 33.84535187319344,35.13648381205988,0 33.84568972406375,35.13659225530182,0</coordinates>
						</LinearRing>
					</outerBoundaryIs>
				</Polygon>
			</MultiGeometry>
		</Placemark>
	</Document>
</kml>