<?xml version='1.0' encoding='UTF-8'?>
<kml xmlns="http://www.opengis.net/kml/2.2">
	<Document>
		<name>GALATA</name>
		<Style id="PolyStyle70">
			<LabelStyle>
				<color>00000000</color>
				<scale>0.000000</scale>
			</LabelStyle>
			<LineStyle>
				<color>ff0055ff</color>
				<width>2.000000</width>
			</LineStyle>
			<PolyStyle>
				<color>00828282</color>
				<outline>1</outline>
			</PolyStyle>
		</Style>
		<Placemark id="ID_70354">
			<name>GALATA</name>
			<snippet />
			<description>&lt;html xmlns:fo="http://www.w3.org/1999/XSL/Format" xmlns:msxsl="urn:schemas-microsoft-com:xslt"&gt;

&lt;head&gt;

&lt;META http-equiv="Content-Type" content="text/html"&gt;

&lt;meta http-equiv="content-type" content="text/html; charset=UTF-8"&gt;

&lt;/head&gt;

&lt;body style="margin:0px 0px 0px 0px;overflow:auto;background:#FFFFFF;"&gt;

&lt;table style="font-family:Arial,Verdana,Times;font-size:12px;text-align:left;width:100%;border-collapse:collapse;padding:3px 3px 3px 3px"&gt;

&lt;tr style="text-align:center;font-weight:bold;background:#9CBCE2"&gt;

&lt;td&gt;1&lt;/td&gt;

&lt;/tr&gt;

&lt;tr&gt;

&lt;td&gt;

&lt;table style="font-family:Arial,Verdana,Times;font-size:12px;text-align:left;width:100%;border-spacing:0px; padding:3px 3px 3px 3px"&gt;

&lt;tr&gt;

&lt;td&gt;DIST_CODE&lt;/td&gt;

&lt;td&gt;1&lt;/td&gt;

&lt;/tr&gt;

&lt;tr bgcolor="#D4E4F3"&gt;

&lt;td&gt;VIL_CODE&lt;/td&gt;

&lt;td&gt;406&lt;/td&gt;

&lt;/tr&gt;

&lt;tr&gt;

&lt;td&gt;VIL_CCD&lt;/td&gt;

&lt;td&gt;1406&lt;/td&gt;

&lt;/tr&gt;

&lt;tr bgcolor="#D4E4F3"&gt;

&lt;td&gt;VIL_NM_E&lt;/td&gt;

&lt;td&gt;GALATA&lt;/td&gt;

&lt;/tr&gt;

&lt;tr&gt;

&lt;td&gt;VIL_NM_G&lt;/td&gt;

&lt;td&gt;ΓΑΛΑΤΑ&lt;/td&gt;

&lt;/tr&gt;

&lt;/table&gt;

&lt;/td&gt;

&lt;/tr&gt;

&lt;/table&gt;

&lt;/body&gt;&lt;script type="text/javascript"&gt;

				function changeImage(attElement, nameElement) {

				document.getElementById('imageAttachment').src = attElement;

				document.getElementById('imageName').innerHTML = nameElement;}

			&lt;/script&gt;&lt;/html&gt;

</description>
			<styleUrl>#PolyStyle70</styleUrl>
			<MultiGeometry>
				<Polygon>
					<extrude>0</extrude>
					<altitudeMode>clampToGround</altitudeMode>
					<outerBoundaryIs>
						<LinearRing>
							<coordinates> 32.903964318025,34.99289907231001,0 32.90407619808066,34.992920594932,0 32.90415565050508,34.99292495659701,0 32.90419728131423,34.99293866863628,0 32.90437837889084,34.99313101763305,0 32.9044593166788,34.99316855194144,0 32.90463352307494,34.9932296903907,0 32.90478006069438,34.9933536103237,0 32.90487702289268,34.99339352767725,0 32.90496841801904,34.99341479634786,0 32.9050143725359,34.99346851328581,0 32.90504505549481,34.99355788688958,0 32.90506808507821,34.99366896991392,0 32.90506683561788,34.99373029041716,0 32.90514125976303,34.99374994835331,0 32.90531955913191,34.99374744455075,0 32.90537703064631,34.99376161204009,0 32.90545866800382,34.99384805232847,0 32.90557131915737,34.99395788441974,0 32.90560776379238,34.99402709559756,0 32.90565731482909,34.99411653238514,0 32.90572843359227,34.99423165858442,0 32.90578949716597,34.99428232119602,0 32.90590788624286,34.99437664834394,0 32.9059746256053,34.9944242251636,0 32.90612798773318,34.99450469717888,0 32.90637259529149,34.99463670916573,0 32.90652462774682,34.99479480165275,0 32.90659530649618,34.9948090120851,0 32.90665922746697,34.99485425075612,0 32.90672394645917,34.99492898925039,0 32.90677782692599,34.99490665898719,0 32.90687422216634,34.99487127528459,0 32.90691656792809,34.99489237684659,0 32.9070841764006,34.99514367203663,0 32.90708619197353,34.9953074694197,0 32.90705247932949,34.99544786000399,0 32.90705509424577,34.9954913387948,0 32.9071162165444,34.99553035792702,0 32.9072496021058,34.99545473271979,0 32.90728744384299,34.99543312464171,0 32.90746775873586,34.99542899485325,0 32.90769965890597,34.99540965997425,0 32.9078516965733,34.99543179286127,0 32.90798887308243,34.99551621020315,0 32.90814698605742,34.99559048503639,0 32.9083530499818,34.99569674699773,0 32.90870133506353,34.99584850887358,0 32.90888078624118,34.99599582259513,0 32.90893416005618,34.99607595544561,0 32.90896854260796,34.9961816421424,0 32.90902776765329,34.99641394221946,0 32.90907068654372,34.99651034245527,0 32.90913985559647,34.996639432785,0 32.90924883457186,34.99673061984213,0 32.90939209193606,34.99694845149055,0 32.90944579365779,34.99715356374791,0 32.90944827894177,34.99722343529181,0 32.90948491701134,34.99744556907907,0 32.90954107963793,34.99753425016324,0 32.90965893894859,34.99773802460312,0 32.90968809628305,34.99779921990593,0 32.90973992766481,34.99795797648404,0 32.90975272626428,34.99823203902385,0 32.9097755708249,34.9983819337193,0 32.90981280763241,34.99848297179326,0 32.90986982397508,34.99859028585933,0 32.90989372740015,34.9987168956259,0 32.91001939420596,34.99886790949387,0 32.91007864229876,34.99890536805943,0 32.91015772763896,34.99893745885341,0 32.91036941966047,34.9988613148837,0 32.91043826138485,34.99886620185374,0 32.91051472270559,34.99923983877,0 32.91055593613673,34.99929974738507,0 32.91064435653705,34.99935205204444,0 32.91068249502406,34.99926989604061,0 32.91070090418347,34.99917137180899,0 32.91076996924767,34.99893949964294,0 32.9108517310274,34.99861917693238,0 32.91083800412464,34.99853296600708,0 32.91068680123868,34.99820332796848,0 32.91058048837333,34.99795301781225,0 32.91069618096459,34.99802249039422,0 32.91091544982491,34.9981311212285,0 32.9111736081701,34.99819718675622,0 32.91131507683777,34.99820464313677,0 32.91129692413183,34.99825115887965,0 32.9112379776934,34.9983441143091,0 32.91121089275862,34.99848064550553,0 32.91124158844055,34.99856924135602,0 32.91130815883289,34.99865252245324,0 32.91146573926533,34.99883702094458,0 32.91157183670035,34.99893983941644,0 32.91176431391225,34.99912600532924,0 32.91181859483642,34.99921468036449,0 32.91187021737449,34.99926841320202,0 32.91200321231755,34.99927273647711,0 32.91215678699961,34.99931283594337,0 32.91228202241483,34.9993606030181,0 32.91236463526812,34.99944316135547,0 32.91241023676758,34.99957061919344,0 32.91246953554668,34.99959798514201,0 32.91271510411624,34.99953902740074,0 32.9128138411313,34.99960378390957,0 32.91289760452205,34.99964442721956,0 32.91294142873985,34.99974936771758,0 32.91298078133423,34.99980461198726,0 32.91310433280579,34.99981123133568,0 32.91316734870273,34.99985025326079,0 32.91320080518568,34.99995360694407,0 32.91324861628831,35.0000150896441,0 32.91349004425232,35.00003141372001,0 32.9135238543255,35.00006257672808,0 32.91364848055627,35.00023531859058,0 32.91374623629534,35.00030861015656,0 32.91391923298078,35.00042872649556,0 32.9139950105427,35.0005593880554,0 32.91410435937562,35.00077011648897,0 32.91416417897854,35.0008844237617,0 32.91421370057607,35.00098239616852,0 32.91423607442611,35.00103758475247,0 32.91428023006547,35.00107499092981,0 32.91423371726015,35.0011338330121,0 32.91427945390438,35.00123412208696,0 32.91439660591796,35.00139286591481,0 32.9144625562011,35.00141093734899,0 32.91458921359749,35.00141350906402,0 32.91464043559077,35.00146148030304,0 32.91462759961279,35.0017113749133,0 32.91455195460788,35.00190643114877,0 32.91440478353125,35.00213266506474,0 32.91415927348886,35.00244188590501,0 32.91393266547802,35.00261868824716,0 32.9137402301699,35.0025961998606,0 32.91306825637788,35.00253934432031,0 32.9123001253559,35.00245894876978,0 32.91167777628458,35.00243776020566,0 32.91158801587203,35.00246341168211,0 32.91155476619382,35.00247422712371,0 32.91125329179806,35.00268492034213,0 32.91116171900168,35.00274197860718,0 32.91101540270596,35.00279202504595,0 32.91078990988169,35.0027407404975,0 32.91047500864487,35.00264408659264,0 32.91038372287945,35.00264241649605,0 32.90973492158045,35.00259927753132,0 32.90942112896448,35.00261461864653,0 32.90887150031752,35.00265648601293,0 32.90876845522452,35.00268345593551,0 32.90849065766384,35.00280408044971,0 32.90797490358744,35.0030440939714,0 32.90778901776444,35.00303937275497,0 32.9073559726534,35.00300240902111,0 32.90725638798185,35.00300070860427,0 32.90712678209265,35.0030275883263,0 32.9068851821896,35.0028779069461,0 32.90661876195846,35.00304636652457,0 32.90653726712276,35.00307887056543,0 32.90634301457455,35.0030877774827,0 32.90581167553018,35.00312286276016,0 32.90565045792724,35.00316465752722,0 32.90561220579709,35.00317955181713,0 32.9056019131663,35.00324644052462,0 32.90561285883059,35.00338168924699,0 32.90559765418062,35.00343490308877,0 32.90548124576046,35.00347821531582,0 32.90528663047161,35.00355950485452,0 32.90508512580417,35.00369130556757,0 32.90494013715741,35.00380690649939,0 32.904888448786,35.0038531687118,0 32.90479810654613,35.00399490317996,0 32.90471421180293,35.00417490280611,0 32.90462688152357,35.00437810780795,0 32.90462423273502,35.00457613660721,0 32.90464017520665,35.00470730584856,0 32.90462254846977,35.0049134780784,0 32.90457655523051,35.00514823568467,0 32.90455637626955,35.00520006718745,0 32.90449140165536,35.00524765017904,0 32.90397933126435,35.00540980949755,0 32.90338492693482,35.00543920751586,0 32.90314424739288,35.00543702445686,0 32.90291014309788,35.00544715606433,0 32.90276623186507,35.00534696536889,0 32.90251959705624,35.00520818399799,0 32.90228468790374,35.00504895548404,0 32.90199153797326,35.00491820875983,0 32.90194508672856,35.00491258780723,0 32.90167109499365,35.0049335073301,0 32.90099414340128,35.00487383608805,0 32.90077348842613,35.00485123111694,0 32.90062278225303,35.00478242811524,0 32.90022869049921,35.00458987194686,0 32.90011265705613,35.0045580625178,0 32.89997828191925,35.0045425789323,0 32.89979727076498,35.00455834974382,0 32.89957128310941,35.00460537882061,0 32.89930388183567,35.00463587521342,0 32.8989797867906,35.00471098233744,0 32.89881449475448,35.00479821906713,0 32.89888123264707,35.00489859357254,0 32.89885366961344,35.00492445868527,0 32.89879912828469,35.00499061310963,0 32.89870012424579,35.00505377373105,0 32.89862534983359,35.00509254477256,0 32.89851499419979,35.00528014493933,0 32.89845987962213,35.00532216843462,0 32.89836530354268,35.005470949094,0 32.89816277316719,35.00543640343731,0 32.89807720265696,35.00561639160554,0 32.89796392881198,35.00563888799564,0 32.89789704376855,35.00565824848437,0 32.89779474101708,35.00569375882738,0 32.89770424542497,35.00572280769268,0 32.89758619924518,35.00576801295608,0 32.89746421877112,35.00581321568231,0 32.89755042644801,35.00606893848409,0 32.89754231416388,35.00626633235029,0 32.89753412920511,35.00652197633381,0 32.89756061289287,35.00666489823529,0 32.89756917617841,35.00680354486467,0 32.89760446021243,35.00689418422667,0 32.89754421504882,35.00695165431735,0 32.89733685073516,35.00702340212599,0 32.8970811238345,35.00708467096504,0 32.89697093240641,35.0071363545198,0 32.89682138621833,35.00720742125345,0 32.89668763632625,35.00722672421328,0 32.89654596415575,35.00729132506589,0 32.89642794662215,35.00731064024547,0 32.89629418122949,35.0073428872417,0 32.8962194117746,35.00737518454608,0 32.89605071663359,35.00740927186337,0 32.8957276225009,35.00749449773919,0 32.89538655907123,35.00764075096148,0 32.89514931286934,35.00760726198769,0 32.89505035720675,35.00753352362111,0 32.89499593448009,35.00759742103757,0 32.89471646414774,35.0077686915451,0 32.89466914701046,35.00786249709021,0 32.89469268684706,35.00790782230198,0 32.89523515624684,35.00814452582127,0 32.89535289088358,35.0083485002647,0 32.89539002755566,35.00850659557041,0 32.89557839908581,35.00871288150266,0 32.89575399163537,35.00884552676771,0 32.89600500922178,35.00896715158472,0 32.89637064317129,35.00908719894139,0 32.89658289959743,35.00919417103236,0 32.89667716579488,35.00929780534769,0 32.89672414903117,35.00946935788251,0 32.89667279711796,35.00964406194099,0 32.8965388935494,35.0097830992196,0 32.89625085746723,35.00995117845009,0 32.89592870110275,35.0102129760466,0 32.89586563029435,35.01032294910829,0 32.89588119829826,35.01045240543252,0 32.89595038481303,35.01057354069263,0 32.89604988538127,35.01066696049337,0 32.89646696411464,35.01091083268464,0 32.8965688919615,35.01094811332067,0 32.89679284880845,35.01113923227591,0 32.89686351346631,35.01124608336469,0 32.89691057831065,35.01135291346704,0 32.89695757943348,35.01151152139509,0 32.89707922407226,35.0117413863272,0 32.89710259206668,35.0119258621938,0 32.89712204409945,35.01209739115899,0 32.89718073573751,35.01234338228201,0 32.89727095556012,35.01254085918514,0 32.89758134716958,35.01281618793613,0 32.89767166520915,35.01293599958174,0 32.89760855723748,35.01307509762843,0 32.89747469406759,35.01317853859487,0 32.89716378809929,35.01331419071329,0 32.89679363974435,35.01364072080763,0 32.89672265173523,35.0137895200273,0 32.89675131397109,35.0139703622507,0 32.89679715852549,35.01397080327722,0 32.89684420451747,35.0140938139293,0 32.89686766717424,35.01420386095582,0 32.89685973116585,35.01425886730428,0 32.8968438916247,35.01434299198947,0 32.89691442914886,35.01455339683186,0 32.89694968032667,35.01467316129612,0 32.89692599004632,35.0147443348523,0 32.89685510289802,35.01481223218528,0 32.89671342183198,35.01487359701647,0 32.89636389002481,35.01513140506682,0 32.89627954434161,35.01507820030461,0 32.89617843538969,35.01490226561057,0 32.89591504569369,35.01478230549355,0 32.89552397896102,35.01461516884322,0 32.89544952054315,35.01447941677186,0 32.89547530653211,35.01414765674401,0 32.89566348575907,35.01422495092747,0 32.89591561561765,35.01433249111896,0 32.89603395052012,35.01407047065042,0 32.89610097382239,35.01394755648565,0 32.89617976455886,35.01385054218868,0 32.89619962808673,35.01369522734144,0 32.89621560307059,35.01350431276941,0 32.89619212103926,35.01341044617695,0 32.89614895147241,35.01333274332332,0 32.89618841660412,35.01322922311968,0 32.89619051234215,35.01309676673376,0 32.89605491880534,35.013041415832,0 32.89592123002528,35.01300570486989,0 32.89572464787181,35.01293757856363,0 32.89561462974805,35.01284687359229,0 32.89543374888289,35.0128046492603,0 32.89541823360608,35.01263312343979,0 32.89529236608973,35.01263301491988,0 32.89528441268222,35.01270096563592,0 32.89504842039653,35.01269428956569,0 32.89496978664827,35.01266833350243,0 32.89500976893736,35.01260858464458,0 32.89503690548438,35.0124709901644,0 32.89507637986545,35.01236099808012,0 32.89502948112732,35.01212472359916,0 32.89494892018678,35.01200061862026,0 32.89489389934239,35.01181625916753,0 32.89478036263409,35.01181849729085,0 32.89463673715689,35.01190632931443,0 32.8945511026524,35.01194049740571,0 32.89430853662108,35.01155391731083,0 32.89430628554693,35.01133467597289,0 32.89414502877638,35.01120784995703,0 32.89395839600489,35.01076734771553,0 32.89371025447358,35.0104820375925,0 32.89378371996126,35.0099688984545,0 32.89379327662152,35.0097496980318,0 32.89373508286006,35.00958715242822,0 32.8936679447905,35.00952447967341,0 32.89332965052655,35.00939009931519,0 32.89292613973787,35.00849094911909,0 32.89283958701981,35.00826863871339,0 32.89250272505126,35.00785675140144,0 32.89224370904719,35.00772125640263,0 32.89204722599813,35.00755961471995,0 32.89191304749972,35.0074162289126,0 32.89194204487337,35.00735250315181,0 32.89196772843167,35.00727766435362,0 32.89189436809463,35.00714867703262,0 32.89154848779186,35.00686055925081,0 32.89144956345794,35.00701752725674,0 32.89133586484787,35.00711234662883,0 32.89093587191677,35.00710887796352,0 32.8907324393429,35.00704192995437,0 32.89073281395073,35.00696948625456,0 32.8907707857086,35.0069240804249,0 32.89104319974254,35.00678634841812,0 32.89091553885722,35.00666170619682,0 32.890983794695,35.00659777795558,0 32.89096003775299,35.0063265372081,0 32.89148223093829,35.00604892229499,0 32.89140035434984,35.0058271558159,0 32.89128221317316,35.00580811379053,0 32.89115472438917,35.00565035534398,0 32.89091284340763,35.00572195757157,0 32.89083788592266,35.00562233933088,0 32.8906663914392,35.0057045366155,0 32.89068601381793,35.00580189033504,0 32.89063053895465,35.00582653584701,0 32.89056767861432,35.00582010610587,0 32.89027115836222,35.00575490144779,0 32.89013385553786,35.00554949896931,0 32.89011907131899,35.00548941902211,0 32.89013447617657,35.00542944572614,0 32.89047718592539,35.00531887003429,0 32.89128050123293,35.00516436471188,0 32.89133218136378,35.00489959615213,0 32.89126480364236,35.00479379484953,0 32.89098267384356,35.00486525660224,0 32.89087716418712,35.00483590959706,0 32.89075755558062,35.004614010461,0 32.89064960940414,35.00457016431866,0 32.89062732168709,35.00450177912845,0 32.89080398424397,35.00439269155888,0 32.89082717024398,35.00428720671334,0 32.89084240219042,35.00426035068043,0 32.89077794678055,35.0040759040341,0 32.89070612718044,35.00385624188448,0 32.89041575649699,35.0040622175508,0 32.89024504619373,35.00399331239165,0 32.89014673300628,35.00403229760986,0 32.89000110445856,35.00397796924211,0 32.8895968435229,35.00431601770323,0 32.88973184199033,35.00448001439863,0 32.88874463175397,35.00516790007256,0 32.88866688205447,35.00512209039557,0 32.888298980981,35.00475442281657,0 32.88810078027687,35.00465023004223,0 32.8880683018741,35.00460664676216,0 32.88804112521111,35.00451133638203,0 32.88801023987441,35.00416141186537,0 32.88799038370269,35.00410959395296,0 32.88786513982472,35.00400565738353,0 32.88764874288324,35.00353088487658,0 32.88749920583616,35.00326127020357,0 32.88748450075448,35.0031867013527,0 32.88751337724572,35.00295497303937,0 32.88747907529723,35.00277890967838,0 32.88730045019709,35.00229805979058,0 32.88713845791411,35.00200563055644,0 32.8871064230004,35.00187718255432,0 32.88712251852764,35.00168473831307,0 32.88715356785929,35.00151925432953,0 32.88714126085564,35.00146746310578,0 32.88711884747203,35.00142391504913,0 32.88688311665103,35.00128233018852,0 32.88682529060814,35.00127591581931,0 32.88646014605979,35.00134914392154,0 32.88632680900751,35.00135074356474,0 32.88623636879925,35.00132765441752,0 32.88618875569524,35.00129229817744,0 32.8860169562052,35.00095222498825,0 32.88600984078224,35.00086940237853,0 32.88601300480808,35.000745219315,0 32.88598318569507,35.00067473575149,0 32.88591820267582,35.00059377970854,0 32.88584798350996,35.00055213355843,0 32.88570980203416,35.00051852542908,0 32.88553629526344,35.00050549227038,0 32.88530225353668,35.00052329359712,0 32.8846602280982,35.00062865346862,0 32.8846074225997,35.00062432601157,0 32.88454965117631,35.00060756042168,0 32.88451713393876,35.00057225934464,0 32.88456249068457,35.00007770912153,0 32.88452518975042,34.99999478018314,0 32.88430271939178,34.99972490273238,0 32.88408700351955,34.99960615112262,0 32.88404444721926,34.99956667212685,0 32.88396772503042,34.99932628906569,0 32.88392577738293,34.99917089694497,0 32.8839492961037,34.9990033170079,0 32.88394197622202,34.99895982334178,0 32.88392204862882,34.99892249420165,0 32.88382423789773,34.99886625792312,0 32.88365582997753,34.99884082151022,0 32.88348219656597,34.99885262413137,0 32.88340405245975,34.99888339414978,0 32.88333066913427,34.99896592956502,0 32.88323688904149,34.999100140384,0 32.88315361652772,34.99914952248943,0 32.88307054042367,34.99916164602281,0 32.88296247046465,34.99914263173262,0 32.88287968868279,34.99909886961688,0 32.88277208867104,34.99899085045841,0 32.88265279320787,34.9987151264256,0 32.88238713395912,34.99852788800993,0 32.88232209973563,34.99845727835802,0 32.88230981858905,34.99840134729123,0 32.88231507658379,34.99835789726691,0 32.88238157020288,34.99815114265752,0 32.88238439067375,34.99809319530971,0 32.88236942725454,34.99806830321032,0 32.88215724908479,34.99775705889906,0 32.88205964854697,34.99766149480705,0 32.881924032298,34.99761961244879,0 32.88180579430838,34.99762126057978,0 32.88164195212465,34.99768484270633,0 32.88126067638305,34.99795670965234,0 32.88116248564384,34.99797291769296,0 32.8811172852088,34.99795826670257,0 32.88084044283423,34.99750810532609,0 32.88074816909921,34.99735667130793,0 32.88070551623421,34.9973358190398,0 32.88060740304039,34.99733753806154,0 32.8803102842616,34.99739236148172,0 32.87985184990276,34.99750870301434,0 32.8795622005395,34.99757804227527,0 32.87922008925041,34.99757888415517,0 32.87900135447744,34.99755739895018,0 32.87895618680566,34.99753653815331,0 32.87892114623353,34.99750329280948,0 32.87891378627565,34.99746807840594,0 32.87888952159859,34.99730032734448,0 32.87892166236122,34.99693199815484,0 32.87900863594634,34.99665908204258,0 32.87901140407241,34.99661148400228,0 32.87898642652768,34.99657827574413,0 32.87871573941111,34.99639308038907,0 32.87870583017248,34.99636406614506,0 32.87871101597884,34.99633510574392,0 32.87888814962034,34.9961370306473,0 32.87894414786388,34.99601303649524,0 32.87893951111544,34.99593850361158,0 32.87888314142931,34.99565886228837,0 32.87890662543614,34.99549956372377,0 32.87890440628431,34.9954436675642,0 32.87885198942514,34.99536689202322,0 32.87862144272705,34.99520253963261,0 32.87859657520357,34.99514863280588,0 32.878604329665,34.99510933198643,0 32.87862461657485,34.99507835666651,0 32.87872072909597,34.9949793452103,0 32.87874107172538,34.9949380206298,0 32.87873877546154,34.99489661394054,0 32.87868900612024,34.99479500932683,0 32.87852889171128,34.99463091009657,0 32.87840613454293,34.99453732262875,0 32.87817148462582,34.99419908246104,0 32.87811126950563,34.99416988695822,0 32.87790258387708,34.9941525753601,0 32.87771911871071,34.9941229356368,0 32.8776412985242,34.99409367619409,0 32.87752369370115,34.99397733736625,0 32.87668220441723,34.99375903037509,0 32.87656679739852,34.99370272526637,0 32.8765192812768,34.9936508051582,0 32.87651684387665,34.99363630771252,0 32.87651443880946,34.99361559945884,0 32.87654262699774,34.99351841539752,0 32.87661648758636,34.99334687836888,0 32.87662208023841,34.99324133400774,0 32.87658777219802,34.99307147634745,0 32.87649406792796,34.99271925158205,0 32.87647978684615,34.99258907619847,0 32.87659824691892,34.99226174286562,0 32.87646433105595,34.99198464096578,0 32.87620815858395,34.99187230091248,0 32.8757098411693,34.99164382771055,0 32.87537899890309,34.99152737283973,0 32.87507593206643,34.99145327943999,0 32.87493609151236,34.99141435330487,0 32.87480117413032,34.9913255001533,0 32.87449399936915,34.99114765834943,0 32.8740054033853,34.99085006032491,0 32.87385173486533,34.99077650372682,0 32.87375369717876,34.9907761467166,0 32.87359005891445,34.99082165544107,0 32.87330505748185,34.99086287906544,0 32.87256690444885,34.99096008099153,0 32.87246387057069,34.99102117439381,0 32.87246198755415,34.99137077797012,0 32.87243397689851,34.99137067642721,0 32.87205163731149,34.99128091998054,0 32.87176241894872,34.99123760316888,0 32.87155675726155,34.99128295477755,0 32.87135074341504,34.99139361596503,0 32.87111638755415,34.99156564211073,0 32.8708633141177,34.99174528659498,0 32.87053104113654,34.99189390277652,0 32.87037212714791,34.99192789734193,0 32.86997978379055,34.9919610361699,0 32.86958742307339,34.99199801559875,0 32.86910175239742,34.99202312684351,0 32.86884473509701,34.99206828505481,0 32.86869971927332,34.99212153703752,0 32.8682983286883,34.99220458445211,0 32.86813517021167,34.9921829208991,0 32.86784881885067,34.99212914041297,0 32.86751522643262,34.99208073250428,0 32.86743616792755,34.9920457528134,0 32.86736446658557,34.99189840724076,0 32.86722123096249,34.9918826162968,0 32.86699024144516,34.99188037579867,0 32.86670080738038,34.99177385295989,0 32.86659986764114,34.99173185361197,0 32.86658837642999,34.99167492028643,0 32.86660904842626,34.99159451935791,0 32.86658068852967,34.9915389115251,0 32.86642427465747,34.99146618085183,0 32.86630299688826,34.99144353147647,0 32.86619348415771,34.99142786389071,0 32.86603071364069,34.99128434373621,0 32.86591478325982,34.99120898703928,0 32.86577343953569,34.99115573671371,0 32.86551897657854,34.99112981848732,0 32.86527983177818,34.99107759230986,0 32.86511127731923,34.99106725506973,0 32.86494604012928,34.99106664229085,0 32.86481287771394,34.99105921144584,0 32.86472536152151,34.99102974722655,0 32.86461097317627,34.99098075868706,0 32.86445252239545,34.9909732325378,0 32.86432583795291,34.9910143890778,0 32.86410296994527,34.99106906295169,0 32.86401388820407,34.99101739248063,0 32.86387332366128,34.99082261203106,0 32.86381123648827,34.99076826738846,0 32.86375052509581,34.99077081611722,0 32.86357149243225,34.99082565268585,0 32.8635158293734,34.99082960869136,0 32.86343332884309,34.9908084882942,0 32.86321963157744,34.99072860290919,0 32.86296237591868,34.99059721444758,0 32.8628429386854,34.99054681682035,0 32.86265922949505,34.99053364479518,0 32.86230514358377,34.99053371246664,0 32.86217381518421,34.99049992033257,0 32.86205775568191,34.99044814748305,0 32.86194994084151,34.99043109430581,0 32.86173276955961,34.99037061912281,0 32.86155442646262,34.99030057590149,0 32.86138956959985,34.99023058116846,0 32.86129686087337,34.99022607271122,0 32.86063406204546,34.99025550613383,0 32.86052612466053,34.99026065283596,0 32.86027490209874,34.99025971223811,0 32.86013000629956,34.99023974371389,0 32.85995711079251,34.99010033949318,0 32.85974214908983,34.98994412707325,0 32.85940934872452,34.98975694540564,0 32.8593370961659,34.98971088434873,0 32.85929205854676,34.98962330253774,0 32.85930925122629,34.9895637001681,0 32.85934863215362,34.9894542312282,0 32.85935574181065,34.98938904363517,0 32.85928347700261,34.98934714622892,0 32.85896199301957,34.98924603313061,0 32.85860704854703,34.9890976201125,0 32.85853123317337,34.98908762148755,0 32.85843842584039,34.98910114832225,0 32.85816575398946,34.98901548011068,0 32.85787816972002,34.9891864540228,0 32.85779846569191,34.98926524471987,0 32.85788231282928,34.98904355357709,0 32.85797112196515,34.98883991748033,0 32.85802757375222,34.98839056266534,0 32.85806432455727,34.98814926338855,0 32.85807583915999,34.987594288714,0 32.85810612699538,34.98730162742859,0 32.85812345602404,34.98721844127721,0 32.8581454137889,34.98721019452005,0 32.85825886308832,34.98712320660876,0 32.85830301214754,34.98706648614255,0 32.85832771667615,34.98686954191149,0 32.85835133167022,34.98656298262122,0 32.85832821024393,34.98647686826394,0 32.85829450504013,34.98647396689295,0 32.85786772606207,34.98651259907454,0 32.85775200462596,34.98640254599087,0 32.85768897112427,34.98621637568871,0 32.85771059742552,34.98596530794468,0 32.85774984100992,34.98557832980882,0 32.85774652799171,34.98526475204309,0 32.85773336925057,34.98490255404998,0 32.85773805543412,34.98466668883347,0 32.85782550439512,34.98440338818943,0 32.85788201986517,34.98424542025522,0 32.85821929033106,34.98392893686471,0 32.85829723513717,34.98385846936487,0 32.85838994516153,34.98355771370861,0 32.85851303894702,34.9832501407075,0 32.85858178057538,34.98301590858854,0 32.85861529708765,34.98290221154015,0 32.8586055835914,34.98283002095456,0 32.85859515663066,34.98281543810294,0 32.85849516814633,34.98267558829946,0 32.85828555390616,34.98247221656674,0 32.85816177425105,34.98229553063225,0 32.85808812668517,34.9821995126232,0 32.85804869012818,34.98201481855629,0 32.85803690891993,34.98170812484784,0 32.85814803357976,34.98143103079428,0 32.85834658328799,34.981197281142,0 32.85836131217093,34.98097394021925,0 32.85840250597229,34.98084227673151,0 32.8584943287095,34.98070109184246,0 32.85865380953972,34.98051992160272,0 32.8586162827258,34.98029499636527,0 32.85891826746672,34.98025727932487,0 32.85909464437665,34.98006923398386,0 32.85928691316709,34.98005469512985,0 32.85928516116167,34.97976191311243,0 32.85922362942862,34.97961043848719,0 32.85912697173263,34.97940749198241,0 32.85905013083212,34.97927954755961,0 32.85905236975496,34.97917965276338,0 32.85907335348759,34.9790437513593,0 32.85905608021035,34.97881473738222,0 32.85902145482409,34.97867446528588,0 32.85903882948237,34.97858156692526,0 32.85917197791959,34.97828374191392,0 32.85926704186395,34.9781647650688,0 32.85938650142299,34.97802116588444,0 32.85999626381702,34.97772658890661,0 32.86040809188913,34.97713155823523,0 32.86046212511657,34.97689313066401,0 32.86060163546038,34.97668756280885,0 32.86064239644597,34.97646535466751,0 32.86087487391456,34.97612997264225,0 32.86122744283097,34.97552386644258,0 32.86139324710061,34.97532924399956,0 32.86160490443915,34.97518359514289,0 32.86209353263234,34.97499560056206,0 32.86262753615051,34.97494335675241,0 32.86334090396473,34.97462603228205,0 32.86367043244289,34.97461098821604,0 32.86411151082963,34.97468313284405,0 32.86473119831769,34.97462577617774,0 32.86505388071798,34.9746595115826,0 32.865561378408,34.97463427374265,0 32.86589046728267,34.97470057550637,0 32.86738621855874,34.9746952546509,0 32.86841698850323,34.97458917328312,0 32.868649515508,34.97455697441071,0 32.86907628183646,34.97462179926221,0 32.86947707623298,34.97477640787599,0 32.86980838098403,34.97497285902463,0 32.87095589901649,34.97567582714652,0 32.87126720450802,34.97589534589438,0 32.8714154346647,34.97608754918153,0 32.87168650794739,34.97660168211868,0 32.87201382234631,34.97717058513544,0 32.87210276776405,34.97730002874246,0 32.87238375574195,34.9775053737035,0 32.87275133244215,34.9776274814369,0 32.87318486880898,34.97763610374825,0 32.87426292414599,34.97755168720022,0 32.87484810074238,34.97752010525404,0 32.87512413737557,34.97755514770824,0 32.87645685669819,34.9777994447193,0 32.87704816448961,34.97794632995539,0 32.87732264161786,34.9780872145179,0 32.87746718208972,34.97816140487123,0 32.87781440038523,34.97854408931615,0 32.87808478087677,34.97877405639982,0 32.87832553395785,34.97896573648056,0 32.87880392090831,34.97927262193632,0 32.87900845203812,34.97936442746751,0 32.87923272589964,34.9794241658753,0 32.87945825282559,34.97945189351593,0 32.8798162389326,34.97946409497121,0 32.88040373174176,34.97947444113849,0 32.88067149747305,34.97949214455253,0 32.88101737281649,34.97957721572085,0 32.88139583139755,34.97973604482524,0 32.88170387871703,34.979861421499,0 32.88223168546696,34.98015924973427,0 32.88258324660582,34.98028083078171,0 32.8829014287117,34.98042998132153,0 32.88309170724144,34.98058512414838,0 32.8831765331396,34.98065489536604,0 32.8832988405841,34.98085555597255,0 32.88380375316656,34.98165152801087,0 32.88417704764518,34.98211808448713,0 32.88435607485822,34.98233288923141,0 32.88451163672815,34.98253087504281,0 32.88471895953723,34.98277140591811,0 32.8847971206031,34.98284312575706,0 32.88490575656299,34.98294280794777,0 32.88537193514468,34.98329138569628,0 32.88589794888966,34.98362652347858,0 32.88639328954915,34.98387516241869,0 32.88654534101829,34.98396848809918,0 32.88682041868667,34.98408700881168,0 32.88702443669883,34.98419363423909,0 32.88709771546581,34.98421402513587,0 32.88726560420807,34.98423359342581,0 32.88783861404782,34.9843283731002,0 32.88796993313395,34.98434783812,0 32.888093162713,34.98437846245417,0 32.8883028430708,34.98445879263754,0 32.88849258654346,34.98452533030328,0 32.88870873803486,34.98464410719883,0 32.88885157944681,34.98475164880637,0 32.88901421760227,34.98490042801841,0 32.88910048316812,34.98498581364273,0 32.88942396220742,34.98498694790515,0 32.88961746780102,34.98497115875992,0 32.88979082172239,34.9849827445634,0 32.88989715420023,34.98505722160527,0 32.89004032434832,34.98510163588806,0 32.89021676049823,34.98516263484156,0 32.89040653417948,34.98522368073371,0 32.89043654823958,34.98522378534468,0 32.89057346017792,34.98518858449047,0 32.89067681366725,34.98519443502622,0 32.89078311583702,34.98527440006863,0 32.89088598638415,34.98537356599061,0 32.89094236938795,34.98543414404362,0 32.89098505586025,34.98556328873664,0 32.89103485191162,34.98560737638708,0 32.89113149189362,34.9856214361402,0 32.89128134968252,34.98566312903034,0 32.89139097472312,34.98574585037832,0 32.89148727609572,34.98582577971033,0 32.89160006845054,34.98594144734392,0 32.89173292604782,34.986046203833,0 32.8917995388265,34.9860629054073,0 32.89200291083593,34.98607459052054,0 32.89221939627224,34.98613023793588,0 32.89236250010575,34.9861883736816,0 32.89250889570454,34.98625475214008,0 32.89263184897187,34.98634026326795,0 32.89277129609603,34.98646151068723,0 32.89290401622758,34.98659371339343,0 32.8929770854942,34.98665160452634,0 32.89317669933511,34.98674561552129,0 32.89421579900783,34.98702093666842,0 32.89430539074766,34.98710907443551,0 32.89436839679436,34.98717790833413,0 32.89452767656738,34.98733490273657,0 32.89462738604754,34.98740111997839,0 32.89469698610433,34.98748644116116,0 32.89476133543151,34.98754858290412,0 32.89498301326998,34.98776265789609,0 32.89519691964513,34.98804906997769,0 32.8955004023755,34.98816063464948,0 32.89570727407609,34.98833650650533,0 32.89573489980902,34.98838456108831,0 32.89597958841201,34.98859809601007,0 32.89599118334213,34.98880874110485,0 32.89624821231003,34.98908695907841,0 32.89644951584226,34.98886453742641,0 32.89664057702944,34.98866293243173,0 32.89693231721539,34.98859304023954,0 32.8973064308736,34.98876740070601,0 32.89763808709854,34.98882067129953,0 32.89794226341314,34.98879669425248,0 32.89813080448199,34.98909135492276,0 32.89832764448988,34.98924842088138,0 32.89839336335352,34.98927992495946,0 32.89862122121469,34.98931615457705,0 32.89886099957985,34.98950047416579,0 32.89908174480832,34.98994120788782,0 32.89936726011488,34.99010066068995,0 32.89953866179447,34.99027848962668,0 32.89988348438917,34.99073632720054,0 32.90015573507767,34.99101458994619,0 32.90027619167083,34.99124645803693,0 32.90058203672452,34.99139555100812,0 32.90070024417437,34.99157111087445,0 32.9008053083823,34.9918404607609,0 32.90120755960402,34.99196694371649,0 32.90151679867753,34.99144252913851,0 32.90164754302166,34.99114062129633,0 32.90182481948528,34.99065537414202,0 32.90187699253985,34.9906600469612,0 32.90204263184204,34.99067488212656,0 32.90230759300366,34.99089264378473,0 32.90239625525913,34.9908971149715,0 32.9024641671522,34.99099743639245,0 32.90256296490976,34.99100194174125,0 32.90256988471759,34.99113750327472,0 32.90274946208661,34.99120275476194,0 32.9023021925479,34.99255311640308,0 32.90219696970074,34.99267927767006,0 32.9021560051392,34.99275318615173,0 32.90208170296286,34.99288724170282,0 32.90202966424637,34.99293869743643,0 32.90221521816263,34.9929994527857,0 32.90247397182298,34.99305667538481,0 32.902624191847,34.99315380320887,0 32.90262376359403,34.99321480344076,0 32.90289253325003,34.99347527287407,0 32.90302877508715,34.99353985284774,0 32.90309589036593,34.9934031245685,0 32.90315673804795,34.99335060901876,0 32.90319813583295,34.99336504145528,0 32.90328225852689,34.99331615191593,0 32.90332102033979,34.99325831107411,0 32.9033451128611,34.99319462810089,0 32.90341942042313,34.99316450290117,0 32.90345086257002,34.99312071757815,0 32.90352380549731,34.99306977363597,0 32.90363782266831,34.99307457145003,0 32.90372692838535,34.99300829789776,0 32.90385130417047,34.99289639215174,0 32.903964318025,34.99289907231001,0</coordinates>
						</LinearRing>
					</outerBoundaryIs>
				</Polygon>
			</MultiGeometry>
		</Placemark>
	</Document>
</kml>