<?xml version='1.0' encoding='UTF-8'?>
<kml xmlns="http://www.opengis.net/kml/2.2">
	<Document>
		<name>GASTRIA</name>
		<Style id="PolyStyle70">
			<LabelStyle>
				<color>00000000</color>
				<scale>0.000000</scale>
			</LabelStyle>
			<LineStyle>
				<color>ff0055ff</color>
				<width>2.000000</width>
			</LineStyle>
			<PolyStyle>
				<color>00828282</color>
				<outline>1</outline>
			</PolyStyle>
		</Style>
		<Placemark id="ID_70246">
			<name>GASTRIA</name>
			<snippet />
			<description>&lt;html xmlns:fo="http://www.w3.org/1999/XSL/Format" xmlns:msxsl="urn:schemas-microsoft-com:xslt"&gt;

&lt;head&gt;

&lt;META http-equiv="Content-Type" content="text/html"&gt;

&lt;meta http-equiv="content-type" content="text/html; charset=UTF-8"&gt;

&lt;/head&gt;

&lt;body style="margin:0px 0px 0px 0px;overflow:auto;background:#FFFFFF;"&gt;

&lt;table style="font-family:Arial,Verdana,Times;font-size:12px;text-align:left;width:100%;border-collapse:collapse;padding:3px 3px 3px 3px"&gt;

&lt;tr style="text-align:center;font-weight:bold;background:#9CBCE2"&gt;

&lt;td&gt;3&lt;/td&gt;

&lt;/tr&gt;

&lt;tr&gt;

&lt;td&gt;

&lt;table style="font-family:Arial,Verdana,Times;font-size:12px;text-align:left;width:100%;border-spacing:0px; padding:3px 3px 3px 3px"&gt;

&lt;tr&gt;

&lt;td&gt;DIST_CODE&lt;/td&gt;

&lt;td&gt;3&lt;/td&gt;

&lt;/tr&gt;

&lt;tr bgcolor="#D4E4F3"&gt;

&lt;td&gt;VIL_CODE&lt;/td&gt;

&lt;td&gt;323&lt;/td&gt;

&lt;/tr&gt;

&lt;tr&gt;

&lt;td&gt;VIL_CCD&lt;/td&gt;

&lt;td&gt;3323&lt;/td&gt;

&lt;/tr&gt;

&lt;tr bgcolor="#D4E4F3"&gt;

&lt;td&gt;VIL_NM_E&lt;/td&gt;

&lt;td&gt;GASTRIA&lt;/td&gt;

&lt;/tr&gt;

&lt;tr&gt;

&lt;td&gt;VIL_NM_G&lt;/td&gt;

&lt;td&gt;ΓΑΣΤΡΙΑ&lt;/td&gt;

&lt;/tr&gt;

&lt;/table&gt;

&lt;/td&gt;

&lt;/tr&gt;

&lt;/table&gt;

&lt;/body&gt;&lt;script type="text/javascript"&gt;

				function changeImage(attElement, nameElement) {

				document.getElementById('imageAttachment').src = attElement;

				document.getElementById('imageName').innerHTML = nameElement;}

			&lt;/script&gt;&lt;/html&gt;

</description>
			<styleUrl>#PolyStyle70</styleUrl>
			<MultiGeometry>
				<Polygon>
					<extrude>0</extrude>
					<altitudeMode>clampToGround</altitudeMode>
					<outerBoundaryIs>
						<LinearRing>
							<coordinates> 34.01658939354103,35.35240021860618,0 34.01626847129734,35.35257318392785,0 34.01617187599636,35.35257744913401,0 34.01581808285874,35.35246668741996,0 34.01585909541339,35.35233073515334,0 34.01574087302019,35.35227048625298,0 34.0153972124504,35.35211589395636,0 34.01525174846311,35.35201212926875,0 34.01502740567825,35.35200526443202,0 34.01471687399447,35.35193788118472,0 34.01428338520793,35.35185840485265,0 34.01410725685519,35.35186425790521,0 34.01376094092986,35.35192403083397,0 34.01338661825587,35.3518790508591,0 34.01325385570708,35.35193703241845,0 34.01317922127894,35.35194640641438,0 34.01305669962124,35.35196930602071,0 34.01293461482323,35.35202719682652,0 34.01287082117838,35.35204960401926,0 34.01275298360778,35.35201997068431,0 34.01277330124025,35.3519366853084,0 34.01258551273941,35.35186389378317,0 34.01220339530401,35.35162212524831,0 34.01190518607997,35.35148897063571,0 34.01171488567715,35.35141186788318,0 34.01159688468972,35.3513691105253,0 34.01116726927082,35.35117148129831,0 34.01084768199799,35.35094412113539,0 34.01063718759852,35.35077387006473,0 34.01035652268372,35.35068657229611,0 34.00993119090249,35.35043677712162,0 34.0093705822655,35.35008405991703,0 34.00913214835411,35.34990988796754,0 34.00898806797337,35.34982990094569,0 34.00883808935032,35.3497867471325,0 34.00873112417184,35.34971548581593,0 34.00828097204333,35.34934163098244,0 34.00809335770148,35.34916713120113,0 34.00794227468514,35.3490839159649,0 34.00777156309334,35.34903449010467,0 34.00766082559382,35.34902684536483,0 34.00739209169997,35.34906870621602,0 34.00704530510191,35.34912272502188,0 34.00667260341041,35.34910926522934,0 34.00653875612313,35.34907975911062,0 34.00634639979569,35.34906823753832,0 34.00594011478126,35.34902787550962,0 34.0056585988532,35.34901907059981,0 34.00548648761377,35.34904477356918,0 34.00525648989155,35.34901169083373,0 34.00468386360127,35.34933578705209,0 34.00458426851727,35.34948534693977,0 34.00448310360493,35.34950805943287,0 34.00423294039456,35.34957138093822,0 34.00398714192178,35.34955592550059,0 34.00380638262129,35.34961866867254,0 34.00323152845866,35.34976342454777,0 34.00308354010546,35.34977777622417,0 34.00285797501628,35.34979731144344,0 34.00253005320472,35.34982893490653,0 34.00233166632376,35.34985619253053,0 34.0021242378097,35.34992134189824,0 34.00169608718719,35.3500561248051,0 34.00148321122352,35.35011256991866,0 34.00128880403619,35.35015136323349,0 34.00108158979815,35.35023400746593,0 34.00082788948071,35.35022735937357,0 34.00077684681449,35.35020153530949,0 34.00022883814169,35.35014264250577,0 34.00004963892593,35.35011569114297,0 33.99966047182751,35.35038137795697,0 33.99947477532336,35.35004389374735,0 33.99932102217601,35.34983104333337,0 33.99885880586708,35.34974279602666,0 33.99864964888409,35.3493580664453,0 33.99848501895458,35.34922655430969,0 33.99859708610214,35.34917521702612,0 33.99851065453591,35.3490640003072,0 33.9981965139098,35.34900021310331,0 33.9981832958315,35.34903230417654,0 33.99800696177886,35.34899959182651,0 33.99778980225577,35.34892483119788,0 33.99778439030587,35.34886012159249,0 33.99768505186436,35.34887320243995,0 33.9976934472995,35.34881884510229,0 33.99771311248651,35.3488002821077,0 33.99779344089917,35.34876923242231,0 33.9979023029328,35.34864882354274,0 33.99796404929555,35.34854937647562,0 33.99772013912167,35.34850750350436,0 33.99772800294817,35.34823673387645,0 33.99758820226856,35.34830503697523,0 33.99725832309301,35.34842860428961,0 33.99735533115574,35.34854565279572,0 33.99745794819914,35.34857091841019,0 33.99763299000345,35.34850212358067,0 33.99784699011153,35.34861420764668,0 33.99784709795679,35.34862852168715,0 33.99768410440226,35.34869256200054,0 33.99748294897907,35.34870357631235,0 33.99738474959901,35.34876831538181,0 33.99693668255665,35.34857578881962,0 33.9968170635542,35.34862664605561,0 33.9967491386773,35.34874750413461,0 33.99672300902896,35.34879365142721,0 33.99680129100486,35.34873819862436,0 33.99682916548417,35.3487424690736,0 33.99682186434865,35.34883991445178,0 33.99718291769393,35.348853287145,0 33.99736243699252,35.34890648689846,0 33.99745897828122,35.3488633700282,0 33.99757069391961,35.34889956389507,0 33.99767458318686,35.34921118862569,0 33.99782219866208,35.3493882567801,0 33.997950893468,35.34943312601816,0 33.99809541631598,35.34946255350978,0 33.99809324352288,35.34944448716092,0 33.99807029426637,35.34922705045975,0 33.99822129284987,35.34921978885409,0 33.99828577108682,35.34937999324606,0 33.99832342568654,35.34963366719295,0 33.99840640868327,35.34964306309986,0 33.99851819316967,35.34984508224693,0 33.99860666065251,35.34986985716721,0 33.99860506358057,35.34988087650644,0 33.99826182860274,35.35001331244183,0 33.99815695469787,35.3499492810291,0 33.99816972694789,35.34981736951298,0 33.99814985829747,35.34969735382597,0 33.99805267401167,35.34967725454517,0 33.99776239039671,35.34951779670925,0 33.99767243807378,35.34958415611902,0 33.99730224239052,35.34937835510782,0 33.99720894122895,35.34933571687937,0 33.99707069379821,35.34934207525419,0 33.99689427817805,35.34947902840338,0 33.9968839765335,35.3495097342725,0 33.99679569666807,35.34953024027806,0 33.99676370098462,35.34967121716041,0 33.99670175093822,35.34967090514107,0 33.99652073350489,35.34993049105788,0 33.99648468088014,35.34990343473651,0 33.9964331055183,35.3498299923225,0 33.99640521826941,35.34943712948034,0 33.99654389180949,35.34942505031126,0 33.99659617743005,35.34933494221288,0 33.99671260839376,35.34925086770961,0 33.99680977633967,35.34932799358857,0 33.99688533087337,35.34924303023209,0 33.99668549361038,35.34913884411817,0 33.99669391367858,35.34905401896751,0 33.99652376542539,35.34909057026284,0 33.9964365359827,35.34916128046814,0 33.99621523647158,35.349401512983,0 33.9959986833552,35.34959358664779,0 33.99585563749021,35.34968444145471,0 33.99576725255739,35.34966111046622,0 33.99579709860075,35.34970023468119,0 33.99588534935401,35.34971263090985,0 33.99596071000311,35.34976231588257,0 33.99607122853914,35.34984889454843,0 33.99609042481712,35.34989029308466,0 33.99606933858656,35.3499123394535,0 33.99604000140896,35.34991476875918,0 33.9960858738397,35.35029504147833,0 33.9961060292871,35.35096118112672,0 33.99438794948327,35.35006179269487,0 33.9941103616847,35.34993106867846,0 33.99400146615657,35.34989436801446,0 33.99358866516623,35.34975778024715,0 33.99297785076939,35.34958344702826,0 33.99104382377803,35.34904813921208,0 33.990711540028,35.34894587635453,0 33.99048096052462,35.34886465174622,0 33.99015278875824,35.3486617416451,0 33.98986652914828,35.34839286956552,0 33.98963039919489,35.34829419031924,0 33.9888514386952,35.34790249021187,0 33.98848232497686,35.34784426678195,0 33.98821592447704,35.34789019044902,0 33.98806612271208,35.34786516839758,0 33.98780298435457,35.34774045955739,0 33.9874329138399,35.34760350040106,0 33.98717003100735,35.34749747358067,0 33.98677641146159,35.34737469699854,0 33.98655085540526,35.34716235483397,0 33.98633536211833,35.34714521535779,0 33.98636733974429,35.3472457467201,0 33.9864007713599,35.34746595674667,0 33.98464771020441,35.34809760476568,0 33.98423749181298,35.34787416280925,0 33.98378254837015,35.34840072749321,0 33.98395214494103,35.34843714427478,0 33.9837774573128,35.34861495330507,0 33.98342685810886,35.34886978734419,0 33.98276933002364,35.34915483063836,0 33.98259997199359,35.34915999140911,0 33.98211325373646,35.34896866212938,0 33.98161222762401,35.34886564059605,0 33.98129503322989,35.34870442808958,0 33.9809346229417,35.34862545961242,0 33.9809006357361,35.34867613162677,0 33.98084666644873,35.34866397079829,0 33.98080129436148,35.34865770429401,0 33.98073173183257,35.34862068412581,0 33.97996384275972,35.34825078311766,0 33.97898337583484,35.34781289194419,0 33.97860400266805,35.34759548118292,0 33.97821739821092,35.3474159242074,0 33.97778843688683,35.34723040923241,0 33.97761134730337,35.34720979333954,0 33.97748099200074,35.34723919544592,0 33.97715249488773,35.34741508868257,0 33.97621838400706,35.34774076325714,0 33.97586655203823,35.34789479399791,0 33.97544529897525,35.34803048396549,0 33.97536909895899,35.34808779544333,0 33.97524741472565,35.34819901845566,0 33.97510293125203,35.34833247458612,0 33.97501516145118,35.34838672902661,0 33.97493477673233,35.348415725278,0 33.97480780890299,35.34840729981092,0 33.97463380442134,35.34836452607301,0 33.97446877494685,35.34834703871587,0 33.97413080137986,35.34837496081649,0 33.97384690801476,35.34842449554266,0 33.97365904009958,35.3484669557624,0 33.97330557529155,35.3484855516833,0 33.97298693340188,35.34852276448641,0 33.97280671501225,35.34856201254799,0 33.97249659220532,35.34866845085823,0 33.97215906825994,35.34873416123131,0 33.97180254951355,35.34881892254065,0 33.97167648768028,35.34888608038342,0 33.97150851696809,35.34898507384754,0 33.97124433052383,35.34907539072522,0 33.97112169660738,35.34910787321299,0 33.97097584657837,35.3491279441611,0 33.9706031950848,35.34914983559798,0 33.97026906007946,35.34917771700587,0 33.97031820675021,35.34878675146635,0 33.97037085621783,35.34868868557288,0 33.97041174699002,35.34857181581836,0 33.9705623062011,35.34862415327809,0 33.97073148322569,35.34862594388907,0 33.97086515917501,35.34855242554744,0 33.97089527043828,35.34849863818298,0 33.97091373031076,35.34838022509734,0 33.97089625058429,35.34825924799431,0 33.97074915845448,35.34817538601588,0 33.9707176529659,35.34811264308866,0 33.97057772285861,35.34798462655689,0 33.97042260458728,35.34787248079613,0 33.97029627828117,35.34791759182169,0 33.97022995103622,35.3478362300521,0 33.97016332155049,35.34772967300155,0 33.97001419890584,35.34747573853118,0 33.96981664787828,35.34735133277157,0 33.96991489722518,35.34720880523425,0 33.96957824826617,35.34702567029001,0 33.96978439787957,35.34658304810479,0 33.96951833551361,35.34651588807706,0 33.96922178572001,35.34647101945485,0 33.96935293859752,35.34618648931624,0 33.9696909520225,35.34551917617779,0 33.96967158447136,35.34543498386761,0 33.96962719107459,35.34533070149683,0 33.96945889259248,35.34508007018473,0 33.96937316622555,35.34466183861744,0 33.96940087013026,35.34440648492781,0 33.96943196559789,35.34411330659226,0 33.96936019695855,35.34410007375334,0 33.9692995816154,35.34397262906037,0 33.96923774754762,35.34362350024755,0 33.96917839779216,35.3434822368971,0 33.96906225535705,35.34341387265554,0 33.96882466030953,35.34315434630194,0 33.96892046327374,35.34280710381535,0 33.96835724333047,35.34267788548312,0 33.96787560068598,35.34254774451998,0 33.96752823266929,35.34243083467245,0 33.96749885572928,35.34240505370871,0 33.96728811617976,35.34228156665784,0 33.96704110023936,35.34219849956711,0 33.96640052190148,35.34199258798689,0 33.96621420086593,35.34196717988642,0 33.96563527498056,35.34197035594778,0 33.96548484366546,35.34192746073697,0 33.96528350745087,35.34180622768989,0 33.96506257725001,35.34165365270723,0 33.96496580957048,35.3415977295242,0 33.9645141179685,35.34142732389419,0 33.96412632801612,35.3411508614981,0 33.96402549517961,35.34113793659334,0 33.96352234814999,35.34111725087218,0 33.96318598597409,35.34048622300119,0 33.96304605550819,35.3401680590092,0 33.96302957826991,35.34007923214128,0 33.96299547018162,35.33988490657984,0 33.96300106042891,35.33961959197033,0 33.9630038944502,35.33953452573763,0 33.96307154179469,35.33922071700756,0 33.9630776578167,35.33909326277637,0 33.96304633558932,35.33895022890421,0 33.96301562005759,35.33887732036148,0 33.96286962543369,35.33869348616871,0 33.96283757837115,35.33860576662799,0 33.96283519362586,35.33846946680195,0 33.96287955952708,35.33804567247046,0 33.96287144009128,35.33784730189755,0 33.96282436766504,35.33777608108606,0 33.96273575785003,35.33775073915611,0 33.96257001681293,35.33771268694417,0 33.96245758328389,35.33766567713525,0 33.96233005408426,35.33757443268932,0 33.96227685001529,35.33750080433167,0 33.96212468544578,35.33718492127699,0 33.96212748150201,35.33718547317298,0 33.9621093637482,35.33711632271386,0 33.96199922578081,35.3370668020022,0 33.96191836209699,35.33705484664142,0 33.9619161530633,35.33703291670309,0 33.96196184640718,35.33702593368043,0 33.96196325759552,35.33691780456503,0 33.96195355829674,35.33655381253917,0 33.96197797248479,35.33634179540323,0 33.96196850935539,35.33622492783726,0 33.96198488783552,35.33613575275979,0 33.96205991922474,35.33575863262715,0 33.96214767165194,35.33566526158868,0 33.96226901282857,35.33545247376033,0 33.96229651065906,35.33527352902882,0 33.96233613811003,35.33520922594882,0 33.96254980426457,35.33506189690272,0 33.96272760791717,35.33506930687103,0 33.96276004746534,35.33508008086361,0 33.96269909059658,35.33516220660451,0 33.96261094687188,35.33522248321314,0 33.9625016050239,35.33531161354931,0 33.96242504154447,35.33544019927461,0 33.96230553114722,35.33558015828874,0 33.96231962096175,35.33563300229273,0 33.96236803205096,35.33562820395556,0 33.96245000975947,35.33558199869329,0 33.96243795626231,35.3356210278499,0 33.96238944917868,35.33571142861931,0 33.96229339384762,35.33588109637967,0 33.96247201907004,35.33576859099772,0 33.9625596652744,35.3356663946321,0 33.96258559517505,35.3355823423189,0 33.96259986580047,35.33542336107916,0 33.96264184643602,35.33533035505987,0 33.96268847697704,35.33529628818464,0 33.96271858224368,35.33531816630319,0 33.96266194920132,35.33543610640819,0 33.96266124829718,35.33547290631007,0 33.96267656253083,35.33553307468824,0 33.96283619764395,35.33537073012934,0 33.96284367292959,35.33531992179116,0 33.96281836725421,35.33522965719968,0 33.96283948881116,35.33519418545613,0 33.96289817192442,35.3351473821709,0 33.96293845315529,35.33513823542646,0 33.96298451177679,35.33516213968725,0 33.96307433045288,35.33524306350947,0 33.96309153193661,35.3353311861427,0 33.96311565883214,35.33532216804114,0 33.96314702519453,35.33524248433174,0 33.96312747160184,35.33518306544985,0 33.96298030128029,35.33503419709616,0 33.96297452389237,35.33500114607657,0 33.96299305653145,35.33497452080763,0 33.96318015011919,35.33491102014128,0 33.96322612057163,35.33486076041748,0 33.96331968612231,35.33480734258529,0 33.96337506101018,35.33480417655569,0 33.96342303446257,35.33483103889714,0 33.9633948149602,35.3348812113089,0 33.96324543385235,35.33499410333767,0 33.96324369181492,35.33503407522738,0 33.96328814659567,35.33504461903681,0 33.96349524820604,35.33493944022455,0 33.96362596345276,35.33484122711616,0 33.96373486410265,35.33472593261531,0 33.96385703452768,35.33456149324766,0 33.96398504106217,35.33423462800165,0 33.96396487217823,35.33413102076769,0 33.96379369340179,35.3339755938181,0 33.96357470894421,35.33352499518866,0 33.96345623790645,35.33332795744486,0 33.96340846827042,35.33240585063861,0 33.96333712131359,35.33234804148677,0 33.96362603609214,35.33182335604524,0 33.96367400836488,35.33136770250155,0 33.96370698931126,35.33122573243237,0 33.96308246117304,35.33005276484474,0 33.96299646526976,35.32991438181968,0 33.96292816886265,35.32980448148769,0 33.96270242985678,35.32939252807187,0 33.96186527111232,35.32908923471663,0 33.96109875590516,35.32865914981424,0 33.96110672715994,35.32799952427674,0 33.96074878406338,35.32784907542792,0 33.96068713374327,35.32775966150392,0 33.96055248392663,35.32730905527936,0 33.96054824165464,35.32713239539834,0 33.96034325126085,35.32712665820351,0 33.96036875136938,35.32663191906359,0 33.96042956060781,35.32625394611834,0 33.96067928551615,35.3262906816318,0 33.96079774863804,35.3255797696138,0 33.96030987273247,35.32548727850196,0 33.95927835674205,35.32535148345045,0 33.95816960704251,35.32525818946809,0 33.95779299594365,35.32524658553339,0 33.95741454866558,35.32518884287955,0 33.95739163205634,35.32523511064591,0 33.95678160483602,35.32507814349401,0 33.95632361414084,35.32493125906325,0 33.95599617191042,35.32479863455158,0 33.95575467887698,35.32468321044912,0 33.95588389186781,35.32437592154835,0 33.95590817077031,35.32425370738066,0 33.95599152153078,35.32404302580951,0 33.95614017555135,35.32406665598671,0 33.95628569160826,35.32372276147129,0 33.95430473749796,35.32333462443551,0 33.95440721843431,35.3229152295751,0 33.95444116360606,35.32285474320607,0 33.95450756971817,35.32269312008982,0 33.95460852074066,35.32244741686144,0 33.95548458080663,35.32262808577644,0 33.9558774842053,35.32268580503593,0 33.95762915199658,35.32294311529733,0 33.95756094868425,35.3226998895793,0 33.9575503062087,35.32267685184846,0 33.9574859163022,35.32253744712297,0 33.9576251425703,35.32254780134665,0 33.95759613587366,35.32210177148442,0 33.95776212463386,35.32175687926927,0 33.95799478905744,35.32182053166868,0 33.95812783445656,35.32122570657555,0 33.95846212045383,35.32035221121181,0 33.95879836817729,35.31978055926595,0 33.95886949878407,35.31968983431535,0 33.95898256252202,35.31975349503644,0 33.95974808476684,35.31878962370239,0 33.96014646209203,35.31906715822713,0 33.96048440701665,35.31926473788557,0 33.96068409931576,35.31935948818417,0 33.96074795376649,35.3193053836355,0 33.96101852039783,35.31951611949302,0 33.96110473714565,35.31959932530803,0 33.96120946121395,35.31973120579943,0 33.96121042633224,35.31978385519199,0 33.96142596219614,35.31992234549752,0 33.96166376430023,35.32005296539135,0 33.96224688029628,35.32043563624881,0 33.96251579147562,35.32055670503615,0 33.96268323919669,35.32065338785264,0 33.96278676542296,35.32067943958778,0 33.96289876328747,35.32076534108823,0 33.96325937848373,35.32095416505967,0 33.96349230153155,35.3209207118222,0 33.96372298864775,35.32085399136545,0 33.96393065031322,35.32067258307818,0 33.96402501621299,35.32063545811985,0 33.96469989481043,35.32019365742063,0 33.96478378041825,35.32034631460758,0 33.96512647360508,35.32056726988772,0 33.96620272142708,35.32122265852183,0 33.96676135651269,35.32149305299791,0 33.96730784157884,35.32176739076908,0 33.9681217824539,35.32217598401865,0 33.96857703074209,35.32237927122726,0 33.96914022109143,35.32258475423284,0 33.96925362469111,35.32260585308779,0 33.96942966927933,35.3226126086488,0 33.96958873008291,35.32261871148824,0 33.96970301670002,35.32264853859488,0 33.97012129063011,35.32288349290202,0 33.97051942263693,35.32305598255085,0 33.97076116078922,35.32318259041798,0 33.97090451616263,35.32324998682805,0 33.97117484377388,35.3233828106199,0 33.97152535214688,35.32353460710134,0 33.97178968925984,35.32361929579222,0 33.97189437632986,35.32365283575825,0 33.97211651785813,35.32374819133553,0 33.97259512504333,35.32398916936652,0 33.97309632593899,35.32418151409163,0 33.97328443633635,35.32420218807714,0 33.97343746301696,35.32425630441494,0 33.9737991143653,35.32442411858508,0 33.97389121620235,35.32445124241199,0 33.97434092453678,35.32455050741318,0 33.97478040937039,35.32475322558894,0 33.97557883236655,35.32485827618927,0 33.9759850919327,35.324816445295,0 33.97609144246746,35.32483338538614,0 33.97623453424733,35.32488977581972,0 33.97628939733507,35.32489148608862,0 33.97635588736441,35.32485467758609,0 33.97647479606024,35.32474353073284,0 33.97653407717895,35.32470511378774,0 33.97734264564193,35.32485734673792,0 33.97735741706483,35.32485141100507,0 33.97748716271694,35.32486569377815,0 33.97775294257137,35.32486245489026,0 33.97792572806284,35.32488671480634,0 33.97844987349742,35.32485673090281,0 33.97850509925244,35.32482355373677,0 33.97858641036311,35.32469349354766,0 33.97861405066794,35.32468402391486,0 33.97864200962176,35.32442448962124,0 33.97861445111589,35.32435039305717,0 33.97861442322413,35.32423135837595,0 33.97863905108852,35.32391453778866,0 33.97841244057442,35.32393791202746,0 33.97839446539273,35.32399283798233,0 33.97841053001331,35.3240934313523,0 33.97854464266774,35.32406105155837,0 33.97855027564732,35.324078198946,0 33.97841347637541,35.32411187227334,0 33.97844243231602,35.3242932066221,0 33.97831190281216,35.32447889525535,0 33.9782948720436,35.32446999987972,0 33.9784115736384,35.32429953136175,0 33.97836900194243,35.32398890330866,0 33.97839732058608,35.32391918745663,0 33.97864144923309,35.32389606352581,0 33.97877135291565,35.32357884135116,0 33.97883129912933,35.32359156600854,0 33.97889752891931,35.32358134222417,0 33.97911127837539,35.32344584952099,0 33.97915098351935,35.32342412934883,0 33.9792903918527,35.32339954746816,0 33.97980168771478,35.32347223927677,0 33.97996951375117,35.3236289787618,0 33.98017940702155,35.3239169142819,0 33.98022348193003,35.32393996102418,0 33.98044246227116,35.32394925379251,0 33.98051228899904,35.32404619039222,0 33.98061031507858,35.32410693223368,0 33.98066086562963,35.32413825553235,0 33.98067777161145,35.32414873252835,0 33.98072181214405,35.32416463087223,0 33.98073639288974,35.32416989266616,0 33.98077575615109,35.32419117204934,0 33.9808365686178,35.32419679156105,0 33.9809310481043,35.32421773099072,0 33.98102105012881,35.32425885783676,0 33.98105825754548,35.32426108055724,0 33.98115928301103,35.32423158563746,0 33.98125745091116,35.32421790702786,0 33.98148517500933,35.32421078752197,0 33.98157238770262,35.32423612987892,0 33.98165637366939,35.32427266231365,0 33.98187603181531,35.32441132736756,0 33.98198266913037,35.32446566265768,0 33.98207919828062,35.3244977998525,0 33.98250706642352,35.32457502632582,0 33.98258366835304,35.32457577381103,0 33.98274472934519,35.32452521484373,0 33.98279350218168,35.32452806047965,0 33.98286334230176,35.32452687981715,0 33.98329666601833,35.3244232539774,0 33.98335197029821,35.32439257337698,0 33.98338270794932,35.32435003901958,0 33.9834162078139,35.32427014527141,0 33.9834360884464,35.32426703709189,0 33.98350529718189,35.3243131767937,0 33.9835482909338,35.32436890270996,0 33.98355304884961,35.32447306917901,0 33.98367939310103,35.32457104663013,0 33.98368595259128,35.32456281183921,0 33.98360924113015,35.32448238249738,0 33.98358262484862,35.32443623885874,0 33.98358417918357,35.32435981461228,0 33.9835214109992,35.32428636528128,0 33.98351766721908,35.32425630105209,0 33.98358298017435,35.3241827390177,0 33.98366593529583,35.32413029050106,0 33.98375017202267,35.32413661658929,0 33.98381145362802,35.3241184923174,0 33.98390069380486,35.32406150474786,0 33.9839007819219,35.324005511278,0 33.98381421766077,35.32384908773361,0 33.98370351547612,35.32376400112031,0 33.9836985062404,35.32372071739019,0 33.98382978510582,35.3235695885492,0 33.98391708262694,35.32351388495485,0 33.98398056119908,35.32349831152589,0 33.98409465092112,35.32349720806232,0 33.98422244079864,35.32353260069785,0 33.98470479278503,35.32373848494507,0 33.98495283247794,35.32381759184341,0 33.98496336346111,35.32384620005638,0 33.98526960014757,35.32393611416945,0 33.98600022491997,35.32422312861721,0 33.98635093259887,35.32432984860398,0 33.98670202641075,35.32441378407135,0 33.98689118225378,35.32448125897593,0 33.98762384821206,35.32478684317581,0 33.98820061298982,35.32499191676053,0 33.98838443948636,35.32509932053035,0 33.98876235551361,35.32522935206666,0 33.98903982229825,35.32533834954553,0 33.98929685267621,35.32542500187761,0 33.99020875150437,35.32583489125319,0 33.99045255998278,35.32593033194605,0 33.99097848940168,35.32609687092877,0 33.99135157890956,35.32625046497386,0 33.99166414319638,35.3264174434132,0 33.99201011445668,35.32656063831342,0 33.99228720759059,35.32662726589628,0 33.99272269413454,35.32673851978937,0 33.9929154281354,35.32680158610552,0 33.99360765129367,35.32695218479105,0 33.99368971863692,35.32698054854865,0 33.99393247664641,35.32702181880199,0 33.99395020090844,35.32702483135564,0 33.9941106632126,35.32705950946681,0 33.99424047041947,35.32707184032961,0 33.99464002101993,35.32707654859181,0 33.99567790072896,35.32731401611571,0 33.99597160024723,35.32735357108161,0 33.99631363090175,35.32738084204821,0 33.99691497043749,35.32739428462083,0 33.99711327004945,35.32738428126398,0 33.99727966236347,35.32739199962784,0 33.99741377994928,35.32736988310575,0 33.9976236084128,35.32737075753196,0 33.99774644913284,35.32750713315836,0 33.99789851661679,35.3275479757246,0 33.99793177529944,35.32756030634152,0 33.99801662054,35.32758042404853,0 33.99807757413499,35.3275694031818,0 33.99835622235338,35.3272885660026,0 33.99891855575381,35.32714509570998,0 33.99902279483646,35.32710002576094,0 33.99929901530347,35.32694501461976,0 33.99937137437541,35.32693174914787,0 33.99943791306989,35.32695260846516,0 33.99951034839079,35.32694589587557,0 34.00003365676657,35.32673125469778,0 34.00014287518933,35.3266606898449,0 34.00020797315631,35.32656914725033,0 34.00024623464536,35.32648191420627,0 34.00026013737728,35.32624058881636,0 34.00040051574104,35.32605922727824,0 34.00042067968837,35.32600370502386,0 34.00019907115974,35.32565423847009,0 34.00018803278585,35.32558623223522,0 34.00021292635552,35.32549887002968,0 34.000267925895,35.32540463573432,0 34.00032346985122,35.32538308315726,0 34.00010625895373,35.32538183279294,0 34.00010683322562,35.32539202663258,0 34.00003417633082,35.32539411575797,0 34.00003323772943,35.3253499626793,0 34.00010459934339,35.32534870358213,0 34.00010515666871,35.32535707506539,0 34.00032168294326,35.32534819830419,0 34.00059326371527,35.32533803899216,0 34.00085070888826,35.32527444966711,0 34.00137914794161,35.32517227552209,0 34.00153162211336,35.32514286926144,0 34.00243917237952,35.32492610301136,0 34.00281618957157,35.3248652450271,0 34.00409518174114,35.3245175090352,0 34.00449436871087,35.32443141185234,0 34.00483518475822,35.32432754380993,0 34.00512167015415,35.32421334025932,0 34.0051968270464,35.32415894635918,0 34.0052403447167,35.32405600197701,0 34.00527430347282,35.32389739590042,0 34.00536232827409,35.32374144892582,0 34.00557024773808,35.32346005672797,0 34.00572518247742,35.32322549387258,0 34.00580704738495,35.32316432074741,0 34.00584594960353,35.32316156890914,0 34.00593620348115,35.32321857093574,0 34.00597722712499,35.32321892182028,0 34.00604378413729,35.32318535846548,0 34.00620102302359,35.32318874317851,0 34.00636033815756,35.32329328597805,0 34.00651493630814,35.32336993010383,0 34.00659635257396,35.32338669847871,0 34.0066190416687,35.32337265247148,0 34.00672635114182,35.32311841308313,0 34.00668385993534,35.3229396115634,0 34.00671929540322,35.32287865225883,0 34.00692684721106,35.32258625642733,0 34.00699940928221,35.32245390596632,0 34.00704922987808,35.32241517440933,0 34.0071023050158,35.32238818082723,0 34.00711997568422,35.32237698418353,0 34.00719706362634,35.32232814410496,0 34.00721450949631,35.32231709082964,0 34.00739928728716,35.32228779206172,0 34.00756690657172,35.32229572768127,0 34.0077053785328,35.32233012850489,0 34.00778877412727,35.32237273163236,0 34.0078202265258,35.32238879981086,0 34.00800057718095,35.32257617790575,0 34.00805878796329,35.32261731253253,0 34.00810936213489,35.32265305053001,0 34.00815879553438,35.3226684729524,0 34.00820942301721,35.32265915821917,0 34.00834319437819,35.32259170267472,0 34.0084881223327,35.3225371547533,0 34.00848768955085,35.32251975091351,0 34.0085144189918,35.3225189312663,0 34.00860864615047,35.32239899887384,0 34.00861611118769,35.32236746474238,0 34.00868348910821,35.32208280236398,0 34.00878119617389,35.32105493486812,0 34.00881639142118,35.32084202745032,0 34.00887731650132,35.32071149721256,0 34.00892731176231,35.32065776974634,0 34.00911134326257,35.32065700632966,0 34.00929943247437,35.3207374531565,0 34.00939664808942,35.32080292022012,0 34.0095239940357,35.32096929317605,0 34.00958311835991,35.32094142959238,0 34.00976385849381,35.3209653062733,0 34.00981244384739,35.32099528083049,0 34.00992202582622,35.32118978721928,0 34.01013620368852,35.321328377028,0 34.01024942823999,35.3213669391329,0 34.01037701342874,35.32137686383681,0 34.0104782556754,35.32135411441929,0 34.01074302473494,35.32113052568685,0 34.01094171492925,35.321014670066,0 34.0110532127528,35.32091082708883,0 34.01124105147129,35.3206946000172,0 34.01136079832656,35.3206229609028,0 34.01161640707704,35.32060603789542,0 34.01237880475289,35.32075665154091,0 34.01253445641704,35.32076302295338,0 34.01326477022687,35.32093206964328,0 34.01410889105875,35.32104267574572,0 34.01420614111916,35.32104205197858,0 34.01439137619955,35.32099830117302,0 34.01445072711376,35.32099822051489,0 34.01448421248362,35.32100864558066,0 34.01451340487591,35.32104815481833,0 34.01452859078235,35.32130342007487,0 34.01455764398538,35.32139612803562,0 34.01455778981274,35.32141792464649,0 34.01453753965028,35.32144710938159,0 34.01449126312512,35.32146284649373,0 34.0142969766674,35.32149519401757,0 34.01425673736617,35.32151847862803,0 34.01424396876662,35.32154802417762,0 34.01424568591229,35.32158064072735,0 34.0142756852442,35.32162883750564,0 34.01440335040798,35.32173851139363,0 34.01449042752954,35.32178296457589,0 34.01459591890632,35.32182177675244,0 34.01482777377524,35.32186143815509,0 34.01501892550629,35.32183542722379,0 34.01504774032785,35.32181907849192,0 34.01512766508046,35.32176393630207,0 34.01521029060707,35.32173966456262,0 34.01529205286966,35.32173545647333,0 34.01538190915284,35.32174838949884,0 34.01544676784741,35.32175206571467,0 34.01554020354864,35.32170358779852,0 34.01556196966924,35.32167684179034,0 34.0155999432775,35.32160150398445,0 34.01584869164892,35.32144566666164,0 34.01600688049836,35.32138467279891,0 34.01602777833472,35.32137706208793,0 34.01611453004378,35.32137323063527,0 34.01691473855291,35.32157289707426,0 34.01700030459105,35.32160293982706,0 34.01709411386577,35.3216479546111,0 34.01737519704071,35.321731472236,0 34.01747458819749,35.3217533367935,0 34.01757121335496,35.32176228501868,0 34.01817377784623,35.32182596387604,0 34.01835877880655,35.32182189914577,0 34.01844000614108,35.32181196366285,0 34.01852779156047,35.3218134504452,0 34.01910032456262,35.32196647797947,0 34.0193300691454,35.32201777930305,0 34.01952908490233,35.32209529228163,0 34.01951695756152,35.32229753634515,0 34.01932326626073,35.3256242619598,0 34.01906065970913,35.32957272536316,0 34.01858612598429,35.33670685881761,0 34.01857718766302,35.33684121882874,0 34.01809409987464,35.34410288622313,0 34.01802700784879,35.3451113221557,0 34.0177072149661,35.3496453549334,0 34.0177029262745,35.34983878459487,0 34.01768381006103,35.34997977813455,0 34.01764747100723,35.35015645336304,0 34.01750444438526,35.35061290052542,0 34.01738091967442,35.35120330189067,0 34.01764847347153,35.3513574361119,0 34.01778242250375,35.35143460114292,0 34.01744241957203,35.3517794539988,0 34.01658939354103,35.35240021860618,0</coordinates>
						</LinearRing>
					</outerBoundaryIs>
				</Polygon>
				<Polygon>
					<extrude>0</extrude>
					<altitudeMode>clampToGround</altitudeMode>
					<outerBoundaryIs>
						<LinearRing>
							<coordinates> 33.97834144403905,35.32460858555538,0 33.97832600944197,35.32461113414654,0 33.97829406455448,35.32449188904335,0 33.97831300109605,35.3244905460474,0 33.97834144403905,35.32460858555538,0</coordinates>
						</LinearRing>
					</outerBoundaryIs>
				</Polygon>
			</MultiGeometry>
		</Placemark>
	</Document>
</kml>