<?xml version='1.0' encoding='UTF-8'?>
<kml xmlns="http://www.opengis.net/kml/2.2">
	<Document>
		<name>GERANI</name>
		<Style id="PolyStyle70">
			<LabelStyle>
				<color>00000000</color>
				<scale>0.000000</scale>
			</LabelStyle>
			<LineStyle>
				<color>ff0055ff</color>
				<width>2.000000</width>
			</LineStyle>
			<PolyStyle>
				<color>00828282</color>
				<outline>1</outline>
			</PolyStyle>
		</Style>
		<Placemark id="ID_70243">
			<name>GERANI</name>
			<snippet />
			<description>&lt;html xmlns:fo="http://www.w3.org/1999/XSL/Format" xmlns:msxsl="urn:schemas-microsoft-com:xslt"&gt;

&lt;head&gt;

&lt;META http-equiv="Content-Type" content="text/html"&gt;

&lt;meta http-equiv="content-type" content="text/html; charset=UTF-8"&gt;

&lt;/head&gt;

&lt;body style="margin:0px 0px 0px 0px;overflow:auto;background:#FFFFFF;"&gt;

&lt;table style="font-family:Arial,Verdana,Times;font-size:12px;text-align:left;width:100%;border-collapse:collapse;padding:3px 3px 3px 3px"&gt;

&lt;tr style="text-align:center;font-weight:bold;background:#9CBCE2"&gt;

&lt;td&gt;3&lt;/td&gt;

&lt;/tr&gt;

&lt;tr&gt;

&lt;td&gt;

&lt;table style="font-family:Arial,Verdana,Times;font-size:12px;text-align:left;width:100%;border-spacing:0px; padding:3px 3px 3px 3px"&gt;

&lt;tr&gt;

&lt;td&gt;DIST_CODE&lt;/td&gt;

&lt;td&gt;3&lt;/td&gt;

&lt;/tr&gt;

&lt;tr bgcolor="#D4E4F3"&gt;

&lt;td&gt;VIL_CODE&lt;/td&gt;

&lt;td&gt;326&lt;/td&gt;

&lt;/tr&gt;

&lt;tr&gt;

&lt;td&gt;VIL_CCD&lt;/td&gt;

&lt;td&gt;3326&lt;/td&gt;

&lt;/tr&gt;

&lt;tr bgcolor="#D4E4F3"&gt;

&lt;td&gt;VIL_NM_E&lt;/td&gt;

&lt;td&gt;GERANI&lt;/td&gt;

&lt;/tr&gt;

&lt;tr&gt;

&lt;td&gt;VIL_NM_G&lt;/td&gt;

&lt;td&gt;ΓΕΡΑΝΙ&lt;/td&gt;

&lt;/tr&gt;

&lt;/table&gt;

&lt;/td&gt;

&lt;/tr&gt;

&lt;/table&gt;

&lt;/body&gt;&lt;script type="text/javascript"&gt;

				function changeImage(attElement, nameElement) {

				document.getElementById('imageAttachment').src = attElement;

				document.getElementById('imageName').innerHTML = nameElement;}

			&lt;/script&gt;&lt;/html&gt;

</description>
			<styleUrl>#PolyStyle70</styleUrl>
			<MultiGeometry>
				<Polygon>
					<extrude>0</extrude>
					<altitudeMode>clampToGround</altitudeMode>
					<outerBoundaryIs>
						<LinearRing>
							<coordinates> 33.89417933780589,35.38364682193926,0 33.89419138220463,35.3836223327724,0 33.89775331462522,35.37637883631889,0 33.89977902372875,35.37225876805532,0 33.89872453581249,35.3720907616057,0 33.89882440370827,35.37195451556173,0 33.89897270988564,35.37186812157919,0 33.89909605147095,35.37176697624224,0 33.89918954472986,35.3716606025279,0 33.89940186353719,35.37150735097426,0 33.89978074668372,35.3712743732296,0 33.90003560984029,35.37126051439239,0 33.90023079941152,35.3712389064743,0 33.90042259349121,35.37100850660126,0 33.90068019963035,35.37072886624014,0 33.90124354831021,35.37058555722962,0 33.90144241538984,35.37058390795677,0 33.90155616139118,35.37058296469354,0 33.90157868022758,35.37053881059331,0 33.90187860775806,35.3705939153339,0 33.90211042622294,35.37059485912199,0 33.90235582937812,35.37055496786024,0 33.90272853072604,35.37039038708973,0 33.90277857855168,35.37030694248634,0 33.90313500062471,35.37022070270159,0 33.90323597308938,35.37016056257599,0 33.90334978306672,35.37021034972418,0 33.90375456103857,35.37020121278576,0 33.90382791021645,35.37029118889364,0 33.90394765415481,35.37009484576087,0 33.9041813785816,35.36984887299103,0 33.90425591636497,35.36971964055164,0 33.90443580761428,35.36958076663311,0 33.9045226230616,35.36961524725179,0 33.90466858217398,35.3694627383076,0 33.90473591265664,35.36942563636871,0 33.9047934317386,35.36940489319011,0 33.90508158805235,35.36949349065211,0 33.90515015703699,35.36936430057145,0 33.90520718207332,35.36928326064833,0 33.90530675818862,35.36917587224023,0 33.90513297008201,35.3689634855075,0 33.90515508816408,35.36887044440388,0 33.90514028946124,35.36876296913304,0 33.90480313431467,35.36876512552976,0 33.90503679012861,35.36863324268219,0 33.90509255607194,35.36839736817574,0 33.90508661530976,35.36827842193996,0 33.90501936759797,35.36808162683303,0 33.90496300766935,35.3680004861595,0 33.9049427443647,35.36795497443982,0 33.90507788812248,35.36793944716864,0 33.9051612322311,35.36791446879509,0 33.90529979486864,35.36783046011764,0 33.9054148167609,35.36778735272482,0 33.90562993883158,35.36782347688096,0 33.90570229976045,35.36779367898639,0 33.90577031181529,35.36771827000586,0 33.90580135546028,35.36762190534285,0 33.90586492035416,35.36748866118534,0 33.90593671704992,35.36738959341901,0 33.90592524269712,35.36732365118992,0 33.90581004934644,35.36722250245865,0 33.90578344399523,35.36713057365407,0 33.9057458388576,35.36678605040461,0 33.90570808132199,35.36666810428125,0 33.90557729391922,35.36648471802557,0 33.90556479981819,35.36642900904771,0 33.90556007620214,35.36640794957991,0 33.90557461199938,35.36632902963677,0 33.90560044319002,35.36624953291182,0 33.90558967346351,35.36614585272707,0 33.90554490656915,35.3660335680793,0 33.90555999959653,35.36595616991966,0 33.9056180503507,35.36587036664339,0 33.90573170328945,35.36580456095711,0 33.90575858311928,35.36575217933764,0 33.9057697500161,35.36559885589217,0 33.90588514436789,35.36554388819405,0 33.90594173870145,35.36548250656347,0 33.90611012024096,35.36543195813538,0 33.90617664861588,35.36537119323065,0 33.90621817385795,35.36528820497769,0 33.90623498226912,35.36521825332328,0 33.90638119178808,35.36508646933331,0 33.90643113391378,35.36502106062634,0 33.90645875972746,35.3649585007752,0 33.90652915360341,35.36496688152012,0 33.90664043207086,35.36491533390693,0 33.9068039403862,35.36477462798666,0 33.90692661889036,35.36470063241647,0 33.90712112581298,35.36471096104545,0 33.90710542124212,35.36450761763798,0 33.90714920966598,35.36439748906928,0 33.90720247540543,35.36433409391621,0 33.90740075264399,35.36419656746615,0 33.90752546553851,35.36406763129668,0 33.9075506414466,35.36400915552089,0 33.90755236462454,35.36391488084702,0 33.90774952978709,35.36394825821307,0 33.90790568779583,35.36402664241383,0 33.90804808990625,35.3640406878524,0 33.90818106804433,35.36401478102128,0 33.90825188626176,35.36407741079942,0 33.90855682559618,35.36383277086377,0 33.90853567880775,35.36377458186319,0 33.90855009032284,35.36371481768242,0 33.90863435579855,35.36359766208467,0 33.90856180952207,35.36352554453345,0 33.9087314423716,35.36342888964326,0 33.90898024550283,35.3633025916691,0 33.90910173567271,35.36318588762295,0 33.90921153697872,35.36295193366053,0 33.9089453114274,35.36276095131351,0 33.90910974320987,35.36253140595312,0 33.90946239595903,35.36256589020568,0 33.91012394212643,35.3625462791982,0 33.91029892470278,35.36250113735504,0 33.91049360644057,35.36264575384766,0 33.91081128736168,35.36276249127938,0 33.91076825834962,35.36286379135762,0 33.91094029545344,35.36286613333616,0 33.91106886037613,35.3628097463864,0 33.91112930439778,35.36281887097298,0 33.91125319250613,35.36290355473695,0 33.91136855343498,35.36295574011629,0 33.91147832227593,35.36303304723539,0 33.91160830089034,35.36305191691061,0 33.91166486618379,35.36309428741935,0 33.91168028595363,35.36316199751785,0 33.91164555864169,35.36326730659899,0 33.91166789032108,35.36326784747807,0 33.9117253374967,35.36310747832692,0 33.91178275300027,35.36304813742409,0 33.91183151623517,35.3630451267731,0 33.91195859970522,35.36311690019402,0 33.91205033131513,35.3631102365493,0 33.91211710268693,35.36308406253913,0 33.91221737927517,35.36311260354361,0 33.91228473597045,35.363055915705,0 33.912297160124,35.36295345719577,0 33.91234691926131,35.36286704361747,0 33.91247970127493,35.3628235160441,0 33.91261377193145,35.36283897012557,0 33.91268269925405,35.36287719619465,0 33.91272622445484,35.36294473174095,0 33.91288221412677,35.36290919994943,0 33.91304114269184,35.36282686642267,0 33.91295138251677,35.36255688332752,0 33.91274298623355,35.36213098003357,0 33.91245342860602,35.36221614009462,0 33.91214023837198,35.3622417733502,0 33.91202594840892,35.3622194112319,0 33.91176727419533,35.36213418325727,0 33.91164735110949,35.36213219742122,0 33.91153651062193,35.36212879996571,0 33.91128691625909,35.3620435105778,0 33.91095253001241,35.36200891287065,0 33.91081734926243,35.36196158053149,0 33.91068364031867,35.36189185947507,0 33.910422031076,35.36165132434638,0 33.91031073634343,35.36159299093627,0 33.91021234408421,35.36149320693352,0 33.90998743705415,35.36119003092274,0 33.90962978901005,35.36083947085653,0 33.90924374027043,35.3605609526826,0 33.90911580820442,35.36049388137938,0 33.90901136107355,35.36046736829109,0 33.90857103026939,35.36023391293624,0 33.90839968438686,35.36011960281768,0 33.90831444652142,35.36001360006127,0 33.908230256832,35.35983228538895,0 33.90810476934021,35.35976314768475,0 33.90775705053873,35.3596335781409,0 33.90799430275977,35.35917195721213,0 33.90801192585754,35.35913766684092,0 33.90782718820248,35.35906628891304,0 33.90814523881893,35.35846105096512,0 33.90859068100409,35.35798576914659,0 33.90886087233395,35.35769503025566,0 33.90869325518783,35.35759441077627,0 33.90856087734726,35.35766696229985,0 33.908489095913,35.35726237077699,0 33.9087550550569,35.3572676161287,0 33.90892486904865,35.35712644707848,0 33.90875515783578,35.35707391532637,0 33.9088269220582,35.35696039758218,0 33.90834145911979,35.35677081959005,0 33.90756568456805,35.35663774369776,0 33.90730418347472,35.35657623772823,0 33.90702390532836,35.35654328587061,0 33.90701694787595,35.35660225760181,0 33.90692527525854,35.35660413444175,0 33.90664752169285,35.35657861772609,0 33.90628831611581,35.35659488520049,0 33.90627976494829,35.35655903103399,0 33.90629638291363,35.35646883938207,0 33.90636632256937,35.3563322805401,0 33.90638824796563,35.3562854142117,0 33.90637867395225,35.35622517663159,0 33.90624454021442,35.35608502768815,0 33.90621500932514,35.35600864175713,0 33.90622098204977,35.35593002288289,0 33.90625523830537,35.35587563258601,0 33.90637516926345,35.35579162898759,0 33.90640542108576,35.35575284288941,0 33.90641065661123,35.35568506721425,0 33.90636138148473,35.35551665231661,0 33.90641187471103,35.35532463936836,0 33.90647021834911,35.35518407083985,0 33.90652816892709,35.35519932935867,0 33.90656312001435,35.35523097453556,0 33.90659271766057,35.35531549626334,0 33.90662166606104,35.35532007512132,0 33.90685850972455,35.35518799270482,0 33.90708846331594,35.35502139975564,0 33.90716846100818,35.35500536930769,0 33.90730254810534,35.35493619369596,0 33.90781335080878,35.35508034395139,0 33.90805532579594,35.35517924785233,0 33.90798694290883,35.35540657236105,0 33.90892226304449,35.35566311251648,0 33.90897419584131,35.35554766623345,0 33.90942224285465,35.35560406683194,0 33.90958090659993,35.35561807114629,0 33.90993988219844,35.35569257922769,0 33.91024648324178,35.35520452176537,0 33.91004293019753,35.35515147962524,0 33.91014749181906,35.3548006930728,0 33.91041160165468,35.3541600973462,0 33.91045780750739,35.35405145359116,0 33.91045188233127,35.35392887398598,0 33.91041752240766,35.3538653875417,0 33.91052200939565,35.35350441065835,0 33.91067184093112,35.35323869777063,0 33.91071474050273,35.35302505948725,0 33.91088931866962,35.35306881072356,0 33.91091619664515,35.3530219179656,0 33.9111613224681,35.35311202283715,0 33.91144135524123,35.35281375528939,0 33.91114073883077,35.35270159357453,0 33.91102824139925,35.35267646778209,0 33.91093265776298,35.35280639136941,0 33.91066270209586,35.35271031607719,0 33.91068137235989,35.35266956383285,0 33.9109794872031,35.35267199239138,0 33.91111478881244,35.35265702247677,0 33.91109220085737,35.35261988549726,0 33.91053780440507,35.35247590615609,0 33.91053765960073,35.35245761460131,0 33.91089768943079,35.35245699816717,0 33.91151587948907,35.35273611538223,0 33.91167437200725,35.35283618429039,0 33.91183161316417,35.35288273830928,0 33.91187309096231,35.35290757538609,0 33.91198056988763,35.35313595107119,0 33.91202553554885,35.35318447686087,0 33.91227380811247,35.35336464437597,0 33.9126556446931,35.35352373997103,0 33.91269931642772,35.3535133377339,0 33.91274524498532,35.35326448950001,0 33.91280710014003,35.35325669537193,0 33.91282067691256,35.3531983664432,0 33.91281345717311,35.35311983067208,0 33.91275757961645,35.35304765988446,0 33.91275722297397,35.35300227573869,0 33.91289566973589,35.35276035939721,0 33.91324342623487,35.35289256410241,0 33.91321170164829,35.35316368811021,0 33.91337296286039,35.35320072586344,0 33.91336824336565,35.35323055523185,0 33.91360626026535,35.35326648980275,0 33.91362196017951,35.35316276962186,0 33.91388111340774,35.35315794674412,0 33.91414610403431,35.35316189603824,0 33.91430824211035,35.35310207002103,0 33.91446245172273,35.35308428175217,0 33.91442856191181,35.35286569441021,0 33.91411278155194,35.35291079037663,0 33.91379523004046,35.35294167220492,0 33.91375540432326,35.35280980753274,0 33.91379746873127,35.35280551099469,0 33.91382006751387,35.35284535048612,0 33.91393304846058,35.35283185672759,0 33.91426266908678,35.35244326598103,0 33.91433536731262,35.35234532562986,0 33.91428899960481,35.35232661402312,0 33.91362782908007,35.35232889184961,0 33.91372467037587,35.35225655570913,0 33.91396496129058,35.35226675274754,0 33.9143002514619,35.35218159296882,0 33.91438150665575,35.35212221466406,0 33.91451793299333,35.35216723896853,0 33.91454592277315,35.35218209392713,0 33.91465661248775,35.35224083918735,0 33.91480360090961,35.35232011066053,0 33.91497142200858,35.35242030291067,0 33.91495927560093,35.35245362266041,0 33.91497189088188,35.35248069796602,0 33.91534385684691,35.35224825765331,0 33.91528302161545,35.35218751578139,0 33.91532796324292,35.35211804917201,0 33.91530053005118,35.35209919815765,0 33.91527020375084,35.3520274290047,0 33.91514915218724,35.35198601706455,0 33.91504712693776,35.35194585802569,0 33.91496035654076,35.3518870492171,0 33.91478860326569,35.35177064369758,0 33.9146985902407,35.35181821343716,0 33.91454248266271,35.35173964446659,0 33.91442489957193,35.35168046452421,0 33.91451225261744,35.3514239697916,0 33.91417284385495,35.35120583241351,0 33.91440440452153,35.35118717432404,0 33.91453873536309,35.35125754386112,0 33.91458090609366,35.3512796356073,0 33.91465309636452,35.35132801840751,0 33.91478536188873,35.35145939499135,0 33.91482640051666,35.35148254167124,0 33.91492250562857,35.35147524344053,0 33.91485060894299,35.35130492746742,0 33.91483739785834,35.35125114371643,0 33.91481554635215,35.35120079456332,0 33.91488954189072,35.351109955605,0 33.91493838650122,35.35112865905475,0 33.91498325750075,35.35132656040811,0 33.91526941114013,35.35139951569344,0 33.91534478830692,35.35116760310072,0 33.91513792443061,35.35099463013319,0 33.91526573816152,35.3509786946796,0 33.91545592487635,35.35102355777984,0 33.91548741966101,35.35098714494776,0 33.91552038281002,35.35092701491072,0 33.9155323343481,35.35092491709965,0 33.91562647896521,35.35103855027384,0 33.91565539673574,35.35104245751666,0 33.91585986227855,35.3509603972438,0 33.91576965296139,35.35076833340647,0 33.91577967830489,35.35073068159059,0 33.91570862640219,35.35045450484713,0 33.9156495541794,35.35044703324008,0 33.91559016032041,35.35045141843042,0 33.91515643603255,35.35029472222629,0 33.91516077154649,35.35026827750585,0 33.9152040597131,35.35026228662085,0 33.9154042290674,35.35020989022012,0 33.91544054059528,35.35020901760762,0 33.91571324546354,35.35025124530024,0 33.91587973167826,35.35016702200534,0 33.915911457951,35.35016041633942,0 33.9162436146644,35.35031562289549,0 33.91627393669459,35.35028627892527,0 33.91635670709234,35.35034059332649,0 33.91638965581148,35.3503104317289,0 33.91646276378921,35.35021214898955,0 33.91586161718758,35.34974539552583,0 33.91569042342113,35.3497547812547,0 33.9155748617565,35.34975404513072,0 33.91548985341192,35.34970165526342,0 33.91540007217492,35.34967300305668,0 33.91502600831666,35.34954847566951,0 33.91495019675179,35.34951229304603,0 33.91480221180164,35.34943025310062,0 33.9145514154846,35.34948859104383,0 33.91452495266483,35.34948477582026,0 33.91438510035162,35.34946461645281,0 33.91422165786847,35.34959021581901,0 33.91416083180423,35.34961712204486,0 33.91408971526989,35.34960216502272,0 33.91403591607237,35.34957178129632,0 33.91386294907949,35.34927518540625,0 33.91399874725408,35.34911803603692,0 33.91396923714871,35.34900777050677,0 33.9140559567812,35.34878646451493,0 33.91386713081479,35.34869339522883,0 33.91380944032745,35.3486435980556,0 33.91381135084994,35.34840943856918,0 33.91365567155755,35.34841434703129,0 33.91363810421203,35.34839807908226,0 33.91357763176132,35.34799245010176,0 33.91349567753228,35.34786710214331,0 33.91342367738524,35.34774067841412,0 33.91338185643149,35.34764988541112,0 33.91333032264441,35.34743233580647,0 33.91331854899546,35.34720127932831,0 33.91331282975965,35.3469476878034,0 33.91320882570572,35.34687152370392,0 33.91259890146333,35.34662819119501,0 33.91256705574111,35.34653937401128,0 33.91253568582303,35.34619383405491,0 33.9125459536419,35.34607308986802,0 33.91248946072466,35.34586063016839,0 33.91271217758563,35.345819604266,0 33.91282500637796,35.34574845413579,0 33.91292897666784,35.34565996145944,0 33.91324272745481,35.34547118731006,0 33.91328103171889,35.34543007988416,0 33.913317815901,35.34535420308762,0 33.91329970999735,35.3452693986717,0 33.91327321819058,35.34522759647358,0 33.91326738776128,35.34511920230803,0 33.91333524100673,35.34503293807331,0 33.91336753078275,35.3450194777522,0 33.91374667456038,35.3450687031746,0 33.91401822283721,35.34506221365204,0 33.91411148165468,35.34503923993061,0 33.91423650980637,35.34493632410177,0 33.91431290407816,35.34482751894873,0 33.91433561905948,35.34470466325341,0 33.9143085868694,35.34464119539155,0 33.91430354272076,35.3446293539072,0 33.91412881620207,35.34450046811707,0 33.91395586599798,35.34438723119426,0 33.91383453913596,35.34430134513269,0 33.91377385436061,35.34417351190429,0 33.91376162642712,35.34409070644064,0 33.91379745357045,35.34401716938871,0 33.91390429793314,35.34392697675398,0 33.91395218295852,35.34391451061452,0 33.91404812081277,35.34391131549219,0 33.91423448271844,35.34401230532148,0 33.91434602966868,35.34403460793818,0 33.91448254939363,35.34402939744169,0 33.91450401891596,35.34402857883303,0 33.91469868823755,35.34395761443714,0 33.91517349031518,35.34375254426187,0 33.91525182110449,35.34373927203423,0 33.91537228587913,35.34372985838399,0 33.91547978362014,35.34375169127907,0 33.91574821026694,35.34387372535788,0 33.91587306162371,35.34389885872153,0 33.91620854645804,35.3439405611118,0 33.91659148137817,35.34392847232287,0 33.91667551937935,35.34390771624812,0 33.91698323002813,35.34377670446804,0 33.91725020458133,35.34360861984277,0 33.91742938383376,35.34350943684913,0 33.91784898071882,35.34322536100311,0 33.91807310519501,35.34308960106073,0 33.91818929374242,35.34314862145493,0 33.91867028929524,35.3432799159668,0 33.91867855827564,35.34352574178457,0 33.91881362732652,35.34355748418153,0 33.91880927481569,35.34364126780577,0 33.91862842624273,35.34364893553127,0 33.91860515308831,35.34385171249006,0 33.91868365307894,35.34402696874827,0 33.91863937046018,35.3442839270791,0 33.9190128441344,35.34429556984878,0 33.91932090834998,35.34435618923821,0 33.91944467421173,35.34440827355218,0 33.91953576367082,35.34449160694824,0 33.91958748067727,35.34464337376329,0 33.91959165798918,35.34465563442892,0 33.9197837468175,35.34472888655673,0 33.920054606594,35.34492989742918,0 33.9201886911277,35.34506819380072,0 33.92028205289179,35.34514058690326,0 33.92050446505674,35.34521976132044,0 33.92077236071616,35.34522382558244,0 33.92096527063436,35.345306693135,0 33.92118742136482,35.34528619114271,0 33.92123532249362,35.34526267520464,0 33.9212854536031,35.34526242560614,0 33.9213793348199,35.34528658331037,0 33.92139246207157,35.34528348268871,0 33.92140272294347,35.34522810650062,0 33.9212989037484,35.3451938791065,0 33.92099036624106,35.3452014879593,0 33.92091261704705,35.34486068605922,0 33.9209392609581,35.34485245664323,0 33.92104937973423,35.34485393040646,0 33.92122560516389,35.3449029694938,0 33.92131201348185,35.34491872876081,0 33.92136094384573,35.34481526888797,0 33.92138883557929,35.34480872167241,0 33.92145863771568,35.3448019631137,0 33.92130174428528,35.34470324940405,0 33.92125396259179,35.34463503170524,0 33.92116051946903,35.34450161669543,0 33.92124126911769,35.3439903077513,0 33.9212674140311,35.34397129215149,0 33.92164348504313,35.3444732221606,0 33.92155405372053,35.34459913501342,0 33.92161499756985,35.34463322132547,0 33.92177486028013,35.3447226336129,0 33.92183316559471,35.34463212728799,0 33.92185484954298,35.34459846910183,0 33.92193508359295,35.34463161585203,0 33.92201895068825,35.3446662626024,0 33.92203063272308,35.34468846537431,0 33.92202361869016,35.34473774543847,0 33.92228698919738,35.34493459644288,0 33.92232936393257,35.34488715927886,0 33.92240049829067,35.34488950163288,0 33.92262851743164,35.34492394823519,0 33.92270440597741,35.34485138000253,0 33.92298426293187,35.34483564031133,0 33.92308708740516,35.34483984759434,0 33.92326274245082,35.34489985463226,0 33.92325011310967,35.34496468696835,0 33.92327342118289,35.34499897968508,0 33.92337824268398,35.34504399664765,0 33.92357040220969,35.3451064603789,0 33.92359394435581,35.34511848730482,0 33.92358383567282,35.34513945394558,0 33.92349339894742,35.34519489940305,0 33.92350226913627,35.34522353202047,0 33.92406506977839,35.34538351022054,0 33.92430922108899,35.34535698551572,0 33.92433424159159,35.34529916356313,0 33.92412393828043,35.34529009349954,0 33.92411316382432,35.34528070011565,0 33.9241611008981,35.34515967516065,0 33.9243067587436,35.3451140740727,0 33.92419544125627,35.34493852451796,0 33.92393937263645,35.34496173753346,0 33.92387928347927,35.34495731700207,0 33.92366777108134,35.34489461768229,0 33.9236667148352,35.34486628679971,0 33.92398653811176,35.34484713876633,0 33.92397885158071,35.34481310533418,0 33.92366756216098,35.34481972984479,0 33.92338275832221,35.34474188787389,0 33.9234113583151,35.34466922076743,0 33.92361513760966,35.34469636237986,0 33.92370497824965,35.34462272157839,0 33.9239169723974,35.34444896115839,0 33.92378202438975,35.34439230248783,0 33.92381221926698,35.34436381658191,0 33.92390922110146,35.34435793032775,0 33.92394220750744,35.34431897654886,0 33.92398802269158,35.34424049567914,0 33.92411101768879,35.34424425767281,0 33.92434664258495,35.34433683324997,0 33.92428790366333,35.3444433797815,0 33.92418406809055,35.34454266201149,0 33.92465333671974,35.3447513524571,0 33.92466440794484,35.34477559125587,0 33.92524444335358,35.34478735591339,0 33.92521014729974,35.34472057696005,0 33.92488367098734,35.34467471698988,0 33.92488275659952,35.34459449413384,0 33.92524218780249,35.34458954493101,0 33.92527187005314,35.34460470444744,0 33.92521326881307,35.34464142104557,0 33.92520572260776,35.34468544064154,0 33.92530086480394,35.34473534136279,0 33.92530406730427,35.34477954096804,0 33.92553420543582,35.34478953330613,0 33.92554163865824,35.34473562327996,0 33.92598857890378,35.34478156634868,0 33.92599659146837,35.34466479709569,0 33.92588209133897,35.34461174541329,0 33.92578164310934,35.34456520271246,0 33.92590220065705,35.34451534025366,0 33.92589749379828,35.34449512415873,0 33.92582682902456,35.34446276031984,0 33.92587631925878,35.3443353359178,0 33.9256608043846,35.34425648271753,0 33.92580453244818,35.34403684634615,0 33.92561653125119,35.34394875812384,0 33.9259442966117,35.34392753052965,0 33.92607544646584,35.34395957962678,0 33.92623985373779,35.34416483252173,0 33.92606332949223,35.34455028463996,0 33.92642469366553,35.34471457114324,0 33.92645126782927,35.34469238654606,0 33.92653743146041,35.34448510531359,0 33.92661223699303,35.34422295835043,0 33.92701935779201,35.34432751760557,0 33.92705615482891,35.34433385570851,0 33.9270369252521,35.34429443718788,0 33.92707931764026,35.34424795185654,0 33.92724092032611,35.34430386245581,0 33.92730095060134,35.34423433064669,0 33.92708085771528,35.34412075683453,0 33.9271042376154,35.34406666671756,0 33.92639622488844,35.34370532747926,0 33.92647616247142,35.3436246516837,0 33.92718696360362,35.34401902291629,0 33.92751506409843,35.3443216272799,0 33.92767546285383,35.34444943449042,0 33.92768014711412,35.34445195112615,0 33.92791596127058,35.34457866361096,0 33.92807762542261,35.3444575770145,0 33.92782712232705,35.34430595917851,0 33.92767799849859,35.34422292338797,0 33.92758602238115,35.3441593422793,0 33.92706185712822,35.34375656936804,0 33.92664155163774,35.34352735267417,0 33.92646835682848,35.34348979210333,0 33.92646425170847,35.34336244023883,0 33.92663606324304,35.34328592101964,0 33.92677422832048,35.34327307314379,0 33.92690286984452,35.34329804255113,0 33.92720509806512,35.34339833822576,0 33.92730370628636,35.34346663142846,0 33.92739262292407,35.34355453810073,0 33.9273575939113,35.34359737972689,0 33.92767441273618,35.34384085508088,0 33.9276756212835,35.34384187693541,0 33.92771155195115,35.34389551646391,0 33.92773063006307,35.34413286701571,0 33.92779432968046,35.34425345652528,0 33.92795122069556,35.34436655252816,0 33.92811803901974,35.34440923353869,0 33.92825206342391,35.34439941270337,0 33.9284865142135,35.3442569339553,0 33.92878816064119,35.34436012427563,0 33.92906809683791,35.34444150070388,0 33.92928812996406,35.34414542980758,0 33.92958223096239,35.34435841665471,0 33.92979028223563,35.34472170020368,0 33.92990704619054,35.34482605557975,0 33.92995912622114,35.34484998829048,0 33.92997372101304,35.3448214910936,0 33.92998338372345,35.34464725139156,0 33.92997228309762,35.34459102035881,0 33.92996796422526,35.34456913577441,0 33.92982129544661,35.34430611017851,0 33.92999889537312,35.34431088824579,0 33.9304590862608,35.34458854572871,0 33.93047313119138,35.34459701743753,0 33.93060933296503,35.34463777558182,0 33.93070441001884,35.34462023809697,0 33.93071370785088,35.34458724877467,0 33.93076093123626,35.34441966819801,0 33.9308306248769,35.34434582396255,0 33.9308237606823,35.34425694550376,0 33.93086695584519,35.34421206697264,0 33.93100178359924,35.34420041530328,0 33.9310367393915,35.34417425334486,0 33.93105865597151,35.34394233274332,0 33.93140629265647,35.34373635696858,0 33.93166162699906,35.34352842733347,0 33.93203634623255,35.34313935881135,0 33.93199945409222,35.34309867299871,0 33.9318444341304,35.34278035138537,0 33.93244460584327,35.34224818028823,0 33.93287788800311,35.34260092835492,0 33.93318363490704,35.34287498852165,0 33.93324070686287,35.34287388000157,0 33.93345324414459,35.34271078775652,0 33.93360862375874,35.3426920026409,0 33.93375393088211,35.34273044621321,0 33.93390520964095,35.34282159692235,0 33.93443739399854,35.34266654513515,0 33.93480311261931,35.34246718890727,0 33.93504438474432,35.34259485026076,0 33.93568782318217,35.34293530031668,0 33.9358543371054,35.34295159628478,0 33.93691194752189,35.34347094468679,0 33.93737025099277,35.34366522034536,0 33.93743028732381,35.34335199725857,0 33.93737791636521,35.34293539370525,0 33.93732431815044,35.34256458211206,0 33.93731184553451,35.3423248367276,0 33.93732004152288,35.3421692781562,0 33.9375006630535,35.341949697101,0 33.93764388818337,35.34180790821889,0 33.93835400352833,35.34150785341253,0 33.93850475965773,35.34056612176754,0 33.93871842774315,35.33976348232246,0 33.93889158609143,35.33934322215956,0 33.93945978555868,35.33927404100052,0 33.93977896567569,35.33931731900365,0 33.93993265337518,35.33936190475394,0 33.94018608374773,35.33940982555033,0 33.94043781499992,35.33937269716251,0 33.94069445167897,35.33929596589326,0 33.94086306598199,35.33929446160597,0 33.94119367003665,35.33931845658311,0 33.94119995183452,35.33939753873833,0 33.9416455160327,35.3395584246565,0 33.94172673118825,35.33967966530954,0 33.94146132564475,35.34052651238127,0 33.94162407848007,35.34049155629105,0 33.94196491011407,35.34052380229812,0 33.94215494946187,35.34044325415987,0 33.94230012451715,35.34043111179773,0 33.94278318750838,35.3405193913778,0 33.94302498334735,35.3405797623501,0 33.94336295021863,35.34053411703158,0 33.94366597379915,35.3405519588074,0 33.9443140329717,35.34073350323255,0 33.94450367221852,35.34075682905488,0 33.94463473191152,35.34087424050337,0 33.94482285603731,35.34090354360664,0 33.94516308819541,35.3410943149828,0 33.94525985834479,35.34111114333827,0 33.94533981760934,35.34106655624659,0 33.9454623883756,35.34099525820637,0 33.94571340472515,35.34089657936914,0 33.94591200276627,35.34090381703855,0 33.94614263510249,35.34089761619008,0 33.94629990444398,35.34104145874259,0 33.9463718940674,35.34118671870714,0 33.94632827671406,35.34134120489832,0 33.9463705108066,35.341501732994,0 33.94685675103244,35.34186357997908,0 33.94705157743759,35.34200712820186,0 33.94730107788973,35.34223817024332,0 33.94782901002794,35.34243430574984,0 33.94744751811069,35.34302754630201,0 33.94734001100518,35.3433208264299,0 33.94723905816606,35.34334928050544,0 33.9471027774925,35.34324364829039,0 33.94654265734484,35.34318875769784,0 33.94640785257329,35.34320957325509,0 33.94634691045208,35.34330159548247,0 33.94632633532372,35.34339594346134,0 33.94624786659877,35.34348897534831,0 33.94616578267378,35.34360802550196,0 33.94609663681032,35.34379363892872,0 33.94612606056971,35.34389586255418,0 33.94612922544903,35.34411361672522,0 33.94632682128843,35.34411913453295,0 33.94661246781786,35.34421174265436,0 33.94637365229255,35.34450653871395,0 33.94632313287818,35.34456521551864,0 33.94650346899744,35.34464668039998,0 33.94655544178718,35.34469826694903,0 33.94639070170193,35.34504732016674,0 33.94580024961662,35.34487410834989,0 33.94550500202765,35.34478552579102,0 33.9454515629192,35.34479129683901,0 33.94541140439781,35.34482392834618,0 33.94540797500151,35.3448739288266,0 33.94538358643899,35.34490782863794,0 33.9453953797991,35.34497869224509,0 33.94539192132547,35.34502667035412,0 33.94543020668733,35.34509469844914,0 33.94547644569174,35.345232308718,0 33.94544004665137,35.34531825096771,0 33.94538206159798,35.3454108814041,0 33.94530013248346,35.34539193616451,0 33.94512743241057,35.345783332482,0 33.94503392835954,35.34614733608382,0 33.94482433702201,35.34639135007673,0 33.94466625293929,35.34653575745988,0 33.9445127926852,35.34665007707713,0 33.94530018273511,35.34696238041663,0 33.94531875049368,35.34698459191997,0 33.94531332989422,35.34701165635047,0 33.94519617519715,35.34723126267887,0 33.94491246361,35.34774614795348,0 33.9447217898261,35.34811931129323,0 33.94444876282886,35.3486447458908,0 33.94389081368815,35.34938811554596,0 33.94430045326758,35.34972567539671,0 33.94433160234733,35.3497573176551,0 33.9443228146008,35.34978171605353,0 33.9441950070423,35.34990006118686,0 33.94414697700657,35.3499414570551,0 33.94446623932776,35.35012537855165,0 33.9444967681553,35.35015607650487,0 33.94447371106519,35.35024714911052,0 33.94515230350024,35.35053033012181,0 33.94509204382031,35.35074024903943,0 33.94511980542997,35.35078532583021,0 33.94525916048698,35.35100766790347,0 33.9456684026603,35.35135618175224,0 33.94562206014775,35.35151857008196,0 33.94573882873993,35.35160459735873,0 33.94593685583224,35.35162675903096,0 33.9460670642166,35.35167691223066,0 33.94615964274471,35.35170405226967,0 33.94616492740325,35.35174352901412,0 33.94629106679626,35.35180577097655,0 33.9462327439856,35.35218165419898,0 33.94618554212704,35.35268390844328,0 33.94618459102159,35.35301587106617,0 33.94611043794522,35.35350828814055,0 33.94598417484657,35.35378556072673,0 33.94598304723417,35.35378537937134,0 33.94597055023182,35.35378538705509,0 33.94582985705084,35.3537709077408,0 33.94574260254002,35.35397365711128,0 33.94552088756448,35.35393002864328,0 33.94548231655783,35.35390290729862,0 33.94536277920795,35.35390384240043,0 33.94525676432117,35.35383415572436,0 33.94520243431521,35.35368571174292,0 33.94469136888689,35.35367825165819,0 33.94418904223797,35.3535821235609,0 33.94339169950725,35.35329581475557,0 33.94306623713481,35.35364011297354,0 33.94270403899184,35.3540910327193,0 33.94348935608682,35.35465065867734,0 33.94365274160725,35.35469601629806,0 33.94361681422829,35.35493773095603,0 33.94404756009233,35.3553483489521,0 33.94415550822095,35.35591796101826,0 33.94328906590404,35.35552461737981,0 33.94325174613481,35.35553092056129,0 33.9429454729632,35.35575026898132,0 33.94279970784353,35.35594844780275,0 33.94224368743674,35.35563356123367,0 33.94214089972081,35.35552038793813,0 33.94184066432793,35.35529341869567,0 33.9415495649088,35.35513908005596,0 33.94156229446246,35.3545555316856,0 33.94148335305091,35.35447499771578,0 33.94143896274132,35.35413019813232,0 33.94133282116712,35.35408355791004,0 33.94108857244214,35.3540657839417,0 33.94012850471377,35.3540022506509,0 33.94004408089728,35.35401941348823,0 33.93999645622291,35.35408250870416,0 33.93983946674263,35.35409693508957,0 33.93956351109969,35.35448753622437,0 33.93951836904461,35.35455500956406,0 33.9392658888271,35.35478266808754,0 33.93899715580225,35.3547835485411,0 33.93884457543621,35.35483095257742,0 33.93878923488918,35.35492381795872,0 33.93866589129198,35.35506012946168,0 33.93826969620571,35.35529759812555,0 33.9380941610651,35.35545082037605,0 33.93820713634963,35.35546314794419,0 33.93796675382573,35.35560485591333,0 33.93776091916519,35.35561882046279,0 33.937742400745,35.35569784627069,0 33.93785831485884,35.35576963044046,0 33.93783378419593,35.35582613980341,0 33.93762222594862,35.35588182174898,0 33.93757157474393,35.35606187956647,0 33.93758748813695,35.35622775312613,0 33.93729757061524,35.35632219860273,0 33.93722142370657,35.35639855174077,0 33.9369402736248,35.35637753138677,0 33.93668284726701,35.35641914233038,0 33.93632867013464,35.35617516000373,0 33.93617346234327,35.35617583151021,0 33.93606858499253,35.35626874047337,0 33.93608972330353,35.35635441086168,0 33.93615737313535,35.35647919402123,0 33.93639313336278,35.35663839730316,0 33.93637666046877,35.35677475357378,0 33.93624863242242,35.35685497640779,0 33.93625319570154,35.35690115969871,0 33.9363710017835,35.35698277860427,0 33.93634823516769,35.35710510297761,0 33.93622575003175,35.35709691238145,0 33.93632160003826,35.3571528989112,0 33.93609097702589,35.3573525527832,0 33.93601733312055,35.35741468705292,0 33.93560267871063,35.3574509110964,0 33.93560317373512,35.35749382341496,0 33.93660534678173,35.3576838098957,0 33.9366818976489,35.35767448176413,0 33.93747513441898,35.35789984960974,0 33.93733553314411,35.35815056244799,0 33.93726403215227,35.35824025176681,0 33.93690920663302,35.35822319539106,0 33.93669609971601,35.35826446279546,0 33.93633834950859,35.35834316536292,0 33.93618026580375,35.35863635305783,0 33.93623313474042,35.35865430187092,0 33.93648824858511,35.35839711596335,0 33.93674208452405,35.35842132523787,0 33.93701365714947,35.35841766600181,0 33.93713634502038,35.3584718835564,0 33.93680919461902,35.35849704440703,0 33.93669391169676,35.35884903300778,0 33.93651328705707,35.35892258830302,0 33.93650058317757,35.35896106196425,0 33.93644484177434,35.35895640858015,0 33.93641583314888,35.35893038019231,0 33.93636410426434,35.35893142996891,0 33.93633502275458,35.35904298722141,0 33.93632869699454,35.35906725959543,0 33.93635133557511,35.35911886855777,0 33.93655328374982,35.35919754857483,0 33.93660926514367,35.35912017050686,0 33.93669064303185,35.35912255114049,0 33.93680013785848,35.35913023353712,0 33.93696350987646,35.35916280849772,0 33.93712242939506,35.35923834020511,0 33.93719471592623,35.35939144181526,0 33.93720527188412,35.35943247431604,0 33.93702934341952,35.35955268488132,0 33.93672382788903,35.35951289707721,0 33.93656294189562,35.35964543509299,0 33.9364227918616,35.35983711190486,0 33.93583914158001,35.35966319679441,0 33.93575451977746,35.35978374936854,0 33.9357510992504,35.35983659675178,0 33.93583176785852,35.35984257436644,0 33.93577379992253,35.36005760751883,0 33.9357222527474,35.36013063527638,0 33.93563812626075,35.36017420367041,0 33.93553742392377,35.3601782839813,0 33.93546273720156,35.3601179346452,0 33.93537698204888,35.36008889766157,0 33.9352462690734,35.3601081910897,0 33.93499418710012,35.36014539739318,0 33.93496495100075,35.36016596400094,0 33.93495462310674,35.36026859682745,0 33.93491634044043,35.36035664060423,0 33.93486934102914,35.36040181133138,0 33.93403583176233,35.360319355122,0 33.93385705885169,35.36071243684138,0 33.93376800046248,35.3610457417354,0 33.9332473674996,35.36082720239118,0 33.93389846438911,35.35940829688442,0 33.93347499082352,35.35920714597631,0 33.93341432871194,35.35917665549066,0 33.93309812344829,35.35906606460257,0 33.93295818539848,35.35929927654431,0 33.93244677342748,35.35917504115976,0 33.93212719922405,35.35917156039677,0 33.93176387698128,35.35899586366294,0 33.93173905497736,35.35893993252679,0 33.93160999614957,35.35893102362171,0 33.93148896754377,35.35906460239368,0 33.93135119928516,35.35921755355194,0 33.93174808222111,35.3594062847545,0 33.93128206110126,35.36037618072497,0 33.93160859709917,35.36053903448047,0 33.93152822093833,35.3613217772175,0 33.93132980764727,35.36127281373998,0 33.93103784050614,35.36237881785939,0 33.93100133528805,35.36276157222998,0 33.9308976412428,35.36306452266079,0 33.9308185452372,35.36315563040735,0 33.93063327014048,35.36330445798532,0 33.93029476047089,35.3636338503856,0 33.93026156046454,35.36374109524581,0 33.93036053140699,35.3638068463739,0 33.93041189914808,35.36390388331254,0 33.93040066596294,35.36402165160045,0 33.93031321967482,35.36413160260259,0 33.93017667478298,35.36419069514389,0 33.93013829862487,35.36500239857025,0 33.92948303222302,35.3649858950315,0 33.92937756322179,35.36573518397777,0 33.92974388047759,35.3657996380445,0 33.92957921374998,35.36633149675888,0 33.92957905359205,35.36634161726704,0 33.92956601416218,35.3671638233015,0 33.92950056377612,35.36748055703202,0 33.92954622229917,35.36749086408206,0 33.92954544411496,35.36770669263304,0 33.92945455445472,35.36772337873003,0 33.92944309797599,35.36774475004424,0 33.92963345056143,35.36777405728877,0 33.92958078118486,35.36795155292109,0 33.92960726017063,35.36799131615722,0 33.92971812423822,35.3680144441017,0 33.92968764550236,35.36819319855098,0 33.92932325889672,35.3681880075857,0 33.92909630689844,35.36825370063153,0 33.92894309732127,35.36822556897744,0 33.92892956849624,35.36818037735654,0 33.92873609249914,35.36806617385732,0 33.92858800268507,35.36794919938914,0 33.92843169001357,35.36788045248829,0 33.92832666024632,35.36779866119277,0 33.92825334089121,35.36777428453809,0 33.92829050733363,35.36766375147401,0 33.92836085301789,35.36765984546527,0 33.92841086306264,35.36764109295762,0 33.9286303663911,35.36771113262036,0 33.92872372529374,35.36734448440131,0 33.92867037694496,35.36725074287683,0 33.92852267436095,35.3671975130668,0 33.92870003915292,35.36634585684879,0 33.92882836768412,35.3657296388301,0 33.92897425889164,35.36532266103148,0 33.92894517143114,35.36496147307661,0 33.9284216901572,35.36501382386001,0 33.9279005164584,35.36512749676623,0 33.92788458482247,35.36512983187519,0 33.9276989702927,35.36515704956961,0 33.92763569866034,35.36547843642317,0 33.92766812046784,35.36548727478282,0 33.92760701782412,35.36575571320489,0 33.9275269062276,35.36617364135297,0 33.92700335427812,35.36606476494436,0 33.92686355451119,35.3663546941945,0 33.92663327481111,35.36683227276942,0 33.92649565268814,35.36680187146856,0 33.92631846652485,35.36714118148947,0 33.9261956523839,35.36744093407236,0 33.92293238556594,35.37022837878246,0 33.92261000829789,35.3706118723975,0 33.92241411420534,35.37091728514492,0 33.92230014777086,35.37112227927194,0 33.92221298184735,35.37144122177239,0 33.92274041130106,35.3718260539766,0 33.92265816291793,35.37204490665557,0 33.92265259051278,35.37212488308255,0 33.92280192140993,35.37210695627346,0 33.92279574514011,35.37221169154452,0 33.92294408863415,35.37259385786748,0 33.92299959420768,35.37260477356012,0 33.92306732365041,35.37265657046882,0 33.92297658534605,35.3727727848401,0 33.92268254599691,35.37272740137838,0 33.92265263020899,35.37277525898904,0 33.92264782316579,35.37296608187359,0 33.9222793772941,35.37282573683463,0 33.92211167316957,35.37341897572594,0 33.92233752618896,35.3735556029918,0 33.92233832616595,35.37362590630557,0 33.92237745126126,35.37365735981542,0 33.92267884017738,35.37386145053947,0 33.92275728968428,35.37364302439693,0 33.92279718566866,35.37355436108807,0 33.92303849692754,35.37364156963631,0 33.92314344410411,35.37367473372106,0 33.92385108642652,35.37394094647954,0 33.92367583768641,35.37435733767037,0 33.92340998559485,35.37510358704172,0 33.92367688274153,35.37516084209822,0 33.92363163628001,35.37559048574007,0 33.92332321770476,35.37577834366579,0 33.92318046357509,35.37581725712184,0 33.92290438327174,35.3757361389354,0 33.92292509289761,35.37560504047606,0 33.92308335717355,35.37560420462336,0 33.92309422617915,35.37556598888474,0 33.92284904879541,35.37554336443065,0 33.92276497044239,35.37586729585222,0 33.92344214150481,35.37592806018905,0 33.92295658485102,35.37688283250504,0 33.92345356732787,35.37710510831619,0 33.92339940880802,35.37711436972173,0 33.92304099545623,35.37717565897218,0 33.92296419690565,35.3772165045939,0 33.92286768276154,35.37743683896698,0 33.92278287818333,35.37753012117812,0 33.92250438501677,35.37773378498018,0 33.92245829572025,35.37780180083295,0 33.92244858635777,35.37791574755292,0 33.92239436432713,35.37801569750244,0 33.92229737436296,35.37804754381429,0 33.92193625031189,35.37802557996832,0 33.92180747354644,35.37808208644352,0 33.92167022263058,35.37811585911223,0 33.92153653377449,35.37816441966581,0 33.92151102251671,35.37811099755469,0 33.92110217088797,35.37786313902134,0 33.92083338011579,35.37780558092531,0 33.92077671203963,35.37787503147459,0 33.9204263490103,35.37771770362473,0 33.92033059440033,35.37771843304592,0 33.91997415871838,35.37746605677717,0 33.91967457138261,35.37741697055886,0 33.91956016739369,35.37744492277608,0 33.91913213948809,35.37807261245009,0 33.91932269541083,35.37811772013843,0 33.91933166923015,35.37822076255858,0 33.91936200276217,35.37840855162496,0 33.91979214696381,35.37935220914985,0 33.91917740846231,35.37954407995494,0 33.91936857602386,35.37991179604431,0 33.91966572956673,35.38012771201774,0 33.91932173909866,35.38063116632169,0 33.91913430271896,35.38065455337597,0 33.91893892128924,35.38065290205846,0 33.91886731910851,35.38075697462141,0 33.91880704973161,35.38090593385506,0 33.91870967810769,35.38119606160459,0 33.91833580167901,35.38117826440707,0 33.91778642890425,35.38103812746004,0 33.91773817725516,35.38104370730084,0 33.91752533309663,35.38132245848546,0 33.91749937244856,35.38139794846884,0 33.91738993551107,35.38152971880989,0 33.91725989983601,35.38153207705644,0 33.91719031457911,35.38155984631779,0 33.91707833007314,35.38166039011723,0 33.91699824513906,35.38168290578168,0 33.9168642176738,35.38168528669103,0 33.91672612368053,35.38186969361786,0 33.91660115931298,35.38199769812449,0 33.91653822349581,35.3820217048768,0 33.91636979366325,35.38220180331664,0 33.91634668769908,35.38236040762577,0 33.91629504773517,35.38236707346333,0 33.91627272181783,35.38225587231135,0 33.9161222369016,35.38232916879242,0 33.91621294307966,35.38238965710805,0 33.91612745088926,35.38245148066731,0 33.91618002972536,35.38252794310536,0 33.91616396316054,35.38263159291716,0 33.9160217629702,35.38291257371764,0 33.91590375587752,35.38288788947207,0 33.91587181429609,35.38296722716577,0 33.91578394995409,35.38305489975825,0 33.91568696369031,35.38319009839181,0 33.91567514109937,35.38334047079456,0 33.91565661267365,35.38341021573438,0 33.9157281340409,35.38353214942844,0 33.91571126603815,35.38363127063937,0 33.91565882920861,35.38360635775322,0 33.91563484705973,35.38353535226462,0 33.91557414855713,35.38346304408823,0 33.91560256674497,35.38329684831752,0 33.9155919445307,35.38327197993074,0 33.91549926920183,35.38333231169882,0 33.91534068890428,35.38348695974922,0 33.91527709278757,35.38350009717585,0 33.91523341380881,35.38355763115191,0 33.91512704892709,35.38368308667463,0 33.91505254882656,35.38372437768115,0 33.91489628398057,35.38376081676707,0 33.9148157735512,35.38379764648007,0 33.91471273876085,35.3838721682561,0 33.91455293241401,35.38398774818593,0 33.91445056612775,35.38403982420061,0 33.91427140544524,35.3840882504502,0 33.91415072047951,35.38420862631796,0 33.91403294123668,35.38429889630272,0 33.91396688211528,35.38433846793511,0 33.91365168547249,35.38447840350349,0 33.9137565213513,35.38465926791095,0 33.91369763368979,35.38480836917224,0 33.91369604147209,35.38487213426994,0 33.91381018360608,35.38494749756111,0 33.91392764409213,35.38491658295399,0 33.91403896634856,35.38486118130332,0 33.91395610162078,35.38500224303216,0 33.91358527619855,35.38517520045542,0 33.91126167599587,35.38824080977486,0 33.90595700061053,35.39529396026835,0 33.90515283035999,35.39085127132775,0 33.90403520242955,35.38468654338914,0 33.90369569906416,35.38422902116729,0 33.90343077589293,35.38390785822941,0 33.90325688438629,35.38362765483487,0 33.90322100972873,35.38356984921629,0 33.90271407392017,35.38350151153557,0 33.90243773818182,35.38336225946586,0 33.9022163274492,35.38329742442686,0 33.90203164936896,35.38324345251131,0 33.90174427498752,35.38313480311754,0 33.90154064366878,35.3833084910976,0 33.90139829711308,35.38317516705848,0 33.90123137299588,35.38326977161932,0 33.90054727543834,35.38284612806383,0 33.8984232527925,35.38363987408281,0 33.89789562271377,35.38383704081236,0 33.8978347238331,35.38455285964827,0 33.8974301266904,35.38445827744644,0 33.8969403378807,35.3843154082875,0 33.89641591286095,35.38406245731097,0 33.89622769929211,35.38403105953302,0 33.89597604517821,35.38403654045497,0 33.89512405729165,35.38409064107352,0 33.89491322733017,35.38404266652609,0 33.89470554020428,35.38395276169822,0 33.89417933780589,35.38364682193926,0</coordinates>
						</LinearRing>
					</outerBoundaryIs>
				</Polygon>
			</MultiGeometry>
		</Placemark>
	</Document>
</kml>