<?xml version='1.0' encoding='UTF-8'?>
<kml xmlns="http://www.opengis.net/kml/2.2">
	<Document>
		<name>KALO CHORIO OREINIS</name>
		<Style id="PolyStyle70">
			<LabelStyle>
				<color>00000000</color>
				<scale>0.000000</scale>
			</LabelStyle>
			<LineStyle>
				<color>ff0055ff</color>
				<width>2.000000</width>
			</LineStyle>
			<PolyStyle>
				<color>00828282</color>
				<outline>1</outline>
			</PolyStyle>
		</Style>
		<Placemark id="ID_70460">
			<name>KALO CHORIO OREINIS</name>
			<snippet />
			<description>&lt;html xmlns:fo="http://www.w3.org/1999/XSL/Format" xmlns:msxsl="urn:schemas-microsoft-com:xslt"&gt;

&lt;head&gt;

&lt;META http-equiv="Content-Type" content="text/html"&gt;

&lt;meta http-equiv="content-type" content="text/html; charset=UTF-8"&gt;

&lt;/head&gt;

&lt;body style="margin:0px 0px 0px 0px;overflow:auto;background:#FFFFFF;"&gt;

&lt;table style="font-family:Arial,Verdana,Times;font-size:12px;text-align:left;width:100%;border-collapse:collapse;padding:3px 3px 3px 3px"&gt;

&lt;tr style="text-align:center;font-weight:bold;background:#9CBCE2"&gt;

&lt;td&gt;1&lt;/td&gt;

&lt;/tr&gt;

&lt;tr&gt;

&lt;td&gt;

&lt;table style="font-family:Arial,Verdana,Times;font-size:12px;text-align:left;width:100%;border-spacing:0px; padding:3px 3px 3px 3px"&gt;

&lt;tr&gt;

&lt;td&gt;DIST_CODE&lt;/td&gt;

&lt;td&gt;1&lt;/td&gt;

&lt;/tr&gt;

&lt;tr bgcolor="#D4E4F3"&gt;

&lt;td&gt;VIL_CODE&lt;/td&gt;

&lt;td&gt;207&lt;/td&gt;

&lt;/tr&gt;

&lt;tr&gt;

&lt;td&gt;VIL_CCD&lt;/td&gt;

&lt;td&gt;1207&lt;/td&gt;

&lt;/tr&gt;

&lt;tr bgcolor="#D4E4F3"&gt;

&lt;td&gt;VIL_NM_E&lt;/td&gt;

&lt;td&gt;KALO CHORIO OREINIS&lt;/td&gt;

&lt;/tr&gt;

&lt;tr&gt;

&lt;td&gt;VIL_NM_G&lt;/td&gt;

&lt;td&gt;ΚΑΛΟ ΧΩΡΙΟ ΟΡΕΙΝΗΣ&lt;/td&gt;

&lt;/tr&gt;

&lt;/table&gt;

&lt;/td&gt;

&lt;/tr&gt;

&lt;/table&gt;

&lt;/body&gt;&lt;script type="text/javascript"&gt;

				function changeImage(attElement, nameElement) {

				document.getElementById('imageAttachment').src = attElement;

				document.getElementById('imageName').innerHTML = nameElement;}

			&lt;/script&gt;&lt;/html&gt;

</description>
			<styleUrl>#PolyStyle70</styleUrl>
			<MultiGeometry>
				<Polygon>
					<extrude>0</extrude>
					<altitudeMode>clampToGround</altitudeMode>
					<outerBoundaryIs>
						<LinearRing>
							<coordinates> 33.15451443792325,34.98888072999638,0 33.15461659137669,34.98882197103865,0 33.15475222592978,34.98871671871061,0 33.15486611193406,34.98860255089858,0 33.15492838024418,34.98848844885326,0 33.15495813662096,34.98842133828065,0 33.15497890926557,34.98835840827485,0 33.15501208389828,34.98824587934903,0 33.15508056815059,34.98804256029588,0 33.15515506162271,34.98785756407184,0 33.15521573639556,34.98768195942034,0 33.15516722911114,34.98751946857673,0 33.15507888368094,34.98733227446194,0 33.15509302957131,34.98721024620276,0 33.15526960612689,34.98694559900035,0 33.15535628458964,34.98667768803338,0 33.15534180648884,34.98653080880306,0 33.15636346041858,34.98665583718983,0 33.15648411466834,34.98640119215105,0 33.15673515333913,34.98658135064705,0 33.15689078876638,34.98600667530528,0 33.1572047470324,34.98598589422723,0 33.15724432138802,34.9863760805814,0 33.15751336060331,34.98635369012653,0 33.15762944212474,34.98627150494583,0 33.15747052528987,34.98619570536764,0 33.15745671733446,34.98595454866522,0 33.15796826265956,34.98572853960069,0 33.15841053321088,34.98641849401969,0 33.15879187276635,34.98626796929487,0 33.15887214928863,34.98621619257656,0 33.15881807959395,34.98593422693506,0 33.15833578244153,34.98508860157333,0 33.15900776825831,34.98500265196945,0 33.15914181414293,34.98511555883014,0 33.1593209471332,34.98545591084834,0 33.1598253461739,34.98572247297804,0 33.15982837453871,34.98574664351357,0 33.15990154129572,34.98602603792615,0 33.16025083512627,34.98598826458398,0 33.16012153015462,34.98562901922683,0 33.16004376192852,34.98536381497974,0 33.16000250884106,34.98528776530166,0 33.15989958799616,34.98521067094913,0 33.15985952160366,34.98508011024285,0 33.15958480249124,34.98493306903364,0 33.15943964881127,34.98473755766197,0 33.15933564040309,34.98461406679217,0 33.1591431440846,34.9844171992215,0 33.158980758855,34.98421691606469,0 33.1591437425983,34.98409424069781,0 33.1592368279823,34.98418775011116,0 33.15925184902432,34.98419759925819,0 33.15925861988412,34.98406630532705,0 33.15926799877148,34.98404597841658,0 33.15941640564563,34.98385593455638,0 33.15945048484569,34.98383722842114,0 33.15954329806026,34.98379943397494,0 33.15964568304155,34.98374938005549,0 33.15984520746322,34.98363521746712,0 33.16010355887116,34.98361094865375,0 33.16013332986343,34.983618545403,0 33.1601411013252,34.98363457608759,0 33.16010460858858,34.98376028525188,0 33.16012244236377,34.98378422893649,0 33.16014462415354,34.98378387426728,0 33.16017425091275,34.98378542621192,0 33.16019359745595,34.98376897124035,0 33.16025478272634,34.98364488268447,0 33.16060766963746,34.98344553319285,0 33.16085756186553,34.98337497024585,0 33.16109520629787,34.98320367839349,0 33.16119041193553,34.98316179603746,0 33.16118401651742,34.9833092468119,0 33.1614129836987,34.98350141763854,0 33.16162706053462,34.98358482336634,0 33.16171962615547,34.98374484352853,0 33.16174726535102,34.98376661499105,0 33.16191768868784,34.98388099195687,0 33.16205044108774,34.98386274120466,0 33.16229260209705,34.98388112243465,0 33.1622865341773,34.9838327670654,0 33.16245705888533,34.98353333845002,0 33.16249072678239,34.98349646280398,0 33.16208856800661,34.98328280629095,0 33.1618388604934,34.98304856943131,0 33.16181249347352,34.98297631985451,0 33.16181154225995,34.98293596593339,0 33.16183523512059,34.982790249853,0 33.16183927489067,34.98278993077133,0 33.16196325389749,34.98278014991841,0 33.16208490082584,34.98260461451402,0 33.16211387240347,34.98257791155661,0 33.16218068201948,34.98258694751141,0 33.16227495146334,34.98260967460298,0 33.16229273124549,34.98263159523744,0 33.16243651509231,34.98278913328442,0 33.16255606152837,34.982920115948,0 33.16256384543053,34.98293614015214,0 33.16262268356034,34.98292108231438,0 33.16271744423808,34.98306895744054,0 33.16297659981837,34.98317991295981,0 33.16313416852954,34.98306234969741,0 33.16325992222444,34.9830603516826,0 33.16323672639208,34.9827880601681,0 33.16323605021355,34.98278012940032,0 33.16326873650326,34.98249295135624,0 33.16317892491969,34.98244996212406,0 33.16251378856795,34.98259174576022,0 33.16210802418231,34.98232972159344,0 33.16184952382894,34.98234997539517,0 33.16185384744138,34.9820107869684,0 33.16187300033511,34.98188128731695,0 33.1618656011059,34.98188140715497,0 33.16188147815085,34.98182261819434,0 33.16190882384735,34.98172730694551,0 33.16195376878292,34.98164584521785,0 33.16198685836913,34.98158476258189,0 33.1620181581381,34.98155196287365,0 33.16211894358466,34.98143327143965,0 33.16215259012934,34.9811864664759,0 33.16233895402581,34.98093115615401,0 33.16237318785851,34.98091849757815,0 33.16259144014886,34.98075957465238,0 33.16270044756314,34.98067506384208,0 33.16275601488202,34.98062572894853,0 33.16279480212887,34.98059684652895,0 33.16281826089198,34.9805459960769,0 33.16281241584618,34.98040276763725,0 33.16279870649732,34.98034444278296,0 33.16271077978561,34.98017223521391,0 33.16278492414278,34.97996917442453,0 33.16317527084205,34.97989024505105,0 33.16355659956062,34.98005572671388,0 33.16369109333675,34.98011009821133,0 33.16370901862271,34.98013807515788,0 33.16367408159628,34.98033042786127,0 33.16372369799543,34.98034174242476,0 33.16429233515326,34.98018525421866,0 33.16446038642513,34.98030167984772,0 33.16456036416238,34.98035660642917,0 33.16459754991173,34.98036408837594,0 33.16463695839848,34.9803614343266,0 33.16465900555999,34.98035502771891,0 33.16473232984461,34.9803255912394,0 33.1647863483561,34.98031462506891,0 33.16483871071791,34.98033801190362,0 33.16487124870229,34.980357687405,0 33.1649561023618,34.98039872423227,0 33.16506614182667,34.98046156480081,0 33.16511467569575,34.98053144975712,0 33.16517720133838,34.98067178041557,0 33.16563648087334,34.98068663414702,0 33.16561713911619,34.98039014967163,0 33.16559640946303,34.98034808117765,0 33.16556842217657,34.98031218925617,0 33.16551761426418,34.98025041503735,0 33.1654802446763,34.98023486131996,0 33.16543565325695,34.98022749790467,0 33.16543745383954,34.98019919957353,0 33.16546913793856,34.98018254485606,0 33.16554601710346,34.9801994852043,0 33.16557358226774,34.98021721570191,0 33.16557970190201,34.98026758736106,0 33.16596495909608,34.9806995520357,0 33.16650786306487,34.98080594821196,0 33.16664580594087,34.98110862398894,0 33.16660975716827,34.98114958573727,0 33.16664130886592,34.98123186188734,0 33.16657134885492,34.98129961557053,0 33.16656694073147,34.9813218896306,0 33.16670523225518,34.98143073946859,0 33.16649236485883,34.98171681261015,0 33.16647406607355,34.98177767156646,0 33.16660294047747,34.98211482592672,0 33.16668429852351,34.98211150878943,0 33.16691308851496,34.9820816150058,0 33.16702816953014,34.98204343176469,0 33.16717973603315,34.98198246684167,0 33.16725066424956,34.98195507839214,0 33.16744255986178,34.98192980917718,0 33.16748763896654,34.98209276420204,0 33.16742982204951,34.98212183661017,0 33.16732782888901,34.98219211381519,0 33.16721284788159,34.98233932688516,0 33.16708098585358,34.98250296187489,0 33.16703003243742,34.98254011858088,0 33.16689166470933,34.98263721158689,0 33.16680216276341,34.98271335120027,0 33.1667562944108,34.98275647547836,0 33.16677547733197,34.98278325132963,0 33.16724116209745,34.9834332561378,0 33.1673845589608,34.9836530883938,0 33.16744552377131,34.98372682237028,0 33.16660259250002,34.98398046584926,0 33.16697763155685,34.98429151883325,0 33.16731076286016,34.98470823891191,0 33.16759584204308,34.98497025804335,0 33.16740759478618,34.9854638787907,0 33.16702937045763,34.985750495165,0 33.1666134811708,34.98548649628497,0 33.16629709601463,34.9856731913624,0 33.16608695390355,34.98534337482675,0 33.16641517103198,34.98450838068149,0 33.16570494570995,34.98431770908128,0 33.16553967722447,34.98421534466754,0 33.16542749216068,34.98416664280774,0 33.16544570417787,34.98410175115561,0 33.16548498850881,34.98378012089072,0 33.16556348895428,34.98376070526688,0 33.16575430424831,34.98369104841308,0 33.16577612488305,34.98367455762597,0 33.16582231407775,34.98364555777879,0 33.16585362732879,34.98361275527282,0 33.16593031238133,34.98351664649315,0 33.16605908173804,34.983326837697,0 33.16626510610259,34.98306513137151,0 33.16623484597039,34.98303733937122,0 33.1658260247127,34.98286212687465,0 33.16541516090941,34.98280809221511,0 33.16539020385312,34.98279637607997,0 33.16526798182009,34.98284475544013,0 33.16516842306748,34.9829129533246,0 33.16514182200567,34.98293559014095,0 33.16504393924539,34.9830744297543,0 33.16501453772693,34.98308297650208,0 33.16497791623249,34.98309970450889,0 33.16484807470902,34.98324308731373,0 33.16473940950801,34.98323875288435,0 33.16468762280666,34.98323957402391,0 33.16460414409582,34.98325705325139,0 33.16458740966241,34.98327952963674,0 33.16448621318199,34.98338207363237,0 33.16447701174214,34.98341048832891,0 33.16449684202352,34.98351918554879,0 33.16449490845002,34.98354142372265,0 33.16433613212488,34.98371351962925,0 33.16429942767526,34.98372621364697,0 33.16412788740082,34.98377536439681,0 33.16411874457343,34.9838057918767,0 33.16409461510373,34.98393335598266,0 33.16404084550479,34.98405937721854,0 33.16400102343596,34.98414883385106,0 33.1636320362808,34.98440296587326,0 33.16361026833138,34.98442147810839,0 33.16360082734887,34.9844398033612,0 33.16362252083754,34.98462720196837,0 33.16381441671307,34.98481393206417,0 33.16373537025169,34.98491410090995,0 33.16350604310676,34.98502268598381,0 33.16340128658164,34.98507883999841,0 33.1633694154694,34.98508742121965,0 33.16329335818151,34.98510476335808,0 33.16318314900514,34.98513880525228,0 33.16315380091085,34.98514935445129,0 33.16311965996709,34.98516604610924,0 33.16296517741929,34.98530978718028,0 33.16293198705264,34.98536682366708,0 33.16356556740033,34.9856636939764,0 33.1636700916921,34.98570242184043,0 33.16368048391983,34.98572447300837,0 33.1636737082875,34.98575082009155,0 33.16354301473817,34.98585784346197,0 33.1635411177194,34.98588209625682,0 33.16354274266311,34.98595070632687,0 33.16353359061457,34.98598113196201,0 33.16344377886536,34.9860431107417,0 33.16338928954073,34.98613884010121,0 33.16335889824811,34.98620997308016,0 33.16377938027149,34.98636082774619,0 33.16395197650974,34.98656604305453,0 33.16412018168283,34.9863756666219,0 33.16438201511832,34.98628474497346,0 33.16447762954854,34.98625902212365,0 33.1645849567413,34.98620686334537,0 33.16496113487666,34.98636044399366,0 33.16498115330359,34.98637224263921,0 33.16516755251234,34.98674280005379,0 33.16509123943786,34.98675005847873,0 33.16506932431759,34.9867625135678,0 33.16506240436158,34.98678280602294,0 33.16505556808885,34.98680713946883,0 33.16513618139433,34.98698151851018,0 33.16531332813107,34.98727349628709,0 33.16563436004915,34.9872846204964,0 33.16572604866627,34.98730135390213,0 33.16613334130948,34.9873070892708,0 33.16623248532428,34.98732572131847,0 33.16629947034903,34.98734083038248,0 33.16666811785438,34.98738148594202,0 33.16671532468133,34.98739488216653,0 33.16678012741368,34.98742213440177,0 33.16700856283254,34.98748114342372,0 33.16732036255161,34.98751664148605,0 33.16734536269364,34.98753038987492,0 33.16743764780612,34.98757134255005,0 33.16806243072601,34.98779577699677,0 33.1681022404529,34.98780929199189,0 33.16822483996915,34.98777506712348,0 33.16824713841422,34.98777875732379,0 33.16826706833969,34.98778651714648,0 33.16835992159339,34.98805967360676,0 33.16878460125936,34.98817014448786,0 33.16890331197123,34.98838838199652,0 33.16885463049233,34.98841741350428,0 33.16864406777307,34.98859435366838,0 33.16862983694802,34.98861879673465,0 33.16862304736289,34.98864515852174,0 33.16859759132095,34.98882121939692,0 33.16858365036924,34.98885778626583,0 33.16855987771403,34.98889651578774,0 33.16849516739034,34.98897829664919,0 33.16828305113211,34.98919361213332,0 33.16817170414291,34.98928620878442,0 33.16817460223992,34.98930433159189,0 33.16824729244409,34.9896646246119,0 33.16753031585143,34.98961317723926,0 33.16740825394915,34.98935663955895,0 33.16712399209025,34.98912888416682,0 33.16707321253572,34.98896411345513,0 33.16706765860903,34.98893795713908,0 33.1670499643168,34.98892005928614,0 33.16700560537376,34.98892276600146,0 33.16695171422659,34.98893975541923,0 33.16677453808815,34.98906567515507,0 33.16654840434265,34.98920850137935,0 33.16628313564596,34.989366074065,0 33.16617930187758,34.98935758775313,0 33.16616231184483,34.98936997229247,0 33.16615775433928,34.98969912245136,0 33.1663039075423,34.99014101070163,0 33.16627445241662,34.99014752239653,0 33.16623783458466,34.99016423724159,0 33.16618370847662,34.99017113514939,0 33.16612707000479,34.99017605603292,0 33.16607279911148,34.99017689829473,0 33.16604048432279,34.99016730351951,0 33.16572994803741,34.98997426958277,0 33.16563863177617,34.98997366764338,0 33.16561387605368,34.98997001457216,0 33.1652535821267,34.98975959291347,0 33.16517137667752,34.98972655024061,0 33.16514714210742,34.98974509493775,0 33.16513537998603,34.9897695035851,0 33.16508313109122,34.98996008068334,0 33.16506562408907,34.98995025548069,0 33.16498565462526,34.9899070848012,0 33.16496278687456,34.98987917790711,0 33.16494167114835,34.98982096261004,0 33.16494332744048,34.98978662225273,0 33.16486063565662,34.98962841851471,0 33.16481510499132,34.98958067758592,0 33.16481031200161,34.98958681110028,0 33.16462923343874,34.98975515511262,0 33.1644654422711,34.99002820968007,0 33.16441560647314,34.99011174041735,0 33.16440626070293,34.99013409316869,0 33.16442433308984,34.99016813186559,0 33.16462417464435,34.9903769960173,0 33.16449646799857,34.99050615807145,0 33.16436609629125,34.99062727564642,0 33.16424781288581,34.99073811216478,0 33.16412386926533,34.99102667457415,0 33.16422124688662,34.99118061408971,0 33.1642631387466,34.9912829163805,0 33.16435840987373,34.9915559859487,0 33.16458816515723,34.99167356255983,0 33.16463231556495,34.99197568028897,0 33.16466530180569,34.99222346784252,0 33.16468598396964,34.99226352628969,0 33.16471065229194,34.99226314217077,0 33.1648978120095,34.9922481515752,0 33.1650068611924,34.99226867946988,0 33.16509110726163,34.99228353675981,0 33.16514684267654,34.99234525654624,0 33.16517218667289,34.9923731275731,0 33.16520690356924,34.99238067126208,0 33.16524660617142,34.99239015343681,0 33.16533051838818,34.99239088293525,0 33.16550171153423,34.99243063613236,0 33.16561798730512,34.99244298037925,0 33.16567894508105,34.99251673767412,0 33.16584000086128,34.99254454227837,0 33.16593547359146,34.99282570869473,0 33.16584675518358,34.99328969473466,0 33.16584716691037,34.99340746480407,0 33.16606104908575,34.99375315662373,0 33.16655086758624,34.99365250111468,0 33.16668181951587,34.99370119050008,0 33.16700747712657,34.99418295807151,0 33.16703179811587,34.9944841925236,0 33.16721944273221,34.99498269585963,0 33.16762505027624,34.99506894488447,0 33.16776691477837,34.99517365525299,0 33.16756213833781,34.99534151972065,0 33.1674726574667,34.99533928325023,0 33.16717076232386,34.99547291136189,0 33.16683656651821,34.99546136316045,0 33.16698442704364,34.99558548204154,0 33.16681095580876,34.99564399418845,0 33.16654828628074,34.99578166203088,0 33.16638808462822,34.99621484986197,0 33.1659968030482,34.99621208716893,0 33.16571267074801,34.99646007396986,0 33.16550233265114,34.99655918886985,0 33.16551254189912,34.9967848679952,0 33.16707881853419,34.99692315048911,0 33.16694703504231,34.99717480562175,0 33.16695327879283,34.99741199135882,0 33.1671794187281,34.99740207996226,0 33.16719758154972,34.99747060938225,0 33.16701751310574,34.99809424633244,0 33.16752701457293,34.99834528853969,0 33.16742387741979,34.99842575427107,0 33.16722277089303,34.99849835924323,0 33.16718301837737,34.99860432715141,0 33.16719437904624,34.99881848603367,0 33.16708452977172,34.99891279040692,0 33.16705391069853,34.99905530306199,0 33.16676642789141,34.99941210806498,0 33.16680472629891,34.99950900300055,0 33.16687557193731,34.99962608210588,0 33.16700327419645,34.99979053226762,0 33.1674230054254,35.00050453941959,0 33.16751099132311,35.000708469483,0 33.16778138902389,35.00074611283936,0 33.16800990026147,35.00092181116199,0 33.16823657512112,35.00114451016986,0 33.16792671120207,35.00136403992548,0 33.16747378428074,35.00169201322951,0 33.16736926009873,35.00156737652029,0 33.16726022824952,35.00149550461921,0 33.16695394310105,35.00134147040399,0 33.16676378113211,35.00140128812857,0 33.16663244678363,35.00146833539007,0 33.1664946705378,35.00156182747926,0 33.16639204699072,35.00152996393663,0 33.16635766733023,35.00155677170282,0 33.16643029197875,35.00162454867283,0 33.16668148728848,35.00202217660404,0 33.16681169745929,35.00210522374781,0 33.16695252206276,35.00216063464522,0 33.16718095491759,35.00219654950088,0 33.16707866198913,35.00259084081375,0 33.16718682125446,35.00262033440733,0 33.16728681903746,35.00272898167812,0 33.16737671508612,35.00295803909074,0 33.16747863739226,35.00302427143721,0 33.16757994238721,35.00312831126784,0 33.16759209425284,35.00317626749555,0 33.16757204117775,35.0032200594224,0 33.16794588204353,35.00339952155712,0 33.16796597502112,35.00349433551184,0 33.16803261676653,35.00361143049136,0 33.1680579162505,35.00389287209498,0 33.16813956011857,35.00419761593952,0 33.16815362455784,35.00433945478075,0 33.16803440750294,35.00493202081731,0 33.16805224432793,35.00505318473407,0 33.16809944921178,35.00517624514545,0 33.16832299027971,35.00545273714265,0 33.16826769812025,35.0056183777898,0 33.16826484251599,35.00575240033651,0 33.16830709828204,35.00590644410922,0 33.16837559918866,35.00604639643107,0 33.16862703324131,35.00639005312546,0 33.16810480432076,35.00660305510196,0 33.1674861732315,35.00640279854223,0 33.16766975972378,35.0061599029149,0 33.1674080621488,35.00606602364035,0 33.1672273695134,35.0062458935087,0 33.16700139800134,35.00619161425229,0 33.16655838421606,35.0060417190603,0 33.16652805535649,35.00612914398896,0 33.16639688703517,35.00620301001296,0 33.1662378584109,35.00655320465994,0 33.16617068134983,35.00675103068608,0 33.16618255147137,35.00692147313902,0 33.16612615821111,35.00696343687743,0 33.16632004474248,35.00715667141721,0 33.1665246849218,35.00719291662494,0 33.16674385106373,35.00725643850622,0 33.16694791684434,35.00733276117215,0 33.16736848072225,35.00754706206624,0 33.16752749891699,35.00746940934811,0 33.16760369965289,35.00750733169983,0 33.16760147458675,35.00779689700641,0 33.16762284645853,35.00790388834287,0 33.16778716337515,35.00815247099624,0 33.16793100921594,35.00815295896576,0 33.16818532285131,35.00818138127509,0 33.16804043118848,35.00833705259667,0 33.16807238466343,35.00864043627612,0 33.16798535132599,35.00862008357805,0 33.16795260744266,35.00866365060872,0 33.16795460338977,35.00874769044295,0 33.16797300659836,35.00882720495285,0 33.16797496772826,35.00889473612805,0 33.16783102939664,35.00897297522783,0 33.16763636809334,35.00922387021426,0 33.16748728974073,35.0094656976553,0 33.16737840977427,35.00974198775945,0 33.16737309921291,35.00982153504474,0 33.16732044947552,35.00994316843144,0 33.16730606172621,35.01004373954396,0 33.16737375340719,35.01014269572861,0 33.16736851618342,35.01025826115399,0 33.16747627424292,35.01032564729997,0 33.16752212700902,35.0104486456901,0 33.16723784418382,35.01058260456895,0 33.16716134878396,35.01063973950124,0 33.16700491164738,35.01085306165245,0 33.16697805379899,35.01110072368112,0 33.16698741892213,35.0112207716024,0 33.16697296345016,35.01128832535174,0 33.16693302472715,35.01138292805324,0 33.16691320124261,35.01150151524092,0 33.16678741827759,35.01154070722466,0 33.16672368717259,35.01159632255997,0 33.16670741936391,35.01166988225374,0 33.16676596721033,35.01175684612998,0 33.16672776199528,35.01180642290257,0 33.1666620887775,35.0118035122491,0 33.16658553706964,35.01183363208156,0 33.1665345570372,35.01188022548094,0 33.16648728819592,35.01195832938776,0 33.16647276528873,35.011992866671,0 33.16646740506491,35.01204840270056,0 33.16644933810931,35.01213396999934,0 33.16645125660773,35.01218049081041,0 33.16648982709361,35.01231100390206,0 33.16652091624269,35.0123499812347,0 33.16655022680062,35.01241147138188,0 33.16643726871401,35.01247916107567,0 33.16641004995678,35.01254973308877,0 33.16639928375358,35.01263829301005,0 33.16634474271657,35.01272841289911,0 33.16627010953873,35.01280505333745,0 33.16623377529164,35.0128786404401,0 33.16629231439096,35.01296110192204,0 33.16630519554763,35.01301661204193,0 33.16629798767337,35.01306014450955,0 33.16612493518087,35.01317894047423,0 33.16587724703527,35.01337437818763,0 33.16576731716989,35.01333918260278,0 33.16561045655139,35.01340817453411,0 33.16553296906038,35.01340492513128,0 33.1654481147623,35.01338611000227,0 33.16533431418517,35.01338254128182,0 33.16526005144048,35.01342785697963,0 33.16524329100092,35.0134528808138,0 33.16522524943775,35.01348375753756,0 33.16519252042883,35.01360561431465,0 33.16510115829775,35.01382915132895,0 33.16506047817827,35.01385527135132,0 33.16494877115441,35.01392882982739,0 33.16502909295608,35.01400265910397,0 33.16508541402747,35.01403769030166,0 33.16514488638671,35.01408148534307,0 33.16515317743909,35.01414857431067,0 33.16517165360715,35.01421061586212,0 33.1651697326021,35.01426933096719,0 33.16515555033443,35.01431464324747,0 33.16513527223304,35.01437002822529,0 33.16505597398066,35.01448085085936,0 33.16501732071352,35.0145245179442,0 33.16501535241997,35.01455974829334,0 33.16504808401397,35.01461338362363,0 33.16509304998421,35.0146670023043,0 33.16517063308233,35.0147172214842,0 33.16521762365896,35.0147641280595,0 33.16528307044222,35.01486301086435,0 33.1652994504313,35.01489653867792,0 33.16530359606136,35.01493008315181,0 33.1653180101771,35.01500051795987,0 33.16557697713454,35.0150068751671,0 33.16572026313816,35.01501285257209,0 33.16574867939653,35.01508491691438,0 33.16578182419708,35.01513664766832,0 33.16586062427142,35.0152025549344,0 33.1659441353214,35.01526327792556,0 33.16625128763816,35.01543501344591,0 33.16641030379906,35.0154878659954,0 33.16659769293504,35.01556656740279,0 33.16670951994666,35.01562466210211,0 33.16682617928593,35.01573840940638,0 33.16659220098573,35.01596136727323,0 33.16651242590714,35.01619188080403,0 33.16626700335644,35.0162038672569,0 33.16601709175808,35.01632976603543,0 33.16588192539527,35.01640114353154,0 33.16585702498782,35.01653708980853,0 33.16593111773373,35.01660818032369,0 33.16601466165886,35.0166844356466,0 33.16600234885811,35.01682036472884,0 33.16617264081345,35.01700134861885,0 33.16613705496011,35.01729910980013,0 33.16603210063973,35.01752836298625,0 33.1660307155602,35.01762156131876,0 33.165990153333,35.01779247813316,0 33.16592577883726,35.01785987549265,0 33.16583937544119,35.0179260075727,0 33.16599409431393,35.01818597139143,0 33.16627235663469,35.01850922966933,0 33.16604626140885,35.0186882149519,0 33.16604607930153,35.0187157528016,0 33.16615596402142,35.01882630539316,0 33.16556761763349,35.01913625995982,0 33.1651712336918,35.01885943820909,0 33.16467335223731,35.01887598071092,0 33.16516721202993,35.01946524201223,0 33.16502286797883,35.01954732280066,0 33.1648215155227,35.01988619643757,0 33.16472202748604,35.01987665201494,0 33.16461184299146,35.01981199905106,0 33.16450165976228,35.01974734418167,0 33.16443572001969,35.01968285192821,0 33.16438132731921,35.01954497260471,0 33.1642726624422,35.01925085441058,0 33.16405369220121,35.01891043397354,0 33.16362007895655,35.01924846375192,0 33.16342153354014,35.01916512778754,0 33.16336411095281,35.01948616789207,0 33.16331902092023,35.01961450119286,0 33.16281780096844,35.02014499188618,0 33.16266278004372,35.02017195310721,0 33.16266253826397,35.02020866391518,0 33.16270611291045,35.02030978221352,0 33.162672026799,35.02044732387404,0 33.1626494219103,35.02052066245607,0 33.1626048203659,35.02057556393889,0 33.16252709964141,35.0206211647005,0 33.16246043841829,35.020666804694,0 33.16239305360497,35.02082257435631,0 33.1623475469691,35.02101513246274,0 33.16293183737385,35.02130180175773,0 33.16305373762359,35.02126554504652,0 33.16333935833539,35.02156028076131,0 33.16361506972906,35.02168061000052,0 33.1634471089905,35.02199200771842,0 33.16356828369744,35.02206587567606,0 33.16351213602785,35.02219414457254,0 33.16348489439781,35.02229682546088,0 33.16345393434168,35.02234866836234,0 33.16328992120612,35.02247230392991,0 33.16317905554569,35.02254141373903,0 33.16287735718663,35.02268334699301,0 33.16290863940316,35.02274505791897,0 33.16304665765437,35.02284297989436,0 33.16325561687736,35.02289361678994,0 33.16334901736735,35.0229298392092,0 33.16345147302642,35.02302415781546,0 33.16347385512972,35.02308224063022,0 33.16348739574889,35.02315485728082,0 33.1634564045311,35.02319120384951,0 33.16335817543889,35.02324523401146,0 33.16332724828578,35.02330337146788,0 33.16330971228569,35.02338328460852,0 33.16331451741754,35.02350675150017,0 33.16325299288621,35.02373560288269,0 33.16319566442534,35.02388092451,0 33.16296012417346,35.02385576228292,0 33.16301384467081,35.02399370254152,0 33.16304536060388,35.02413529722858,0 33.1630191630657,35.02429147964998,0 33.16298175695496,35.02441040507014,0 33.16274202229056,35.02447241657778,0 33.162787051117,35.02467572896576,0 33.16272518003172,35.02478837715169,0 33.16255624728804,35.02475589360402,0 33.16195727893079,35.02505803293894,0 33.1616552619031,35.02511287344869,0 33.16159746955532,35.02510568043844,0 33.1614821082782,35.02516756074015,0 33.16139338724905,35.02522214634688,0 33.16132678894429,35.0252440186851,0 33.16123664927812,35.02525037271765,0 33.1610495730317,35.02524993062801,0 33.16098273018503,35.02525388461433,0 33.16091435983409,35.02526794464031,0 33.16076484997202,35.0253170449872,0 33.1607170338352,35.02505503758756,0 33.16069050180062,35.02476155042289,0 33.16066873695651,35.02463228631345,0 33.16059095368026,35.02435981331676,0 33.1604704801651,35.02411183970423,0 33.16042345179243,35.02411538587883,0 33.16031682466357,35.02420985621212,0 33.16026550700197,35.02420991317366,0 33.15994893527355,35.02417531592664,0 33.15989325339962,35.02414741993912,0 33.15983755028731,35.02411253341651,0 33.15978412428402,35.02405172704998,0 33.15973274972116,35.02403430977106,0 33.15967288293061,35.0240378698473,0 33.15955328252657,35.02409042146854,0 33.15931395060058,35.02415359122067,0 33.15921554016038,35.0241432133759,0 33.15906785018579,35.02411188517072,0 33.15888538452373,35.02401691586227,0 33.1587411564528,35.02405300107474,0 33.1582201392587,35.02408829609617,0 33.15814245390628,35.02411542111803,0 33.15812025385241,35.02412447058668,0 33.15808704641699,35.02411530490713,0 33.15788787766158,35.02404211891628,0 33.15776616962935,35.02399638302822,0 33.15766669912232,35.02393250312721,0 33.15751197411371,35.0238321232232,0 33.15744526738367,35.02388656110016,0 33.15706900928188,35.02376752892032,0 33.15708023745308,35.02373116809744,0 33.15685889238082,35.02366703686649,0 33.15669141096019,35.02398503198692,0 33.15650298945247,35.02400282582368,0 33.15642547210217,35.02399356808575,0 33.15641486740073,35.02387530780159,0 33.15642609259407,35.02383894974759,0 33.15648211041313,35.02368444388082,0 33.15649337191365,35.02363899041088,0 33.15649344573487,35.02362079959205,0 33.15637153619508,35.02362964104142,0 33.1561722949325,35.02358374922197,0 33.15612750628659,35.02370189601508,0 33.1558948183181,35.02371050535521,0 33.15559657468339,35.02349159972528,0 33.15551928112946,35.02342777255226,0 33.15550827551826,35.02340955897175,0 33.15544227624478,35.02329118386275,0 33.15529919866308,35.02305440714269,0 33.15519996451066,35.02293596264088,0 33.15499038426632,35.02270814327762,0 33.15499084927445,35.02258989845077,0 33.15462536673463,35.02257096871471,0 33.15452567393874,35.0225707675695,0 33.15441483390109,35.02258873429484,0 33.15443681002213,35.02263425616587,0 33.15441295252643,35.02307077922734,0 33.15456752639292,35.02319842684727,0 33.15471166605342,35.02316234399778,0 33.15472185248971,35.0233897376133,0 33.15481032373183,35.02342630100762,0 33.15482129373355,35.02345360735512,0 33.15484330466509,35.02349003283732,0 33.15489851039656,35.02353562128856,0 33.15484273415704,35.02363554583879,0 33.15480932441842,35.02368094898697,0 33.15478702869227,35.02371727864632,0 33.15476476841164,35.02374451649995,0 33.15473143170144,35.02377172880913,0 33.15468701855409,35.02379891736758,0 33.1545426703138,35.02388955459332,0 33.15444255870269,35.02399847031123,0 33.15433133923628,35.02411645216395,0 33.15440830093831,35.02426211352036,0 33.15431923513787,35.02438013657898,0 33.15435192980306,35.02451660564191,0 33.15439541487995,35.02472583917451,0 33.15445001114448,35.02492600014207,0 33.15443879367499,35.02496234718122,0 33.15436045082635,35.02517130299909,0 33.15433826539937,35.02518034634815,0 33.15386117221506,35.0254065891788,0 33.15383902333107,35.02540653973475,0 33.15380576552955,35.0254155573587,0 33.15377254439158,35.02541548317321,0 33.15372828329452,35.02540629244842,0 33.15369509664973,35.02539712734558,0 33.15367301894204,35.0253788951747,0 33.1536509423383,35.02536066209689,0 33.15362886355441,35.02534242991919,0 33.15361789589917,35.02531513068067,0 33.15359588832236,35.02527871399708,0 33.15358491959086,35.02525141475663,0 33.1535740209649,35.02520593191795,0 33.15354111593603,35.0251240323819,0 33.15346443877084,35.02490565592984,0 33.15344264175091,35.024814686618,0 33.15323251944241,35.02474148971362,0 33.15312282997625,35.02446848158185,0 33.15283530451769,35.02436784403811,0 33.15268069703638,35.02425840122669,0 33.15265855065691,35.02425835336651,0 33.1526253310894,35.02425828247006,0 33.15253650764769,35.02432173625807,0 33.15249193898596,35.02439437667569,0 33.15243619752781,35.02449426761542,0 33.15242495226178,35.02453970355818,0 33.15244695911751,35.02457611865754,0 33.15250201151186,35.02465806548938,0 33.15251291056475,35.02470354752734,0 33.15250173454943,35.02473079807562,0 33.15247938249664,35.02478529916876,0 33.15243471402221,35.02488520773888,0 33.15242315812614,35.0250124617485,0 33.15242298607222,35.02505791713207,0 33.15241184570491,35.02507607587123,0 33.15240056570414,35.02513059729564,0 33.15236703953126,35.02521234258826,0 33.15225570128172,35.02537573006013,0 33.15220010294149,35.02543924015946,0 33.15203403007912,35.02543886780369,0 33.15196715774157,35.02555689286434,0 33.15158008879992,35.02544693817292,0 33.15141403235558,35.02544656314535,0 33.15132546965198,35.02544636441901,0 33.15122590750918,35.02542796067089,0 33.15099364276502,35.02537289707827,0 33.15077208404506,35.02541784796808,0 33.15028525116032,35.02536221291489,0 33.15030748929126,35.02533499394356,0 33.15037413606988,35.02527151699173,0 33.15048529364937,35.02514451020023,0 33.15049646382531,35.02511726525435,0 33.15052997211556,35.02503552951126,0 33.15059783083684,35.02464479732046,0 33.15059796578623,35.0246084355395,0 33.15059820084925,35.02454480107154,0 33.15059836953495,35.02449934839383,0 33.150587500932,35.02444477979593,0 33.15051075166593,35.02424461208645,0 33.15051085180862,35.02421733939817,0 33.15056687170323,35.02403563850709,0 33.15060098778747,35.02379024134262,0 33.15060112163307,35.0237538759522,0 33.15059042180076,35.02365384474794,0 33.15052470600454,35.02346277491775,0 33.15051387022874,35.02339910909706,0 33.1505694901503,35.02332648903484,0 33.15059173200309,35.02329926008282,0 33.15058109751053,35.02318103716092,0 33.150559325833,35.02308097551131,0 33.15056036622452,35.02279910718561,0 33.15053983643888,35.02236259843514,0 33.15058443559477,35.02227994836169,0 33.15060128375738,35.02215592941909,0 33.15055896539182,35.02202180410664,0 33.15033202486789,35.02186595252568,0 33.15036199761634,35.02181266559187,0 33.15023550291384,35.0216200870272,0 33.15037039763521,35.02144028153656,0 33.15042674556192,35.02097845014598,0 33.15036094795088,35.02062757130539,0 33.15050924996323,35.02047369741192,0 33.15054835831764,35.02027682389054,0 33.15026033026564,35.02039124611118,0 33.1499549076792,35.02057367543402,0 33.14977169772409,35.02073468052921,0 33.14938347236102,35.02110321847314,0 33.14914782877798,35.02120333556604,0 33.14889923135961,35.02149677482493,0 33.14881185999673,35.0214036369038,0 33.14876384420277,35.02141077194501,0 33.14865901866508,35.02131405141271,0 33.14840603658551,35.02158958193564,0 33.14824519020375,35.02187549198727,0 33.14799151758412,35.02181634456601,0 33.14765468388092,35.02193103372552,0 33.14689359827155,35.02145245029902,0 33.14680657250078,35.02152070954906,0 33.14643194647928,35.02165398782424,0 33.14647363069039,35.02176267357299,0 33.14642453058825,35.02197377235296,0 33.14632621653048,35.02218795202387,0 33.14621647580445,35.02223755622184,0 33.14578486518759,35.02218152372199,0 33.14543130461296,35.02216403931936,0 33.1452082279969,35.02216045103523,0 33.14505251281937,35.02217761916306,0 33.14497679041924,35.02227222752594,0 33.14490705024303,35.02235098076731,0 33.14488486522709,35.02236911415197,0 33.14481849447532,35.02236897612344,0 33.14474106284352,35.02236881429199,0 33.14477478028866,35.0222719458424,0 33.14478736447618,35.0221601885394,0 33.14473682735786,35.02204967026382,0 33.14466108405167,35.02207033646813,0 33.14461474923484,35.02190803264382,0 33.14448424356878,35.02173878530436,0 33.14428645009628,35.02170414001709,0 33.14434106912523,35.02138311138849,0 33.1439665553961,35.02132420286311,0 33.14378560356052,35.02118601995939,0 33.14376036612632,35.02125504844786,0 33.14371833425746,35.02144833556623,0 33.14368467277262,35.02147248400387,0 33.14358969974567,35.02136261547869,0 33.14361345644491,35.02133339295402,0 33.14358570846882,35.02117743347603,0 33.14361738332634,35.02115145662362,0 33.14366487477334,35.02097280129173,0 33.14356976502808,35.0205536786701,0 33.14368058590624,35.02031010624854,0 33.14352611571965,35.02005342191898,0 33.14328396155148,35.01983327649185,0 33.14295367166882,35.01975631927189,0 33.14225806797037,35.01952254545478,0 33.14234939336114,35.01929204246466,0 33.14221942470294,35.01927469277646,0 33.14186464860045,35.0191909627301,0 33.14178034064824,35.01934364261982,0 33.141601209524,35.01943001077006,0 33.1413377517887,35.01970941230832,0 33.14121833544166,35.01964594952711,0 33.14155905560524,35.01929167239586,0 33.14156959359186,35.01926574055218,0 33.14160121549272,35.01925422943435,0 33.14180493355067,35.01909295935847,0 33.14244773871921,35.01908748857151,0 33.14266690703841,35.01868915136809,0 33.14249825809505,35.01859309900854,0 33.14228832693244,35.01844338254562,0 33.14211281192579,35.01864939237071,0 33.14186159776585,35.01862105251224,0 33.14203709909983,35.01825979164792,0 33.14194074136331,35.01825128675666,0 33.14179621226403,35.0182879237177,0 33.14168952954313,35.018375384609,0 33.14161382589327,35.01845439987601,0 33.14155188848208,35.0184797733062,0 33.14136950773055,35.01847687505887,0 33.14099450822415,35.01782468630663,0 33.14202330020613,35.0173849943054,0 33.14215627064835,35.01738798911745,0 33.14220657768526,35.01736737680559,0 33.14230719920776,35.01722297145442,0 33.14232155908108,35.01699307152712,0 33.14223890582853,35.01688398336629,0 33.14162085062221,35.01679242095023,0 33.14144837698289,35.01672163668725,0 33.14134417885796,35.01666266608466,0 33.14135136406974,35.0166420349245,0 33.14146274801178,35.01665975516707,0 33.14160945051408,35.01591568879101,0 33.14157760373764,35.01575019461286,0 33.14142893441662,35.01549757327314,0 33.14134400578789,35.01510565246265,0 33.14089802684828,35.01518393060132,0 33.14083438850786,35.01457435547774,0 33.14023221100705,35.01469392990776,0 33.14001924384311,35.01476294097132,0 33.13989048724827,35.01476697367505,0 33.13975182701626,35.01478725411123,0 33.1396280240679,35.01481972169064,0 33.1394695400523,35.01488874031398,0 33.13911296616337,35.01505112565474,0 33.13853369921694,35.01484792463039,0 33.13846624353067,35.01477254602501,0 33.13836427558776,35.01461157946984,0 33.13827408849311,35.01440878229851,0 33.13826631462108,35.0142381883581,0 33.13834094524076,35.01400968401835,0 33.1389884693405,35.01386817052732,0 33.13921217847402,35.01378774501553,0 33.13927498032797,35.01374590724209,0 33.13925145345343,35.01368797350371,0 33.1394695668318,35.013356809017,0 33.13966688664676,35.01309877543542,0 33.14001457893588,35.01234396037108,0 33.14018369935941,35.01201663612456,0 33.14017902770648,35.011843351512,0 33.14065335547165,35.01178944382988,0 33.14074727767074,35.01186261723464,0 33.14087876906382,35.01200124633471,0 33.1409210326357,35.01202049949541,0 33.14099147932406,35.01201665153297,0 33.14112299667235,35.01195504041974,0 33.14121223455706,35.01193963764472,0 33.14139070585747,35.01198969876879,0 33.14153630960396,35.01200125571734,0 33.1417523810532,35.01202051132078,0 33.14181813335593,35.01187032015749,0 33.14195394090252,35.01167266452472,0 33.14207780874445,35.01161130200126,0 33.14234106309918,35.01170015896633,0 33.14277977337278,35.0112198402219,0 33.14279525270225,35.01114367410069,0 33.14242879659388,35.01140816910938,0 33.14195909492135,35.01153512893032,0 33.14163651869718,35.01123681845451,0 33.14163734640939,35.01078775346639,0 33.14168816361484,35.01040002980406,0 33.14159828322823,35.01017254636425,0 33.14156702083619,35.00992584100698,0 33.14183580371639,35.00952816709233,0 33.14241869302341,35.00894695201809,0 33.14270228439519,35.00905020359235,0 33.14291890244165,35.00882740565321,0 33.14302524744318,35.00888549266985,0 33.14308432311119,35.00877894303164,0 33.14310399000492,35.00860138403938,0 33.14314248846767,35.00836248875024,0 33.14318891877182,35.00825120885798,0 33.14339255264918,35.0081896697187,0 33.14356047502232,35.00816619732458,0 33.14380341520672,35.00815736064155,0 33.14416429939366,35.0082129012067,0 33.14421074662076,35.00819825285223,0 33.14430005595499,35.00814258913865,0 33.14435723082389,35.00813086211612,0 33.14443226262033,35.00813962937189,0 33.14466454692335,35.00820984967592,0 33.14478247645444,35.00824202969781,0 33.144843217766,35.00824786608066,0 33.14491111115122,35.00823321169756,0 33.14524337794942,35.00804863796196,0 33.14532348509628,35.00799576360131,0 33.14553251612691,35.00804266315252,0 33.14573141425011,35.00804260841938,0 33.14592694586489,35.0080149305082,0 33.14618315618129,35.00797341805671,0 33.14666860315,35.00786000911602,0 33.14679682086795,35.0080450755037,0 33.14675975048211,35.00808376625628,0 33.14685081790464,35.00814175571797,0 33.14689465204906,35.00814450791782,0 33.14693173453809,35.00812792457797,0 33.1471811670712,35.00796207915187,0 33.14718451272335,35.00791787998915,0 33.14743398723302,35.00784873715146,0 33.14745080742357,35.00777036117989,0 33.14746385553929,35.00758090617464,0 33.14742845816571,35.00747949008026,0 33.14720441283365,35.00714286936306,0 33.14692549533946,35.00684736377675,0 33.1467832954133,35.00663966336098,0 33.14672278418474,35.00656758637503,0 33.14650440420282,35.00634418559239,0 33.1461778137252,35.00626223944684,0 33.14614185871313,35.00619719166065,0 33.14611662893697,35.0060770673386,0 33.14603694418197,35.00597111314723,0 33.14584273030916,35.00578168927699,0 33.14574965615952,35.00558672973063,0 33.14554236743393,35.00544563931273,0 33.14525347460808,35.00532244396921,0 33.14503372123116,35.00519198729183,0 33.14490543666867,35.00504375400704,0 33.14488202571842,35.00496540022865,0 33.14487776767904,35.00476611887916,0 33.14474956024046,35.00461386226013,0 33.1447364116333,35.00451005705649,0 33.14490738484892,35.00429395785699,0 33.14503851527508,35.00410432232193,0 33.14516519408428,35.00388500258129,0 33.14523950789093,35.00370412269556,0 33.14536974388348,35.00341483875926,0 33.1453913994993,35.003135065008,0 33.14539137142641,35.00251042146136,0 33.14545602130101,35.00231730258912,0 33.14554107167469,35.00223748568612,0 33.14566572286025,35.00214735215818,0 33.1460733815629,35.0020859916741,0 33.14621317902521,35.00181695662659,0 33.14626799852054,35.00146617607314,0 33.14627631692399,35.00125085664592,0 33.14619683019499,35.00097531498975,0 33.1462319003481,35.00078317777608,0 33.14629783462016,35.00066543778397,0 33.14635625690591,35.00055569255191,0 33.14639423730571,35.00033530465433,0 33.1464904439877,35.00017346538741,0 33.14658802511193,35.00008164723186,0 33.1468041983866,34.99997362582149,0 33.14679510348512,34.99992506071929,0 33.14673710338028,34.99985036287381,0 33.14656877504775,34.99973811229007,0 33.14643411255608,34.99968007776296,0 33.14634487917892,34.99939771056248,0 33.14610890955803,34.99904239529805,0 33.14605154137764,34.99892867627316,0 33.14604065387391,34.99883701602724,0 33.1461300558783,34.99879490464374,0 33.1461800911009,34.99859081626882,0 33.14616586948876,34.99855431657451,0 33.14627375997014,34.99827679942893,0 33.14615177312481,34.99803988268219,0 33.14592996927576,34.99803882440231,0 33.14563802734555,34.99795354478655,0 33.14550707816716,34.99797501695718,0 33.14536186199631,34.99765037058018,0 33.14566325958984,34.99744629935442,0 33.14574407627046,34.99732197664739,0 33.14552034630946,34.9969749511653,0 33.14529825243779,34.99699410929092,0 33.14514746401722,34.99686731278178,0 33.14500454838901,34.99671097951875,0 33.14517067027905,34.99664545183239,0 33.14540655491101,34.99653219993716,0 33.14537996984181,34.99634210717813,0 33.1452819025011,34.99615395420528,0 33.14513787457242,34.99559783563166,0 33.14500692486848,34.99530704999895,0 33.14513287761701,34.99513203963878,0 33.14437132419773,34.9943649302082,0 33.1441546833697,34.99419847304578,0 33.14256178623314,34.99353330802669,0 33.1405465234523,34.99455782292878,0 33.14034254531761,34.99391532181722,0 33.14012732702037,34.99325533384046,0 33.13954716760863,34.99148000178874,0 33.13962846583037,34.99154757404219,0 33.13987407585383,34.9916030077206,0 33.14122945538853,34.99171820790657,0 33.14398745701153,34.99191087221658,0 33.14539533353892,34.99085284569482,0 33.14568898671723,34.99056628565251,0 33.14606050424327,34.98993487179848,0 33.14631635701038,34.98919961820022,0 33.14640195316547,34.98845496015971,0 33.14647615945,34.98759206987742,0 33.14970590033764,34.98818586717183,0 33.14990729254652,34.98842188946922,0 33.1499391678997,34.98808134352098,0 33.15012016174501,34.98776390168173,0 33.15018885163644,34.98769855959958,0 33.15017601654306,34.98736560479196,0 33.15036157153702,34.98738813712768,0 33.15088383080565,34.98754816173103,0 33.15123788071952,34.98770839912672,0 33.15148967501463,34.98780809965663,0 33.15167633025563,34.98787888839852,0 33.15194672559263,34.98805876755709,0 33.15202995429934,34.98814487421297,0 33.15208684412931,34.98818080512776,0 33.1522247037414,34.9881994668187,0 33.15250010305459,34.98822070143306,0 33.1528034908098,34.98823924188912,0 33.15294809535802,34.98830835895133,0 33.15306775630167,34.98839165611285,0 33.15316898784375,34.98840166141,0 33.15333698013925,34.98838540844677,0 33.15373917372184,34.98842778351801,0 33.15389429545482,34.9885910196196,0 33.15409697506947,34.98874665832406,0 33.15426687117364,34.98881543702262,0 33.15451443792325,34.98888072999638,0</coordinates>
						</LinearRing>
					</outerBoundaryIs>
				</Polygon>
			</MultiGeometry>
		</Placemark>
	</Document>
</kml>