<?xml version='1.0' encoding='UTF-8'?>
<kml xmlns="http://www.opengis.net/kml/2.2">
	<Document>
		<name>KALOPSIDA</name>
		<Style id="PolyStyle70">
			<LabelStyle>
				<color>00000000</color>
				<scale>0.000000</scale>
			</LabelStyle>
			<LineStyle>
				<color>ff0055ff</color>
				<width>2.000000</width>
			</LineStyle>
			<PolyStyle>
				<color>00828282</color>
				<outline>1</outline>
			</PolyStyle>
		</Style>
		<Placemark id="ID_70295">
			<name>KALOPSIDA</name>
			<snippet />
			<description>&lt;html xmlns:fo="http://www.w3.org/1999/XSL/Format" xmlns:msxsl="urn:schemas-microsoft-com:xslt"&gt;

&lt;head&gt;

&lt;META http-equiv="Content-Type" content="text/html"&gt;

&lt;meta http-equiv="content-type" content="text/html; charset=UTF-8"&gt;

&lt;/head&gt;

&lt;body style="margin:0px 0px 0px 0px;overflow:auto;background:#FFFFFF;"&gt;

&lt;table style="font-family:Arial,Verdana,Times;font-size:12px;text-align:left;width:100%;border-collapse:collapse;padding:3px 3px 3px 3px"&gt;

&lt;tr style="text-align:center;font-weight:bold;background:#9CBCE2"&gt;

&lt;td&gt;3&lt;/td&gt;

&lt;/tr&gt;

&lt;tr&gt;

&lt;td&gt;

&lt;table style="font-family:Arial,Verdana,Times;font-size:12px;text-align:left;width:100%;border-spacing:0px; padding:3px 3px 3px 3px"&gt;

&lt;tr&gt;

&lt;td&gt;DIST_CODE&lt;/td&gt;

&lt;td&gt;3&lt;/td&gt;

&lt;/tr&gt;

&lt;tr bgcolor="#D4E4F3"&gt;

&lt;td&gt;VIL_CODE&lt;/td&gt;

&lt;td&gt;113&lt;/td&gt;

&lt;/tr&gt;

&lt;tr&gt;

&lt;td&gt;VIL_CCD&lt;/td&gt;

&lt;td&gt;3113&lt;/td&gt;

&lt;/tr&gt;

&lt;tr bgcolor="#D4E4F3"&gt;

&lt;td&gt;VIL_NM_E&lt;/td&gt;

&lt;td&gt;KALOPSIDA&lt;/td&gt;

&lt;/tr&gt;

&lt;tr&gt;

&lt;td&gt;VIL_NM_G&lt;/td&gt;

&lt;td&gt;ΚΑΛΟΨΙΔΑ&lt;/td&gt;

&lt;/tr&gt;

&lt;/table&gt;

&lt;/td&gt;

&lt;/tr&gt;

&lt;/table&gt;

&lt;/body&gt;&lt;script type="text/javascript"&gt;

				function changeImage(attElement, nameElement) {

				document.getElementById('imageAttachment').src = attElement;

				document.getElementById('imageName').innerHTML = nameElement;}

			&lt;/script&gt;&lt;/html&gt;

</description>
			<styleUrl>#PolyStyle70</styleUrl>
			<MultiGeometry>
				<Polygon>
					<extrude>0</extrude>
					<altitudeMode>clampToGround</altitudeMode>
					<outerBoundaryIs>
						<LinearRing>
							<coordinates> 33.7679382876695,35.09094323952645,0 33.76818065550766,35.09080372087392,0 33.76848868714681,35.0907209812815,0 33.76873570586546,35.09074581255117,0 33.76904713293211,35.09070440834682,0 33.76923126113913,35.09058008569257,0 33.76914572390252,35.09035294161415,0 33.76870487369329,35.08977519453601,0 33.76935072486815,35.08956046495488,0 33.7694016533089,35.08963613322889,0 33.76997631386929,35.08946014746162,0 33.77011910897767,35.08965315867326,0 33.77031431235656,35.08933299542755,0 33.77036476929788,35.08917827540694,0 33.77054412343367,35.0890584501708,0 33.77053638075626,35.08899766567193,0 33.7709389909631,35.08850326295759,0 33.77090417657236,35.08840402346046,0 33.77141249722077,35.08815810843802,0 33.77139150387345,35.08811903346189,0 33.77179779257644,35.08795474649056,0 33.7717232085888,35.08774436604458,0 33.77194227604867,35.08787823735387,0 33.77207044670551,35.08801929873184,0 33.77236571767904,35.08818558014325,0 33.77246657296315,35.08829320145784,0 33.77260590119734,35.08853937580296,0 33.77273940297167,35.08884974871677,0 33.77276867764812,35.08901656207631,0 33.77279513032859,35.08922959398566,0 33.77295125839732,35.0896477652664,0 33.77310475462539,35.08986614542602,0 33.77322282866859,35.09000680566758,0 33.77338448464647,35.09020779434509,0 33.77352680378899,35.09031294635126,0 33.77361671827394,35.09026469747751,0 33.77367269785751,35.09025164878127,0 33.77446347201749,35.08998666501509,0 33.77444984401312,35.0896667526349,0 33.77493594957527,35.08942634066292,0 33.77455004003115,35.08870541209485,0 33.7742833128716,35.08878165937346,0 33.7744726824858,35.08832206871262,0 33.77517117428907,35.0874640741339,0 33.77479923812977,35.08711796790752,0 33.77578643415279,35.08625307417603,0 33.77587120528079,35.08612121865063,0 33.77543178550476,35.08578564788451,0 33.77563957727485,35.08566815716919,0 33.77531503099665,35.08513488177893,0 33.77507540197912,35.08448490092869,0 33.77535206380197,35.08450333414292,0 33.7758981429635,35.08442408416344,0 33.77632101095386,35.08431026728898,0 33.77624311206022,35.08319744272541,0 33.77675629026927,35.0831910675748,0 33.77658105058819,35.08251431870047,0 33.77621504601267,35.08157725040035,0 33.77673339291525,35.08149624709868,0 33.77726266883526,35.08143452432725,0 33.77732556549044,35.08162608966996,0 33.77690701109771,35.08166738376237,0 33.77700747425745,35.0819496748074,0 33.7785408180404,35.08173759591021,0 33.77826889385962,35.08065982080025,0 33.77791284047968,35.07962721405514,0 33.77847607203377,35.07954895401492,0 33.77840557383606,35.07905440856018,0 33.77939858889832,35.07900810895962,0 33.77931404229594,35.07842564731154,0 33.77940770377144,35.07838145156401,0 33.77936902075929,35.07810776660429,0 33.77931944121938,35.07776006656965,0 33.7789891267184,35.07776085564768,0 33.77897903262963,35.0772574466223,0 33.77912166311902,35.07723518009018,0 33.77903736053366,35.07656318791726,0 33.77910182874204,35.07651473518968,0 33.77913033249277,35.07609822161396,0 33.77986139489358,35.07610216156835,0 33.7799360803464,35.07615523184135,0 33.78008196334434,35.07580387531101,0 33.78044896550763,35.07536531881016,0 33.78197571058944,35.07525510546151,0 33.78199970674348,35.07547680847908,0 33.78260471067735,35.07543692960807,0 33.78336264278419,35.07537207406094,0 33.78354053488426,35.07643224238705,0 33.78362368684248,35.07673750813333,0 33.78453375953518,35.07656373256951,0 33.78530536875412,35.0764028389564,0 33.78544756317073,35.07677967433116,0 33.7859132512045,35.07666273093736,0 33.78600295802136,35.07689000320894,0 33.78615290997917,35.07731475655814,0 33.78695410031712,35.07719563378808,0 33.78705473044668,35.07780059138157,0 33.78739718097439,35.07776239130879,0 33.787242556669,35.07685198162599,0 33.78777388321016,35.0767346049916,0 33.78796169419315,35.07730301751376,0 33.78831774844984,35.07716279307675,0 33.78851533929136,35.0779889757023,0 33.78855045620887,35.07860634900423,0 33.78890060680159,35.07861006769288,0 33.78887674175057,35.07916186821215,0 33.78970850644809,35.07918643471478,0 33.78989073201485,35.07917325586654,0 33.7899925543917,35.07914261156908,0 33.78996002818237,35.07879504763092,0 33.79057257566539,35.07877906384922,0 33.79058831945463,35.07889888443425,0 33.79107664457609,35.0788597228731,0 33.79133215353431,35.078882039946,0 33.79131218251153,35.07908004270671,0 33.79173567779272,35.07912524765497,0 33.79170146819905,35.07935932047574,0 33.79175252397989,35.07935898714798,0 33.79182378027841,35.07918463357491,0 33.7919842987411,35.07918958139121,0 33.79201242974981,35.07908146741895,0 33.79249380955841,35.07907832255803,0 33.79245764386285,35.07986405250691,0 33.79311425124458,35.07987774892685,0 33.79312653538032,35.08039333560936,0 33.79346951606067,35.08040908088966,0 33.79346709804381,35.08091277163089,0 33.79372319472832,35.08099504178957,0 33.79367033773207,35.08080950744412,0 33.79477794673029,35.08069432306034,0 33.79468582739984,35.08022123199846,0 33.79466984477009,35.08007742948801,0 33.79456049693307,35.08008414202068,0 33.79457673853253,35.07950241055673,0 33.79507253416661,35.07948117291611,0 33.79508380544718,35.07913931938566,0 33.79575487773207,35.07914091375765,0 33.79574128045979,35.07924293717436,0 33.79619337024718,35.07922797776574,0 33.79660175599292,35.07921929978991,0 33.79659160560308,35.07892555594665,0 33.79687588184808,35.07890569929542,0 33.79720380324554,35.07887356392692,0 33.79721360475816,35.07913133296484,0 33.79731180469733,35.07947846295696,0 33.79801152928604,35.07942589133799,0 33.7979775677883,35.07893443200965,0 33.79861928894351,35.07891821560632,0 33.79934864950329,35.07891341020614,0 33.8001580060962,35.07888408763043,0 33.80019080973268,35.07925563168731,0 33.80029303805632,35.07926694913272,0 33.80037713257337,35.07966213869364,0 33.80078510963253,35.07961147627161,0 33.80073941400963,35.07941390573901,0 33.80057180860962,35.07868348427862,0 33.80116888600028,35.07857760699335,0 33.80126932961106,35.07915257215968,0 33.8018013536382,35.07910708266684,0 33.8020024297812,35.08027499844383,0 33.80245440621921,35.08024802347173,0 33.80235078172646,35.07934929004668,0 33.80254747590909,35.07932400351753,0 33.8029046879348,35.0793036509279,0 33.80289074709805,35.07936970034109,0 33.80384609634447,35.07935137939368,0 33.80436335536149,35.07928798847642,0 33.80437835540557,35.07932986111149,0 33.80536940510423,35.07923334222237,0 33.80548299385466,35.079658312283,0 33.8055705773265,35.07966372652451,0 33.80562739412322,35.07950744992002,0 33.80610236599281,35.07959423564986,0 33.80678067659901,35.07958972573718,0 33.80682685800609,35.07983525969053,0 33.80743187842319,35.07979525581658,0 33.80741634615286,35.0796994211651,0 33.80795495393347,35.07958190773863,0 33.80812185937461,35.08023437307867,0 33.80867553004992,35.08016472509036,0 33.80970133599543,35.07989405004363,0 33.81008072200371,35.08064103256205,0 33.81164198705721,35.07993504185313,0 33.81220845779995,35.07968540806137,0 33.81266498530461,35.07938254342889,0 33.81325836189496,35.07890487139686,0 33.81395241221278,35.07828261374442,0 33.81428284991397,35.07777072515649,0 33.81478127220706,35.07728169120094,0 33.81491680659739,35.07697497832552,0 33.81565572895213,35.07610057222307,0 33.81591554263132,35.07582300235502,0 33.8160757568261,35.07579794028152,0 33.81665790668245,35.07566210732526,0 33.81709538393167,35.07564716763198,0 33.81740062539546,35.07553718056833,0 33.81759025032405,35.07553590232643,0 33.81852043647018,35.07519384458241,0 33.81886967355695,35.07510754095058,0 33.81902928623784,35.07502251799527,0 33.8192174716389,35.07487733986862,0 33.81950932012901,35.07488736009902,0 33.8197574091061,35.0748976754266,0 33.82000489828863,35.07484803325109,0 33.82007639146362,35.07470364276289,0 33.82007507170094,35.07457173755201,0 33.81988220937317,35.07424925040772,0 33.81983749170776,35.07415361465865,0 33.81996972781768,35.07424865871026,0 33.82031850767251,35.0744741531277,0 33.82015023522405,35.07474849479916,0 33.82035028897889,35.07546368168583,0 33.82085357631293,35.07542503653581,0 33.82067300964447,35.07451590097304,0 33.82093252471634,35.07449293405627,0 33.82095457511545,35.07452236555203,0 33.82109674675956,35.07453005545786,0 33.82122852333961,35.07455079643731,0 33.82118146470893,35.07458140073303,0 33.82128095613081,35.07505664217271,0 33.82131043380594,35.07537227798029,0 33.82115268952248,35.07538632522063,0 33.82121982786678,35.07578390964091,0 33.82139260622562,35.0762197165591,0 33.82153112158321,35.07638751215864,0 33.82160126908111,35.07656009653837,0 33.82165562985679,35.07673278873292,0 33.82197051369418,35.07664412464644,0 33.82201413291993,35.07679525714183,0 33.82207466763953,35.0770587632695,0 33.82211071281681,35.07750414913057,0 33.82215071921822,35.07781971320392,0 33.82215871622883,35.07809222779702,0 33.82221205381281,35.07842500802032,0 33.82228859493639,35.07871003866255,0 33.82230155154501,35.07895223485657,0 33.82231381366623,35.07912521122301,0 33.82078204746218,35.07962881066997,0 33.82089990698465,35.07983568467821,0 33.81993554551944,35.08024024682081,0 33.82021146117233,35.08046335927914,0 33.82100776248868,35.08009454513378,0 33.82135363036554,35.07994510159731,0 33.82196211279161,35.07974195939817,0 33.82225124825493,35.08023322056821,0 33.82226394462467,35.08044945950387,0 33.82249550554629,35.08044788915211,0 33.82261985561698,35.08049464868269,0 33.82273470559642,35.08069267523725,0 33.82287873151807,35.08112023497209,0 33.82290222388708,35.08131888213709,0 33.82281637264727,35.08133271774191,0 33.82278692358153,35.08161124604177,0 33.82262796367802,35.08183763805946,0 33.82263281334695,35.08187572469247,0 33.82234106849894,35.08197961306259,0 33.82224643291496,35.08185136497594,0 33.82199581109683,35.08205208338561,0 33.82219788411222,35.08225838602931,0 33.82215664884009,35.08234519486951,0 33.82240531044733,35.08246152421376,0 33.82267682010602,35.08260238964736,0 33.82289109609398,35.08273844728772,0 33.82251971796259,35.08311183229117,0 33.82192872942193,35.08382839969427,0 33.82178863602709,35.08401269877171,0 33.82074099894802,35.0836780974856,0 33.82054136868334,35.08399197542599,0 33.82051777572974,35.08416715047363,0 33.82099144969945,35.08438896316706,0 33.82087618010366,35.0850272977009,0 33.82119523834732,35.08499596861423,0 33.82119970702094,35.08544180959366,0 33.82086126050751,35.08545213070236,0 33.82087667323537,35.08593163998074,0 33.8211746803927,35.08597952460539,0 33.82136282306193,35.08603658877966,0 33.82169129437972,35.08623569098906,0 33.82196449190813,35.08638254151639,0 33.82214055320415,35.08660325590735,0 33.82225242051621,35.08678479045195,0 33.82213502049806,35.08710906774306,0 33.82194591004507,35.08729347482934,0 33.82154712537614,35.08772782911427,0 33.82171460340574,35.08775101720423,0 33.82172904690118,35.08818012287016,0 33.82226402894599,35.08895156126853,0 33.82130223840493,35.08909559110261,0 33.821335438886,35.08936430828344,0 33.82143767595056,35.08945720451355,0 33.82195125738953,35.08941245700812,0 33.82213701255665,35.09033724513987,0 33.8222031293105,35.09046043500086,0 33.82216378613528,35.09058154476848,0 33.82224988295523,35.09057262765972,0 33.82211978321791,35.09124856622831,0 33.82166648837839,35.09205170617741,0 33.82163187892628,35.09213944783885,0 33.8214717443966,35.09234888386214,0 33.82125563536204,35.09253786336096,0 33.82127117736697,35.09257109392168,0 33.82108020664555,35.0927390682743,0 33.82091458119386,35.09290687072793,0 33.82079931761437,35.09304099530201,0 33.82062342750013,35.0931963655708,0 33.82037764741757,35.09346055016859,0 33.81994675118995,35.09397184107123,0 33.81988574885712,35.09395558613036,0 33.81946298538156,35.09426680264198,0 33.8188986854535,35.09462064462869,0 33.8185699479148,35.09470203833548,0 33.81844890035642,35.09476536007933,0 33.81840273228052,35.09471150043636,0 33.81742939284398,35.09421385745997,0 33.81742902230565,35.09468473322909,0 33.8160431151898,35.09472397240678,0 33.81500962287156,35.09502521099821,0 33.81482866038908,35.09451529639005,0 33.81453451601526,35.09462569476128,0 33.81456082204071,35.09474426530294,0 33.81406608447941,35.09489731318729,0 33.81379029289963,35.09432607888721,0 33.81362790177714,35.09442010131357,0 33.81333962746547,35.09448915333413,0 33.81367279722095,35.09525361523053,0 33.81317716248122,35.09546269638493,0 33.81299153353588,35.09507692350747,0 33.81259043528965,35.0952020859612,0 33.81223832872354,35.09545919142926,0 33.81204615062927,35.09561479636802,0 33.81172093542914,35.09587906830106,0 33.8113041328642,35.09622478557062,0 33.81101169436338,35.09648883627552,0 33.81145114031033,35.09692435285884,0 33.81128870798981,35.09702009768851,0 33.81057974778085,35.0973530601256,0 33.81014537185145,35.09755898638921,0 33.80983857270989,35.09766532244646,0 33.81008009219305,35.09799617494738,0 33.81046635536833,35.09815168787184,0 33.81074904643042,35.09830789219866,0 33.81107709068915,35.09856108227692,0 33.81896689389342,35.09589340187668,0 33.83242165694074,35.09488968831727,0 33.83273760522167,35.09503953217607,0 33.83712034631721,35.09822596359017,0 33.83812660695238,35.0989547578468,0 33.83837806678395,35.09912631410458,0 33.83834890934791,35.09916907980908,0 33.83787867162601,35.10021210424531,0 33.83755392860623,35.1002903552335,0 33.83746909795965,35.10031526319458,0 33.83735156621704,35.10039816281308,0 33.83731152887998,35.10046228499777,0 33.83727503526187,35.10051118091842,0 33.83723913219662,35.1006178386009,0 33.83717124258369,35.10085240847124,0 33.83715060127849,35.10100456516185,0 33.83713701758081,35.10112322920594,0 33.83698457397188,35.10141006791705,0 33.83676225047135,35.10173691157656,0 33.83673115756768,35.10203061101317,0 33.83669741470357,35.10213928081305,0 33.83664603667474,35.10222761188147,0 33.83654012183766,35.1023388249139,0 33.83635985870399,35.10248328710804,0 33.83622526110709,35.10271131737859,0 33.83610894794262,35.10277963748238,0 33.83595993875191,35.10281544571669,0 33.83577850408157,35.10284534071999,0 33.83560759585228,35.10288107685234,0 33.83503361625769,35.10295163738916,0 33.83452662153249,35.103088339804,0 33.83431345997971,35.10313824712448,0 33.83412215310972,35.10316378362253,0 33.83392366425985,35.10320753473527,0 33.83353423659027,35.10331314869038,0 33.8330196237162,35.10342567712251,0 33.83243839405436,35.1035083852657,0 33.83112201590137,35.10386504516032,0 33.83004128133115,35.10412317025185,0 33.82850835406827,35.10442968213016,0 33.82692965069857,35.10481876494421,0 33.82583686069824,35.10503283938981,0 33.82521460134736,35.10518547010882,0 33.82676125555546,35.10553916992691,0 33.82733699656937,35.10565665439814,0 33.82817592221803,35.10582629956886,0 33.82885056613762,35.10598357217766,0 33.82987101750449,35.10624639647541,0 33.83076001923708,35.10649662296037,0 33.83179799506024,35.10686723211963,0 33.83194723735968,35.10701460123325,0 33.83052556580818,35.10765839262947,0 33.82957772554537,35.10808308050067,0 33.82905489882775,35.10832948262843,0 33.82859688073815,35.1084303940295,0 33.82828989834589,35.10849158189185,0 33.82747237413008,35.10863175908313,0 33.82670268210509,35.1087617552096,0 33.82564174813358,35.10892984151595,0 33.82482072402248,35.10913420115865,0 33.82445813361788,35.10933051940719,0 33.82428963186126,35.10952113445772,0 33.82343874569743,35.11063902180697,0 33.82177716612988,35.11289098140704,0 33.8221563888319,35.11338123377971,0 33.8223146988793,35.11332212822001,0 33.82251181863172,35.113610952092,0 33.82237189150271,35.11374247440923,0 33.82345337381027,35.11594035842909,0 33.82376607436239,35.11718592781075,0 33.82409556480921,35.11834433307741,0 33.8242410495474,35.11876407672361,0 33.82460206406828,35.11954505702159,0 33.82512491896247,35.12061509442303,0 33.82579345494773,35.1216841368139,0 33.82538947349124,35.12189725577429,0 33.82511791591773,35.12210947106332,0 33.82490749867247,35.12225598373501,0 33.82467205562758,35.12254774761549,0 33.82426187000395,35.1230220486655,0 33.82404313148273,35.12321939555765,0 33.82455410422322,35.12398484617449,0 33.82530690658762,35.12500960129655,0 33.82551866857084,35.12521786009153,0 33.82526437953722,35.12621567074014,0 33.8247738239824,35.12819244312725,0 33.8246827940785,35.12865739979451,0 33.82464942762713,35.12896468814347,0 33.8245820990488,35.12997245845362,0 33.82449597307552,35.13092418626574,0 33.82442071551645,35.13114563199492,0 33.82430406074926,35.13132991426229,0 33.82425033545437,35.13148194261862,0 33.82401591596653,35.13171964697658,0 33.82384140456605,35.13182298915225,0 33.82362312717277,35.13193864658359,0 33.82316438801562,35.13214607485028,0 33.82134355233526,35.13292760091231,0 33.82017868635886,35.13347631441345,0 33.82001873447496,35.13357354309683,0 33.81991116307785,35.13366562186604,0 33.81980846681669,35.13375675086036,0 33.81972551551181,35.13387966486105,0 33.8196425117435,35.13399725923386,0 33.81948031174282,35.13396643841978,0 33.81932421538252,35.13389833754515,0 33.81817624709309,35.1337199049954,0 33.81690515056532,35.13353165173224,0 33.81630880045088,35.13347183377558,0 33.81549043996122,35.13322731858002,0 33.81484744232455,35.13303481540232,0 33.81404209301481,35.13279552188795,0 33.81276359266661,35.13251152049042,0 33.81201732246902,35.13235161253068,0 33.81115418680862,35.13216056444371,0 33.80968671919481,35.13175544206118,0 33.80914197638006,35.13167396505286,0 33.80864292654822,35.13162941933103,0 33.80812424327787,35.13156372274241,0 33.80713131047113,35.13134159350776,0 33.80601551560337,35.13113623128589,0 33.80537965958966,35.13100746654091,0 33.80510713487561,35.13095076074206,0 33.80475054135365,35.13090525247299,0 33.80440099780346,35.13091821203387,0 33.80424559943517,35.13091924338813,0 33.80407056613025,35.13089912597971,0 33.80360348042527,35.13081178968844,0 33.80243793663326,35.13081419274243,0 33.8019646918185,35.13075880871107,0 33.80169211801138,35.13069677559594,0 33.80104875464303,35.13046164348245,0 33.80087528553557,35.13060110199243,0 33.79987239871217,35.13068220169249,0 33.79899263678173,35.13077311949609,0 33.79781528461374,35.13089259005229,0 33.79722668546672,35.13096029909678,0 33.79706035785808,35.13116886169264,0 33.79712629975762,35.13129078113721,0 33.79719814684652,35.13135414508942,0 33.79692666622412,35.13206876885328,0 33.79575744429488,35.13218471739619,0 33.795275594821,35.13233313577172,0 33.79499336783239,35.13240277298561,0 33.79496913562387,35.13233514645813,0 33.79449935266555,35.13251253314194,0 33.79351178689097,35.13278046375816,0 33.79284466044975,35.13296881956695,0 33.79256818228384,35.13302388782238,0 33.79232734555153,35.13310777387099,0 33.7918700433506,35.13335769740928,0 33.79105987365028,35.13368739213123,0 33.79093105849405,35.13377538634079,0 33.79047823725648,35.13388001910084,0 33.79010179768232,35.13395994387772,0 33.78977816535725,35.13401531321583,0 33.78880323984936,35.1342035981753,0 33.78819913820982,35.13432325953812,0 33.78761598785843,35.13445135384721,0 33.78732985657301,35.1345389397026,0 33.78696529872909,35.13460988817179,0 33.78669908740583,35.13459875755275,0 33.78621320901873,35.13453333022339,0 33.78581648049062,35.13451447132869,0 33.78562310638693,35.13448143482352,0 33.78543996300311,35.13442690050917,0 33.78527159729251,35.13440901578376,0 33.78556217170971,35.1342278410099,0 33.78561428410666,35.13413312788658,0 33.78573590395329,35.13391455085552,0 33.78586670853523,35.13373221178014,0 33.78607550581639,35.13338965399944,0 33.78640905886148,35.13315518198865,0 33.78664554892877,35.13293585766608,0 33.78681162613755,35.13274602889311,0 33.78700490946904,35.13262862030918,0 33.7871719622599,35.13254041973526,0 33.78814356082059,35.1313636079146,0 33.78838629660284,35.13108785739183,0 33.7885783150729,35.13083978065236,0 33.78924321272103,35.13014578713237,0 33.78964420828866,35.12957692301347,0 33.79002808702212,35.12906624592495,0 33.78732489349544,35.12914917455287,0 33.78132780955413,35.12937194932351,0 33.77595772560484,35.12955747279515,0 33.77438776060652,35.12961281073707,0 33.77364412552095,35.12912185290148,0 33.77343225341829,35.12893557917517,0 33.7731909194119,35.12853184739317,0 33.77300821350043,35.12756486384427,0 33.7717806456753,35.12526113530865,0 33.77128244121059,35.12473895362925,0 33.77093718996173,35.12396813155422,0 33.7705336787431,35.12282993114299,0 33.77015334195519,35.12124127925009,0 33.76999879563062,35.120349160746,0 33.77139321823233,35.12001757691895,0 33.77130889192644,35.11979296267385,0 33.77243289742401,35.11887769457892,0 33.7722185044024,35.11842125210777,0 33.77101648400905,35.11881166178504,0 33.77094164803027,35.11862451141312,0 33.77573560825334,35.11604888998371,0 33.77924549108892,35.1149898456528,0 33.77857149080119,35.11479294842006,0 33.77746953787037,35.11453801369186,0 33.77667655361466,35.11439854068423,0 33.77605837130141,35.11414049238129,0 33.77558522898723,35.11386076312764,0 33.77525785319591,35.1134951129211,0 33.77493760184994,35.11334808726581,0 33.77484917537483,35.11329896199521,0 33.774678957112,35.11273989532961,0 33.77461311934177,35.11275386836055,0 33.77416217812999,35.112738679104,0 33.77398055714793,35.11271725202878,0 33.77391902096649,35.11260471061833,0 33.77360273501303,35.11229503119174,0 33.77330128750668,35.11239181889029,0 33.77324005012244,35.11231089664341,0 33.77318955202762,35.11220280216902,0 33.77313376981292,35.11211732733548,0 33.77308864046754,35.11199564627323,0 33.77306528712407,35.11185123945413,0 33.77297639413711,35.11175242429753,0 33.77211304745878,35.11114356328803,0 33.77155341731049,35.11009457720492,0 33.77151029357665,35.11018519916618,0 33.7714559619609,35.1102533055647,0 33.77140107685717,35.11026268940861,0 33.77133494142581,35.11024504110571,0 33.77088334829479,35.10941446719053,0 33.7703800242415,35.10849130550935,0 33.77018163884755,35.10819008139769,0 33.7685267678923,35.10498667594207,0 33.76836312575008,35.10470885903067,0 33.76828110498725,35.10454868357569,0 33.76824553473894,35.1044354769223,0 33.76816948771459,35.10429889513233,0 33.76812272617889,35.10421884377853,0 33.76806981639795,35.10409629410355,0 33.76786587619365,35.10381400580023,0 33.76778317122336,35.10368453007034,0 33.76766742301104,35.10350332481477,0 33.76754355411645,35.10317326474711,0 33.76740203553205,35.10280077988741,0 33.7672902905488,35.10253681255008,0 33.76696979317404,35.10208983803434,0 33.76686428882724,35.1018778208797,0 33.76676886930763,35.10151449639226,0 33.76664863455096,35.1009575479841,0 33.76650416001144,35.10026841573031,0 33.76628577048814,35.09966955186044,0 33.76621521604891,35.09950457547735,0 33.76576504354841,35.09871812121762,0 33.76563658871152,35.09851097284968,0 33.76539909650668,35.09832814527888,0 33.76522574292841,35.09823943897168,0 33.76513280902909,35.09814077208843,0 33.76499873808557,35.0979478381543,0 33.76488019838396,35.09757047894071,0 33.76483318027277,35.09746206929523,0 33.7647173770853,35.09737772604166,0 33.76445485900289,35.09697764185417,0 33.7643258809872,35.0967137800762,0 33.76424764274493,35.09634089203588,0 33.76410566645637,35.09591641636328,0 33.76400535441457,35.09564291977836,0 33.76388893754827,35.09549241057709,0 33.76380149377921,35.09536535038996,0 33.76374271329998,35.09522865674413,0 33.76363151961042,35.09502139733357,0 33.76346839801671,35.09479556002336,0 33.76332863088756,35.09460738681538,0 33.76318337888284,35.09444760468362,0 33.76300911136799,35.09425964824497,0 33.76281197674573,35.0940860133247,0 33.76273603668212,35.09395887994469,0 33.76261154269595,35.09355792396112,0 33.76242511919279,35.09329914721156,0 33.7623000999678,35.0928414770821,0 33.76235459435059,35.09283001404933,0 33.76259819567559,35.0927982676678,0 33.76257989605821,35.09259598984314,0 33.76294911724463,35.09258017425698,0 33.76309399072925,35.0931527104858,0 33.76333704565006,35.09369089579884,0 33.76366649870891,35.09359099822291,0 33.76374401676404,35.09398180373175,0 33.76397345963077,35.093939879668,0 33.76396204219291,35.09359588239123,0 33.76398572226884,35.0934945372011,0 33.76405081817165,35.0934334087012,0 33.76400858315053,35.09330549223581,0 33.76404059614438,35.09321758648072,0 33.76421170072758,35.0930815795674,0 33.76431764651728,35.09299995460849,0 33.76431682816631,35.09291225573397,0 33.76439006867948,35.09284432973048,0 33.7645457628901,35.09281636236899,0 33.76465126716213,35.09268751444615,0 33.76487111179387,35.09249722778163,0 33.76515642764795,35.09228628783547,0 33.76552337817853,35.09202760638053,0 33.76585023280907,35.09187037398034,0 33.76615189603392,35.09165258156473,0 33.76660129505765,35.09143385534291,0 33.76736226253364,35.09117942344329,0 33.76763229021537,35.09109001018519,0 33.76766491790193,35.09107018853921,0 33.76772206784885,35.09103547034053,0 33.76785017869055,35.09099395880127,0 33.7679382876695,35.09094323952645,0</coordinates>
						</LinearRing>
					</outerBoundaryIs>
				</Polygon>
			</MultiGeometry>
		</Placemark>
	</Document>
</kml>