<?xml version='1.0' encoding='UTF-8'?>
<kml xmlns="http://www.opengis.net/kml/2.2">
	<Document>
		<name>KATO MYLOS</name>
		<Style id="PolyStyle70">
			<LabelStyle>
				<color>00000000</color>
				<scale>0.000000</scale>
			</LabelStyle>
			<LineStyle>
				<color>ff0055ff</color>
				<width>2.000000</width>
			</LineStyle>
			<PolyStyle>
				<color>00828282</color>
				<outline>1</outline>
			</PolyStyle>
		</Style>
		<Placemark id="ID_70539">
			<name>KATO MYLOS</name>
			<snippet />
			<description>&lt;html xmlns:fo="http://www.w3.org/1999/XSL/Format" xmlns:msxsl="urn:schemas-microsoft-com:xslt"&gt;

&lt;head&gt;

&lt;META http-equiv="Content-Type" content="text/html"&gt;

&lt;meta http-equiv="content-type" content="text/html; charset=UTF-8"&gt;

&lt;/head&gt;

&lt;body style="margin:0px 0px 0px 0px;overflow:auto;background:#FFFFFF;"&gt;

&lt;table style="font-family:Arial,Verdana,Times;font-size:12px;text-align:left;width:100%;border-collapse:collapse;padding:3px 3px 3px 3px"&gt;

&lt;tr style="text-align:center;font-weight:bold;background:#9CBCE2"&gt;

&lt;td&gt;5&lt;/td&gt;

&lt;/tr&gt;

&lt;tr&gt;

&lt;td&gt;

&lt;table style="font-family:Arial,Verdana,Times;font-size:12px;text-align:left;width:100%;border-spacing:0px; padding:3px 3px 3px 3px"&gt;

&lt;tr&gt;

&lt;td&gt;DIST_CODE&lt;/td&gt;

&lt;td&gt;5&lt;/td&gt;

&lt;/tr&gt;

&lt;tr bgcolor="#D4E4F3"&gt;

&lt;td&gt;VIL_CODE&lt;/td&gt;

&lt;td&gt;362&lt;/td&gt;

&lt;/tr&gt;

&lt;tr&gt;

&lt;td&gt;VIL_CCD&lt;/td&gt;

&lt;td&gt;5362&lt;/td&gt;

&lt;/tr&gt;

&lt;tr bgcolor="#D4E4F3"&gt;

&lt;td&gt;VIL_NM_E&lt;/td&gt;

&lt;td&gt;KATO MYLOS&lt;/td&gt;

&lt;/tr&gt;

&lt;tr&gt;

&lt;td&gt;VIL_NM_G&lt;/td&gt;

&lt;td&gt;ΚΑΤΩ ΜΥΛΟΣ&lt;/td&gt;

&lt;/tr&gt;

&lt;/table&gt;

&lt;/td&gt;

&lt;/tr&gt;

&lt;/table&gt;

&lt;/body&gt;&lt;script type="text/javascript"&gt;

				function changeImage(attElement, nameElement) {

				document.getElementById('imageAttachment').src = attElement;

				document.getElementById('imageName').innerHTML = nameElement;}

			&lt;/script&gt;&lt;/html&gt;

</description>
			<styleUrl>#PolyStyle70</styleUrl>
			<MultiGeometry>
				<Polygon>
					<extrude>0</extrude>
					<altitudeMode>clampToGround</altitudeMode>
					<outerBoundaryIs>
						<LinearRing>
							<coordinates> 32.98944714126289,34.88863705352922,0 32.98957236066354,34.88854621494831,0 32.98961079751014,34.88845874566058,0 32.98960847701733,34.88836407123988,0 32.98978040257822,34.88837478957307,0 32.98992669379543,34.88834730682446,0 32.99045396739272,34.88811569253344,0 32.99072697794648,34.8880109486733,0 32.99091783523395,34.8879459220497,0 32.99103345784984,34.88794360220444,0 32.99126237922341,34.88800273021478,0 32.99148128370811,34.88807793075183,0 32.99172550841561,34.88815022185577,0 32.99187004334778,34.88816075958414,0 32.9923573362923,34.88813484492802,0 32.99249977912447,34.88815007199274,0 32.99257016473393,34.88818817046717,0 32.99269695946011,34.88832307483958,0 32.99309288709452,34.88875990019045,0 32.99321129490917,34.8888256365966,0 32.9933214794443,34.8888348230145,0 32.99363269765215,34.88880602053977,0 32.99379908916065,34.88875603052235,0 32.99389844132715,34.88866937066972,0 32.99406819903739,34.88843151308368,0 32.99418666363057,34.88834791252417,0 32.99440211675707,34.8883113843867,0 32.99461966140969,34.88824152684657,0 32.9949209267311,34.88807483475104,0 32.99509557832255,34.88799865723115,0 32.99527153976895,34.88798724110068,0 32.99540751408453,34.88802194562808,0 32.99549368170995,34.88808275400376,0 32.99554083069565,34.8881872313787,0 32.99558632396513,34.88850754606983,0 32.99563319201317,34.88867661279847,0 32.99573489999712,34.88879652566974,0 32.9958539904374,34.88888412226065,0 32.99598772608726,34.88893834593804,0 32.99615402728954,34.88894667615843,0 32.99646793509661,34.88891799271324,0 32.99663605201491,34.88888123026722,0 32.99677553101926,34.88881370052813,0 32.99692809607468,34.88869391151287,0 32.99715559346933,34.88847972570348,0 32.99736820030714,34.88826610614752,0 32.99767723307852,34.88802012082266,0 32.99796765944355,34.88786643331718,0 32.99812849209378,34.8878219225641,0 32.99816411031163,34.88777668590762,0 32.99819634022079,34.88763926204192,0 32.99826593873889,34.88754597524316,0 32.9983635046006,34.88752624216983,0 32.99888582651204,34.88752378174168,0 32.99913283867948,34.88754007467181,0 32.99926006067267,34.88759454441474,0 32.99931340322983,34.88765598540071,0 32.9993051329467,34.88774912442693,0 32.99917254696305,34.88789915284086,0 32.99880995403446,34.88819019566239,0 32.99877569184574,34.88828299003455,0 32.99880640582742,34.88836613418657,0 32.99899357823027,34.8884973636881,0 32.99924767463089,34.88865422951623,0 32.99965960262311,34.88876324848297,0 32.99991742533894,34.88870873317639,0 33.00012488846441,34.8886925666392,0 33.00021738369129,34.88877688673699,0 33.00025122756836,34.88902239600085,0 33.00019602198802,34.88920291217095,0 33.00001516293714,34.88934702625589,0 32.99975739066505,34.88944838352386,0 32.99954684644838,34.88956482790623,0 32.99946548087367,34.88975306179458,0 32.99945208891434,34.88992392060907,0 32.99952689629963,34.89006836567174,0 32.99974867310527,34.8902965823065,0 32.99983421826514,34.8903895186638,0 32.99985441588002,34.89058714773864,0 32.99994804183311,34.89091333903878,0 33.00001732826932,34.89100752735531,0 33.00010866409271,34.89107706562118,0 33.00087911161964,34.89131988003675,0 33.00120821646835,34.89144015691999,0 33.00139166295313,34.89160407627654,0 33.00166902042621,34.89179192023176,0 33.00186402069632,34.89190782328654,0 33.00208545550716,34.89200506838792,0 33.00235577226762,34.89211179804451,0 33.00246120753992,34.89208705672718,0 33.00272884048367,34.89196900691745,0 33.00281537331365,34.89196919515148,0 33.0029318124714,34.89201315943718,0 33.00307827869941,34.8920759260776,0 33.00327163146233,34.8923217682694,0 33.00346259907521,34.89253767055138,0 33.00356770683668,34.89260037286243,0 33.00369932556906,34.89262878695469,0 33.00377084860037,34.89262895513215,0 33.00394782974711,34.892620000884,0 33.00434727134868,34.89254909500593,0 33.00463736714822,34.89252477775757,0 33.00485579836955,34.89253153006533,0 33.00510034755872,34.89260082667993,0 33.00531390526223,34.89286689856448,0 33.00547878520169,34.89307039222332,0 33.00566277655888,34.89321770677866,0 33.00582345137921,34.89326631045706,0 33.00598525627751,34.89332609267294,0 33.00633953330635,34.89334261351517,0 33.00671277649626,34.8933498086453,0 33.00701290792937,34.89338771996204,0 33.00732157343673,34.89351261304847,0 33.00750050637362,34.89364325291163,0 33.00789078347474,34.8939129690576,0 33.00816683456745,34.89409351453383,0 33.00827462624734,34.89425502073162,0 33.00838253508689,34.89439173441421,0 33.00850195204598,34.89446648014917,0 33.00864388856572,34.89452889331864,0 33.00878975862253,34.89455101240481,0 33.00913026830921,34.89457989120768,0 33.00925748591914,34.89459576052065,0 33.00936573225065,34.89467049904277,0 33.00966966621625,34.89494217488735,0 33.00985264827218,34.89506057744319,0 33.00998701440921,34.89516644013565,0 33.01009105516852,34.89535596727754,0 33.01016132240957,34.89556091093491,0 33.0102169926936,34.89567896112161,0 33.01025024236084,34.89578453539109,0 33.01033617093792,34.89583754471581,0 33.01045228112513,34.89584412073722,0 33.0106135779391,34.89580120436383,0 33.01072630052622,34.89573020669564,0 33.01089896071278,34.89566559930661,0 33.0110002121186,34.89565040537251,0 33.0111537636101,34.8956757102297,0 33.01151729977135,34.89568926650288,0 33.01174245634493,34.89564032182358,0 33.01188146872622,34.8955755846721,0 33.01196300046244,34.89550444556884,0 33.01215493660852,34.89534675052894,0 33.01224905797709,34.8952632358556,0 33.01241054434022,34.89521406015464,0 33.01250049324643,34.89522985054291,0 33.0126539177875,34.89531412415779,0 33.01274651995218,34.89558447093744,0 33.01273417670981,34.89583511410071,0 33.01266928019706,34.89609255421479,0 33.01266872423196,34.89621982366855,0 33.01267968017263,34.89628815194099,0 33.01274311432587,34.89636596782407,0 33.01284781843997,34.89644392535308,0 33.01317103727644,34.89658929269325,0 33.01332823686131,34.89668296888632,0 33.01344738075164,34.89690071834683,0 33.01354438076417,34.89703456831266,0 33.01369048866917,34.89709718423234,0 33.01378011573988,34.89720307657109,0 33.01388788407024,34.89745498886581,0 33.0139468475823,34.89774707046621,0 33.01399011916472,34.89810825125392,0 33.0140074003294,34.89825915626023,0 33.01399175519563,34.89841982497874,0 33.01395770436184,34.89868371735125,0 33.01391717858224,34.8990668271891,0 33.0139372984089,34.89925236439587,0 33.01397850507202,34.89940090214786,0 33.01405597222725,34.8994605732498,0 33.01410349361787,34.89955184155242,0 33.01413107519002,34.89966811637896,0 33.01414623159398,34.89977143349967,0 33.01418958546963,34.89984905981152,0 33.01431682942675,34.90001481934497,0 33.01424463039709,34.90011001749062,0 33.01404425866566,34.9002473413688,0 33.01377848795433,34.90037005724979,0 33.01352551925955,34.90043937145306,0 33.01331534064025,34.90053549567023,0 33.01321386712029,34.90057180423759,0 33.01304633281023,34.90058423970487,0 33.01269706715793,34.9005800786612,0 33.01255668481796,34.90059492377748,0 33.01236296288817,34.90068950588201,0 33.01215017332496,34.9008717071175,0 33.01194060582379,34.901035842746,0 33.01175500402289,34.90112156820512,0 33.01153342230501,34.90119275382244,0 33.01133058598436,34.90125885856128,0 33.01103138712982,34.90128065411368,0 33.01085376599843,34.90129270706351,0 33.01076028400187,34.90129999902943,0 33.01056686797791,34.90136870592667,0 33.01046541302382,34.90143098816594,0 33.01030939652455,34.90149986089851,0 33.01021282975786,34.90150713197149,0 33.01001972212038,34.90151909395619,0 33.00984784792724,34.90158521619802,0 33.00969156664468,34.9017262549522,0 33.00950426238364,34.90184650505813,0 33.00945425482851,34.9018926628193,0 33.00943821336334,34.90200085611018,0 33.00940301953342,34.90221722669451,0 33.00932730584431,34.90244627555949,0 33.00932715753931,34.90247978669741,0 33.0093892481982,34.90251619478863,0 33.00949198258829,34.90255226344388,0 33.00955692842265,34.90264798253813,0 33.00960005270387,34.90275132682024,0 33.00950639572726,34.90281271520103,0 33.00947824455253,34.90284350526542,0 33.00945604630528,34.90293619691531,0 33.00943615033871,34.90321193438265,0 33.00938143630072,34.90361895788961,0 33.00935260896394,34.90378825729546,0 33.00946375051431,34.90399510537188,0 33.00955339590671,34.90413739553657,0 33.00948666998892,34.90444381090488,0 33.00929235577673,34.90474432618369,0 33.0091700589204,34.9048697837701,0 33.00894228593277,34.90500250474168,0 33.00870853694708,34.9050862016818,0 33.00881693862009,34.90520024793577,0 33.00890673185414,34.90530130387152,0 33.00883480805501,34.90538078476288,0 33.00870644640727,34.90555787150441,0 33.00864655232531,34.90573278078042,0 33.00853322111394,34.90579228756792,0 33.00846762565567,34.90585116984074,0 33.00843287332258,34.90596367763015,0 33.00837269164592,34.90624614233055,0 33.00799921413215,34.90624245172965,0 33.00800806070773,34.90652072087243,0 33.00860224811468,34.90723561114505,0 33.00851636638664,34.90761356199259,0 33.00837400069039,34.90786685988777,0 33.00792009788581,34.90787871270885,0 33.00762682151532,34.90796062924203,0 33.00749920865981,34.90794898694629,0 33.00735964573445,34.90811283340693,0 33.00704321068008,34.90798438768814,0 33.00686382677122,34.907875378484,0 33.00694456456752,34.90769226674072,0 33.006954129855,34.90759277586822,0 33.00681258017921,34.90747597325036,0 33.00673747557891,34.90723060407024,0 33.00664799098363,34.90708262739994,0 33.00649679572238,34.90706321851376,0 33.00633170244651,34.90691528258137,0 33.00609333928222,34.90686001022857,0 33.00583840874667,34.90674718113863,0 33.00570119288908,34.90683292829502,0 33.00546196469715,34.90680862918896,0 33.00564402680643,34.90729108698517,0 33.00544880640179,34.90730630952183,0 33.00538548667721,34.90722807440265,0 33.00516651402862,34.90707812814853,0 33.0050847343234,34.90711724966432,0 33.00485519283961,34.90696182883139,0 33.00472594834483,34.90706727918307,0 33.00458876893541,34.90711075015914,0 33.00454324922524,34.90703206230344,0 33.00438285960537,34.9069308840421,0 33.00383623794167,34.90705922636461,0 33.00372760622191,34.90705927301078,0 33.00332671750536,34.90681024688965,0 33.00303402873242,34.9067636554019,0 33.00284534251809,34.90667419184993,0 33.00262351560433,34.90662757335613,0 33.00240621843773,34.90667049820018,0 33.00206694792067,34.90637478279771,0 33.0017646777529,34.90646835272133,0 33.00169172777301,34.9064633687824,0 33.00157040133488,34.90634299455169,0 33.00147243748205,34.90623493000918,0 33.00136142594056,34.90617818732954,0 33.00113768535108,34.906063823676,0 33.00097968044675,34.90594459852295,0 33.00091069836034,34.90591090044981,0 33.00082368560884,34.90588529740985,0 33.00068262207144,34.90585647467046,0 33.00049846959417,34.90578027756472,0 33.00033339746746,34.9056733598845,0 33.00001440144027,34.90567776838302,0 32.99984567085691,34.9056655852912,0 32.99961573137907,34.90561110792585,0 32.99947975606911,34.90554185412761,0 32.99930985405136,34.90538421719474,0 32.99901587089274,34.90530285279822,0 32.99891449161226,34.90523674196906,0 32.99852739521039,34.90490882657951,0 32.99799316472223,34.90471164646454,0 32.99806151237248,34.90436429754234,0 32.99818454038869,34.90431573244084,0 32.99839157469301,34.90419172394854,0 32.99868105885778,34.90396198315256,0 32.9988628700025,34.90368229267561,0 32.99889968512628,34.90339428758141,0 32.99903948672171,34.90313114149994,0 32.99927268567211,34.90287303761169,0 32.99921318182867,34.90268899513267,0 32.9991797210552,34.90239686262512,0 32.99924877407641,34.90157433454497,0 32.99959702653526,34.9009604446988,0 33.00012424407008,34.90065510501044,0 33.00011223401593,34.90028075834479,0 32.99997060064893,34.89964441811357,0 32.99988883942717,34.89936099266989,0 32.9997026894543,34.89944673490552,0 32.99927854773966,34.89896093284537,0 32.99918113810893,34.89865744518293,0 32.99899574245322,34.89868614753856,0 32.99874991984737,34.89862080595042,0 32.99830943169606,34.89861993973074,0 32.9979658748179,34.89855727063797,0 32.99778542664826,34.89858630837062,0 32.99767111416116,34.89855522176747,0 32.99800027506217,34.89839931763863,0 32.99748407942065,34.89803895702604,0 32.99740192139492,34.89806531079022,0 32.99722237453528,34.89790071860848,0 32.99696955061128,34.89752042520271,0 32.99668342570065,34.89761538026572,0 32.99643846439398,34.89750915266098,0 32.9965825037242,34.89724259009984,0 32.99649653474855,34.89694918767305,0 32.99628282183569,34.89683323947518,0 32.99599370571001,34.8967563173286,0 32.99583891740028,34.89670586735127,0 32.99579586286169,34.89666470956839,0 32.99578438586106,34.89657440256928,0 32.99579138652528,34.89649954604845,0 32.99573428376535,34.89641573145109,0 32.99559386891688,34.89637729880553,0 32.99508894568569,34.89615100721318,0 32.99475964469435,34.89605230792679,0 32.99436528833164,34.89588497064003,0 32.99425152242468,34.89580724645453,0 32.99418477899378,34.89566717247262,0 32.99416886883119,34.8954936943039,0 32.99400150700293,34.89526774472612,0 32.99397741022794,34.89513901017283,0 32.99386941253976,34.89503360888173,0 32.99350031516177,34.89442650252366,0 32.99346741992271,34.89418468306276,0 32.99341514508311,34.89413990733113,0 32.99309181501566,34.89394547048598,0 32.99296041027711,34.89382509315011,0 32.99284258117992,34.89361651830237,0 32.99263660938664,34.89337876369331,0 32.9924205191653,34.89321896406433,0 32.99225008955631,34.89318648510611,0 32.99188016182829,34.89316179023073,0 32.99179950865118,34.89312584875199,0 32.99166827871333,34.89301786216507,0 32.99149219458016,34.89291131641552,0 32.99138250489734,34.89278593044947,0 32.9910772531797,34.89261285911568,0 32.99077415325289,34.89233579839233,0 32.99040587911515,34.89208021769232,0 32.99001193113327,34.89189611106556,0 32.98992020780897,34.89173826423151,0 32.98990948092413,34.89149471296264,0 32.98988557874959,34.89141030875711,0 32.98971482493894,34.89124320813726,0 32.98952439442866,34.89113652577931,0 32.98925304354768,34.89096530430277,0 32.98912882963477,34.89085075033824,0 32.98902207352428,34.89069541558202,0 32.98890646394635,34.89051472319309,0 32.98887081431896,34.89048689955898,0 32.98880117872279,34.89047474439676,0 32.98866254966092,34.89052301199905,0 32.98852215804111,34.89065714274756,0 32.98838504498671,34.89079762792498,0 32.98832517354846,34.89080804108092,0 32.98827257841608,34.89079611531778,0 32.98792155069827,34.89054249383975,0 32.98778452570443,34.89042987352239,0 32.98773707641715,34.890312851353,0 32.98771290994413,34.89016178757115,0 32.98773094969148,34.88996817446496,0 32.98782731150546,34.88984081907483,0 32.98790684757554,34.88980648288444,0 32.98799667274104,34.88981049420279,0 32.98812575787839,34.88985324436366,0 32.98843640236262,34.8899773085619,0 32.98851606357164,34.88997837891863,0 32.98856305888804,34.88995166724285,0 32.98876742357638,34.88971077979033,0 32.98893907791583,34.88938181788627,0 32.98907635519533,34.88906676913739,0 32.98926442852957,34.88880954336993,0 32.98942054021489,34.88865635024369,0 32.98944714126289,34.88863705352922,0</coordinates>
						</LinearRing>
					</outerBoundaryIs>
				</Polygon>
			</MultiGeometry>
		</Placemark>
	</Document>
</kml>