<?xml version='1.0' encoding='UTF-8'?>
<kml xmlns="http://www.opengis.net/kml/2.2">
	<Document>
		<name>KATO KOUTRAFAS</name>
		<Style id="PolyStyle70">
			<LabelStyle>
				<color>00000000</color>
				<scale>0.000000</scale>
			</LabelStyle>
			<LineStyle>
				<color>ff0055ff</color>
				<width>2.000000</width>
			</LineStyle>
			<PolyStyle>
				<color>00828282</color>
				<outline>1</outline>
			</PolyStyle>
		</Style>
		<Placemark id="ID_70468">
			<name>KATO KOUTRAFAS</name>
			<snippet />
			<description>&lt;html xmlns:fo="http://www.w3.org/1999/XSL/Format" xmlns:msxsl="urn:schemas-microsoft-com:xslt"&gt;

&lt;head&gt;

&lt;META http-equiv="Content-Type" content="text/html"&gt;

&lt;meta http-equiv="content-type" content="text/html; charset=UTF-8"&gt;

&lt;/head&gt;

&lt;body style="margin:0px 0px 0px 0px;overflow:auto;background:#FFFFFF;"&gt;

&lt;table style="font-family:Arial,Verdana,Times;font-size:12px;text-align:left;width:100%;border-collapse:collapse;padding:3px 3px 3px 3px"&gt;

&lt;tr style="text-align:center;font-weight:bold;background:#9CBCE2"&gt;

&lt;td&gt;1&lt;/td&gt;

&lt;/tr&gt;

&lt;tr&gt;

&lt;td&gt;

&lt;table style="font-family:Arial,Verdana,Times;font-size:12px;text-align:left;width:100%;border-spacing:0px; padding:3px 3px 3px 3px"&gt;

&lt;tr&gt;

&lt;td&gt;DIST_CODE&lt;/td&gt;

&lt;td&gt;1&lt;/td&gt;

&lt;/tr&gt;

&lt;tr bgcolor="#D4E4F3"&gt;

&lt;td&gt;VIL_CODE&lt;/td&gt;

&lt;td&gt;329&lt;/td&gt;

&lt;/tr&gt;

&lt;tr&gt;

&lt;td&gt;VIL_CCD&lt;/td&gt;

&lt;td&gt;1329&lt;/td&gt;

&lt;/tr&gt;

&lt;tr bgcolor="#D4E4F3"&gt;

&lt;td&gt;VIL_NM_E&lt;/td&gt;

&lt;td&gt;KATO KOUTRAFAS&lt;/td&gt;

&lt;/tr&gt;

&lt;tr&gt;

&lt;td&gt;VIL_NM_G&lt;/td&gt;

&lt;td&gt;ΚΑΤΩ ΚΟΥΤΡΑΦΑΣ&lt;/td&gt;

&lt;/tr&gt;

&lt;/table&gt;

&lt;/td&gt;

&lt;/tr&gt;

&lt;/table&gt;

&lt;/body&gt;&lt;script type="text/javascript"&gt;

				function changeImage(attElement, nameElement) {

				document.getElementById('imageAttachment').src = attElement;

				document.getElementById('imageName').innerHTML = nameElement;}

			&lt;/script&gt;&lt;/html&gt;

</description>
			<styleUrl>#PolyStyle70</styleUrl>
			<MultiGeometry>
				<Polygon>
					<extrude>0</extrude>
					<altitudeMode>clampToGround</altitudeMode>
					<outerBoundaryIs>
						<LinearRing>
							<coordinates> 32.94487132023885,35.09435061909163,0 32.94495734803238,35.09464750276717,0 32.94490654087515,35.09475864925271,0 32.94476674203327,35.09486634515859,0 32.94469285614991,35.09494562056503,0 32.94470396458624,35.09505695744237,0 32.94467634232714,35.09517453606692,0 32.9446062565518,35.09526972400389,0 32.94416932235593,35.09519206601004,0 32.94399124334475,35.09520742148823,0 32.94384772986681,35.09528012263072,0 32.94379319391413,35.09535945872504,0 32.94382361843016,35.0954772127779,0 32.94395840984755,35.09562072973448,0 32.9439582510094,35.09565570991958,0 32.94391949699526,35.09566831269282,0 32.94385776776712,35.09562678213819,0 32.94379244430613,35.0955248200145,0 32.94373077224664,35.09547057047373,0 32.943657176439,35.09548624342882,0 32.94355586995088,35.09563857668363,0 32.9435631623836,35.095737182112,0 32.94367724966203,35.09617956062631,0 32.94387450911082,35.09620242541495,0 32.94393620700876,35.09625031451416,0 32.94395105254139,35.09639028386129,0 32.9439197915943,35.09645697040215,0 32.94378046530513,35.09645972279417,0 32.94366811198168,35.09648800117003,0 32.94360580441461,35.09657367139109,0 32.94368581577335,35.09685058224442,0 32.94351020081605,35.09717441175357,0 32.94349750881663,35.09741287656014,0 32.9433961129712,35.09758428890539,0 32.94335311323064,35.09767955903141,0 32.94337595591445,35.09776231223602,0 32.94345693516506,35.0978261619812,0 32.94359204780168,35.09789971714758,0 32.94367283988703,35.09800490637598,0 32.94376557275526,35.09803699196248,0 32.94402880859766,35.09801871863214,0 32.94410615017614,35.09803167426983,0 32.94410593335616,35.09807937606035,0 32.94402040697174,35.09816497627165,0 32.94390774790247,35.09826003321758,0 32.94389592246586,35.09830769628218,0 32.94391875163111,35.09839362775317,0 32.94392200103213,35.09853038085598,0 32.94384972098444,35.0991089338779,0 32.94376472594443,35.09907687178133,0 32.94373760520121,35.09908314835807,0 32.94362861342729,35.09922273834263,0 32.94354232202822,35.09947687865677,0 32.94309425958061,35.10014013981687,0 32.942976844006,35.10042916417922,0 32.94285610737268,35.10059733802559,0 32.94270820928292,35.10078132682313,0 32.94264555112717,35.10094331624556,0 32.942652784661,35.10105464145078,0 32.94282988106619,35.10125871030956,0 32.94294515734511,35.10144032808365,0 32.94302629695119,35.10146919612738,0 32.94325485983801,35.10141901711052,0 32.94336304756996,35.10145751115363,0 32.94347058599547,35.10163910407527,0 32.9434854876405,35.10176635264439,0 32.94345409480675,35.10186165879756,0 32.94333743082614,35.10198532232142,0 32.94297634396592,35.10224180233728,0 32.94265768079998,35.10253020864217,0 32.94233503013726,35.10284404284978,0 32.9421483679391,35.10304063312596,0 32.941637671563,35.10300408035101,0 32.94162407786794,35.10259063010859,0 32.94144545729392,35.10272046186174,0 32.94128669780135,35.10273905152984,0 32.94116682628411,35.10271642294661,0 32.94101673373115,35.10253151626191,0 32.94094697313692,35.10255356150192,0 32.94067660490791,35.10243506320879,0 32.94068227832027,35.10204075203095,0 32.94058689402993,35.10174153185311,0 32.9403865389248,35.10154692846007,0 32.94028075554471,35.10098372956673,0 32.93985373511706,35.10042589634643,0 32.93946942328287,35.10068229135874,0 32.93958843011693,35.10089254397379,0 32.93927440534279,35.10101241291311,0 32.93882412959823,35.1004640454832,0 32.93846265994986,35.09996047299235,0 32.93820400377265,35.09982292552407,0 32.93778024272089,35.09940183814071,0 32.93749926168569,35.09907023590926,0 32.93730289476584,35.09885337891573,0 32.93665159810266,35.0982630347795,0 32.93645911828425,35.09804300815327,0 32.93600505189108,35.09748507754266,0 32.93542027172916,35.09674229128366,0 32.93511583949789,35.09646467097637,0 32.9345990881765,35.09607508275028,0 32.93416625894036,35.09567949482029,0 32.93409432822313,35.09560109856132,0 32.93428912238262,35.09544224540684,0 32.93460986777973,35.09519936254081,0 32.93498772988287,35.09494727807742,0 32.93520190623372,35.09471031280678,0 32.9353627721111,35.09448256183619,0 32.93541043011869,35.0943213540523,0 32.93550216284179,35.09401105691969,0 32.93566163951633,35.09373674405424,0 32.93589665739601,35.09345085170248,0 32.93605646691451,35.09309971005136,0 32.93606412932012,35.09299631018772,0 32.93614669971214,35.09302316355568,0 32.93623516137493,35.09333370936823,0 32.93634941616062,35.09350249876891,0 32.93671843731504,35.09378437116015,0 32.93697199598805,35.09415453452851,0 32.93711286779583,35.09432667405586,0 32.9372244712605,35.09446304909498,0 32.93725126757191,35.09452673342782,0 32.93725070996779,35.09464757576911,0 32.9374475348479,35.09476267082795,0 32.93776869226092,35.09477003117802,0 32.93793113383366,35.09478961653204,0 32.93808933786731,35.09488868977441,0 32.93818548047629,35.09501937080555,0 32.93830929380968,35.09502293766163,0 32.9384912483002,35.09500760240988,0 32.93867268506634,35.09510356778075,0 32.93906592419003,35.09542597456998,0 32.93913172547825,35.0954229996048,0 32.93918221803142,35.09538181501445,0 32.93926756016138,35.09533755871962,0 32.93933714092206,35.09535367567486,0 32.9394335632638,35.09542393499118,0 32.93949926254724,35.09544321838325,0 32.93956135189453,35.09540525115823,0 32.93961215558664,35.09529728531099,0 32.93977125547219,35.09520237617832,0 32.93981418606601,35.09512300818862,0 32.93971110201144,35.0948174011537,0 32.93962118649987,35.09433446994134,0 32.93956828073338,35.09405031703584,0 32.93945185372809,35.09356829637009,0 32.93949638440915,35.09326703179822,0 32.93933522416758,35.09313060338901,0 32.93931427428484,35.09299461189617,0 32.93920670301927,35.09292926768805,0 32.93911742315386,35.09279897396911,0 32.93884825370149,35.0926976710083,0 32.93847822467588,35.09263446776358,0 32.93840640058881,35.09261651389084,0 32.93824162087532,35.09248893947126,0 32.93820627084543,35.09235585651269,0 32.93820654245023,35.09229675903987,0 32.93818553967171,35.09217258574829,0 32.93812067620075,35.09220784302624,0 32.93804216528541,35.09207758194069,0 32.9380323989166,35.0918559300212,0 32.9380006301234,35.09173172234077,0 32.93802259189452,35.09164314257951,0 32.93798760229767,35.09143618702279,0 32.93806756127714,35.0912473203056,0 32.9379460743567,35.09108441860078,0 32.93793227758992,35.09096026875964,0 32.93799045958254,35.09081565668323,0 32.93794117642607,35.09058797206057,0 32.9381248141948,35.09052648939291,0 32.93814341036789,35.09039061967461,0 32.93815794851495,35.09035816084749,0 32.93837473257769,35.09012539350563,0 32.93848022531607,35.08985386531791,0 32.9384100081644,35.08948723340097,0 32.9384326952216,35.08924499696986,0 32.93854793312757,35.08920398697953,0 32.93863973535059,35.08878466834687,0 32.938934961274,35.08869102609184,0 32.93887848043153,35.08846627585493,0 32.93876729312495,35.0884097866895,0 32.93881506488034,35.08818240279894,0 32.93866421380745,35.08815238519384,0 32.93862963815667,35.08785087240294,0 32.93851540081514,35.08767912926457,0 32.9382674606517,35.08765176613901,0 32.93755517724967,35.08775297193522,0 32.93694039070296,35.0877628758148,0 32.93665627937785,35.08778562817127,0 32.93681619595178,35.0874078953033,0 32.93676233328278,35.08739295061188,0 32.93635794724957,35.08699276864184,0 32.93603978462541,35.08660763305944,0 32.93601858198416,35.08652778084592,0 32.93624929243044,35.08638961899197,0 32.93636178675864,35.08616244037272,0 32.9364485669852,35.08605633615192,0 32.93703323890464,35.08556172552588,0 32.93708503966138,35.08524275060746,0 32.93783257859182,35.08450339065391,0 32.93751025896513,35.08423939514349,0 32.93748264713427,35.08399109597111,0 32.93721346784243,35.08389865196131,0 32.93692172953176,35.08401593784937,0 32.93690744345037,35.08399815991487,0 32.93690073080059,35.08389176867675,0 32.9367601138657,35.08398292587029,0 32.93669192767259,35.08395908210846,0 32.93621246809025,35.08347001581288,0 32.935570478629,35.08315182560258,0 32.93515229291812,35.08263043849722,0 32.93500242692205,35.08239061777783,0 32.93502420403413,35.0823463627318,0 32.9352511237018,35.08224661176655,0 32.93520496239613,35.08212531155468,0 32.93522668393151,35.08209287219663,0 32.93543864719141,35.08212013587008,0 32.93589876552456,35.08212452467392,0 32.93680896135423,35.08196780812582,0 32.93709220562182,35.08212825143398,0 32.93770430860187,35.08191444875894,0 32.93755391881549,35.08178691844225,0 32.93731206539935,35.08122472309113,0 32.93699460226072,35.08069184165261,0 32.93689107482267,35.08053490630495,0 32.93673347120098,35.08041031070664,0 32.93660537920217,35.0801262265888,0 32.93649073953567,35.08004018053866,0 32.93622864843278,35.07997139656525,0 32.93608516055544,35.07990594222625,0 32.93600518702661,35.07981851318005,0 32.93591418767977,35.07972288798808,0 32.93572692301552,35.07940286642403,0 32.93567432416288,35.07925302318865,0 32.93566195009651,35.07904854571319,0 32.93553229479798,35.07875608541601,0 32.93530621961636,35.07818769424169,0 32.93508697076756,35.07806288327457,0 32.93497849750957,35.07799135547577,0 32.93429963211669,35.0773850341307,0 32.9342317222171,35.07718585912762,0 32.93364346114209,35.07667473755811,0 32.93365579618397,35.07641010105842,0 32.93355042290458,35.07615057063206,0 32.9336665650607,35.07600490851637,0 32.93371224732187,35.0757312499102,0 32.93358550425661,35.07576918248645,0 32.93351053072626,35.07565760192166,0 32.93318527768594,35.07541198004534,0 32.93277410025011,35.07502188561327,0 32.93268824062262,35.07486463542746,0 32.93242611391955,35.07441477285399,0 32.93236687128915,35.07426308276942,0 32.93225386547086,35.07421344087181,0 32.93199687774121,35.07409033117418,0 32.93146780663465,35.0737491436556,0 32.93099532424019,35.07365272971953,0 32.93064206944057,35.07369906926346,0 32.93034265953769,35.07362693034462,0 32.93003178806192,35.07363141893001,0 32.92987862830802,35.07362180700257,0 32.92959244036356,35.07357161255901,0 32.92989254578475,35.07302313631025,0 32.93014043891086,35.07271726632346,0 32.93022389266014,35.0724400772537,0 32.9304599033159,35.07230027502366,0 32.93076916587447,35.07216435510568,0 32.93096540593029,35.07198244110968,0 32.93117002140839,35.07190825089046,0 32.93122797206888,35.07186097469037,0 32.93120170511661,35.0717805768215,0 32.93121103807428,35.07168386275996,0 32.93145002598204,35.0713816104723,0 32.93155239685873,35.07133082475475,0 32.93208360786777,35.07073561560323,0 32.9321000719641,35.07046678251471,0 32.93266715228216,35.07034318172669,0 32.93308024301255,35.07031710339575,0 32.93374610056168,35.07036483304065,0 32.93397474121507,35.07037467951273,0 32.93468275143012,35.07042983750813,0 32.93513686115669,35.07073670373855,0 32.93625187931227,35.07152083296981,0 32.9366932487054,35.07162260520422,0 32.93759185210332,35.07175683042929,0 32.93793115088521,35.07184550388645,0 32.93849871173479,35.07202797754704,0 32.93855552924438,35.07155167677456,0 32.93859682365373,35.07145329718154,0 32.93874358001258,35.07140629307625,0 32.93877477218523,35.07089894340757,0 32.93891531835718,35.07075335154658,0 32.9389938981106,35.07056375812734,0 32.93894796764123,35.07041211300638,0 32.93892192901433,35.07028060653433,0 32.93889184394228,35.07006329659665,0 32.93882776588787,35.06999555973102,0 32.93873844521064,35.07010662786767,0 32.93830424561541,35.0698953643112,0 32.93807539257624,35.0694492695709,0 32.93790424285432,35.06949071938434,0 32.93769384421236,35.06937689315178,0 32.93711867595877,35.06940430768847,0 32.93697684289668,35.06934727980604,0 32.93690164299565,35.0692849834024,0 32.93670541714168,35.06898683915653,0 32.93673523432682,35.0687888430129,0 32.93696812495447,35.06873029820856,0 32.93674299118296,35.06847081609774,0 32.93650640943061,35.06844599092788,0 32.93630729991838,35.06852925414154,0 32.93620963635977,35.06855390436218,0 32.93606319334099,35.06852295009116,0 32.93599687929008,35.0685684457203,0 32.93562458774884,35.06841577749663,0 32.93561392856934,35.06832082551492,0 32.93566814863002,35.068118381449,0 32.93576003738151,35.06793248390213,0 32.93544830640047,35.0676485800244,0 32.9354291268377,35.06747511089056,0 32.9355428265948,35.06737324805678,0 32.93561450707666,35.06723656988999,0 32.93571562045965,35.06697586136487,0 32.93580688457119,35.06692503728223,0 32.93604688812066,35.06687650372931,0 32.93631533973823,35.06691749994619,0 32.93633320137723,35.06689565084098,0 32.93634523792446,35.06669307520121,0 32.93632410994119,35.06646118966866,0 32.93670999628356,35.06655183631624,0 32.93720666823175,35.06669211172004,0 32.93775218899956,35.06683071279815,0 32.93842464968844,35.06688573787189,0 32.93928371936951,35.06691578434543,0 32.9394933473169,35.06671199377718,0 32.93970412681089,35.06674185184769,0 32.94025295060952,35.06664498123754,0 32.94027256542472,35.06672535681584,0 32.94030097526744,35.06682401386929,0 32.94090944476108,35.06679303714417,0 32.94116492642891,35.0667573182631,0 32.94118698735378,35.06678841616324,0 32.94123034990042,35.06701671856753,0 32.94130706368127,35.06723417140071,0 32.94134218825624,35.06732189725325,0 32.94145988005582,35.06731678448416,0 32.94153411820469,35.06710344656821,0 32.94166305320311,35.06706733745644,0 32.9417217000166,35.06686490267901,0 32.94181811392021,35.06665710993246,0 32.94181848796529,35.06657497110357,0 32.94178997421674,35.06649821880789,0 32.94163968819264,35.06634807761748,0 32.94160018405348,35.06624756131087,0 32.94157832207848,35.06617265376115,0 32.94150976515265,35.06611403215252,0 32.94151484620441,35.06597349541529,0 32.94164216614265,35.06580412980589,0 32.941693703375,35.06570024362071,0 32.94167217516518,35.0655523240779,0 32.94173047146224,35.06542655469036,0 32.94182639671844,35.06533177064543,0 32.94188579916424,35.06529217368082,0 32.94195551193344,35.06513918772107,0 32.94197935451394,35.06505223841392,0 32.94193847123866,35.06498751414943,0 32.94189432662048,35.0649502950852,0 32.94179894422034,35.06496527779782,0 32.94166118105722,35.06500503176324,0 32.94162758302105,35.06500695094324,0 32.94158845280883,35.06500421432904,0 32.94150780888747,35.06480821705895,0 32.94147182138336,35.06478486017754,0 32.94144711853779,35.06475703679766,0 32.94143823784475,35.06461923901136,0 32.94147678533581,35.06448886025192,0 32.94148963029151,35.06439031618986,0 32.94151608190748,35.06431488293923,0 32.94159736513238,35.0641390905452,0 32.94185996003938,35.06399517906446,0 32.941934691581,35.063876681052,0 32.9419325117631,35.06383994450513,0 32.94190541719931,35.06378684970611,0 32.94182629976982,35.0636666310788,0 32.94177108789955,35.06362240533657,0 32.9416963669376,35.06357337464666,0 32.94159647992071,35.06352405505977,0 32.94142375596827,35.06348080283941,0 32.94119750306646,35.06345989403381,0 32.94116141043833,35.06344342293994,0 32.94114233059676,35.06341337391324,0 32.941143141381,35.06336519709635,0 32.94116085362711,35.06331032553151,0 32.94126757177722,35.06311876363016,0 32.94133150933497,35.06280970447551,0 32.94131786840495,35.06278889944685,0 32.94117388936124,35.06270008234381,0 32.94112800489828,35.06260089863176,0 32.94118622914865,35.06229867221144,0 32.94114899861699,35.0621835204601,0 32.94115908253885,35.06208267553694,0 32.94114537050807,35.06206645957428,0 32.94108100145554,35.06206803375051,0 32.94099710117377,35.06206708974521,0 32.94089664453838,35.06205219537338,0 32.94071644373604,35.06195610183917,0 32.94067253928277,35.06190513399264,0 32.94066784033607,35.06185231126443,0 32.94074124354535,35.0618118283784,0 32.94079507987838,35.06177113848783,0 32.94083481057329,35.06173716176976,0 32.94086482180581,35.06161590223719,0 32.94090567362313,35.06151539953718,0 32.940963377627,35.06141050610172,0 32.9411745480602,35.061327984656,0 32.94118079751783,35.0612890481992,0 32.94114959214298,35.06114874435825,0 32.94118112266138,35.06110321727092,0 32.94126663894659,35.06100780927606,0 32.94129618118436,35.06091407151401,0 32.94127573528937,35.06079913251966,0 32.94124279179999,35.06076205292763,0 32.9411190286641,35.06063678403147,0 32.94112543267884,35.06058867661257,0 32.9411455473651,35.06055678245616,0 32.9412242288865,35.06053471511285,0 32.94140091987919,35.06050686743395,0 32.94153205208544,35.06052668801279,0 32.94156040083382,35.06050406073632,0 32.94156948227942,35.06046287116986,0 32.94153463269744,35.06037300635059,0 32.94152160151668,35.06031550306412,0 32.94155172354703,35.06018736826363,0 32.94159529368664,35.0600915017129,0 32.94163809108779,35.06004150347653,0 32.9417472267147,35.06003813685576,0 32.94181542027449,35.05997465831116,0 32.9418877630227,35.05983094010247,0 32.94189121433193,35.05979197161038,0 32.94185561790468,35.05974569463116,0 32.94180007387194,35.05972213825323,0 32.94145136084047,35.05966778253399,0 32.94140968321406,35.05965125562484,0 32.94137957452659,35.05961192388488,0 32.94128351445857,35.05933556995475,0 32.94126223956428,35.05910364075356,0 32.94127694868161,35.05906022020795,0 32.94132223099023,35.05902860862125,0 32.94139252785125,35.05900645868264,0 32.94149905899875,35.05899157990351,0 32.94160528432788,35.05899506369212,0 32.94167772286616,35.05901192443228,0 32.94199509852422,35.0589328698204,0 32.94205696871444,35.05891291853471,0 32.94516622156668,35.06030105379621,0 32.94730654896791,35.06125653565311,0 32.94772022680237,35.06145314372888,0 32.94779563197653,35.06141335062348,0 32.94901608261772,35.06103584806285,0 32.94936650839823,35.06094211568447,0 32.94953954007934,35.06080409763297,0 32.94984183781937,35.06037898856219,0 32.94988510321718,35.06036067519003,0 32.95010092548156,35.06033420115453,0 32.95035535027219,35.06029676235627,0 32.9507609586904,35.0601736550392,0 32.95096654332501,35.06005135176355,0 32.95106016549692,35.06001228331357,0 32.9511874688334,35.06000262182081,0 32.95135403705042,35.05997213243636,0 32.95154938103735,35.05988129890892,0 32.95157566830182,35.05985626438012,0 32.95174721164252,35.05975018614478,0 32.95197121876559,35.05965629039582,0 32.95244748329926,35.05960721368947,0 32.95268446487505,35.05951700129915,0 32.95293287647733,35.05930898461443,0 32.95306619082933,35.05921061392347,0 32.95311135519762,35.05919724892229,0 32.95394251156356,35.05922618832736,0 32.95396220107308,35.05922746590164,0 32.9539587616601,35.05923988164467,0 32.95395837718137,35.05924127419128,0 32.95395836760243,35.05924271465542,0 32.95395588920235,35.05961515124151,0 32.9539436553553,35.05984431616624,0 32.95393100180691,35.06005938272838,0 32.95390422275905,35.06018619679884,0 32.95384054011761,35.06038924154253,0 32.95372030153438,35.06055336214342,0 32.95340234028301,35.06101967601099,0 32.95353580534004,35.06142350515692,0 32.95355876781771,35.0614538665249,0 32.95370967293618,35.06156717756556,0 32.95377871437938,35.0616210194974,0 32.95392555764306,35.06180765642988,0 32.95422100525394,35.0621877316138,0 32.95452749387945,35.06262025833686,0 32.95462775638266,35.06277379575623,0 32.95478655906764,35.06294654252108,0 32.95497165016555,35.0630993756827,0 32.95518613481953,35.06322367960976,0 32.95540745580858,35.0633317538255,0 32.95564332719027,35.06340873942761,0 32.95571878155707,35.06341821025885,0 32.95590211822987,35.06346671117215,0 32.95600192934429,35.06348134679413,0 32.95620582009192,35.06353453216288,0 32.95643229762967,35.06361692315029,0 32.95664312545967,35.06372618932093,0 32.95693612808981,35.06390986577257,0 32.95736247901328,35.06420102762096,0 32.95780302409558,35.06422161504243,0 32.95837363359648,35.06424761171597,0 32.95892385146693,35.06427140114298,0 32.95902542182537,35.06430301939689,0 32.95919757955553,35.06433641368994,0 32.9592709620573,35.06437887262508,0 32.95942755440707,35.06453355351528,0 32.95956420246414,35.06458837473735,0 32.95977007999392,35.06464477824146,0 32.96007994927731,35.06480152009159,0 32.96014829922656,35.06488247731421,0 32.96012306476332,35.06496079866542,0 32.95997306500115,35.06515387722165,0 32.95990292702993,35.06528326977286,0 32.95989618897732,35.06538604364773,0 32.95994602365739,35.06561112711852,0 32.96000999566886,35.06579691970027,0 32.9600491123288,35.06585201374896,0 32.96009949983279,35.06588878115465,0 32.96016677479311,35.0659118435165,0 32.9602368839812,35.06592343261845,0 32.96037436486024,35.06593058529581,0 32.96046411876689,35.06594222214832,0 32.96049494962721,35.06595373158594,0 32.96055355992632,35.06606159993535,0 32.96067389813394,35.06616956670874,0 32.96082776914717,35.06632117373374,0 32.96096759293287,35.0664842123311,0 32.96109892376698,35.06667704170877,0 32.96116033225689,35.06678949616354,0 32.96120217041403,35.06687442132991,0 32.96122137098067,35.06702576113171,0 32.96123520326611,35.06709228118736,0 32.9612316282367,35.06734906067168,0 32.9612511123892,35.06740412370365,0 32.96129034666682,35.0674271314041,0 32.96141376035199,35.06744800430275,0 32.9615790469533,35.06755152332937,0 32.9616434918955,35.06759062019463,0 32.9618088521904,35.06766663126043,0 32.96201069091079,35.06775187864243,0 32.96219852683028,35.06783021646285,0 32.96236944840893,35.06793146098396,0 32.96243383627642,35.06798891658691,0 32.96249801209989,35.06812662351753,0 32.9625703885217,35.06833544038506,0 32.96259512935455,35.0685143488022,0 32.9627037663081,35.0688058115225,0 32.96275643319211,35.06903753532988,0 32.96274485905036,35.06915676139219,0 32.96278112792758,35.06923481186238,0 32.96316962293512,35.06983880185412,0 32.96329043724985,35.06980465943288,0 32.96329585461302,35.06987576038468,0 32.96328118458832,35.0700959145644,0 32.96320492880388,35.07025629599898,0 32.96343468079444,35.07042193695484,0 32.96376543011205,35.07061990187137,0 32.96375400661566,35.07068640233424,0 32.96399740740215,35.07100117498792,0 32.96422200263297,35.07102002158511,0 32.96420772609492,35.0711025754886,0 32.96468272818562,35.07094762768357,0 32.96474998785514,35.07099595150745,0 32.96480888530885,35.0710259010791,0 32.96493518891017,35.07104682440645,0 32.96506440413715,35.07103564265705,0 32.96514584601037,35.07103353423842,0 32.96531669174544,35.0712036608515,0 32.96567454808448,35.07180550832376,0 32.96569902597205,35.07209693354075,0 32.9657211780532,35.07221628384245,0 32.96580456375816,35.07253537752887,0 32.96583251215715,35.07258591254406,0 32.96583500715244,35.07270294423917,0 32.96589392581763,35.07273061269651,0 32.96605375362824,35.07282734084066,0 32.96618546133453,35.07294695332475,0 32.96621573240228,35.07318106249094,0 32.96623515241398,35.07327288894876,0 32.96625735042266,35.07337389800936,0 32.96622597668043,35.07354821882762,0 32.96594486255155,35.07362328053279,0 32.96570429871239,35.07429045150491,0 32.96565063235793,35.07439587505356,0 32.9655744926754,35.07450583894587,0 32.96556875827299,35.07454713843726,0 32.96555437313224,35.07467331468757,0 32.96553174063911,35.07473062665139,0 32.96540501881911,35.07484505067688,0 32.96536838864973,35.07488626922536,0 32.9653401698359,35.07493210001255,0 32.96530050134283,35.07505592350918,0 32.96521893378916,35.07509931958733,0 32.96502474807479,35.07522964646634,0 32.96490368648172,35.07533262179458,0 32.96486979699171,35.07539449694742,0 32.9644020122638,35.07593720540213,0 32.96415963326155,35.07623264363078,0 32.96412004668782,35.07632663435508,0 32.96409129465994,35.07656064531407,0 32.96404063736372,35.07659493731708,0 32.96392819708959,35.0766244893166,0 32.96373984008592,35.07668826064684,0 32.96370340423849,35.07665833984341,0 32.96365283991882,35.076660500718,0 32.96357129809758,35.0766947210657,0 32.96342207814098,35.07682056077319,0 32.96311256821241,35.0770171281637,0 32.96308159678357,35.07704229259775,0 32.96308705241183,35.07709968474343,0 32.96319631840378,35.07719405299363,0 32.96331123567793,35.07727467444976,0 32.9635777630629,35.07738321502679,0 32.9637741707631,35.0774571683745,0 32.964068960096,35.07751301048917,0 32.9641196449058,35.0774672362451,0 32.96488039517072,35.07765511222081,0 32.96459196106566,35.07833835604287,0 32.96411745339083,35.07824759267186,0 32.96374676893428,35.0791991652609,0 32.96420710406733,35.07933353910609,0 32.96483332246733,35.07943623227726,0 32.96535847098738,35.07952946456968,0 32.96576013386641,35.07958333910855,0 32.96617588921699,35.079623490385,0 32.96630498857506,35.07968122957912,0 32.96641167761756,35.0797182550987,0 32.96664485300904,35.07974413511847,0 32.96678811969593,35.07976287882651,0 32.96683858957582,35.07980893607294,0 32.96695353165391,35.07991128448984,0 32.96729815141314,35.08038831265002,0 32.96711851008057,35.08111422573564,0 32.96703124204468,35.081279832706,0 32.96684670977955,35.08165673017086,0 32.96664537253884,35.08162234453373,0 32.96637623460229,35.08216947917268,0 32.96624704688853,35.08232723971366,0 32.96619457898324,35.08254413095955,0 32.96624356501106,35.08267378801465,0 32.96620925617123,35.08277172358196,0 32.96637952689689,35.08281001437307,0 32.96648388252924,35.08288354469546,0 32.96650104582132,35.08295739250691,0 32.96587011157739,35.08347336352934,0 32.96546360001383,35.08367992318136,0 32.9655216604326,35.08395441892526,0 32.9656470424829,35.08415239904128,0 32.965481771532,35.08437821166105,0 32.96525906356361,35.08471977367783,0 32.96496734601678,35.08486005724549,0 32.96485445847417,35.08487125801567,0 32.96467752142257,35.08519090616777,0 32.96494686926645,35.08512817912209,0 32.96547058407656,35.08486692615499,0 32.96589719845123,35.08481236523264,0 32.96637193183954,35.0845040641243,0 32.96666938956321,35.08436160363108,0 32.96709464058798,35.08434830491478,0 32.96801064728436,35.08372625875617,0 32.96831368121097,35.08358619975605,0 32.96876895905127,35.08335544371223,0 32.9692922204958,35.0830297841192,0 32.96973613678357,35.08280333571918,0 32.97025354718559,35.08264972280198,0 32.97054679561469,35.08255071978686,0 32.97082234398548,35.08231127032886,0 32.97117881966832,35.08200933712912,0 32.97138714863645,35.08208980988348,0 32.97157148499392,35.0822960358741,0 32.97171066683489,35.08250583778452,0 32.9717490760174,35.08269959072277,0 32.97179390167665,35.08278785606447,0 32.97185443733108,35.08291092869496,0 32.97195089982732,35.08305320074802,0 32.97207362768678,35.08316849129078,0 32.97226907124651,35.08346226332384,0 32.97243045830783,35.08376445642595,0 32.97249826801318,35.08383948311892,0 32.97259186787443,35.08390131527661,0 32.97280974856307,35.08419791650937,0 32.97289982117164,35.08444569431904,0 32.97305429384336,35.08462145157102,0 32.9731692079704,35.08488359332716,0 32.9732642822304,35.08531524985469,0 32.97317508236948,35.08570137572789,0 32.9732005544017,35.08578004155945,0 32.97334802094628,35.08574894729431,0 32.97349125858091,35.08575910339122,0 32.97360170060938,35.0854928827696,0 32.97366720238189,35.08544117019794,0 32.97375263734409,35.08537269468103,0 32.97376936306421,35.08516728197461,0 32.97366846666164,35.08513792264148,0 32.97355616889553,35.08509449775747,0 32.97366943247241,35.08490347102678,0 32.97372285895596,35.08471809572547,0 32.97377951219291,35.0846879808844,0 32.97379285186962,35.08465237785975,0 32.97363293803974,35.08458661017526,0 32.97367106184382,35.08451511458234,0 32.97375836040733,35.08432921567017,0 32.97370168345341,35.08428706492194,0 32.97387994715489,35.08402707303108,0 32.97398637073987,35.08408258614718,0 32.97426000288679,35.08393371357563,0 32.97465376527933,35.08385823627199,0 32.97475389701616,35.08378150162912,0 32.97496775714256,35.08394963472639,0 32.97539481728619,35.08439308154628,0 32.97525784259667,35.08449110153212,0 32.97528327631898,35.08461126179074,0 32.97549202472239,35.08476221913281,0 32.97561327521151,35.08466413713328,0 32.9758830114464,35.08430943813676,0 32.97618582819553,35.08450795812384,0 32.97618860920549,35.08488527583711,0 32.97598274299982,35.08509447807799,0 32.97631254370379,35.08517736409848,0 32.97630262433523,35.08509156905316,0 32.97637810196395,35.08477461278279,0 32.9766402096724,35.08478432132883,0 32.97684536721464,35.08388054023792,0 32.97733794935375,35.08392552740409,0 32.97729990919095,35.08413117012477,0 32.97768868600836,35.08421946201992,0 32.97888196905585,35.08444854331578,0 32.9789256936312,35.0842595186915,0 32.97919031479621,35.08423362706852,0 32.97983602152535,35.08442945510664,0 32.97995823264512,35.08451879662688,0 32.9801461535957,35.08467019322441,0 32.9803772270845,35.08472137625228,0 32.98039045865782,35.08486430501687,0 32.9809684123888,35.0849491698249,0 32.98087951494402,35.0852540145129,0 32.9807097737808,35.08540797550385,0 32.98025862141228,35.08559001762011,0 32.98007091265077,35.08535926245284,0 32.98002977235481,35.08539671489847,0 32.98009080493,35.08544714920703,0 32.97952693877841,35.08566215372507,0 32.97959768953211,35.08579206409809,0 32.97948453813964,35.08589193082824,0 32.97956048362013,35.08600931873526,0 32.97990147954025,35.08625746143191,0 32.98006506938565,35.08626234796943,0 32.98006108417906,35.0860867272951,0 32.98029348960365,35.08573233062356,0 32.98091418863745,35.08542557373514,0 32.98124866259876,35.08501160045059,0 32.98147578884249,35.08508200345467,0 32.981836011344,35.08520791447044,0 32.98161371481408,35.08558326185084,0 32.98159177005149,35.08581312302114,0 32.98198375492023,35.08608657303191,0 32.98254008134364,35.08624781935192,0 32.98252185868115,35.08652453405717,0 32.98238397378136,35.08657420731501,0 32.98207247620905,35.08686262350717,0 32.98201099063398,35.08705689639311,0 32.98210335043537,35.08721243661083,0 32.98215321501322,35.0874195016987,0 32.98219889772898,35.08797229393776,0 32.98206690143233,35.08812229697074,0 32.98204073524433,35.08833645845991,0 32.98182839794121,35.08831528323204,0 32.98165131223076,35.08831741905441,0 32.98146560936863,35.08855985247567,0 32.98139452070996,35.08860008705547,0 32.98121704317314,35.08866303523379,0 32.98113786435135,35.0888595935684,0 32.98102620741579,35.08907369731191,0 32.98125606311586,35.08922197523112,0 32.98117524337799,35.08953233331965,0 32.98116643257186,35.08958983139192,0 32.98122435219919,35.0897741995087,0 32.98128288038028,35.08986419948841,0 32.98128496902094,35.08997698571245,0 32.98099920018954,35.09020562654432,0 32.98081056926159,35.09016831252316,0 32.98061132331772,35.09017869035809,0 32.98083321439768,35.09091529400489,0 32.98095866060128,35.0914385280752,0 32.98090353371737,35.09153632196619,0 32.98071186357753,35.09167809943084,0 32.98050010163152,35.09155464569923,0 32.98028373298285,35.09172305620758,0 32.9799518830938,35.09163028139997,0 32.97955492786392,35.09192394908995,0 32.97984667640911,35.09219776648366,0 32.98024302215205,35.09250873131064,0 32.98182866530748,35.09310115260379,0 32.98199306131227,35.09320833634833,0 32.98221526756105,35.09332596133021,0 32.98238446713873,35.09336679034815,0 32.98294145763773,35.09343480508043,0 32.98323555866342,35.09346887359005,0 32.98354672726876,35.09362334017734,0 32.98388874229985,35.09383627037388,0 32.98400804500086,35.09400814526706,0 32.98394059360724,35.09409536258033,0 32.98413127255241,35.09426389171679,0 32.98453864631499,35.09451539559296,0 32.98515504044936,35.09485816228042,0 32.98537646391541,35.09497546404481,0 32.98547875916748,35.09506315146285,0 32.98555737862542,35.09514015692466,0 32.98564752611516,35.09517417887846,0 32.98582433007432,35.09519305455719,0 32.98610675428408,35.0951722537785,0 32.98636280470763,35.09515753121703,0 32.98707833037521,35.0954012094866,0 32.987398646963,35.09551582552689,0 32.98762394276083,35.09560310649771,0 32.98770509631908,35.09573699543777,0 32.98761110371877,35.09585897419392,0 32.98748175993144,35.0960302628708,0 32.98748564074495,35.09612782057587,0 32.9873472390278,35.09627841531309,0 32.98721153816098,35.09640089958775,0 32.98681859463838,35.09653052134434,0 32.98666559250686,35.09658250716382,0 32.98638863046127,35.09663958904756,0 32.98671213453035,35.09706720508432,0 32.9869593838327,35.09678247537758,0 32.9872465656755,35.0968807573143,0 32.9871841801938,35.0969546504249,0 32.98703657677776,35.09709092125306,0 32.98688707767378,35.0973090688896,0 32.98670407310029,35.09751342103637,0 32.98678790953136,35.09756059937001,0 32.98630681955417,35.09780744133052,0 32.98727009365258,35.09810921334957,0 32.98757921506081,35.09822413506843,0 32.98780255355667,35.09829319249515,0 32.9882114977536,35.09842831426285,0 32.98877280511853,35.09851179696995,0 32.9888448187594,35.09853753897097,0 32.98896725102426,35.09895665599966,0 32.98914672214533,35.09917735710707,0 32.98851683372672,35.09970550378579,0 32.98778887153691,35.10020135589764,0 32.98826793691396,35.10069406332623,0 32.9881945739214,35.10073421505535,0 32.98811662226007,35.10076301118995,0 32.98792482964146,35.10082563503138,0 32.98782882539961,35.10094033474265,0 32.98766517046847,35.10097320535046,0 32.98759168720907,35.10103616154809,0 32.98749668692408,35.10110080923776,0 32.98743568016395,35.10124100149216,0 32.98736068835537,35.10143168399956,0 32.98694074212328,35.10153222454334,0 32.98675757291242,35.10159835846214,0 32.98652428553599,35.10190947343673,0 32.98641368110228,35.1020775592624,0 32.98627963856983,35.10220697803154,0 32.9860779566713,35.10212568725902,0 32.98584254451699,35.10231268692515,0 32.98575499507297,35.10241183117378,0 32.98557968649472,35.10262004310453,0 32.9853188662157,35.10274028819831,0 32.98552671859947,35.10295249944138,0 32.98583274626085,35.10327006903312,0 32.9860259222897,35.10316528781318,0 32.98611375813528,35.10322343541993,0 32.98624329407043,35.10312911104484,0 32.98677896973074,35.10352963314735,0 32.98664319494052,35.10389855922549,0 32.98597474190232,35.10420631970815,0 32.98632702616039,35.10465461075842,0 32.98638496149676,35.10478603960935,0 32.98645005910654,35.10506682515374,0 32.98651991325146,35.10532789458688,0 32.98655158988561,35.10543145325785,0 32.98670580934233,35.10553715455804,0 32.98694169648122,35.10565012987,0 32.98708333330812,35.10569968035791,0 32.98729083331712,35.10569475263941,0 32.98783417899092,35.1054351872267,0 32.98820699069314,35.10529781998862,0 32.98839785985492,35.10526799715449,0 32.98866040411177,35.10523900734233,0 32.98892927392713,35.10523459004077,0 32.9891894586315,35.10524592895822,0 32.98932621384891,35.10525341559119,0 32.98963140126526,35.10529646649816,0 32.98985382509948,35.10514456939463,0 32.99012610856281,35.10542697913963,0 32.99031645640751,35.10561875825405,0 32.99039924920059,35.10558091183384,0 32.99074208971487,35.10581526785003,0 32.99060480146164,35.10606551006266,0 32.990313102701,35.10658668814497,0 32.99015308098427,35.10706076214499,0 32.99046755023329,35.10740324725846,0 32.99069023339716,35.10762149552282,0 32.99084155933289,35.10782008721709,0 32.99103790179193,35.10807893693588,0 32.99140907306911,35.1082711917169,0 32.99195026126093,35.107604924076,0 32.99235158992294,35.10791902454838,0 32.99289093758203,35.10829806325773,0 32.99321682438109,35.10845810508928,0 32.99357365240417,35.10860774719561,0 32.99362218842247,35.10853977519183,0 32.99383718661132,35.10863157258333,0 32.99452617098098,35.10889735991437,0 32.99477000476043,35.10898141742381,0 32.99503414287302,35.10878622960983,0 32.99558479478241,35.10888731812977,0 32.99554854024986,35.10899941998306,0 32.99545936761071,35.10927514772469,0 32.99617600736102,35.10927318035102,0 32.99614925334246,35.10963507829255,0 32.99613362001715,35.10992765890572,0 32.99608788608118,35.11024179489196,0 32.99605757323866,35.11038987150025,0 32.99591210050698,35.11094376335402,0 32.99572864196981,35.11166432462269,0 32.99558772409759,35.11219275486623,0 32.99552260062136,35.11244991521104,0 32.9954817568133,35.11268109233688,0 32.9954532135843,35.11326383199195,0 32.99542878320547,35.11348303714102,0 32.99539169613797,35.11367039404008,0 32.99524816141398,35.11407236285461,0 32.99557335189243,35.11408849330726,0 32.99599403136585,35.11415943548139,0 32.99683036294401,35.11437967948333,0 32.99701377401571,35.11437910814455,0 32.99738902226883,35.11431102513267,0 32.9975334719141,35.11419192832807,0 32.99774904322854,35.1138891052845,0 32.99807140026763,35.11337851282877,0 32.99814973390864,35.11323137129742,0 32.99820996781628,35.11318826311498,0 32.99839306940076,35.11311407233333,0 32.99876493874562,35.11303224298899,0 32.99897341354863,35.11308846595781,0 32.99911630842409,35.11319485434247,0 32.99919040486775,35.11334229418237,0 32.99950326625515,35.11424908480034,0 32.99957405402616,35.11451625067745,0 32.99967472274996,35.11482169139674,0 32.9998296980863,35.11520842044069,0 32.99993669977963,35.11526752966487,0 33.00002148790323,35.11528648455028,0 33.00002531762559,35.1152873399886,0 33.00032665457864,35.11529231895457,0 33.00054247062636,35.11530074187255,0 33.00088218412374,35.11532875934303,0 33.00136598897159,35.11534211017586,0 33.00208530801224,35.11538437612908,0 33.00262853784377,35.11541662076951,0 33.00283646952526,35.11547160485568,0 33.00301437006327,35.1155506011163,0 33.00296899057394,35.11561906709203,0 33.0034214300542,35.11579026194065,0 33.00268302221819,35.11811071880346,0 33.00187504984149,35.11780618342232,0 33.00182936287903,35.11791100283589,0 33.00133516504845,35.11772533493222,0 33.00075151318438,35.11729761432107,0 33.00051977053077,35.11715123996969,0 33.0002642799656,35.11741383611339,0 33.00001289184232,35.11751844418636,0 32.99979524491189,35.1177779330562,0 32.99969761384749,35.1178704364961,0 32.99959539200151,35.11805282849318,0 32.99951126973417,35.11813113460883,0 32.99947665768556,35.11824488074357,0 32.99920512351349,35.11849415259223,0 32.99905843051982,35.11862714833047,0 32.99897231434618,35.11865947130301,0 32.9989169789924,35.11875078188733,0 32.99874119642135,35.11886387743686,0 32.99846460811407,35.11899589029117,0 32.99823395417101,35.11894940141183,0 32.99816930770615,35.1189558148866,0 32.99779968498293,35.11928603949439,0 32.99759339827016,35.11941147492023,0 32.99747880609224,35.11943768920335,0 32.99791968657954,35.11964632087489,0 32.99835782195811,35.11992178145035,0 32.99815580104719,35.1201460575025,0 32.99926688290358,35.12070659590709,0 32.99930619807702,35.12063644390036,0 32.99921530747068,35.12055841908853,0 32.99943523842278,35.12022545294243,0 33.00000157232198,35.12045612783252,0 33.0001087838004,35.12038752597026,0 33.00022282041266,35.1204263513546,0 33.00037188650143,35.12025870313249,0 33.00066533932346,35.12025253353687,0 33.0010738498029,35.12041385508891,0 33.00095416526422,35.12059045043836,0 33.00035768298022,35.12165561109713,0 32.99996610123797,35.12230649985362,0 32.99917789077153,35.12350996198517,0 32.99872721795229,35.12417813425652,0 32.99897736135052,35.12430610073254,0 32.99895376199408,35.12436814364707,0 32.99900567823343,35.12443794202797,0 32.99839682369906,35.12493815825295,0 32.99818443831857,35.12474039322701,0 32.99806171573024,35.12512815963716,0 32.99819858483983,35.12534531308003,0 32.99816082382193,35.12544225458298,0 32.99733487164681,35.12513590153747,0 32.99750951348677,35.12479854646507,0 32.99694787392812,35.12451934004582,0 32.99680627140233,35.12476750794567,0 32.99672131078945,35.12491098031362,0 32.99622102849344,35.12464728273081,0 32.99602752398643,35.12455033445311,0 32.99488065488997,35.12411598958559,0 32.9948476239949,35.12401516822852,0 32.99464941285223,35.12376311018674,0 32.9945941389399,35.12353010956726,0 32.99438984877425,35.12349553752688,0 32.99416324799218,35.12428269807498,0 32.99404053190452,35.12432922466255,0 32.99320518912217,35.12375140419019,0 32.99340666018049,35.12346796886526,0 32.99340913876691,35.12346605711026,0 32.9933284607085,35.12342689095102,0 32.99350135861507,35.12305183819856,0 32.99219252399046,35.12253165289363,0 32.99116253067355,35.12219462072517,0 32.99109115145425,35.12237136754374,0 32.99100310310058,35.12261985538221,0 32.9909703217505,35.12284151411259,0 32.99096907662155,35.12300940969644,0 32.99087466098135,35.12317528544613,0 32.99073477398966,35.12333323335648,0 32.99057858284804,35.12348296258406,0 32.99034969248494,35.12373510940808,0 32.99021131067747,35.12406989084401,0 32.99006314342776,35.12416028745756,0 32.99017077571823,35.12431504031197,0 32.99019242989849,35.12460062302221,0 32.99032821808499,35.12483970485649,0 32.9900947187617,35.12517021660397,0 32.99014365444135,35.12540557948708,0 32.99037063585646,35.12563554185701,0 32.99083100031686,35.12591761953225,0 32.99092130198554,35.12613317582618,0 32.99091413476635,35.12650293425797,0 32.99071914945592,35.12682537968342,0 32.99030873599123,35.12687577057434,0 32.99041740805453,35.12676840155662,0 32.99036680727146,35.12659976281607,0 32.99016173804188,35.12658985246999,0 32.98981228370582,35.12707102644507,0 32.98930002682341,35.12694327424865,0 32.9891141979241,35.12757811110422,0 32.98869596199261,35.1269790909731,0 32.98904936499095,35.12693791551066,0 32.98918658492273,35.12681658734674,0 32.98904500823738,35.12660089175123,0 32.98838653525674,35.12595146152073,0 32.98829918155059,35.12600726747784,0 32.98781389471247,35.12623844914575,0 32.98740635136534,35.1257839214226,0 32.98700857900118,35.12493869456318,0 32.98661079506694,35.12422104187227,0 32.98615698513655,35.12348377033575,0 32.98610337859707,35.1233764531828,0 32.98579440929283,35.12294361179882,0 32.98525129207732,35.12303222038947,0 32.98463282297553,35.12307233198752,0 32.98451090815073,35.12347456692977,0 32.98433018768306,35.12405332618403,0 32.98492218138067,35.12406137425798,0 32.98494672318284,35.12510591349413,0 32.98459894059791,35.12510418956393,0 32.98451372064467,35.12539569089245,0 32.98338324121861,35.12540212864457,0 32.98350340223175,35.12590935096193,0 32.98375977169376,35.12689086337984,0 32.98455878548069,35.12783669648286,0 32.98505686725463,35.12885755315816,0 32.98558092197609,35.1297588893235,0 32.9847249860759,35.1299359428021,0 32.98390611407183,35.1299456657655,0 32.98408794261734,35.12974311800534,0 32.98362292238634,35.12962448834882,0 32.98286670932191,35.12959601104104,0 32.98274886320232,35.13009205124572,0 32.98274992145268,35.13057333239106,0 32.98185880474072,35.13034881731462,0 32.98169833931598,35.1308098898176,0 32.9814879618656,35.13125152189352,0 32.98093895786901,35.13112145276953,0 32.98093665213313,35.13067144312363,0 32.9811290890788,35.13065829915928,0 32.98112123125673,35.12996665340668,0 32.98097105077394,35.12928815939755,0 32.97982949114036,35.12921990577254,0 32.97983260767428,35.12885322670709,0 32.97918001099396,35.12874871967388,0 32.97927965604455,35.12841115642327,0 32.97992004555331,35.12843684711765,0 32.9800815649812,35.12720649466574,0 32.98023389534907,35.12723286779627,0 32.98038208270398,35.12782243682545,0 32.98105553879579,35.12799380898483,0 32.98120800900897,35.12742404848237,0 32.98059269144204,35.12722633919378,0 32.9809216040974,35.12643593943584,0 32.98115410302191,35.12649525969735,0 32.98158725969485,35.12559948142546,0 32.98026470899038,35.12514012417162,0 32.98096167305523,35.12378171961616,0 32.98044583883969,35.12356204598485,0 32.98040922764076,35.12361575957849,0 32.97958475475306,35.125006694882,0 32.97913400852547,35.12488585718997,0 32.97876297081579,35.12573690255775,0 32.97849755263735,35.12567936026221,0 32.97818890772135,35.12639902811414,0 32.97755459634458,35.1260424256706,0 32.9767340884236,35.12568486755013,0 32.97643736664081,35.1260950118352,0 32.9764373093145,35.12629402044683,0 32.97605637183002,35.12729304964265,0 32.97620466237772,35.12734181533514,0 32.97596234458659,35.12763418820885,0 32.97590298796933,35.12775195722534,0 32.97586833562907,35.12791440586267,0 32.97569524948896,35.12812150243016,0 32.97495221859852,35.12851867414746,0 32.97464957631835,35.12866132947853,0 32.97434296413756,35.12888170718629,0 32.97380654217878,35.12896587955968,0 32.97348607412018,35.12886515405175,0 32.97323908333726,35.12873161733746,0 32.97292274228556,35.1284025193092,0 32.97285399361564,35.1282937840997,0 32.97261483918825,35.12756175015789,0 32.97271103736437,35.12712527444138,0 32.97287527873322,35.12696551131277,0 32.97301441035553,35.12679275666853,0 32.97300844313909,35.12671520981566,0 32.97254285159137,35.1267242319892,0 32.97178731220251,35.12686423027689,0 32.97129678971958,35.12681632147651,0 32.97123408555508,35.12676704279718,0 32.97121078867671,35.12632247578605,0 32.97083092721989,35.12614307843463,0 32.97062082736214,35.12598742371707,0 32.97039593553448,35.12560947478507,0 32.97011214147458,35.12502719925499,0 32.97007294288137,35.12462652030671,0 32.97000694833431,35.12461082667892,0 32.96990192896623,35.12489997008301,0 32.96966836469991,35.12508795847074,0 32.96915321398202,35.1256602053431,0 32.96843260199517,35.126467033437,0 32.96822679635835,35.12678172919222,0 32.96749301148835,35.12772289498783,0 32.96726694351366,35.12762404512122,0 32.96622899271425,35.12685869029917,0 32.96553759812851,35.12670680833953,0 32.96485198103055,35.12667640070788,0 32.96433490460193,35.12654482058401,0 32.96392813601476,35.12631765956527,0 32.96326534393075,35.12617748965961,0 32.96284632370708,35.12579077184835,0 32.96247155456577,35.12564877726401,0 32.96177994512404,35.12543939090706,0 32.96138865587746,35.12537710118474,0 32.96089090258448,35.12524005716988,0 32.96063258870299,35.1251090303104,0 32.96061996663456,35.1250345499664,0 32.96100406723455,35.12451458708347,0 32.96123126245843,35.124358393434,0 32.96156152393041,35.12431416010123,0 32.96178934976334,35.1240117425562,0 32.96205216613774,35.12341120963337,0 32.96209057872689,35.12333144059432,0 32.96214495291244,35.12329786926474,0 32.96219813131717,35.12319751029528,0 32.96224092806317,35.12306012717232,0 32.96227713815537,35.12296177211866,0 32.96251317676395,35.12264363601535,0 32.96286593927795,35.12216181219613,0 32.9631850786562,35.12178760003045,0 32.96325005454612,35.12178184441696,0 32.96332429889379,35.12150921295598,0 32.96330825497632,35.12123960090259,0 32.96327736840673,35.12101897777336,0 32.96326438142422,35.12079054032323,0 32.96348055262289,35.12094891938612,0 32.96364721415086,35.1208611487203,0 32.96383602127473,35.12062968976223,0 32.96374127838721,35.12058429078481,0 32.96407672651855,35.12035080107714,0 32.96358361786676,35.1199923181686,0 32.96363942227138,35.11989892900282,0 32.9638335780312,35.11967909169402,0 32.96399514558386,35.11940804248717,0 32.96405237965445,35.11937222301159,0 32.96415282258157,35.11929803515024,0 32.96423178403514,35.11917973846993,0 32.96431117273688,35.11916041760863,0 32.96437956718511,35.11912938955394,0 32.96441785973,35.11906101981987,0 32.96446919213154,35.11891923222652,0 32.96475079892785,35.11869631636205,0 32.96500057380889,35.11862471490734,0 32.96450276864873,35.11799247954893,0 32.96391890451297,35.11824464166271,0 32.96363526019589,35.11773584502318,0 32.96352043424999,35.11770623884651,0 32.96343101929958,35.11767478242341,0 32.96349001529981,35.11756537258329,0 32.96355741569659,35.11745841166777,0 32.96358532231621,35.11735307581532,0 32.96354983830256,35.11707180072536,0 32.96359591998439,35.11691386400707,0 32.96371999821729,35.11667677253362,0 32.96383827156388,35.11644648213807,0 32.96362935250512,35.11634626388982,0 32.96349018297425,35.11627486277531,0 32.96346745356121,35.11616636303867,0 32.96341832528859,35.11598381345566,0 32.96343254763586,35.11574485466355,0 32.96345460998071,35.11553134144516,0 32.96353133335082,35.11538777342,0 32.96358889409998,35.11522087017421,0 32.96354921449419,35.11499711094935,0 32.9634893225306,35.11491099646722,0 32.96257040612247,35.11574612930339,0 32.96230244447894,35.11552764615023,0 32.96211930335976,35.11552909350706,0 32.96203647227554,35.11557596348757,0 32.96187427302882,35.11575945062386,0 32.96167168315187,35.11586634632541,0 32.96146182644356,35.1160398067538,0 32.9612470770797,35.11618329154161,0 32.96094973470319,35.11636444545606,0 32.96067152870761,35.11656891712747,0 32.96048083538485,35.11676569884026,0 32.96034807086519,35.11689679269101,0 32.96018411804474,35.1171515388611,0 32.96007454973255,35.11725543725478,0 32.95989876528398,35.11730299352993,0 32.9589377861745,35.11652514117316,0 32.95892957795064,35.11640083026108,0 32.95887447632992,35.11635159275413,0 32.95908129818143,35.11618500634366,0 32.9593919791074,35.11608668038765,0 32.95934004030906,35.11596873231613,0 32.95889764647477,35.1157518686461,0 32.95855455692531,35.1158494151631,0 32.95802902613735,35.11546790513262,0 32.95769907184597,35.11571970408851,0 32.9563919156606,35.11462601343368,0 32.95611083006663,35.11481809187936,0 32.95522368105842,35.11396248258522,0 32.95528951514694,35.1139176445631,0 32.95451901700326,35.11322432065149,0 32.95437190900843,35.11321316538947,0 32.95419053803093,35.11331060442107,0 32.95391900029338,35.11348287472895,0 32.95347480015009,35.11378498962887,0 32.95288012723041,35.11347576974043,0 32.95263400435544,35.11324333331046,0 32.95324050910928,35.11281719772887,0 32.9532030295717,35.11277243991989,0 32.95300494597377,35.11286326338766,0 32.95278052873507,35.11291193620596,0 32.9525132021011,35.11304213706106,0 32.95209262164276,35.11229158553311,0 32.95227352800244,35.11220309324334,0 32.95252144874589,35.112065458571,0 32.95283124402347,35.11186294496736,0 32.95316899530438,35.11159918145485,0 32.95346887605769,35.11135033613985,0 32.95368321766897,35.11110132220637,0 32.9538766796163,35.11078766423252,0 32.95392332842808,35.11049678296971,0 32.95344172348683,35.11052539273632,0 32.95334626766469,35.11063171537899,0 32.953128804367,35.1105568485892,0 32.95310999380442,35.11052208108463,0 32.95298403593542,35.11038676378246,0 32.95240521056677,35.11059513082598,0 32.95227383311816,35.11078809480135,0 32.95206542715297,35.11108936161793,0 32.95205273704304,35.11086149782146,0 32.95205557909989,35.11059962900325,0 32.95214853562914,35.11029228261116,0 32.95221903782268,35.10983655133236,0 32.95214351327523,35.10948629969169,0 32.9522543570269,35.10921496260418,0 32.95228525821896,35.10887771428659,0 32.95231198276935,35.10871052644598,0 32.9522866612435,35.10836576433552,0 32.95237238643452,35.10795515447638,0 32.95255227303856,35.1075007069975,0 32.95284137870499,35.10701394106336,0 32.95289095126215,35.10680682937584,0 32.95298942459836,35.1067130197925,0 32.95357937444803,35.10670961444769,0 32.95381367193835,35.106850946195,0 32.9539980246709,35.10690388771464,0 32.95412544133664,35.10692908449385,0 32.95421942594372,35.10701374638725,0 32.95425471685824,35.10732812984628,0 32.95436389815426,35.10752218640025,0 32.95463571749496,35.10766937271183,0 32.95485565153942,35.10770016231506,0 32.9551546495719,35.10762355863415,0 32.95537027410446,35.10775452051745,0 32.9557252897749,35.10792102339441,0 32.95603853423569,35.10799642512125,0 32.95662570357989,35.10792497439323,0 32.95710240236012,35.10795221522518,0 32.95723369665129,35.10788372005864,0 32.95727705582588,35.10763607873348,0 32.95721411404798,35.10756938540292,0 32.9570674018241,35.10756895133279,0 32.95668569405012,35.10738700526004,0 32.95606867911958,35.10691279735524,0 32.95561395576741,35.10652539860902,0 32.9554433812059,35.10630702934451,0 32.95525470716003,35.10579635402862,0 32.9551594302261,35.10534612921582,0 32.95516698234749,35.10513980775158,0 32.9552246389622,35.10500210317569,0 32.95510761820172,35.1049024862861,0 32.95502081293544,35.10480019969642,0 32.95489798785972,35.10449375408171,0 32.95460505455176,35.10392377180232,0 32.95412256996972,35.10283742950696,0 32.95404671753476,35.10271263354965,0 32.95354781485099,35.10247838530048,0 32.95305628706733,35.10225735345824,0 32.95290824368533,35.10214119137839,0 32.95250183268367,35.1020490454615,0 32.95225091850627,35.10191914075343,0 32.95196082915265,35.10162270472492,0 32.95175033125258,35.1013794920637,0 32.95145878788168,35.10096101644552,0 32.95114473763157,35.10089119034451,0 32.95094614423721,35.10077865888997,0 32.95071162271116,35.10049811797673,0 32.95060282574981,35.10022225844789,0 32.95058334660482,35.09989069817536,0 32.95046873641255,35.09974397797726,0 32.95044309709981,35.09961905057484,0 32.95045929197914,35.09951146993357,0 32.95050159000157,35.09942549420141,0 32.9504868107757,35.0992144952931,0 32.95035802037387,35.09872331575915,0 32.95035554122914,35.09810336235293,0 32.95008932718799,35.09788299540607,0 32.94985403207512,35.09777896264795,0 32.94947720385074,35.09769172335901,0 32.94930462391851,35.09762231910784,0 32.94926340501916,35.09746720737948,0 32.94906482141357,35.09735467368991,0 32.94895560990047,35.0971735256852,0 32.94823437708725,35.09670588747184,0 32.94795901186705,35.09626642152241,0 32.94787157172925,35.09590452137881,0 32.94767301522144,35.0957876793418,0 32.94727259598763,35.09567166609471,0 32.94715241471067,35.09561053668271,0 32.9469043290121,35.09540074864986,0 32.94664621347943,35.09514237850277,0 32.94608713716016,35.09468910766601,0 32.94583977844071,35.09435357231937,0 32.9454618365511,35.09384089681985,0 32.94515062839967,35.09349126291738,0 32.94514402241125,35.09347377700448,0 32.94505115239478,35.09322797253498,0 32.9449653249505,35.0931242863179,0 32.94495497814887,35.09302674140974,0 32.94477479678847,35.09312074817174,0 32.94474568366402,35.09319453367479,0 32.94479878992791,35.09337790006691,0 32.9448300816603,35.09361439215543,0 32.9448026678336,35.09411369719191,0 32.94487132023885,35.09435061909163,0</coordinates>
						</LinearRing>
					</outerBoundaryIs>
				</Polygon>
			</MultiGeometry>
		</Placemark>
	</Document>
</kml>