<?xml version='1.0' encoding='UTF-8'?>
<kml xmlns="http://www.opengis.net/kml/2.2">
	<Document>
		<name>KELOKEDARA</name>
		<Style id="PolyStyle70">
			<LabelStyle>
				<color>00000000</color>
				<scale>0.000000</scale>
			</LabelStyle>
			<LineStyle>
				<color>ff0055ff</color>
				<width>2.000000</width>
			</LineStyle>
			<PolyStyle>
				<color>00828282</color>
				<outline>1</outline>
			</PolyStyle>
		</Style>
		<Placemark id="ID_70153">
			<name>KELOKEDARA</name>
			<snippet />
			<description>&lt;html xmlns:fo="http://www.w3.org/1999/XSL/Format" xmlns:msxsl="urn:schemas-microsoft-com:xslt"&gt;

&lt;head&gt;

&lt;META http-equiv="Content-Type" content="text/html"&gt;

&lt;meta http-equiv="content-type" content="text/html; charset=UTF-8"&gt;

&lt;/head&gt;

&lt;body style="margin:0px 0px 0px 0px;overflow:auto;background:#FFFFFF;"&gt;

&lt;table style="font-family:Arial,Verdana,Times;font-size:12px;text-align:left;width:100%;border-collapse:collapse;padding:3px 3px 3px 3px"&gt;

&lt;tr style="text-align:center;font-weight:bold;background:#9CBCE2"&gt;

&lt;td&gt;6&lt;/td&gt;

&lt;/tr&gt;

&lt;tr&gt;

&lt;td&gt;

&lt;table style="font-family:Arial,Verdana,Times;font-size:12px;text-align:left;width:100%;border-spacing:0px; padding:3px 3px 3px 3px"&gt;

&lt;tr&gt;

&lt;td&gt;DIST_CODE&lt;/td&gt;

&lt;td&gt;6&lt;/td&gt;

&lt;/tr&gt;

&lt;tr bgcolor="#D4E4F3"&gt;

&lt;td&gt;VIL_CODE&lt;/td&gt;

&lt;td&gt;210&lt;/td&gt;

&lt;/tr&gt;

&lt;tr&gt;

&lt;td&gt;VIL_CCD&lt;/td&gt;

&lt;td&gt;6210&lt;/td&gt;

&lt;/tr&gt;

&lt;tr bgcolor="#D4E4F3"&gt;

&lt;td&gt;VIL_NM_E&lt;/td&gt;

&lt;td&gt;KELOKEDARA&lt;/td&gt;

&lt;/tr&gt;

&lt;tr&gt;

&lt;td&gt;VIL_NM_G&lt;/td&gt;

&lt;td&gt;ΚΕΛΟΚΕΔΑΡΑ&lt;/td&gt;

&lt;/tr&gt;

&lt;/table&gt;

&lt;/td&gt;

&lt;/tr&gt;

&lt;/table&gt;

&lt;/body&gt;&lt;script type="text/javascript"&gt;

				function changeImage(attElement, nameElement) {

				document.getElementById('imageAttachment').src = attElement;

				document.getElementById('imageName').innerHTML = nameElement;}

			&lt;/script&gt;&lt;/html&gt;

</description>
			<styleUrl>#PolyStyle70</styleUrl>
			<MultiGeometry>
				<Polygon>
					<extrude>0</extrude>
					<altitudeMode>clampToGround</altitudeMode>
					<outerBoundaryIs>
						<LinearRing>
							<coordinates> 32.65831721286703,34.79547294702044,0 32.65842182508251,34.79549455370568,0 32.65907332319919,34.79575608532177,0 32.6591573620578,34.79581839383345,0 32.65924201435984,34.79595527127493,0 32.65927105946322,34.79609200381186,0 32.65932976250601,34.79624550614776,0 32.65949425902051,34.79649173222337,0 32.65952151875486,34.79663413433986,0 32.65937374809426,34.79687225244361,0 32.65937307211569,34.79698240715943,0 32.65940322970558,34.79711103238813,0 32.65935710030772,34.79722302866325,0 32.65920318209232,34.79754828716437,0 32.65920267717451,34.79763088854823,0 32.65922711139945,34.79777553281718,0 32.65935007669875,34.79790906845725,0 32.65941352320564,34.79811349441602,0 32.65964521144767,34.79794917765939,0 32.65979900369157,34.79809887825656,0 32.66029339322263,34.79820854617506,0 32.66057460428651,34.79840640720162,0 32.66114132750466,34.79834326212754,0 32.66166916348408,34.79804472811266,0 32.66183600706476,34.79790312468786,0 32.661968364739,34.79787609092008,0 32.66220325582748,34.79764985738698,0 32.6622633546223,34.79792307145746,0 32.66256474467701,34.79827973239581,0 32.66227154671331,34.79895651931692,0 32.66216331373796,34.79916939348448,0 32.66214602705724,34.79923353882216,0 32.6621876686422,34.79932494449274,0 32.66222088813122,34.79940532274486,0 32.66220914985328,34.79948094906012,0 32.66219164090305,34.79957948238688,0 32.66218859094239,34.79961615852296,0 32.66226108350634,34.79971042896936,0 32.66242617360577,34.79983254429325,0 32.66260272584691,34.79992030527216,0 32.66277097189749,34.79998739882102,0 32.66296047049766,34.80061887811689,0 32.66282232597809,34.80082346134797,0 32.66270030674427,34.80097840737542,0 32.66270537408614,34.80106322823166,0 32.66274713246389,34.80112525749068,0 32.66283400046712,34.80116681894459,0 32.66299106232572,34.80122008627664,0 32.66301610329156,34.80125913530599,0 32.66300442150746,34.80132555530268,0 32.6629789587137,34.80135067496951,0 32.66286064883895,34.80138921699481,0 32.66271710120526,34.8014185040682,0 32.66265784887911,34.80145267074192,0 32.66263470172561,34.80155342317191,0 32.6626280902407,34.80170464595734,0 32.66265806431665,34.80184911641611,0 32.66272223237213,34.80192688223914,0 32.66283420871491,34.80199601386752,0 32.66303584442151,34.80210669910538,0 32.66311695522852,34.80216655380423,0 32.66316155985964,34.8022216973881,0 32.66318508139035,34.80248983626421,0 32.6632115946171,34.80273047469814,0 32.66315182197475,34.80284481078466,0 32.6630866035938,34.80293976407037,0 32.66293708959547,34.8030648889477,0 32.66272238058802,34.80315580046249,0 32.66243713126799,34.80327499101264,0 32.66236190898321,34.80342722143882,0 32.66238978325335,34.80373263849861,0 32.66257395214727,34.80405831912456,0 32.6626309191342,34.80430145163412,0 32.66270181216768,34.80448499168381,0 32.66273484334486,34.80499024767322,0 32.66279058432772,34.80517509513264,0 32.66340200389213,34.80551000213182,0 32.66371984541733,34.80573926627354,0 32.66425474892127,34.8059641409024,0 32.6645442898018,34.80615578746477,0 32.66488496657596,34.80626306399517,0 32.66495532799632,34.80630090504835,0 32.66514185045435,34.806543340045,0 32.66519543476626,34.80657553948399,0 32.66548790433545,34.80660901598365,0 32.66567500470551,34.80677791224601,0 32.66589031298075,34.80699691080753,0 32.66622669530206,34.8072234932973,0 32.66661215957594,34.80741287121676,0 32.66687417910156,34.80725330711465,0 32.66707859545134,34.80714477738729,0 32.66718308393618,34.80712174445438,0 32.66721153158539,34.80714132154695,0 32.6672294721989,34.80721357235325,0 32.66706957543568,34.8074375080441,0 32.66705305571449,34.80761364338995,0 32.66756860578998,34.8077343310686,0 32.66811383198754,34.80793288012838,0 32.66848932992565,34.80810693540591,0 32.66882733677185,34.8081267699862,0 32.66883044380655,34.80837516251458,0 32.66861291949324,34.80886937329551,0 32.66876245223471,34.80954175451587,0 32.6689302176632,34.81003384892363,0 32.66912367436053,34.81025272635499,0 32.6691978649927,34.81044738004493,0 32.66927274957541,34.81055323454271,0 32.66953850541674,34.81077804461296,0 32.66982453747413,34.81099186183614,0 32.66990433090616,34.8111157790093,0 32.66991396593843,34.81139057096582,0 32.67009778840999,34.81198265284772,0 32.6701191250055,34.81226721935402,0 32.669166974899,34.81268121726517,0 32.66909922249506,34.81273913603941,0 32.66905707815943,34.81296508720084,0 32.6691087360557,34.81302919010807,0 32.66942655276713,34.81305169144497,0 32.66989589741657,34.81306111831522,0 32.66978997413486,34.81326730636363,0 32.66977322666656,34.81368904149124,0 32.66984330400896,34.81376434230604,0 32.67011089560749,34.81397112160586,0 32.66977837714144,34.81432319068465,0 32.67098260336711,34.81481522368956,0 32.67121921447384,34.8148955685814,0 32.6711685314548,34.81535458804048,0 32.6710821319706,34.81543044773981,0 32.67101124057243,34.81545921157245,0 32.67109237630675,34.81562753786239,0 32.67141766607987,34.81577217999155,0 32.67162063106886,34.81606880742467,0 32.67163910679778,34.81650599209446,0 32.67164635279225,34.81687235014559,0 32.67172921613898,34.81703513492108,0 32.67172559340552,34.81728487998786,0 32.67193064343157,34.81753017849972,0 32.67207338652788,34.81761942552059,0 32.67227656213686,34.81774645807348,0 32.67230613894227,34.81783819445835,0 32.67213085153782,34.81787612041356,0 32.67196242761062,34.81833035597871,0 32.67250545519761,34.81817226665673,0 32.67300362041624,34.81859116887343,0 32.67302322771427,34.81866620145934,0 32.67255882822336,34.81909945048488,0 32.67164822112432,34.81935550163216,0 32.67192642614688,34.82166312453379,0 32.67211134160023,34.82168630527335,0 32.67218477259259,34.82176439738,0 32.67240192856374,34.82173515241056,0 32.67294117197942,34.82230122142599,0 32.67303842119635,34.82234613609456,0 32.67314446771747,34.82233217542523,0 32.67355577873651,34.82202972293964,0 32.67363106969286,34.82230208600245,0 32.67362678190079,34.82242139393691,0 32.67350573805406,34.82257017069375,0 32.67324263637339,34.82273001519791,0 32.67316210378811,34.82288794373298,0 32.67323441381399,34.82311033707417,0 32.6730779888934,34.82325027159325,0 32.67287972876287,34.82328052769891,0 32.67282208701758,34.82333572348714,0 32.67284055616537,34.82355783522715,0 32.67281253522113,34.82369922067689,0 32.67294126280265,34.82402459325987,0 32.67305302862712,34.82470607358625,0 32.67306015696533,34.82474953446773,0 32.67304771047604,34.82490273832356,0 32.67259537810978,34.82522718384732,0 32.67246594455744,34.82585923425216,0 32.67236694760875,34.82603909518517,0 32.67214772175225,34.82609899002723,0 32.67193570323469,34.82609786952062,0 32.67149201555385,34.82604905327818,0 32.67141402266466,34.82610066243854,0 32.6713259407248,34.82617512486306,0 32.67115913583927,34.8264184555843,0 32.67108500869311,34.82642916363335,0 32.67094381443291,34.82640899052685,0 32.67086289189918,34.82642798781155,0 32.67060500322697,34.82669858802818,0 32.67052735932573,34.82672870251513,0 32.67030185501689,34.82673028213713,0 32.67009615300311,34.8267819201934,0 32.66991676627618,34.82701098028134,0 32.66966892703591,34.82718760089004,0 32.66945879835415,34.82737519581723,0 32.66917631978416,34.82748498796482,0 32.66905327427828,34.82758672882235,0 32.66897952208546,34.82798040792315,0 32.66876058590811,34.82840698313419,0 32.66853404929461,34.82899652444629,0 32.66838428796612,34.82919674442161,0 32.66818160413463,34.82930546711978,0 32.66796408249188,34.82957627622027,0 32.66753053810592,34.82992641082031,0 32.6666713965753,34.82988725917131,0 32.66635527228046,34.83012454163457,0 32.66612164741079,34.83018531813981,0 32.66566692717015,34.83023006932297,0 32.66533028393956,34.83023937333233,0 32.66501326660434,34.83032093462322,0 32.66437731230988,34.83032703433864,0 32.66417135038596,34.83038303541707,0 32.6638571264801,34.8305367613937,0 32.66349915337945,34.830690251966,0 32.66318682984213,34.83074101448759,0 32.66273309098111,34.83071554814806,0 32.66237261996471,34.83057931939901,0 32.66216311122527,34.83055061350775,0 32.66206964807313,34.83054703028782,0 32.66197511568581,34.83052152622515,0 32.66182660733597,34.83046847345886,0 32.66166466766835,34.83044083553521,0 32.6615748752546,34.83042881738178,0 32.66147669774698,34.83038876424305,0 32.66117971852377,34.83031172820581,0 32.66082708758072,34.83030892917736,0 32.66053889442983,34.83032725859159,0 32.66025818024886,34.83040779277523,0 32.65997766215697,34.83044049243721,0 32.6595548629164,34.8304777973072,0 32.65933228793963,34.83060785620638,0 32.6591448690885,34.83075155654805,0 32.65888508536774,34.83097948328879,0 32.65873825338335,34.83120775160331,0 32.65825660680977,34.83150762093185,0 32.65806737334783,34.83152524525522,0 32.65750115163186,34.83158234570448,0 32.65695038952739,34.83164742345342,0 32.6563642217027,34.8317248918592,0 32.65608636621159,34.83176575264981,0 32.65577945558918,34.8318214982279,0 32.65565904952059,34.83184228740345,0 32.65543734318129,34.83188193903183,0 32.65529842777544,34.83192015448703,0 32.65507889573892,34.83197915577861,0 32.65474690628249,34.83197659234063,0 32.65383289677674,34.83215201184261,0 32.65332370159155,34.83229028346052,0 32.65293765322417,34.83250857151976,0 32.65282425045993,34.83255971155725,0 32.65235787833647,34.83277056954524,0 32.65177895475789,34.833176412924,0 32.65135038465538,34.83335544776165,0 32.65060786427448,34.83397848078325,0 32.65029950116413,34.83406337191491,0 32.64996136466721,34.83415409098723,0 32.64958213897695,34.83425868392194,0 32.6491928041762,34.83444001011572,0 32.64844802537412,34.8345404005422,0 32.64800681975193,34.83459006005467,0 32.64759991607029,34.83463545703992,0 32.64694754581639,34.83484160492375,0 32.64487930001908,34.83529294362265,0 32.64436168524527,34.83558524441547,0 32.64368956642437,34.83629105720385,0 32.64311471789986,34.8369495624275,0 32.64233964206004,34.83678549808719,0 32.64092678680783,34.8356640906579,0 32.63983963395133,34.83468192685444,0 32.63820258423511,34.83296986026687,0 32.63743627152478,34.83193651138237,0 32.63692344276555,34.83124495960706,0 32.63685601530155,34.83109375790247,0 32.63674861014095,34.83095188666111,0 32.63595835238803,34.83009285246871,0 32.63501174735956,34.82906369268617,0 32.63448304694571,34.82836649833762,0 32.63420553718332,34.82798248161974,0 32.63363400412135,34.82724602468839,0 32.63268072319818,34.82600560013289,0 32.63235222783618,34.82558473353239,0 32.63173219329376,34.82484299257703,0 32.63151851608104,34.82458736936463,0 32.63136791526499,34.82440720416969,0 32.63094106754774,34.82351286577262,0 32.63080536516047,34.82323981209989,0 32.63068552926472,34.82299248957797,0 32.63035936636142,34.82230255768322,0 32.62717579483431,34.81970483385903,0 32.62682142977122,34.81888913763402,0 32.62638908416785,34.81793096674382,0 32.62563109358049,34.81745371606302,0 32.62528652402497,34.81724368975568,0 32.62498793830113,34.81705280132837,0 32.62453426111649,34.81677594843129,0 32.62402811606125,34.81645564417377,0 32.62310546448223,34.81610134384991,0 32.62156325235166,34.81537555605623,0 32.61990519099994,34.81459976665531,0 32.61912282604953,34.81388412293033,0 32.61846632296974,34.81301829083212,0 32.61812430822859,34.81248656569353,0 32.61745658197088,34.81133812369617,0 32.61743767433985,34.81131594900589,0 32.61623650017646,34.80990717272439,0 32.61592151086651,34.80963566395631,0 32.61460057458035,34.80862793389041,0 32.61332908171963,34.8077617424887,0 32.61253042155671,34.80714549358126,0 32.61135965628433,34.80622688724992,0 32.61095385020016,34.80588099346883,0 32.61133599827662,34.80580454296366,0 32.61142205836001,34.80575527592198,0 32.61144082201792,34.80537973061256,0 32.61150160775227,34.80532710513741,0 32.61161724447533,34.80523305820245,0 32.6116747102592,34.80511298909718,0 32.61164387168961,34.80484792756589,0 32.61159271479308,34.80468388614316,0 32.61147936945282,34.80450824643739,0 32.61148813772926,34.80439271126838,0 32.61159287280168,34.80420709541516,0 32.6117546497968,34.80395117438523,0 32.61178730243172,34.80377316917617,0 32.61174373959215,34.80363164589446,0 32.61156536895447,34.80332078139865,0 32.61139747199135,34.80277857579427,0 32.61138226148789,34.80272945498699,0 32.61136742307793,34.80254028698253,0 32.61166730666443,34.80252096974235,0 32.61234371989762,34.80250545150999,0 32.61249521386019,34.80249522655388,0 32.61260800473337,34.80228774008024,0 32.61276274704191,34.80189456203611,0 32.61276286349161,34.80148383912753,0 32.61225435327064,34.80114233452151,0 32.61279263157218,34.80035452378301,0 32.61290120671362,34.8002469186776,0 32.61295927165767,34.80014457327206,0 32.61293981216042,34.80005843097457,0 32.61281067733697,34.79981347200629,0 32.61267810466273,34.7995768187359,0 32.61252478271659,34.79940664974816,0 32.61240133919108,34.79928382976498,0 32.61237510872607,34.79920319890761,0 32.61238957949767,34.79908395062489,0 32.61247161650425,34.79893179008833,0 32.61252916045211,34.7988904930514,0 32.61265302846667,34.79896336217682,0 32.61278392915361,34.79900019462336,0 32.61292536932821,34.79898435984077,0 32.61317813903181,34.79893309209884,0 32.61352159822281,34.79889899512207,0 32.61373401621896,34.79884471704136,0 32.61409001828276,34.79891892249909,0 32.61426235161524,34.79883110862107,0 32.61448584921121,34.79866033740529,0 32.61459394963278,34.79860823066508,0 32.61470823859995,34.79861998777113,0 32.61481850865909,34.79870942809445,0 32.61489464707368,34.79885694896845,0 32.6150318046737,34.79894931915145,0 32.61521917402727,34.7990725035746,0 32.61532500020798,34.7992895748097,0 32.6154275596877,34.79949552614624,0 32.6155338782627,34.79965431905708,0 32.61567066900744,34.79979108740692,0 32.61577426093157,34.79987493840756,0 32.61587163522623,34.7998976991184,0 32.61602331111597,34.79986526759259,0 32.61620519464775,34.79984133716891,0 32.61644079129016,34.79983159062001,0 32.61656169494751,34.79985725999425,0 32.61664970575053,34.79979393629675,0 32.6166433523459,34.79974949820254,0 32.61656625481196,34.79971575381338,0 32.61632110488827,34.79966161803235,0 32.61609938924786,34.79962149301029,0 32.61595839305708,34.7995846061268,0 32.61586468228399,34.7995257900061,0 32.61585828281554,34.79948690105562,0 32.61602165214465,34.79886620434167,0 32.6163064221461,34.79900937302756,0 32.61683274374671,34.79923440620183,0 32.61698735828372,34.79925194472604,0 32.61724654805271,34.79923677921899,0 32.61749357594303,34.79921684862992,0 32.61766402570004,34.79920309622346,0 32.61798335245266,34.79923822699941,0 32.61823906090791,34.79923691546853,0 32.61838379622417,34.79922942039262,0 32.61849091544602,34.79929386110177,0 32.61860132949265,34.79936664685626,0 32.61881924270119,34.79945947406173,0 32.61899007206702,34.7995492571229,0 32.6191404165216,34.79967499781475,0 32.61923606923757,34.79990310815042,0 32.61926875727656,34.80001707626661,0 32.61935242097007,34.80007028017066,0 32.61941293207564,34.80007617830208,0 32.61952124439111,34.7999990940636,0 32.61967443378838,34.79978628241151,0 32.61976332741015,34.79961750569134,0 32.61988013404237,34.79932955593695,0 32.61991239173089,34.79909385245239,0 32.61990449266592,34.79883294337469,0 32.62023243152408,34.79864332916155,0 32.62045558973244,34.7985113966112,0 32.62065134339615,34.79843758402406,0 32.62068097000209,34.7985154571659,0 32.62069970824743,34.79909002109903,0 32.62071151163884,34.79928712587586,0 32.62075454682937,34.79937062616676,0 32.62086510369225,34.799426759619,0 32.62097621906288,34.79941629281301,0 32.6210574043352,34.79936402799247,0 32.62108826412781,34.79929482413323,0 32.62114451016462,34.79900652861969,0 32.62121323879163,34.79883486198388,0 32.62136312458527,34.79861370304538,0 32.62128960760979,34.79815260834535,0 32.62119689721294,34.79797446982996,0 32.62152153592405,34.79777650790754,0 32.62197448102373,34.79752377398199,0 32.62237306141455,34.79733455811743,0 32.62249199095456,34.79759609912978,0 32.62260841570588,34.79775494614039,0 32.62273551421519,34.79784447477864,0 32.6228228221246,34.79786439701928,0 32.62291743859381,34.79781498238253,0 32.6229693180393,34.79764599209556,0 32.62298455904025,34.7974323917546,0 32.62296383966886,34.79709370460073,0 32.62296868485572,34.79691612287937,0 32.62325628771704,34.79672072154596,0 32.62357156850928,34.79643389699088,0 32.62362903678824,34.79640092113717,0 32.62373024122844,34.79636819405932,0 32.62387457545503,34.79640786685085,0 32.62407257624689,34.79646726854502,0 32.62421370868302,34.79648749575181,0 32.62468828154849,34.79606003956638,0 32.62474549170707,34.79605758914025,0 32.62487931800371,34.79614715343411,0 32.62516917167768,34.79608496737526,0 32.62547227078361,34.79604783396069,0 32.62553727128526,34.7959177697036,0 32.62591860175534,34.79577839611758,0 32.62607643897792,34.79581259182063,0 32.6263199720847,34.79565578585608,0 32.62651543909688,34.79561526430996,0 32.62678523429189,34.79553631163731,0 32.62702498891981,34.79542943488962,0 32.62704602861421,34.79532687359094,0 32.62738389373381,34.7951539471718,0 32.62744530174221,34.79505161304484,0 32.62761986505638,34.79469182884736,0 32.62765576426189,34.79442006620139,0 32.6277541029762,34.79432626624053,0 32.62801127361853,34.79414733273509,0 32.62806643354291,34.79398668498253,0 32.62811166244365,34.79380655442405,0 32.6281660856462,34.79373470730452,0 32.62838209935556,34.79364989676278,0 32.62852414880483,34.79355911786516,0 32.6286531574576,34.79341831169255,0 32.6288461343182,34.79367748994633,0 32.62904298303297,34.79387563696312,0 32.62963119999038,34.79353205588171,0 32.62977034567271,34.7933857552654,0 32.62978462701103,34.79328592952889,0 32.62978577495284,34.79314717790074,0 32.62981372287709,34.79302245234644,0 32.62991913078665,34.79288706377261,0 32.63016349875733,34.79262757441398,0 32.63012877927697,34.79275781169368,0 32.63031972726106,34.79285601637514,0 32.63051147501074,34.79285709531438,0 32.63074702487707,34.79285009461471,0 32.63100205137375,34.79292923308275,0 32.63116311554468,34.79298008991286,0 32.63125336907601,34.79304997712569,0 32.63118547229001,34.79312452523231,0 32.63106333373927,34.79324872043907,0 32.63135749135392,34.79347793694414,0 32.63147127357951,34.79355072941838,0 32.6317231191284,34.79360764676613,0 32.63191759176297,34.79365347892427,0 32.63198989677969,34.79361968397289,0 32.6320673767796,34.79358346979962,0 32.63212427681716,34.79354437183065,0 32.63219912482485,34.79346693702627,0 32.6324413363588,34.7934690903034,0 32.63265805222802,34.79353256766861,0 32.63289001247747,34.79359745632923,0 32.63314508578236,34.79360187629119,0 32.63353676209285,34.79359212249366,0 32.63393026295582,34.79352283470675,0 32.63404828064316,34.7934549289343,0 32.63422205287329,34.79330686670846,0 32.6343443164309,34.79330133046579,0 32.63427022269033,34.79311042003717,0 32.63421561374086,34.79296381770826,0 32.63431837535332,34.79301310149512,0 32.63445469598557,34.79311687691704,0 32.63475177311151,34.79298638389245,0 32.63490287782743,34.79293050818933,0 32.63488959795082,34.79306361016294,0 32.635023598633,34.7931901513805,0 32.63540035947744,34.79319347830737,0 32.63549458852135,34.79307001907404,0 32.63551941576244,34.79301854386927,0 32.635660300998,34.79292585105357,0 32.63593772382779,34.793072332443,0 32.63619849796344,34.79310130058725,0 32.63634473057478,34.79311136870326,0 32.63655686176824,34.79311320936447,0 32.63673878799577,34.79300905868512,0 32.63677737681098,34.79293130819092,0 32.63678623733348,34.79276344812864,0 32.63665258050573,34.79271499818288,0 32.63665454106638,34.79266662398322,0 32.63676278907711,34.79260157644963,0 32.63702749967235,34.79263116935428,0 32.63717072187475,34.79266650422655,0 32.63738441616727,34.79275634068171,0 32.63754703160171,34.79278764299698,0 32.6378585261935,34.79278924267832,0 32.63778731439255,34.79268744609688,0 32.6377248151039,34.79263961381626,0 32.63751008762476,34.79260632119296,0 32.63712534266664,34.79245231454002,0 32.63669625977136,34.79225991308607,0 32.63645891514747,34.79217688376952,0 32.63648909274777,34.79181013048446,0 32.63652341423904,34.79175104090046,0 32.63667223293098,34.79166325194059,0 32.63688224333145,34.79176840748715,0 32.63700531020157,34.79180466861186,0 32.63707146045896,34.79177664860427,0 32.63729024209486,34.79183906739339,0 32.63756296174574,34.79193271317554,0 32.63771924608358,34.79189117706525,0 32.63769826827396,34.79185140383328,0 32.63765446774315,34.79181143284796,0 32.63741108816653,34.79173343915772,0 32.63723998733663,34.79164757889717,0 32.63718712536547,34.79158113482032,0 32.63718655438102,34.79152064384247,0 32.63717338280242,34.79139515662399,0 32.63707364279171,34.79110145895224,0 32.63719553639049,34.79101893556785,0 32.637315635566,34.79107716405029,0 32.63746315488184,34.79114798535095,0 32.63775922634969,34.79120004231567,0 32.63793901495432,34.791210399478,0 32.63820313291179,34.79119963362345,0 32.63848358395408,34.79121306021855,0 32.63874558612947,34.79123617521598,0 32.63868087826501,34.79115093468511,0 32.63871570375365,34.79083931568583,0 32.63874035370888,34.79071813172635,0 32.63886179639,34.79077387376437,0 32.63895625169922,34.79079624768492,0 32.63914936774252,34.79082055290795,0 32.63935478639464,34.79084743186732,0 32.63963936838162,34.79086653997786,0 32.63965860898332,34.79073987971351,0 32.64003016306066,34.79075629840829,0 32.6403265634971,34.7907653616201,0 32.64061426313809,34.79077535305919,0 32.64084391361969,34.79078593607571,0 32.64113968494078,34.7908817512783,0 32.64141277790904,34.79099193121387,0 32.64152998438342,34.79103474930877,0 32.64171247550066,34.79108777822762,0 32.64187737065136,34.79115300855166,0 32.64199434696206,34.79121404749086,0 32.64224112946242,34.79138524955538,0 32.64249148063581,34.79155570618251,0 32.64267337887582,34.7917047898322,0 32.64295181296035,34.7918272498661,0 32.64342090916866,34.79203775216752,0 32.6437087747781,34.79220919960702,0 32.6438682907817,34.79232098684813,0 32.64411053667634,34.79246655074977,0 32.64430964514348,34.79255652713591,0 32.64434094538655,34.79242186673792,0 32.6442726400617,34.79226209015245,0 32.64417105321579,34.79195926925316,0 32.64415167450316,34.79188178230757,0 32.64414182528991,34.79165934075191,0 32.64459848546899,34.79154199062825,0 32.64518246850072,34.79139809172435,0 32.64525801911174,34.7914229982279,0 32.64530410100094,34.79143703923883,0 32.64538243789535,34.79153474160268,0 32.64567826325781,34.79150405947863,0 32.64575245838834,34.79148953848765,0 32.64590202615769,34.7913665098008,0 32.64602586475215,34.79122961477472,0 32.64618876591459,34.7913053849764,0 32.64649688763973,34.79152331226483,0 32.64671017425728,34.79163126843581,0 32.64703315121939,34.79178190976236,0 32.64736816686518,34.79192123311348,0 32.64755864206142,34.79199034841265,0 32.64744080587374,34.79223948604827,0 32.64803147435333,34.79220665636515,0 32.64810822514951,34.79198748717181,0 32.64837533342809,34.79159588186066,0 32.64848472080884,34.79143005641583,0 32.64873470825979,34.79156258046956,0 32.64900591422253,34.79171383068576,0 32.64924340747795,34.79180986200164,0 32.6495489770235,34.79193679868206,0 32.64978654004139,34.7919804457045,0 32.65025533702809,34.79207542489274,0 32.65017963749546,34.79237611506616,0 32.65009865001763,34.79263921651478,0 32.65003484916807,34.79286000804269,0 32.65002365077522,34.79302218417787,0 32.65034634637674,34.79304882286475,0 32.65042665373311,34.7930104857799,0 32.65061197669304,34.79325255859437,0 32.65066091710235,34.79348342322308,0 32.65070186256818,34.79361857656649,0 32.65076903783486,34.79372224529491,0 32.65115810731069,34.79383170213182,0 32.65172856196131,34.79400375091909,0 32.65177561074294,34.79400388553621,0 32.65196174949366,34.79406263646838,0 32.65214554666237,34.7942314712459,0 32.65220874951439,34.79427979755415,0 32.65218013277001,34.79463052152069,0 32.65214867938352,34.79476076005708,0 32.65219932792793,34.79478306521129,0 32.65239356920117,34.79480071165907,0 32.65262448190258,34.79482552174213,0 32.65277273033911,34.79488380811306,0 32.65307652052289,34.79503517554113,0 32.65331046381949,34.79513920721556,0 32.65341929969551,34.79519744813641,0 32.65355342334748,34.79525987787774,0 32.65373155432096,34.79531646866961,0 32.65409324263503,34.79540530493871,0 32.65422832034121,34.79544357771693,0 32.65437214918864,34.79552502593255,0 32.65448036040195,34.79558111416628,0 32.65455560306416,34.79558869441794,0 32.65462474237201,34.79564665030978,0 32.6547066950122,34.79572597899678,0 32.65477071935799,34.79577290454264,0 32.65481691756055,34.79579173350495,0 32.65487170291645,34.79578955140317,0 32.6549152721235,34.79575929148169,0 32.65494287738255,34.79570717203399,0 32.65495644268716,34.79562462841437,0 32.65497852797404,34.79553743581388,0 32.65503659483574,34.79540247174761,0 32.65509046874866,34.79533044330927,0 32.65525865222143,34.7952279757012,0 32.65537352942192,34.79512861117651,0 32.65541043533322,34.79509261879796,0 32.65544211348372,34.79505083690216,0 32.65547820409302,34.79500040452684,0 32.65552583638934,34.7949102985161,0 32.65557427073075,34.7948375206775,0 32.65562778696984,34.79477010371396,0 32.65570384689513,34.79469606802938,0 32.65578247671698,34.7946275853018,0 32.65585066935569,34.79457386585203,0 32.65592495704993,34.79451257606524,0 32.65603367244534,34.79441956494993,0 32.65609062182803,34.79437943183694,0 32.65615248155302,34.79434098205978,0 32.65622898160792,34.79434025523499,0 32.65656473299043,34.79447283413882,0 32.65665624516493,34.79451434731545,0 32.65684415163766,34.79462626436836,0 32.65697264036697,34.79470852175292,0 32.65705370822152,34.79475483517862,0 32.65718651881858,34.79481553995948,0 32.65727778795465,34.79485098971362,0 32.65751210955363,34.79492706124345,0 32.65769185818184,34.79499092552462,0 32.65776491874509,34.79502406736496,0 32.65784338145365,34.79509198977823,0 32.65804444086852,34.7952828524266,0 32.6581290037991,34.79535079179312,0 32.65819308220583,34.79541043970467,0 32.65825006802881,34.79544216409742,0 32.65831721286703,34.79547294702044,0</coordinates>
						</LinearRing>
					</outerBoundaryIs>
				</Polygon>
			</MultiGeometry>
		</Placemark>
	</Document>
</kml>