<?xml version='1.0' encoding='UTF-8'?>
<kml xmlns="http://www.opengis.net/kml/2.2">
	<Document>
		<name>KOILINEIA</name>
		<Style id="PolyStyle70">
			<LabelStyle>
				<color>00000000</color>
				<scale>0.000000</scale>
			</LabelStyle>
			<LineStyle>
				<color>ff0055ff</color>
				<width>2.000000</width>
			</LineStyle>
			<PolyStyle>
				<color>00828282</color>
				<outline>1</outline>
			</PolyStyle>
		</Style>
		<Placemark id="ID_70109">
			<name>KOILINEIA</name>
			<snippet />
			<description>&lt;html xmlns:fo="http://www.w3.org/1999/XSL/Format" xmlns:msxsl="urn:schemas-microsoft-com:xslt"&gt;

&lt;head&gt;

&lt;META http-equiv="Content-Type" content="text/html"&gt;

&lt;meta http-equiv="content-type" content="text/html; charset=UTF-8"&gt;

&lt;/head&gt;

&lt;body style="margin:0px 0px 0px 0px;overflow:auto;background:#FFFFFF;"&gt;

&lt;table style="font-family:Arial,Verdana,Times;font-size:12px;text-align:left;width:100%;border-collapse:collapse;padding:3px 3px 3px 3px"&gt;

&lt;tr style="text-align:center;font-weight:bold;background:#9CBCE2"&gt;

&lt;td&gt;6&lt;/td&gt;

&lt;/tr&gt;

&lt;tr&gt;

&lt;td&gt;

&lt;table style="font-family:Arial,Verdana,Times;font-size:12px;text-align:left;width:100%;border-spacing:0px; padding:3px 3px 3px 3px"&gt;

&lt;tr&gt;

&lt;td&gt;DIST_CODE&lt;/td&gt;

&lt;td&gt;6&lt;/td&gt;

&lt;/tr&gt;

&lt;tr bgcolor="#D4E4F3"&gt;

&lt;td&gt;VIL_CODE&lt;/td&gt;

&lt;td&gt;225&lt;/td&gt;

&lt;/tr&gt;

&lt;tr&gt;

&lt;td&gt;VIL_CCD&lt;/td&gt;

&lt;td&gt;6225&lt;/td&gt;

&lt;/tr&gt;

&lt;tr bgcolor="#D4E4F3"&gt;

&lt;td&gt;VIL_NM_E&lt;/td&gt;

&lt;td&gt;KOILINEIA&lt;/td&gt;

&lt;/tr&gt;

&lt;tr&gt;

&lt;td&gt;VIL_NM_G&lt;/td&gt;

&lt;td&gt;ΚΟΙΛΙΝΕΙΑ&lt;/td&gt;

&lt;/tr&gt;

&lt;/table&gt;

&lt;/td&gt;

&lt;/tr&gt;

&lt;/table&gt;

&lt;/body&gt;&lt;script type="text/javascript"&gt;

				function changeImage(attElement, nameElement) {

				document.getElementById('imageAttachment').src = attElement;

				document.getElementById('imageName').innerHTML = nameElement;}

			&lt;/script&gt;&lt;/html&gt;

</description>
			<styleUrl>#PolyStyle70</styleUrl>
			<MultiGeometry>
				<Polygon>
					<extrude>0</extrude>
					<altitudeMode>clampToGround</altitudeMode>
					<outerBoundaryIs>
						<LinearRing>
							<coordinates> 32.65678411369328,34.86105281948227,0 32.65711390438154,34.86076007407592,0 32.6575264414572,34.86034238821668,0 32.65783869583068,34.85999869682441,0 32.6578944643308,34.85993731309336,0 32.65816321432992,34.85970055745612,0 32.6583566082523,34.85948104688653,0 32.65847371371085,34.85930583144486,0 32.65856394739082,34.85909917562039,0 32.65867869745238,34.85899249911151,0 32.65885904340378,34.85882209507874,0 32.65893026225734,34.85873306455738,0 32.65894975356476,34.85867874505266,0 32.65906835188148,34.85864737562977,0 32.659139155072,34.85861050223855,0 32.65922833411827,34.85853647141546,0 32.65929779328074,34.85844147089023,0 32.65934947958569,34.85830762872143,0 32.65926059750905,34.85811639808821,0 32.65944648162303,34.85793112222783,0 32.65967844729953,34.85809033640915,0 32.65986643374102,34.85877983922087,0 32.65991733933475,34.85897235412995,0 32.65998188050118,34.85926925822744,0 32.66002601588175,34.8594036173595,0 32.66009004884076,34.85953659338611,0 32.66022054029239,34.85972506674271,0 32.66045503017214,34.86002288518198,0 32.66045435873966,34.86033583106439,0 32.6601616373546,34.86076940357027,0 32.66017143408306,34.86090208822751,0 32.66008623236718,34.86107065074609,0 32.65989713738796,34.8614447554969,0 32.65982274110953,34.86161537177157,0 32.65957779863032,34.86192236506821,0 32.65854846541411,34.86350173409554,0 32.65831713367601,34.86430017178258,0 32.65840354214149,34.86445720425869,0 32.65843649652818,34.86472233807044,0 32.65824292532437,34.86518135410329,0 32.65823599001696,34.86531861167932,0 32.65830792223952,34.86545870417171,0 32.65835640813211,34.86560830586926,0 32.65844408120753,34.86560637066827,0 32.65937013842823,34.86526210672817,0 32.66022047142224,34.86525464645741,0 32.66056776477955,34.8660441594925,0 32.66091387771483,34.86661447344281,0 32.66145761616632,34.86732073697342,0 32.6614713736336,34.86779773286676,0 32.66104200022497,34.86851562432932,0 32.66115538280323,34.86858849470557,0 32.66104406549787,34.8686240266922,0 32.66089445656372,34.86869789108734,0 32.66061470102564,34.86897097588435,0 32.66051203392101,34.86902100687805,0 32.66069896157278,34.86940017751794,0 32.66054621789049,34.86950052069204,0 32.66052949084557,34.86976779568662,0 32.66057188826967,34.86994867657606,0 32.6603778550246,34.870096970941,0 32.66034170374427,34.87023407120846,0 32.66040190016471,34.87038132489766,0 32.66019900490894,34.8705416158389,0 32.66021617421686,34.87058747418654,0 32.659760708977,34.87090778448859,0 32.6605411264783,34.87124920438192,0 32.66093194830592,34.87134283864525,0 32.66116860980816,34.87134652089523,0 32.6614674356454,34.8712493701376,0 32.66190565035877,34.87089282882121,0 32.66210321258724,34.87066747397773,0 32.6623088934739,34.87052405717077,0 32.6629652373821,34.87029634496752,0 32.66310606256174,34.87022483892584,0 32.66317410269537,34.8701192215804,0 32.66344860077273,34.86977143191452,0 32.66357451003211,34.86973838552328,0 32.66361892844985,34.86966395375028,0 32.66383183041585,34.86971567683482,0 32.66400475585111,34.86964915872102,0 32.66443729619316,34.86963943129093,0 32.6646803101918,34.86957810501262,0 32.66505735340973,34.86956566943565,0 32.66505215747281,34.86985468538214,0 32.66542377860758,34.87016016601963,0 32.66550795211488,34.87060381689319,0 32.66534646947701,34.87107264877756,0 32.66637756018191,34.87149726686215,0 32.66650469011847,34.87168100583369,0 32.66691532989516,34.87185662260582,0 32.66711966431585,34.87188420740728,0 32.66714239825928,34.87196622332067,0 32.66731388948208,34.87208275508832,0 32.667452539902,34.87228823219888,0 32.66799612876245,34.87265243078697,0 32.66810546968513,34.87286979464722,0 32.66839083074481,34.87299897459024,0 32.66849900400203,34.87299232395299,0 32.66852620522039,34.87325019779853,0 32.66839015160983,34.87345903067767,0 32.6676981289872,34.87339031388481,0 32.66630946630944,34.87346962456164,0 32.66602362126482,34.87377400292998,0 32.66536636606909,34.87411493466265,0 32.66508654897923,34.87439525708239,0 32.66470758807324,34.87464855070059,0 32.66423333047652,34.87475681303516,0 32.66327726317955,34.87519007266994,0 32.66238017916872,34.87555379180634,0 32.66210253713948,34.87555711848256,0 32.66203225938705,34.87558610640709,0 32.66123082153972,34.87591667543575,0 32.66122495710374,34.87624205043704,0 32.66112007904748,34.876602146129,0 32.66075659736921,34.87720219339786,0 32.66021326463595,34.87765483643003,0 32.66008235677871,34.87797682659546,0 32.6592243839026,34.87867724921767,0 32.65867745011929,34.87875293599971,0 32.65768899919661,34.87880773113003,0 32.65754634992666,34.87881563799294,0 32.65733052314566,34.87883746854159,0 32.65691967009713,34.87881851904821,0 32.65641566544936,34.87870916542442,0 32.656200223746,34.8786829095193,0 32.65598511499928,34.87861484176276,0 32.6557971802718,34.87863891106375,0 32.65527937438409,34.87866955242642,0 32.65469665360867,34.87888590947383,0 32.65418032870345,34.87904826791002,0 32.65339492655485,34.87986145076833,0 32.65322566864393,34.87977062849209,0 32.65287189785912,34.87959308630248,0 32.65167272150757,34.87916841266497,0 32.65158384814501,34.87917838124309,0 32.65157016981583,34.87961734880716,0 32.6514307533314,34.88023333677144,0 32.65131372951286,34.88058811267266,0 32.65127009495213,34.88096628670682,0 32.65093899919856,34.88143906122498,0 32.6508344092905,34.88150957349473,0 32.65065607084038,34.88191628119058,0 32.65053257322815,34.8821288544388,0 32.65046409377781,34.88212638955367,0 32.65006475274055,34.881936044801,0 32.64952161969035,34.88258745341372,0 32.64917579254604,34.88236812909103,0 32.64892991730069,34.8823396036076,0 32.64863045758926,34.88234841544904,0 32.64867634819917,34.8826350895774,0 32.64822732413212,34.88294204743343,0 32.6480990676836,34.88311486982906,0 32.64801879480793,34.88331513381308,0 32.64798136421602,34.88323757375956,0 32.64733754892021,34.88284517274749,0 32.64724401565183,34.88280284563194,0 32.64687227925695,34.88327747768187,0 32.64666942852846,34.88357532784374,0 32.64651482652812,34.88418077365009,0 32.6466819200191,34.88453919746928,0 32.64672422212259,34.88464187353703,0 32.64672327367543,34.8847589460992,0 32.64649683903858,34.88514865611552,0 32.64653514753811,34.88543110814854,0 32.64651555976847,34.8856567940757,0 32.64646621855066,34.88579659720688,0 32.64645530836238,34.88589061711968,0 32.64638570209191,34.88602612811856,0 32.64611415069643,34.88634659816849,0 32.64599845132446,34.88653412208675,0 32.6459671913551,34.88663430171002,0 32.64583655927354,34.88678620128142,0 32.64540420885523,34.88722286083039,0 32.6453681769224,34.88728538408564,0 32.64543424707917,34.88789831536138,0 32.64537867545235,34.88818024948229,0 32.6451652523216,34.88852821573199,0 32.64513654522993,34.88862631842891,0 32.64513779925321,34.88909672697228,0 32.64509322344556,34.88927418833656,0 32.64478233279268,34.88943763776433,0 32.64466735874139,34.88953526556982,0 32.64447487001256,34.8898039002198,0 32.64432860151484,34.88996532831565,0 32.64431457815756,34.88999458042549,0 32.64403440028134,34.89057903084865,0 32.64388981211648,34.89085963344037,0 32.64388742816725,34.8911527435026,0 32.64381838065349,34.89133116928934,0 32.64389762889316,34.89164818304163,0 32.64389330868196,34.89174195960884,0 32.64331629377107,34.89226053284395,0 32.6431765709419,34.89237994281986,0 32.64296767692409,34.89269243039624,0 32.64275615491393,34.89289058591541,0 32.64261308403233,34.8929835957932,0 32.64256955786656,34.89308594867801,0 32.64254300597539,34.8932880558906,0 32.64242772916307,34.89346329439256,0 32.64220240377815,34.89360860839606,0 32.64218430397884,34.89364661472142,0 32.64223310702422,34.89376999752422,0 32.64224284727714,34.8938843681552,0 32.64219685797354,34.8942886258428,0 32.64197071017374,34.89497035361601,0 32.64185974636975,34.89548857233405,0 32.64168956746268,34.89585110129141,0 32.64162798646625,34.89598559809989,0 32.64155350575704,34.89639262804256,0 32.64145065868551,34.8967877762293,0 32.64171682032293,34.89687132560558,0 32.64147194028376,34.89766726848826,0 32.64136223786297,34.89803013385849,0 32.64121252185519,34.89806447938327,0 32.641112926886,34.89806099607858,0 32.64098871461584,34.89802220100869,0 32.64069530705146,34.8977890057772,0 32.64017185330125,34.89784179414441,0 32.64010375095954,34.89790297227044,0 32.64010180905753,34.89791096136569,0 32.63972341598241,34.89742306619582,0 32.63956415783535,34.89731958773935,0 32.63920200530506,34.89722670645411,0 32.63879648913054,34.89721565660393,0 32.63860451472723,34.89719700135115,0 32.63833830440074,34.89711930616984,0 32.63756680053089,34.89661669711028,0 32.63735217839613,34.89675619980578,0 32.63706810283024,34.8971210207914,0 32.63695963452373,34.89733146547163,0 32.63674311656334,34.89726870147957,0 32.63669494631326,34.89706910826372,0 32.63656477755758,34.89688957565074,0 32.63642624199981,34.89686242112942,0 32.63612717140624,34.89688713153546,0 32.63581302651873,34.89701435162922,0 32.63566326125385,34.89705455131875,0 32.63556039865648,34.89701587058808,0 32.63522347280918,34.89688501155197,0 32.6354392087995,34.89661068082101,0 32.6351300452449,34.89656498331526,0 32.63503444719285,34.89650875493695,0 32.63495661064994,34.89645555637047,0 32.63487807421085,34.89648736116642,0 32.63464248627319,34.89657984203582,0 32.63453272857529,34.8965147393243,0 32.6338300583581,34.89629682238908,0 32.63377802425715,34.89613531200216,0 32.63358610039062,34.89611078693864,0 32.63343343243712,34.89607182355608,0 32.63324603425595,34.89593007250155,0 32.63317824441032,34.89595314215021,0 32.63305306913661,34.89603158328804,0 32.6330400505195,34.89588494868499,0 32.63303826147606,34.89567095834368,0 32.63316421096511,34.89549872141178,0 32.63313784922071,34.89544770524545,0 32.63297284574291,34.89540677948622,0 32.63271741727903,34.89531740841458,0 32.63254720392733,34.89524903380081,0 32.63232321579468,34.89523018802726,0 32.63203501571148,34.89523150012693,0 32.63195807127,34.89550074189084,0 32.6319290536097,34.89556799768873,0 32.63182941298369,34.89557036869381,0 32.63176893100209,34.89557002863773,0 32.63165549672427,34.89551955964244,0 32.63165978411295,34.89543164736196,0 32.63156752701162,34.89540181595326,0 32.63144656439488,34.89540113555528,0 32.63114660595377,34.89561137923283,0 32.63109849902538,34.89564509662839,0 32.63098595441445,34.8962530068433,0 32.63056020196716,34.89607122608187,0 32.63039096783891,34.89620197254684,0 32.63002217749933,34.89613177349072,0 32.62977115285732,34.89615306553601,0 32.6294644246838,34.89624443354591,0 32.62920654940316,34.89642690389059,0 32.6289655350768,34.89623934745812,0 32.62835164802234,34.89614051080136,0 32.62704037463365,34.89571074860419,0 32.62640317060227,34.89543465765887,0 32.62603044714221,34.89517595837935,0 32.62572087985321,34.89527638388765,0 32.62559250341312,34.89480562415032,0 32.6254227642829,34.89433690024221,0 32.62576070432836,34.8941389966826,0 32.62562980511637,34.89397022409216,0 32.62538364790821,34.89341023937346,0 32.62530677542731,34.89337347170243,0 32.62519271510313,34.89283921413056,0 32.62511460618713,34.89262078488624,0 32.62489879844909,34.89238794946716,0 32.62492495180145,34.89222687931584,0 32.62476314968072,34.89212832161088,0 32.62483429940571,34.8918607854759,0 32.62533847085686,34.89090087623904,0 32.62558494772916,34.89076149185452,0 32.62550725298973,34.89016386080628,0 32.62580595063653,34.8899237686372,0 32.62579390437698,34.88989096609824,0 32.6256669291595,34.88954520101899,0 32.62577798955783,34.88925161023954,0 32.62576140706445,34.88906983113039,0 32.62556144783532,34.88877718738706,0 32.62548803176177,34.88850424472254,0 32.62489146489201,34.88801817367255,0 32.62495019111255,34.88788292192462,0 32.62488328093499,34.88761950640218,0 32.62463209086012,34.88755028666427,0 32.62471909390936,34.88718198881112,0 32.62480812946504,34.88696420035033,0 32.62491544556618,34.88672482468908,0 32.62515874269811,34.88655672312222,0 32.62504678269044,34.88636762391057,0 32.62511170419832,34.88627850602624,0 32.62515316591892,34.88604282214123,0 32.62533053911517,34.88568995012854,0 32.62540770190017,34.88551412709287,0 32.62526124590138,34.88531805279209,0 32.62523870498477,34.8850616683179,0 32.62525583739426,34.88478381487552,0 32.62531441035105,34.88446958809779,0 32.62534988122443,34.88435996530543,0 32.62553760145664,34.88414680537368,0 32.62568572938186,34.88394562235423,0 32.62593610311109,34.88351994760904,0 32.6257582587162,34.88314201026949,0 32.6257624728909,34.88283425493278,0 32.62581161543793,34.88286097249804,0 32.62613446553453,34.8826228158522,0 32.62632186243854,34.88244761682967,0 32.62613346006679,34.88234892770333,0 32.62620305823778,34.88209306546781,0 32.62653089164542,34.8820461110284,0 32.62682561303657,34.88202337489279,0 32.62698355698529,34.8820256246146,0 32.62718062790823,34.88207148314217,0 32.62732711962292,34.88206553386747,0 32.62732264093217,34.88181331825646,0 32.62734430534005,34.88158294531187,0 32.6278479975002,34.88156003214723,0 32.62799276794468,34.88136560753039,0 32.62890079187101,34.88119718666314,0 32.62910167093504,34.88118069394901,0 32.62935060143731,34.88112379706808,0 32.62952546989004,34.8810691926343,0 32.62978719212843,34.88105710921969,0 32.63028348564545,34.88093381160419,0 32.63066110864963,34.88083424877841,0 32.63092215567968,34.8809035103474,0 32.63116272429907,34.88086283280399,0 32.63109188851828,34.88067397008719,0 32.63127066108842,34.88064020183162,0 32.6315291535591,34.88059137391881,0 32.63166118315119,34.88057957301408,0 32.63173489449921,34.8805632621122,0 32.63195809901978,34.88057078804226,0 32.63218358240507,34.8806096878407,0 32.63217681417759,34.880814534768,0 32.63242832511043,34.8807741339144,0 32.63300041442783,34.88062472597866,0 32.63309138312012,34.88066914042511,0 32.63327042825541,34.88049452826278,0 32.63349078464635,34.88053966706395,0 32.63377615564912,34.88100748701147,0 32.63411105982978,34.88100727392407,0 32.63449322209583,34.88112231039178,0 32.63482405352495,34.88100081156233,0 32.6350336394795,34.88081382433115,0 32.6354671002129,34.88055282303388,0 32.63551163895473,34.88038163710028,0 32.63554301375009,34.88026891600769,0 32.6355523461886,34.88005990106645,0 32.63545936311567,34.87964333662299,0 32.63552130104483,34.8795161516126,0 32.63583544055323,34.87957226466366,0 32.63605070576811,34.87961946229841,0 32.63616727061436,34.87963683847362,0 32.63627097595747,34.87967505070265,0 32.63626519908301,34.87976073598531,0 32.63612680656068,34.87992930753266,0 32.63635167105876,34.88004345984206,0 32.63668749399138,34.88023976702874,0 32.63689607893305,34.88017402889027,0 32.63719741955853,34.87993528258976,0 32.63740511378871,34.87966883357962,0 32.63754388020021,34.87945426751891,0 32.63758392008468,34.87952139179193,0 32.63759051932453,34.87964477888809,0 32.63760109157315,34.87990199112604,0 32.63783671005661,34.87994302633538,0 32.63867403614083,34.87993305350401,0 32.63878580083217,34.87991694966266,0 32.63892802867785,34.87989892418021,0 32.63968904236517,34.87991360824759,0 32.64044217056097,34.87996169502433,0 32.64078687565623,34.88000333013754,0 32.64092390720414,34.87999990921997,0 32.64125659654483,34.87995993893847,0 32.6415059219285,34.87987560369852,0 32.64198999549446,34.87962740339746,0 32.6422137956985,34.87956174057679,0 32.64247813824623,34.87950257425639,0 32.64288550024886,34.87932711991733,0 32.64306317562787,34.87931764920991,0 32.64337219306403,34.87937998646188,0 32.64362558400263,34.87941901722333,0 32.64438993049248,34.87933542918071,0 32.64489032727194,34.87926292411317,0 32.64541503844283,34.87932017355801,0 32.64565557743001,34.87938003725333,0 32.64585882180253,34.87934561480733,0 32.64604302572068,34.87915637647042,0 32.64628197699972,34.87909915347412,0 32.64655903268214,34.87903586592009,0 32.64715236101442,34.87876524894125,0 32.64743523207452,34.87861000142126,0 32.6477057209227,34.8781034522578,0 32.64782693168799,34.87785950860548,0 32.64802726168421,34.87755745988595,0 32.64824211452827,34.87702760656805,0 32.64834999799348,34.87686303527588,0 32.64842115188119,34.87684879005838,0 32.64858564317405,34.87689986795884,0 32.64877199186556,34.8770723255323,0 32.64903201329597,34.87723264126715,0 32.64911826885713,34.87723311378362,0 32.6492203667132,34.87715631810777,0 32.64934384142063,34.87694583638083,0 32.64946232613041,34.87672487350738,0 32.64951647641736,34.87661645471471,0 32.64959856716498,34.87650400675495,0 32.64974676651528,34.87637310560361,0 32.64994560372822,34.87625502522533,0 32.65030950799743,34.87611693955117,0 32.65043447068898,34.87603608720703,0 32.65053211655726,34.87588191056257,0 32.65061249476541,34.87566701004705,0 32.65063022996493,34.87552432508868,0 32.65067696141509,34.87514837197963,0 32.65056232635452,34.874536897266,0 32.65058758288336,34.87436954433891,0 32.65078155586011,34.87403562287176,0 32.65081507489283,34.87383219000115,0 32.65090150629716,34.87349111297118,0 32.65102604127152,34.87336699678453,0 32.65126164941828,34.87330588440297,0 32.65158901869653,34.87323213581692,0 32.65172165850819,34.87309164221426,0 32.65175076632267,34.87294072969453,0 32.65176583507632,34.872553284771,0 32.65186291853522,34.87237318710122,0 32.65208926256363,34.87197704035486,0 32.65220276358009,34.87173791791846,0 32.65233850447333,34.87120991184099,0 32.65231211298778,34.87102257184286,0 32.65234177175275,34.87080269682388,0 32.65247060281932,34.87063919296591,0 32.6528797658551,34.87030315498278,0 32.65301667167132,34.87012655760339,0 32.65299191095414,34.86973561104742,0 32.65295516919416,34.86934788176772,0 32.65280968054077,34.86910406366124,0 32.65258780529567,34.86894521700356,0 32.65239740622354,34.86883580304174,0 32.65230295851688,34.86868750095044,0 32.65218162395027,34.86841425596437,0 32.65196431288678,34.86818318147112,0 32.65181827708926,34.86800832629132,0 32.65181128431784,34.86788677567991,0 32.65197053471086,34.86740815847785,0 32.65202204209431,34.86694866062361,0 32.65210777227343,34.86669296489846,0 32.65227432980987,34.86629649308066,0 32.65227192744175,34.86609943186267,0 32.65215259480571,34.86557660295483,0 32.65214998258165,34.86540581364605,0 32.65219906287098,34.86524844232417,0 32.65255254391634,34.86489568179194,0 32.65279366898783,34.86464083233098,0 32.6530415468247,34.86453708970237,0 32.65359612678616,34.8644481524306,0 32.65383585415811,34.86436735280893,0 32.65402045488386,34.8642041500722,0 32.65410932094212,34.86405356270097,0 32.65414335403788,34.8637844472947,0 32.65411337089099,34.86354782619025,0 32.65413030672962,34.86342312101592,0 32.65421122707072,34.86326920716095,0 32.65437168468489,34.86313542949978,0 32.65476782296611,34.86292739482509,0 32.65544026930435,34.86254680092418,0 32.65577708236796,34.86228261161296,0 32.65605834658057,34.86198856351417,0 32.6567616496374,34.86107275910073,0 32.65678411369328,34.86105281948227,0</coordinates>
						</LinearRing>
					</outerBoundaryIs>
				</Polygon>
			</MultiGeometry>
		</Placemark>
	</Document>
</kml>