<?xml version='1.0' encoding='UTF-8'?>
<kml xmlns="http://www.opengis.net/kml/2.2">
	<Document>
		<name>KOMA TOU GIALOU</name>
		<Style id="PolyStyle70">
			<LabelStyle>
				<color>00000000</color>
				<scale>0.000000</scale>
			</LabelStyle>
			<LineStyle>
				<color>ff0055ff</color>
				<width>2.000000</width>
			</LineStyle>
			<PolyStyle>
				<color>00828282</color>
				<outline>1</outline>
			</PolyStyle>
		</Style>
		<Placemark id="ID_70235">
			<name>KOMA TOU GIALOU</name>
			<snippet />
			<description>&lt;html xmlns:fo="http://www.w3.org/1999/XSL/Format" xmlns:msxsl="urn:schemas-microsoft-com:xslt"&gt;

&lt;head&gt;

&lt;META http-equiv="Content-Type" content="text/html"&gt;

&lt;meta http-equiv="content-type" content="text/html; charset=UTF-8"&gt;

&lt;/head&gt;

&lt;body style="margin:0px 0px 0px 0px;overflow:auto;background:#FFFFFF;"&gt;

&lt;table style="font-family:Arial,Verdana,Times;font-size:12px;text-align:left;width:100%;border-collapse:collapse;padding:3px 3px 3px 3px"&gt;

&lt;tr style="text-align:center;font-weight:bold;background:#9CBCE2"&gt;

&lt;td&gt;3&lt;/td&gt;

&lt;/tr&gt;

&lt;tr&gt;

&lt;td&gt;

&lt;table style="font-family:Arial,Verdana,Times;font-size:12px;text-align:left;width:100%;border-spacing:0px; padding:3px 3px 3px 3px"&gt;

&lt;tr&gt;

&lt;td&gt;DIST_CODE&lt;/td&gt;

&lt;td&gt;3&lt;/td&gt;

&lt;/tr&gt;

&lt;tr bgcolor="#D4E4F3"&gt;

&lt;td&gt;VIL_CODE&lt;/td&gt;

&lt;td&gt;340&lt;/td&gt;

&lt;/tr&gt;

&lt;tr&gt;

&lt;td&gt;VIL_CCD&lt;/td&gt;

&lt;td&gt;3340&lt;/td&gt;

&lt;/tr&gt;

&lt;tr bgcolor="#D4E4F3"&gt;

&lt;td&gt;VIL_NM_E&lt;/td&gt;

&lt;td&gt;KOMA TOU GIALOU&lt;/td&gt;

&lt;/tr&gt;

&lt;tr&gt;

&lt;td&gt;VIL_NM_G&lt;/td&gt;

&lt;td&gt;ΚΩΜΑ ΤΟΥ ΓΙΑΛΟΥ&lt;/td&gt;

&lt;/tr&gt;

&lt;/table&gt;

&lt;/td&gt;

&lt;/tr&gt;

&lt;/table&gt;

&lt;/body&gt;&lt;script type="text/javascript"&gt;

				function changeImage(attElement, nameElement) {

				document.getElementById('imageAttachment').src = attElement;

				document.getElementById('imageName').innerHTML = nameElement;}

			&lt;/script&gt;&lt;/html&gt;

</description>
			<styleUrl>#PolyStyle70</styleUrl>
			<MultiGeometry>
				<Polygon>
					<extrude>0</extrude>
					<altitudeMode>clampToGround</altitudeMode>
					<outerBoundaryIs>
						<LinearRing>
							<coordinates> 34.09673443507533,35.40158235454643,0 34.0967607940146,35.40150853828372,0 34.09679951014545,35.40139274379582,0 34.09685795699426,35.40124653555923,0 34.09696350790276,35.40110814561798,0 34.0971463346993,35.40097454988066,0 34.09732185193795,35.40079704248996,0 34.09741099193262,35.40068628770607,0 34.09768511617179,35.40060133742373,0 34.0978559305794,35.4005722984956,0 34.09795942615135,35.40053012806157,0 34.09806068374073,35.40057043724581,0 34.09811494806824,35.40061117359299,0 34.09820520388222,35.40058286654444,0 34.09885862421135,35.40031175101759,0 34.09916612468109,35.40014808759462,0 34.09935651789495,35.40007763870562,0 34.09949309285798,35.39999943331492,0 34.09957295678691,35.39992303743871,0 34.09960549986805,35.3998719729015,0 34.09961486075647,35.39981966378378,0 34.09959580127832,35.39965217047835,0 34.09994448487293,35.39950607171161,0 34.10027087782716,35.39942888031216,0 34.10052574776565,35.39916268988041,0 34.10063214884562,35.39908750713951,0 34.10081224420572,35.39900065758089,0 34.10081507379196,35.39899972687432,0 34.10093255630139,35.39896108036399,0 34.1013198585304,35.39880637503404,0 34.1014890228644,35.39865640602464,0 34.1016514737324,35.39850649801111,0 34.10171073239874,35.39842075006499,0 34.10174351243864,35.39836272916304,0 34.10142112997574,35.39810729788556,0 34.10176418583648,35.39766163873776,0 34.10182128341876,35.39766386601845,0 34.10219841186008,35.39729465248978,0 34.10234474185594,35.39718505317617,0 34.10251000348767,35.39696492587166,0 34.10256415527954,35.39699741515467,0 34.1026936724344,35.39689453315383,0 34.10286864581388,35.39667854206081,0 34.10295900781686,35.39665847664278,0 34.10307421233842,35.39673713499206,0 34.103190975849,35.39668384472959,0 34.10344691355899,35.39649734788492,0 34.10355002643721,35.39642768974584,0 34.10362195787172,35.39628685217524,0 34.10361759089064,35.39621267882553,0 34.10346053582198,35.39601896037286,0 34.10336283962705,35.39623974446843,0 34.10326424323605,35.39639456866974,0 34.10262395451496,35.39571875260669,0 34.10264006306539,35.39566913065332,0 34.10273299500967,35.39559132002301,0 34.10267093300747,35.39547094651419,0 34.10265113090664,35.39549586473456,0 34.10227786104809,35.39544704763914,0 34.10244383680975,35.39506347234817,0 34.10245486762026,35.39488745865986,0 34.10225765502401,35.39470235117665,0 34.10254897419772,35.39440283937524,0 34.10247736900043,35.39432103443403,0 34.10239685429831,35.39432451736673,0 34.10230664436082,35.39435557608949,0 34.10223537496459,35.39429850539808,0 34.1021732784334,35.39417538290066,0 34.10217155803447,35.39404896138091,0 34.10213325405074,35.39394761111727,0 34.10191609303666,35.39377642826534,0 34.10201521249591,35.39366008103352,0 34.10213103849968,35.39353808417734,0 34.10220983200682,35.39340817900261,0 34.10232982628934,35.39309923662928,0 34.1023229536105,35.39284092775527,0 34.10227148713756,35.39275893797814,0 34.10214692158831,35.3924852107271,0 34.10224686198446,35.39242932587609,0 34.102229070806,35.39235527490989,0 34.10209563367616,35.39216958508081,0 34.10169085654739,35.39177747335707,0 34.10151152549979,35.39191928926412,0 34.10132588502664,35.3918440204916,0 34.1009083610648,35.39150149724085,0 34.10071082902929,35.39132990965314,0 34.10070795310983,35.39132741127666,0 34.10071073495223,35.39132298661269,0 34.10097737285084,35.39089891640045,0 34.10111303433271,35.39075475033361,0 34.10121871412511,35.39062734968873,0 34.10151206308087,35.3903851084376,0 34.10163688568275,35.39027720856988,0 34.10183205818653,35.39006653176352,0 34.1020850028084,35.38973444688892,0 34.10222101657134,35.38958167332447,0 34.10254142191526,35.38926189048944,0 34.1028210741673,35.38898980598875,0 34.10314384285238,35.3886838820397,0 34.10350150496529,35.3883500753944,0 34.10382054771974,35.3885348160855,0 34.10427533798263,35.38887423438482,0 34.10433188154909,35.38899354995266,0 34.10480400695702,35.38935616978607,0 34.10502961520924,35.38956650275409,0 34.10524119163466,35.38976468776578,0 34.10531558355551,35.38981262309423,0 34.1055514120891,35.38987199866483,0 34.10570527098115,35.38995281465085,0 34.10589869172013,35.39012184941428,0 34.10604211276733,35.39027570386542,0 34.10612944808897,35.3904304142135,0 34.10623247089389,35.39056991626991,0 34.10632399304847,35.39065517883314,0 34.10648235845807,35.39074350914218,0 34.10667894627922,35.39082168368178,0 34.10694465980998,35.39097584787679,0 34.1070123344842,35.39103950852037,0 34.10719101853311,35.3912626919221,0 34.10729533257314,35.39134401851152,0 34.10761586079144,35.39139940307134,0 34.10780060656697,35.39149767997869,0 34.10798470228164,35.39162814306422,0 34.10829778230944,35.39187560275957,0 34.10840000035947,35.39198725517095,0 34.10878513732485,35.39228516405245,0 34.10918513868248,35.39254777854553,0 34.10954999306495,35.39284271655333,0 34.10964776935308,35.392941427949,0 34.1098226370225,35.3930671959553,0 34.11000234901105,35.39316208976583,0 34.11015158401754,35.39323274317587,0 34.11056187940678,35.39337139992355,0 34.11097370266945,35.39346911618568,0 34.11111790854592,35.39354360105535,0 34.11177522009717,35.39394392443096,0 34.11220723715876,35.39418279716706,0 34.11247443471876,35.39439334752017,0 34.11259011034075,35.39447278197542,0 34.1128114779323,35.39457960608243,0 34.11292544797944,35.39462715666033,0 34.11302711397422,35.39468438162907,0 34.11312444464183,35.39478327449032,0 34.1134826435818,35.39502156004068,0 34.11362305945796,35.39512384172576,0 34.11378119697655,35.39527346532099,0 34.11405655076946,35.39560770599512,0 34.11414910043744,35.39578128247893,0 34.11426798388219,35.39592207317671,0 34.11449252091432,35.396119581074,0 34.11481139034322,35.39647487235259,0 34.11505508820502,35.39671853697656,0 34.11525490559121,35.39698009440469,0 34.11535989953297,35.39710758085509,0 34.11543675114461,35.39718268235443,0 34.11564720247556,35.39749092619849,0 34.1157931675562,35.39764615835907,0 34.11596701412925,35.39778202312238,0 34.11628455998496,35.39802716598603,0 34.11668991177201,35.39827888880628,0 34.11698874871489,35.39851032072102,0 34.11724979304434,35.39874669814061,0 34.11738139469789,35.39884112437684,0 34.11776455720901,35.39917535022445,0 34.11805930110656,35.39949128278523,0 34.11818195110874,35.39965402927317,0 34.11828013455456,35.39985315105074,0 34.11839064922725,35.40001159323585,0 34.11844936795438,35.40006856130405,0 34.11857712495057,35.40024595414953,0 34.11867338482491,35.40046348284228,0 34.11876554513955,35.40062750251433,0 34.11892779746859,35.40098801931635,0 34.11901739304469,35.40111086720204,0 34.11910674821213,35.40120315918956,0 34.11928647360433,35.40135609121995,0 34.11939439854257,35.40151077000244,0 34.11945204121154,35.4016146229129,0 34.11954797781905,35.40172965943152,0 34.11983011941296,35.40196042756575,0 34.12029239071784,35.40234015506998,0 34.12065735493183,35.40258430535162,0 34.12082490467611,35.40274933811099,0 34.12106859629576,35.40293746122043,0 34.1214313418411,35.40319154500499,0 34.12204860548899,35.40371982698874,0 34.12234855011255,35.40394997298718,0 34.1225378769834,35.40411335790994,0 34.12290167184987,35.40442277685363,0 34.12309086381206,35.4045565946467,0 34.12321636487905,35.40462249497229,0 34.1233583111694,35.40474133659244,0 34.12384745505657,35.40512476673801,0 34.12391669616873,35.405219585584,0 34.12437753081156,35.40575462941897,0 34.12465372929235,35.4061896176441,0 34.12504339280355,35.40669295905285,0 34.12517056476329,35.40691127572672,0 34.12528982715919,35.40705060937064,0 34.12548017479845,35.40730601630116,0 34.12552516403236,35.40735454536743,0 34.12577543439706,35.40772649149376,0 34.12598455085199,35.40797965050901,0 34.12617191780248,35.40813799951214,0 34.12643333146971,35.40840328927604,0 34.1266080394148,35.40859159348958,0 34.1267267033103,35.40874625617654,0 34.12691576335509,35.40890855394143,0 34.12722886702271,35.40912260865605,0 34.12786530991364,35.40948977351774,0 34.12818050714365,35.40962565183968,0 34.12831748567025,35.40972569373049,0 34.12838198021281,35.40979864879318,0 34.12843965848921,35.40991673926678,0 34.12847678767497,35.41018934924676,0 34.12854036322085,35.41034614624736,0 34.12854041063849,35.41045377830986,0 34.12856320923214,35.4105712933284,0 34.12858096863101,35.41058882817408,0 34.12857939339524,35.41061703223049,0 34.12849375832051,35.41072266368722,0 34.12848823233452,35.41076922916902,0 34.12850134904726,35.41079813325459,0 34.12881777112926,35.41106047003016,0 34.12907229058381,35.41117527804174,0 34.12954770771761,35.41114946867712,0 34.12969615173879,35.41117277965064,0 34.12990877723827,35.41131141448934,0 34.12997252411313,35.41134363109716,0 34.13003571464326,35.41137495066655,0 34.13032054465248,35.41165055966405,0 34.13057252199192,35.4120251832142,0 34.13104139322626,35.41239498100952,0 34.13130876998606,35.41274683315945,0 34.13138028610464,35.41289940812753,0 34.13160470836132,35.41316025580425,0 34.13182830814698,35.41333628503462,0 34.13231071883688,35.41384846833267,0 34.1327825662862,35.41442303807789,0 34.13314757968084,35.41484572403218,0 34.13311037066358,35.4149254901,0 34.13367508540689,35.41541850598659,0 34.1342908445307,35.41598252418946,0 34.13488782304988,35.41637246676718,0 34.13591725481591,35.41699893330626,0 34.13613832601266,35.41715505645377,0 34.13649730347009,35.41745627529092,0 34.13687802214814,35.4177274496723,0 34.13725900778028,35.41795922778373,0 34.1389166640414,35.41912521190054,0 34.13917648055612,35.41932306031185,0 34.13942591294783,35.41948008140721,0 34.13978972856331,35.4197878249179,0 34.14012205828296,35.42003952391522,0 34.14021338963688,35.42006904009568,0 34.14040617210085,35.42017593338084,0 34.14073954405047,35.42032738111638,0 34.14088291660813,35.42040183729339,0 34.14109009896698,35.42053789037081,0 34.141540151458,35.42077711460594,0 34.1419975328677,35.42095632285823,0 34.14283333800431,35.42144069079632,0 34.1430406595222,35.42157331326753,0 34.14328581445548,35.42175434502408,0 34.14386168805992,35.4220972963887,0 34.14445121805079,35.42239089791992,0 34.14486845608651,35.42262041509697,0 34.14576366656165,35.42305137444076,0 34.14588252908991,35.42312614815599,0 34.14622838207217,35.42324663286509,0 34.14647062753497,35.42338171183496,0 34.14750969472125,35.42384879266551,0 34.14808749266684,35.42407542060457,0 34.14975310704205,35.42484201931361,0 34.15065809296768,35.42537561267897,0 34.1514677618356,35.4256122738991,0 34.15225003590212,35.42588939463445,0 34.15312540198408,35.42608259941952,0 34.15346724800705,35.4261943569246,0 34.15404014808921,35.42645733071458,0 34.15462398682628,35.42660823897688,0 34.15495145240183,35.42674311659296,0 34.15528158048308,35.42691168200074,0 34.15549406899926,35.42706658824106,0 34.1560565194203,35.42766525719926,0 34.1565374792695,35.42804646507703,0 34.15705635474276,35.4284617437358,0 34.15722551999886,35.42868629197948,0 34.15750146760064,35.42898418557152,0 34.15774023745482,35.42917858954186,0 34.15812924835038,35.42940463526043,0 34.15853922490915,35.42961668588715,0 34.15958249947239,35.4301957588366,0 34.15991595804531,35.43037951308479,0 34.16089668356522,35.43087750466664,0 34.16166203792765,35.43125469582753,0 34.16212789415994,35.43146646676529,0 34.16239417820502,35.4316084038289,0 34.16256367913413,35.43181680593067,0 34.16257860499528,35.43187570562131,0 34.16264755866267,35.43196473474159,0 34.16292790176004,35.43215548222681,0 34.16301677534853,35.43230318330188,0 34.16329032947104,35.43250183754107,0 34.16352387433241,35.43262813172342,0 34.16405725210966,35.43282202765692,0 34.16474622140477,35.43310934000498,0 34.16528834343674,35.43338652819851,0 34.16567739271757,35.43361236841395,0 34.16647714607303,35.43414793802835,0 34.16673086092403,35.43419190981991,0 34.16706648335818,35.43434713824273,0 34.16779310076801,35.43481174249808,0 34.16811762813794,35.43504748304244,0 34.16840934318914,35.43531328678264,0 34.16985945778629,35.43669583440069,0 34.17012157822119,35.4368617725538,0 34.17050993764803,35.43707552333117,0 34.17083512732144,35.4372806011723,0 34.17104765852609,35.43735921797347,0 34.17115621018596,35.43755323527928,0 34.17129393569823,35.43772921111517,0 34.17142899168716,35.43789655839856,0 34.17148381615005,35.43794362229839,0 34.17149978295328,35.43794833528769,0 34.17163101339334,35.43802710900363,0 34.17182770046023,35.43811552297284,0 34.17191855213212,35.43816620359497,0 34.17216280225491,35.43827687167439,0 34.17233222566982,35.43834571910076,0 34.17250319563932,35.43838958074143,0 34.17272590627532,35.43846818579698,0 34.17280089103868,35.43848575648376,0 34.17290861200367,35.43852842214572,0 34.17293950882416,35.43853748647781,0 34.1730330922688,35.43853983992893,0 34.17304341139069,35.43857489577965,0 34.17305589100575,35.43858973790712,0 34.17311841318851,35.4386161739018,0 34.17312275185193,35.43862721953741,0 34.17311215864629,35.43863597585554,0 34.17307920718584,35.43863764799206,0 34.17297829051017,35.43860716865052,0 34.17281891045235,35.4385293909342,0 34.17275388516571,35.43849946402678,0 34.17268786993152,35.43848093372693,0 34.1726660443647,35.43847480688313,0 34.1723386630658,35.43843255455713,0 34.1721978895069,35.43846006278628,0 34.17207743965135,35.43851090108534,0 34.17197229634417,35.4386087358932,0 34.17168480578329,35.43898715321172,0 34.17156779098566,35.4391685750081,0 34.17147860105327,35.43939570021609,0 34.1714590946352,35.44005582781415,0 34.17140554547255,35.44022239123967,0 34.17118888651749,35.44055549938599,0 34.17101070673655,35.44072913100438,0 34.17078759745049,35.44089301160519,0 34.17041385114752,35.44108133907102,0 34.17014401128419,35.44118022813453,0 34.16998208411886,35.44120280054209,0 34.16929492525899,35.44120377993058,0 34.16899345043417,35.44123861008804,0 34.16859169892926,35.4412119410809,0 34.16831443823176,35.44115585082043,0 34.1681218575045,35.44108785369093,0 34.16787784148973,35.44091813105575,0 34.16770820000895,35.44087830590876,0 34.16699403326905,35.44083328947389,0 34.16655114395829,35.4408704718746,0 34.16584781424409,35.44092170648856,0 34.16557931911057,35.4409629711863,0 34.1653242631106,35.4410353843029,0 34.16489616016138,35.44126667705594,0 34.16469426925556,35.44134686960461,0 34.16418047050947,35.44142520213633,0 34.16363101090051,35.44163278025838,0 34.16340546669426,35.441660285089,0 34.16234785299172,35.44163802040445,0 34.16185817778909,35.44162524616058,0 34.16165541839526,35.44160096591227,0 34.16148113699624,35.44160489605473,0 34.16128565952546,35.44165112780827,0 34.16113712709529,35.44173368531805,0 34.16097707726276,35.44187467659683,0 34.16057475297586,35.44240299856355,0 34.16048472621432,35.44256792512221,0 34.16041674079723,35.44277473590777,0 34.16031500202171,35.44292751542132,0 34.15999808948201,35.44314717517335,0 34.15970083292179,35.4433905703117,0 34.15945146228716,35.4434904638549,0 34.15903611157827,35.44366271621803,0 34.1586547639484,35.44371327612895,0 34.15829132237724,35.44368028638097,0 34.15764676477274,35.44358224892741,0 34.1571374057657,35.44358713233724,0 34.15687561270562,35.44353753177643,0 34.15652214931379,35.44331163289652,0 34.15608547006892,35.44305526555713,0 34.15584428149311,35.44285781331735,0 34.15571672082294,35.44266666890879,0 34.15559406109267,35.44229077372509,0 34.15551737150598,35.44214367271605,0 34.15538893560282,35.44205638066062,0 34.15524090512655,35.44202201112957,0 34.15507597757503,35.44196220161558,0 34.15498501476722,35.44189699658882,0 34.15464564433668,35.4415054151205,0 34.15456085692382,35.44142095026637,0 34.1544188383503,35.44130476152476,0 34.15420689757121,35.44114624272957,0 34.15394179738703,35.44098038855617,0 34.15379830956235,35.44083753096274,0 34.15360528011316,35.44071813250699,0 34.15330975620015,35.44068643079717,0 34.15306512048092,35.4406366651382,0 34.1525098669486,35.4405933743838,0 34.15217618348591,35.44052219662202,0 34.15198176579536,35.44052188882279,0 34.15135631779189,35.44063287237026,0 34.15112845598291,35.44067633032552,0 34.15093614009271,35.44077263482308,0 34.15075140246896,35.44076952795348,0 34.15056568229866,35.44075480156342,0 34.15039166198769,35.44074906384814,0 34.15018792523759,35.44075100509077,0 34.14998418846799,35.44075294598971,0 34.14981258163984,35.44077542495487,0 34.14946920028129,35.44089234914012,0 34.14929664944137,35.44104353963592,0 34.14923315163482,35.44111418612606,0 34.14911339226479,35.44120213414764,0 34.14902999977115,35.44124096825679,0 34.14883256366937,35.44125213157,0 34.1486747953068,35.44133764681763,0 34.14847404488722,35.44135857695046,0 34.14842530730186,35.44138112610553,0 34.1481710282565,35.44161818801058,0 34.14796448441508,35.4418453309016,0 34.14768873648606,35.44199741025426,0 34.14762739006633,35.44206614181977,0 34.14760937479214,35.44213464171062,0 34.14760195703054,35.4425592878143,0 34.14757963020312,35.4427592583849,0 34.14752770254047,35.44305001368603,0 34.14750629719194,35.44309727144015,0 34.14735918070303,35.44385055677471,0 34.14735667920439,35.44393675765225,0 34.14739169010964,35.4439710394029,0 34.147486420062,35.4440139485923,0 34.14751836812942,35.44408206455594,0 34.14758608487448,35.44439160395392,0 34.14765370043956,35.44457232927243,0 34.14794955763002,35.44503600851531,0 34.14808963212305,35.44534810505382,0 34.14829931937251,35.44591085913615,0 34.14819579660002,35.44605508140824,0 34.14772695489027,35.44637882781326,0 34.14794857274948,35.446674825192,0 34.14817492839268,35.44693336674576,0 34.1484077633195,35.44712982765098,0 34.14884918623024,35.4477406755709,0 34.14929386271349,35.44826675673825,0 34.14955627458604,35.44842786769733,0 34.15001253215409,35.44876471487117,0 34.15008895873169,35.44884890193203,0 34.14983547476688,35.44905368767267,0 34.14989569941118,35.44919303648826,0 34.14990458870993,35.44925221866641,0 34.14982250426654,35.4492571123081,0 34.14965342196792,35.44924066698206,0 34.14952719983181,35.4492154564113,0 34.14937912943373,35.44922822456815,0 34.14914519049369,35.44915923910903,0 34.1489850728488,35.44915724729333,0 34.14861105550767,35.44907066309243,0 34.1485520880202,35.44907690326652,0 34.14842740188412,35.44912595586693,0 34.14835017571809,35.44910694934787,0 34.14819049607289,35.44903986934246,0 34.14810429662824,35.44913750249926,0 34.14792769467626,35.44910411420594,0 34.14780338712269,35.44895259597538,0 34.14762847490088,35.44886844249519,0 34.14748525963027,35.44875153609624,0 34.14678062988641,35.4484158673628,0 34.14661113461182,35.4483740284021,0 34.1462860508698,35.44830560292284,0 34.14580810142429,35.44842203802781,0 34.14536690336393,35.44834169195608,0 34.1452472764089,35.44837931344511,0 34.14481694773787,35.44816524784974,0 34.14458410407664,35.44808966267926,0 34.14442063185654,35.44805596626139,0 34.14417561078452,35.44806360749068,0 34.14396691611331,35.4477940736011,0 34.14370608282603,35.44793626676299,0 34.14363400592163,35.44792784558005,0 34.14357943458315,35.44788518389613,0 34.14339382673867,35.44760975116866,0 34.14330985375153,35.44761451224644,0 34.14320724400071,35.44756076688838,0 34.14304800286548,35.44744707221399,0 34.14292359601419,35.44729743977824,0 34.14276291756624,35.44702420440751,0 34.14274811680505,35.44694772211696,0 34.14193086363537,35.44654782741928,0 34.14179177285691,35.44643898771118,0 34.14161198002355,35.44636226311081,0 34.14148660931558,35.44633063675355,0 34.14125731671134,35.44631297334284,0 34.14088732826107,35.4462463384924,0 34.14079079733706,35.4462046128421,0 34.14051220263961,35.44603453046864,0 34.14011389787039,35.44573162469505,0 34.13976749503421,35.44548177303377,0 34.13959809206229,35.44534914853611,0 34.13939031891633,35.44515622016267,0 34.13916437212411,35.44491793990938,0 34.13904711698154,35.44483718189117,0 34.13893767782002,35.44478348373888,0 34.13863453544763,35.44462899391704,0 34.1384337252012,35.44461720512393,0 34.13792461812226,35.44486752276987,0 34.13703356074735,35.44481101593517,0 34.13696772654508,35.44483272919335,0 34.13616318295288,35.4446290078129,0 34.13603371634385,35.4449068767351,0 34.13597594337031,35.44492689124855,0 34.13586225300072,35.44463995229495,0 34.13566038283398,35.44424567107014,0 34.13555315416286,35.44412110928296,0 34.13528960755531,35.4439733191363,0 34.13493867928513,35.44389134292872,0 34.13454909330737,35.44374780044664,0 34.1343047760755,35.44374000081861,0 34.13415916105976,35.44378022053122,0 34.1339429590076,35.44377540072198,0 34.13377181862736,35.44377923976513,0 34.13300722875753,35.44360821146159,0 34.13289666390373,35.44348832298466,0 34.13279441138801,35.44340654373956,0 34.13263670700213,35.4434061757879,0 34.13221251656613,35.44350747046263,0 34.1319812734532,35.4436560233566,0 34.13167690117353,35.44371346177746,0 34.13137506608352,35.44368716436053,0 34.13075232720355,35.44364844748882,0 34.13054711424618,35.4434339745093,0 34.12999356456012,35.44333732515489,0 34.12947085514706,35.44322129058378,0 34.12904817365926,35.44302794355638,0 34.12862744863293,35.44297459614524,0 34.12849551665515,35.44299492362924,0 34.12824235908371,35.44324550722666,0 34.12800750545701,35.44369321925986,0 34.12789298957642,35.44384703775363,0 34.12787974497577,35.44401264003598,0 34.12791227163541,35.44411416908363,0 34.12801913526815,35.44423574614648,0 34.12794808363431,35.44445115474517,0 34.12770798740568,35.44452340753944,0 34.12758524997301,35.4446454801957,0 34.12750837178465,35.44470984383965,0 34.1271601130552,35.44483402219917,0 34.12697573828534,35.44485520993285,0 34.12661617150479,35.44487668504332,0 34.12653913926918,35.4449225574572,0 34.12648612242987,35.44502488513819,0 34.12647252010451,35.44516503236547,0 34.12645122921543,35.44531161544032,0 34.12643682980647,35.44539448861671,0 34.12655004737407,35.4457052941371,0 34.12655359481353,35.44595984245984,0 34.12648466919027,35.4460368603587,0 34.12662651257088,35.44616919192273,0 34.12676862143712,35.44632061495835,0 34.12684754207378,35.44640261708944,0 34.12695023619155,35.44651622046949,0 34.12683438375856,35.44657458251419,0 34.12668476311349,35.44644232380009,0 34.12658242422083,35.44635417510417,0 34.12645169733918,35.44630230822536,0 34.1263136282591,35.4462652856843,0 34.12605265426614,35.44623626031345,0 34.12581948317768,35.44622031619042,0 34.12564243694325,35.44624188872641,0 34.12520601398772,35.44626434670914,0 34.1251182745648,35.44621508172978,0 34.12510391202412,35.44599802293146,0 34.12509591416836,35.44591949203452,0 34.12488708223978,35.44580990538679,0 34.12473551692757,35.44575761701456,0 34.12449683213146,35.44571170825993,0 34.12426971564056,35.44559926246525,0 34.1241332323747,35.44559303552587,0 34.12366287156524,35.44558581843296,0 34.12348627224807,35.44564575306757,0 34.12341516757053,35.44567086267391,0 34.12317409193516,35.44567310589989,0 34.1227142956838,35.44560737327956,0 34.12252182328243,35.44574918351685,0 34.12237972078983,35.44577963315518,0 34.12211781927275,35.44582100966159,0 34.12185711408225,35.445824244798,0 34.12102332534266,35.44580927398435,0 34.12069329680654,35.44576645465128,0 34.12056962607819,35.44571261499455,0 34.12035360023233,35.44563565495677,0 34.12021882900707,35.44555099869801,0 34.11980565264922,35.44548164073824,0 34.11947691818911,35.44533194014799,0 34.11935139009582,35.4452535477816,0 34.11916957607846,35.4450420208119,0 34.1190396609766,35.4450043059155,0 34.11881726837662,35.44498563451554,0 34.1185389215829,35.44499376682354,0 34.11825321451495,35.4449104526695,0 34.11816777235013,35.4448699147679,0 34.11794069656547,35.44487215123733,0 34.11759790321643,35.44494697267182,0 34.1173734709188,35.44493624536887,0 34.11692319240961,35.44481236475711,0 34.11680353792632,35.44483481286611,0 34.11671570438001,35.44489538102904,0 34.11656428549933,35.444883976788,0 34.11636242398573,35.44499681868164,0 34.11619624417879,35.44504957469489,0 34.11606029410023,35.44502522195255,0 34.11600831783704,35.44503850730769,0 34.11599502979946,35.44520935988348,0 34.11590813784115,35.44533821155306,0 34.11559218639682,35.44549905663182,0 34.11547394276653,35.44562392913461,0 34.11546510254865,35.44573925349964,0 34.11558125219251,35.44584061893263,0 34.1158056857442,35.44585134863378,0 34.11595692960997,35.44584995058609,0 34.11610319348188,35.44586567181337,0 34.1162079709265,35.44589884898921,0 34.11626106631752,35.4459666499201,0 34.1162333316681,35.44615436159505,0 34.11618713214539,35.44646983362512,0 34.1155438513517,35.44630921958695,0 34.1145816816754,35.44597789953238,0 34.11391106510041,35.44576213938154,0 34.11407103239029,35.44563688424501,0 34.114257901067,35.44557113533527,0 34.11411673496225,35.44554682855274,0 34.11402754588081,35.44550923801403,0 34.1138804008982,35.44542949816543,0 34.11378166383503,35.44545601886624,0 34.11374468710492,35.44542221406257,0 34.11355242739845,35.4454752070631,0 34.11338571565537,35.44548954959727,0 34.1134361632224,35.44536530443651,0 34.11358587666819,35.44525294935573,0 34.11354391960786,35.44523626295629,0 34.11328960681973,35.44532824155041,0 34.1130831114729,35.44548380385672,0 34.11234883921964,35.44565964963407,0 34.11220372717501,35.44563702906244,0 34.11154033032002,35.44556631103998,0 34.11132005034025,35.4457481802097,0 34.11109961196492,35.44575817146674,0 34.11074614105918,35.44546691457855,0 34.11038599423965,35.44544888666238,0 34.10993812534865,35.4454999561873,0 34.10933924646665,35.4455694843785,0 34.1089803124686,35.44574256392215,0 34.10871616333988,35.44577581669357,0 34.10831106692868,35.44590331647343,0 34.10809196543556,35.44590105924879,0 34.10746735734224,35.44599642496357,0 34.10720312958601,35.44612689632258,0 34.10705978905676,35.44632455140838,0 34.10663347472716,35.44642662956561,0 34.10615031719549,35.44656764256153,0 34.1055866882005,35.44692707137354,0 34.10511206619267,35.44731129249529,0 34.10525437500618,35.44760746565242,0 34.10527891912576,35.44788749748567,0 34.10524010333167,35.44801892167702,0 34.10532280085153,35.44802690896162,0 34.10539163789542,35.44807687614767,0 34.10523622502828,35.44806442896672,0 34.10513269835704,35.44798566709472,0 34.10507396189456,35.44798895378614,0 34.10500618916063,35.44794559586365,0 34.10500470511904,35.4478370390424,0 34.10497825724056,35.44774520282459,0 34.10491705141516,35.44769079060784,0 34.10485716942072,35.44761025540936,0 34.10480162097289,35.44760114326483,0 34.10455997141447,35.44736972258026,0 34.1044727895341,35.44725782726912,0 34.10435799850135,35.44721489914379,0 34.10438503337719,35.44698101976549,0 34.10427970915939,35.44701634106967,0 34.10424887650536,35.44691080166505,0 34.10429356777256,35.44673997839492,0 34.10420960565492,35.44674074643005,0 34.10426090112337,35.4465616176098,0 34.10417494843478,35.44641672661255,0 34.10421825168911,35.44614421806873,0 34.10429097359881,35.44605834606944,0 34.10429675287879,35.44598957761574,0 34.10423509836492,35.44590218582408,0 34.10417952367444,35.44576801196726,0 34.10411432284894,35.44566690942672,0 34.10351441360267,35.44551847239586,0 34.10341940173075,35.44544787719452,0 34.10300002728975,35.44523731773719,0 34.10238426778317,35.44515773546249,0 34.10203438836317,35.44511695161528,0 34.10188915115684,35.44505780781555,0 34.1016499894389,35.44500776705211,0 34.10144094829838,35.44498746631225,0 34.10131365780362,35.44497510352681,0 34.1010245590759,35.44471112504711,0 34.10088869268997,35.44458733395608,0 34.10067236331896,35.4444999446693,0 34.10063363407136,35.44443794717399,0 34.10051649035179,35.44439966678397,0 34.10044861388958,35.44437951852897,0 34.10014944505132,35.4441232691554,0 34.09993953930498,35.44397584522358,0 34.09987422462041,35.44392918208393,0 34.09957341397021,35.44355196464743,0 34.09925228147028,35.44320895760445,0 34.09895786899639,35.44296211385542,0 34.09886653215476,35.44287031883022,0 34.09862878503858,35.44254356408683,0 34.09846466808251,35.44236547561858,0 34.09835246839111,35.44226819898711,0 34.09820082559255,35.44215804896481,0 34.09811041471553,35.44213429632978,0 34.09799631717832,35.44206728179311,0 34.09787488017016,35.44197008871777,0 34.09772557353,35.44186180687886,0 34.09733750055463,35.44169142402941,0 34.09722830611823,35.44164515825028,0 34.0969532282446,35.44146051501954,0 34.09671169178132,35.4412376493361,0 34.09643010096649,35.44103994100288,0 34.09637402885963,35.44099319196652,0 34.09616816724383,35.44080224635385,0 34.09594049627056,35.44053588584219,0 34.09573225467759,35.44016916004798,0 34.09564436608883,35.43999037569817,0 34.09563143461044,35.43988841451996,0 34.09558639995482,35.43980375866503,0 34.09601451065598,35.43953791942247,0 34.09608668524133,35.43952770850642,0 34.09615784135627,35.43956284979608,0 34.09627242307068,35.43963167157272,0 34.09635602111254,35.43964641672986,0 34.09645167321021,35.43964856022658,0 34.09654825183576,35.43962628150436,0 34.09672151358598,35.43964760450463,0 34.09683473613331,35.43966157277325,0 34.09689590180491,35.43965818965412,0 34.09727776067024,35.43963830588506,0 34.09734835879203,35.43964316218704,0 34.09742186687384,35.43961500773451,0 34.09767251559518,35.43957522925593,0 34.09773362190321,35.43948579208629,0 34.09780541304488,35.43944727896032,0 34.09793573570292,35.43941742774588,0 34.09819504043544,35.43942624729928,0 34.09820089953001,35.43935505017317,0 34.0983300735023,35.43847981466913,0 34.09802242712247,35.43833143849007,0 34.09820171333347,35.43768388269685,0 34.09829275464543,35.437463164204,0 34.09855584691886,35.43754597842131,0 34.09863326827824,35.43731164046129,0 34.09880557970459,35.4373870341264,0 34.09885076331745,35.4372519404322,0 34.09889896923092,35.43709208190982,0 34.09894146626048,35.43700648813492,0 34.09900534610039,35.43701140373986,0 34.09903329033199,35.4368434835315,0 34.09875139508628,35.43685979246396,0 34.09873452754542,35.43660707225973,0 34.09874362568566,35.43604077414339,0 34.09898182534239,35.43602211401237,0 34.09902730372675,35.43566163100509,0 34.09873432995072,35.43560382788792,0 34.09885674247603,35.43497327974332,0 34.09890043463385,35.43497563016412,0 34.09905000821878,35.43436682378699,0 34.09911686236245,35.43384947432776,0 34.09949280746878,35.43383505718509,0 34.10010183587745,35.43392021356634,0 34.10029799184348,35.43303337006871,0 34.10088686780159,35.43311870709795,0 34.1009989430514,35.43296376239105,0 34.10091469585251,35.43294254138489,0 34.10099732544012,35.43259821003402,0 34.10095252258702,35.43177403211154,0 34.10090756020426,35.43167824001203,0 34.10090904811255,35.43154079580477,0 34.10047202877508,35.43126167149685,0 34.10053343493003,35.43108519976901,0 34.10061104043593,35.43111197869059,0 34.10069628771075,35.43096002777461,0 34.10079392754157,35.43097837786707,0 34.10084564232199,35.43107685655007,0 34.10111192476278,35.4311486412916,0 34.1012159811178,35.43114494419588,0 34.10125257010168,35.43115688630311,0 34.10127332686473,35.43116366049285,0 34.10141514376372,35.43122008850354,0 34.10154225601032,35.43118319651231,0 34.1016494460998,35.43116297830744,0 34.10174124799887,35.43108563397797,0 34.101973918505,35.43091494161371,0 34.10221406824763,35.43070155403834,0 34.10242582350407,35.43046873706204,0 34.10243387449987,35.43032023784394,0 34.10243860464188,35.43017451703365,0 34.10239409205343,35.43011170565794,0 34.1023361089619,35.43004626825542,0 34.10217899014853,35.42985255032828,0 34.10211832540105,35.42983661193585,0 34.10186621490158,35.42957229674337,0 34.10184686890998,35.42913819112786,0 34.10187947350865,35.42906642880544,0 34.10191203951778,35.42899191873518,0 34.10187599177625,35.42881083945207,0 34.10191821942639,35.42870600589766,0 34.10207513631426,35.42863860695566,0 34.10219995985677,35.42843406918659,0 34.10223794562525,35.42836596112166,0 34.10238563472345,35.42825921104647,0 34.10266316681714,35.42817146983809,0 34.10285369706076,35.42810651101559,0 34.10304101871092,35.42805257627371,0 34.10316129751379,35.42800749986145,0 34.10351952584351,35.42792726457741,0 34.10353746068427,35.42776493175576,0 34.10365790291686,35.42764310510099,0 34.10373618660812,35.42756246596238,0 34.10393648789375,35.42747542779455,0 34.10409837788763,35.42747853163524,0 34.10417484737066,35.42747049932334,0 34.10430185301566,35.42759232593876,0 34.10434158930283,35.42763114331347,0 34.10459273816392,35.42770144375542,0 34.10470383164533,35.42770844995563,0 34.10485935459813,35.42767588224074,0 34.10493918902171,35.42762017907503,0 34.10499586404612,35.42758895103486,0 34.10506912649818,35.42754477708161,0 34.10517260934289,35.42753459965186,0 34.10529478264342,35.42753483331033,0 34.10569124485446,35.42763270615647,0 34.10573798679424,35.4276432749885,0 34.10584865375393,35.42765226782129,0 34.10609285338781,35.42765516942379,0 34.10625738397327,35.42766411910259,0 34.10635500459321,35.42768215485629,0 34.1064327506533,35.42771488552224,0 34.10648226319395,35.42774347918466,0 34.10678601340786,35.42780864315074,0 34.10687635812793,35.42783057212896,0 34.10723381704915,35.42798085969813,0 34.10743041224742,35.4280728676437,0 34.10765492083083,35.42828245176256,0 34.10788854052546,35.42838500890193,0 34.10805365777036,35.42846295129764,0 34.10833091369319,35.42860058621643,0 34.10840776604638,35.42857239444979,0 34.10843364926037,35.42850069300714,0 34.1083522404396,35.42819634292822,0 34.10834806053526,35.42789128389378,0 34.10828917174363,35.42775989090501,0 34.10834067315559,35.42759724934815,0 34.10839500533117,35.42739610131681,0 34.10844488158349,35.42735991198833,0 34.10852863625334,35.42734539993854,0 34.10898210157125,35.4272858496504,0 34.10911186025891,35.42726583128719,0 34.10939915197471,35.42715599580357,0 34.10947211672259,35.42708935862521,0 34.10952322127611,35.42704289797526,0 34.10958473272535,35.42697563050447,0 34.10962393166169,35.42689555946576,0 34.10962849913325,35.42673884664801,0 34.10961197648616,35.42651361097666,0 34.10948408622008,35.4262481700901,0 34.10929813402026,35.42615642548703,0 34.10920012146674,35.42611059934176,0 34.10861815982673,35.42579160618252,0 34.10851226558115,35.42566064480883,0 34.10850048119633,35.42554075635223,0 34.10850188793508,35.4254908938532,0 34.10871655889235,35.42537566086073,0 34.10891504098898,35.42515669762562,0 34.10912913741415,35.4250970096312,0 34.10924721841846,35.42513715441559,0 34.10939242841812,35.42495166226431,0 34.10966835603816,35.42499310529519,0 34.1096444005644,35.42496034204827,0 34.10948904509202,35.42489580282913,0 34.10931788270846,35.42490287249667,0 34.10956668843072,35.42468069687588,0 34.1097012931719,35.42470144824503,0 34.10987230427072,35.42468338526428,0 34.10970039137484,35.42439086282429,0 34.10980583757883,35.42399958914611,0 34.10995772153051,35.42381128688066,0 34.11030123221929,35.4234150995454,0 34.11042751671894,35.42329847252054,0 34.11045350972538,35.4232350147799,0 34.11072931755917,35.42277895566978,0 34.11094132902332,35.42232348197528,0 34.11119827045709,35.42220567635227,0 34.11130899273951,35.42219915942262,0 34.11146441878078,35.42226919369583,0 34.11155529772052,35.42228484841901,0 34.11164908042265,35.42226749384335,0 34.11170959124236,35.42227243384904,0 34.1118063541634,35.42222756449678,0 34.11184219188212,35.42214752456665,0 34.11184290502827,35.42195511468396,0 34.11215261970951,35.42176810442754,0 34.11271173054826,35.42164751221743,0 34.11268739693377,35.42158726672739,0 34.11251585764139,35.4213222310607,0 34.11240603853902,35.42115007879384,0 34.11237419716799,35.42103218166446,0 34.11235691872304,35.4209966084339,0 34.11208994294135,35.42087263090805,0 34.11206904346288,35.42081785073697,0 34.11209099662889,35.42070495518323,0 34.11208635445504,35.42061154480027,0 34.11205764501291,35.42047712657351,0 34.1119398328403,35.42045622313165,0 34.11132708613982,35.42058280243995,0 34.11121199021687,35.42051514671683,0 34.11072663533307,35.42013755336866,0 34.11059211231384,35.42012229849408,0 34.11043352191322,35.42006603619417,0 34.11038278354986,35.4200390164272,0 34.11030560162909,35.42004247420235,0 34.11022924822049,35.42010639495896,0 34.11012120783079,35.42006341064475,0 34.11004640234545,35.41999538248732,0 34.11012619000757,35.41969230026727,0 34.11015636844793,35.41968927383655,0 34.11031205564284,35.41928929242782,0 34.10962632557572,35.41899049769292,0 34.10960085822497,35.41933705900421,0 34.10950262379561,35.41951936998355,0 34.10931430452368,35.41974373887144,0 34.10894012236532,35.41988185835251,0 34.10873781281499,35.4198204981984,0 34.10848198587704,35.41928411604483,0 34.108446109446,35.41936140639348,0 34.10846247515721,35.41957564979013,0 34.10820288729956,35.4199903256125,0 34.10809182189041,35.42021673171129,0 34.10772514014445,35.42041250029575,0 34.10740679725438,35.42021477057897,0 34.10720491137757,35.41993901033941,0 34.10723407464675,35.41986178190798,0 34.10733665972475,35.41950626780667,0 34.10741099303267,35.41904931430454,0 34.10751730035933,35.41896588123394,0 34.10757690568185,35.41890486477911,0 34.10768845991203,35.41871418615262,0 34.10805610425712,35.41883450181024,0 34.10832885477244,35.41840046428513,0 34.10826975529325,35.4180079535827,0 34.10822546989723,35.41796163249625,0 34.10807597177303,35.41807844684496,0 34.10788679525387,35.4179949754341,0 34.10768681411543,35.41834863448243,0 34.10694633095306,35.41797336548241,0 34.10673391782277,35.41790934461205,0 34.10664994701717,35.41790736606401,0 34.10665945544432,35.41786604940088,0 34.10676700246583,35.41787330985863,0 34.10709330108906,35.41791704548289,0 34.10727067564548,35.41787418969881,0 34.10748064422282,35.41775957077466,0 34.10700754892962,35.4172938934198,0 34.10730979107834,35.41705199130517,0 34.10704140723416,35.4168235678335,0 34.10706762546409,35.41677660085976,0 34.10725172178201,35.41648905529944,0 34.1078537625112,35.41656324469464,0 34.10787892778823,35.41643932523748,0 34.10865792974032,35.41619579398267,0 34.10936926353141,35.41600942667102,0 34.10910540068953,35.41579949807656,0 34.10963682708981,35.41510384491115,0 34.10976500424638,35.41514664470809,0 34.11006194996646,35.41476460547564,0 34.11012848957562,35.41472001529689,0 34.11030227352988,35.41441606865484,0 34.10998632209659,35.41439148763425,0 34.10981461665804,35.41435733327273,0 34.10975735641975,35.41434411629778,0 34.10965245556616,35.41428461042683,0 34.10938924053153,35.41418807835979,0 34.10917581864894,35.41404985885153,0 34.10896296126162,35.41395286331463,0 34.10885157330652,35.41390990758009,0 34.10835558581027,35.414207629007,0 34.10790702096716,35.41456725249594,0 34.10816830905907,35.41476825382553,0 34.10815966726605,35.41487278147299,0 34.1086141613192,35.41520669063168,0 34.10854188392492,35.41532279663997,0 34.10843245165841,35.4154227514656,0 34.10827040140821,35.41535827185368,0 34.10798684474916,35.41549280758528,0 34.10762864827266,35.41532567913043,0 34.10749975729632,35.41523065898022,0 34.10738998538396,35.41530587862411,0 34.10722234997224,35.41532390789214,0 34.10717829337803,35.41529407646223,0 34.10706267044771,35.41543256826422,0 34.10682842874746,35.4152450598536,0 34.1067753528658,35.41529227293304,0 34.10679934181569,35.4153277855262,0 34.10666059361402,35.41549397435146,0 34.10679985556018,35.41561088871583,0 34.10695916097136,35.41547474575675,0 34.10710438561804,35.41553663329145,0 34.10737331210283,35.41531427760436,0 34.10746437053201,35.41534367703669,0 34.10750638705452,35.4154697284262,0 34.10762358908773,35.41544666515207,0 34.1077140071523,35.41542934363751,0 34.10793097610809,35.41558127632563,0 34.10780392889192,35.41562092238796,0 34.10763398958384,35.41571593444693,0 34.10746457530482,35.4158494219941,0 34.10704886967474,35.41614183941704,0 34.10692386202062,35.41608526451294,0 34.10692382442387,35.41608251586124,0 34.1068169187859,35.41612197717161,0 34.1067562248775,35.41610329316281,0 34.10662657017981,35.41619793460968,0 34.10640952786707,35.41604050226395,0 34.10628313071758,35.41588224006586,0 34.10635593788444,35.41580461197949,0 34.10630347532221,35.4156511695163,0 34.10610608952273,35.41545782496684,0 34.10621514909912,35.41533038927462,0 34.10612643454762,35.41522675352269,0 34.10594559588245,35.41526139413252,0 34.10572094092951,35.41503806328804,0 34.10575666797104,35.41494977997021,0 34.10561232503584,35.41470647413193,0 34.10565013311844,35.41452471849595,0 34.10581003813483,35.41443254919133,0 34.10607261139707,35.41448236922462,0 34.10615461086289,35.41458606564304,0 34.10634347705229,35.41464755437315,0 34.10642393655013,35.41463857115036,0 34.10647690059731,35.41458311315713,0 34.10666271001477,35.41466661776384,0 34.10672887675047,35.4145945473951,0 34.10681797967769,35.41448103723145,0 34.10706150140799,35.4146107389093,0 34.10719055152013,35.4144721248998,0 34.10724272421472,35.41435895210387,0 34.10750808111449,35.4146121413137,0 34.10753128036076,35.41458994018556,0 34.10746644115132,35.4145135728137,0 34.10750952066418,35.41447194820075,0 34.10745475225163,35.41439548936341,0 34.10752450132601,35.41433987699005,0 34.10739583770735,35.41426134679291,0 34.10734906328447,35.41427826697771,0 34.10727143437033,35.41424874430972,0 34.10697986201063,35.41404252149559,0 34.10692595893035,35.41402927239767,0 34.106786549246,35.41390136439229,0 34.10690635398231,35.41382330523815,0 34.10664673861757,35.41349859799874,0 34.1065539785081,35.41355320665418,0 34.10646710745424,35.41362118360156,0 34.10648629680552,35.41379691929051,0 34.10640990959804,35.41385808898124,0 34.10649839750742,35.41394523445259,0 34.10662246207512,35.41393310347153,0 34.10671834197571,35.41406965578231,0 34.10644274113444,35.41429482018122,0 34.10622034150327,35.41423638776918,0 34.10598014226856,35.41410390493908,0 34.10582555473815,35.41420630342027,0 34.10568275412808,35.41421707560522,0 34.10552514422858,35.41422351359267,0 34.10541073786732,35.41420532057834,0 34.10531598710068,35.41415121509284,0 34.10531214986658,35.41393957919129,0 34.10563577467738,35.41371950181536,0 34.10559820837889,35.41367311908473,0 34.10552483923144,35.41370952321648,0 34.10544310423172,35.41362506329955,0 34.10528000899428,35.41348362803888,0 34.10514742947282,35.41336390167882,0 34.10501306983335,35.41335963405526,0 34.10488652962312,35.41319037648204,0 34.10467420571473,35.41313184899082,0 34.10428384143589,35.4130667031562,0 34.1041446418336,35.41319991071551,0 34.10407138489481,35.41324455813555,0 34.10394587626965,35.41339687968453,0 34.10383726429806,35.41355729365902,0 34.10381892121936,35.41368939521486,0 34.10379001911843,35.41378586170518,0 34.10374074862978,35.41386602216055,0 34.10363433145485,35.41394120775964,0 34.10345700085637,35.41398680586251,0 34.10331226875709,35.41396064184693,0 34.10320684852489,35.4138626544987,0 34.1028723923316,35.41371178614844,0 34.10274165078746,35.41372672324609,0 34.10264060010055,35.413702908542,0 34.10266022712399,35.41358999335064,0 34.10265829626646,35.41327670893826,0 34.10262005680784,35.41318085573528,0 34.10251367779069,35.41251940739519,0 34.10234778360633,35.41217184571754,0 34.10233150987258,35.4119630991398,0 34.1023204663119,35.4118917349656,0 34.10216420729409,35.41175847817389,0 34.10209311215955,35.4117189059659,0 34.10197746927771,35.41168300205493,0 34.10185345250212,35.411672324627,0 34.10174333895051,35.41167161402289,0 34.10157442900773,35.41134881609724,0 34.10158393935717,35.41130749975667,0 34.10161929537082,35.41119173547463,0 34.10129460420652,35.41111383921186,0 34.10097872635515,35.4110346161115,0 34.1006962503053,35.41096376919151,0 34.10060463280482,35.41064576245429,0 34.10034423704194,35.41050795510902,0 34.1002372232548,35.41053916547456,0 34.09994329069203,35.41015703413066,0 34.09979789167654,35.41003817376648,0 34.09973977985951,35.41000496413969,0 34.09965402514516,35.40987106195607,0 34.09935096274333,35.40980510502038,0 34.09926219171874,35.41019072186365,0 34.09924938934681,35.41066759811433,0 34.09876364035076,35.41056357528837,0 34.09890698224666,35.40999330441633,0 34.09798694266618,35.40973780342277,0 34.09799466526866,35.40956456952768,0 34.0972090605349,35.4093188353414,0 34.09709100342729,35.4095260550578,0 34.09654117227085,35.40933589544291,0 34.09673733993795,35.40894655711557,0 34.09688956833223,35.40853562821918,0 34.09710967886755,35.40817905534062,0 34.09733937306117,35.40778666245104,0 34.09743045982427,35.40757144142696,0 34.09650743113841,35.40734069425784,0 34.0950904981844,35.40708143486246,0 34.09479076987058,35.40701268798946,0 34.09478843955577,35.40659216826531,0 34.09472203329123,35.40615023998411,0 34.09478018868271,35.40598204520869,0 34.09486252381415,35.40561573082364,0 34.09508523692504,35.40545154205662,0 34.09518606333617,35.40521149686928,0 34.0954703234566,35.40488183153854,0 34.09564370070544,35.40468961944534,0 34.09575563294064,35.40464686779925,0 34.09592032828601,35.40464411436781,0 34.09617850218874,35.40461978304653,0 34.09628196767213,35.40457486529188,0 34.09634209124874,35.40455233111734,0 34.09643165413863,35.40448956004054,0 34.0967103381211,35.40422739760724,0 34.09678941651517,35.40410617217596,0 34.09688523021119,35.40400316977745,0 34.09691100472391,35.40392322537706,0 34.09695162558558,35.40370021681184,0 34.09695811654465,35.40368366563303,0 34.0970690057396,35.40344352748182,0 34.09711133903782,35.40334694040069,0 34.09710052490814,35.40329206664327,0 34.09696062699985,35.40312567053735,0 34.09703026689903,35.40281444191328,0 34.09697954977637,35.40254003898196,0 34.09690645338333,35.4023482986056,0 34.09673788929159,35.40207890627713,0 34.09666899762927,35.40191891867823,0 34.09671250324601,35.40178845602536,0 34.09671703327403,35.40172694171603,0 34.09671890662712,35.40162768920228,0 34.09673443507533,35.40158235454643,0</coordinates>
						</LinearRing>
					</outerBoundaryIs>
				</Polygon>
			</MultiGeometry>
		</Placemark>
	</Document>
</kml>