<?xml version='1.0' encoding='UTF-8'?>
<kml xmlns="http://www.opengis.net/kml/2.2">
	<Document>
		<name>KORNOKIPOS</name>
		<Style id="PolyStyle70">
			<LabelStyle>
				<color>00000000</color>
				<scale>0.000000</scale>
			</LabelStyle>
			<LineStyle>
				<color>ff0055ff</color>
				<width>2.000000</width>
			</LineStyle>
			<PolyStyle>
				<color>00828282</color>
				<outline>1</outline>
			</PolyStyle>
		</Style>
		<Placemark id="ID_70219">
			<name>KORNOKIPOS</name>
			<snippet />
			<description>&lt;html xmlns:fo="http://www.w3.org/1999/XSL/Format" xmlns:msxsl="urn:schemas-microsoft-com:xslt"&gt;

&lt;head&gt;

&lt;META http-equiv="Content-Type" content="text/html"&gt;

&lt;meta http-equiv="content-type" content="text/html; charset=UTF-8"&gt;

&lt;/head&gt;

&lt;body style="margin:0px 0px 0px 0px;overflow:auto;background:#FFFFFF;"&gt;

&lt;table style="font-family:Arial,Verdana,Times;font-size:12px;text-align:left;width:100%;border-collapse:collapse;padding:3px 3px 3px 3px"&gt;

&lt;tr style="text-align:center;font-weight:bold;background:#9CBCE2"&gt;

&lt;td&gt;3&lt;/td&gt;

&lt;/tr&gt;

&lt;tr&gt;

&lt;td&gt;

&lt;table style="font-family:Arial,Verdana,Times;font-size:12px;text-align:left;width:100%;border-spacing:0px; padding:3px 3px 3px 3px"&gt;

&lt;tr&gt;

&lt;td&gt;DIST_CODE&lt;/td&gt;

&lt;td&gt;3&lt;/td&gt;

&lt;/tr&gt;

&lt;tr bgcolor="#D4E4F3"&gt;

&lt;td&gt;VIL_CODE&lt;/td&gt;

&lt;td&gt;237&lt;/td&gt;

&lt;/tr&gt;

&lt;tr&gt;

&lt;td&gt;VIL_CCD&lt;/td&gt;

&lt;td&gt;3237&lt;/td&gt;

&lt;/tr&gt;

&lt;tr bgcolor="#D4E4F3"&gt;

&lt;td&gt;VIL_NM_E&lt;/td&gt;

&lt;td&gt;KORNOKIPOS&lt;/td&gt;

&lt;/tr&gt;

&lt;tr&gt;

&lt;td&gt;VIL_NM_G&lt;/td&gt;

&lt;td&gt;ΚΟΡΝΟΚΗΠΟΣ&lt;/td&gt;

&lt;/tr&gt;

&lt;/table&gt;

&lt;/td&gt;

&lt;/tr&gt;

&lt;/table&gt;

&lt;/body&gt;&lt;script type="text/javascript"&gt;

				function changeImage(attElement, nameElement) {

				document.getElementById('imageAttachment').src = attElement;

				document.getElementById('imageName').innerHTML = nameElement;}

			&lt;/script&gt;&lt;/html&gt;

</description>
			<styleUrl>#PolyStyle70</styleUrl>
			<MultiGeometry>
				<Polygon>
					<extrude>0</extrude>
					<altitudeMode>clampToGround</altitudeMode>
					<outerBoundaryIs>
						<LinearRing>
							<coordinates> 33.58420829424804,35.25392224994211,0 33.58427507132489,35.25417104760093,0 33.5843938600532,35.25467080076086,0 33.58439086405475,35.25473320385255,0 33.58361481024496,35.25512608776563,0 33.58362992955489,35.25514520780867,0 33.58373164936532,35.25528959415502,0 33.58400824765764,35.25539832366967,0 33.58401366924389,35.25562332016867,0 33.58438435781705,35.25571338601334,0 33.58437251711231,35.2558096739001,0 33.58474223573671,35.25601835063582,0 33.58479180393195,35.25616048854449,0 33.58525969133736,35.25619731096955,0 33.58531737558853,35.25588328438207,0 33.58567337964253,35.25586224902302,0 33.58568701296224,35.25579035343876,0 33.58684295474281,35.25578688484236,0 33.5868579058352,35.25580038252031,0 33.58683422534946,35.25599228090653,0 33.58664064177921,35.25595168963909,0 33.58661167069563,35.25622900619305,0 33.58629076002339,35.25617467536556,0 33.58622018676079,35.25611598449123,0 33.58616279251927,35.2560497861895,0 33.586142558624,35.25598005475513,0 33.58611855399682,35.25597269322819,0 33.58595494674286,35.25597197216434,0 33.58591531119426,35.25611987765548,0 33.58608179387016,35.25618904239803,0 33.58609624721115,35.25654616616975,0 33.58590006691655,35.25662893572347,0 33.58593772721387,35.25685516227772,0 33.58587846495454,35.25703838846422,0 33.58601588468822,35.25736928079321,0 33.58623402886646,35.25765648349397,0 33.58624250503191,35.25783673430828,0 33.58626323894909,35.25799321689581,0 33.58633833228626,35.25840568220014,0 33.58614638993237,35.25850741364119,0 33.58609481524811,35.25859097832694,0 33.58628263934282,35.25877798951478,0 33.5855935852577,35.25893654717498,0 33.58575905713854,35.25925987570186,0 33.58548002494324,35.25944869651428,0 33.58509284709802,35.25965555785162,0 33.58498815972582,35.25970001768735,0 33.5850148683042,35.25974600193033,0 33.58507319202658,35.25982981808644,0 33.58512715097228,35.25987298624812,0 33.58517103042823,35.2598877269386,0 33.58539665704748,35.2598949868153,0 33.58552252821376,35.25994194237492,0 33.58556239838297,35.25997770883222,0 33.585588430474,35.26005012899492,0 33.58559373969985,35.26011110645352,0 33.58564118191152,35.26017056579504,0 33.58569843184634,35.26021101004294,0 33.58580939836038,35.26025260035779,0 33.58585734745962,35.26025648207899,0 33.58592173309546,35.26024470936107,0 33.58596373807302,35.26022082507243,0 33.58607882278559,35.26011668097334,0 33.5863469079936,35.26017867302668,0 33.58654355569395,35.26031888404192,0 33.58661889698382,35.26034434676102,0 33.58667512524575,35.26035090566037,0 33.58674202519505,35.26034522351464,0 33.58678239233792,35.2603240564133,0 33.58686769410617,35.26021392755747,0 33.58689948543524,35.260138572684,0 33.58690464329893,35.26003011064576,0 33.5868690309759,35.25987300813635,0 33.58684170918507,35.2597206183465,0 33.58684058889123,35.25966979082436,0 33.58685820319772,35.25957212450943,0 33.5868853234366,35.25954626417018,0 33.58691501371631,35.25953666024874,0 33.58697290179169,35.25954456843077,0 33.58702594202892,35.25957147221217,0 33.58719770192912,35.25969483546329,0 33.58745645469561,35.25985784760878,0 33.58759818717831,35.25993252685876,0 33.5878738791053,35.26002362990381,0 33.5881000370936,35.26006511451038,0 33.5882806225312,35.25977278482822,0 33.588364863293,35.25967738851875,0 33.58851097290005,35.25961518899766,0 33.5887338254087,35.2595530260602,0 33.58894508945077,35.25954026840719,0 33.58908948593619,35.25956064412904,0 33.58919756012146,35.25960198401941,0 33.58937406253303,35.25973270241692,0 33.58941363631414,35.25978483978392,0 33.58953638091649,35.26008339228361,0 33.58960480297815,35.26018292384617,0 33.58968233812259,35.26023304815442,0 33.58972441491245,35.26024592922873,0 33.58977557874705,35.26024527604604,0 33.58984656610501,35.26021891278868,0 33.58988951673403,35.26016478416593,0 33.58994822415422,35.25999965932279,0 33.58999215703394,35.25972081442308,0 33.59000622830523,35.25965990401798,0 33.59004670620764,35.25960035932349,0 33.59011356435556,35.25958008589284,0 33.59021093989217,35.25957810116589,0 33.59039494965648,35.25959714006066,0 33.59054019555766,35.25958502531338,0 33.59065493705753,35.25953296080741,0 33.59079858648504,35.25944368337316,0 33.59092486983091,35.2594044843451,0 33.59095953077558,35.25940314689154,0 33.59102965404677,35.25943093085092,0 33.59109808263612,35.25952301529713,0 33.59116728088314,35.25969700012077,0 33.59123485229631,35.25983578701366,0 33.59127113952557,35.25986829349489,0 33.59136600835337,35.25991301031449,0 33.59172166124023,35.259935511358,0 33.5919461018654,35.25996471866094,0 33.59208801166518,35.26000471774056,0 33.59219938235897,35.2600541800074,0 33.59225793023444,35.26011580065736,0 33.59234528456999,35.26029317700962,0 33.59241287746192,35.26040285867963,0 33.59245815204488,35.26049627524596,0 33.59257048825086,35.26072806486847,0 33.59270308613066,35.26112096026723,0 33.59275659761488,35.2612141398603,0 33.59279621628985,35.26125106881208,0 33.59287656002501,35.26127659054207,0 33.59290977674105,35.26127572741535,0 33.5929622992658,35.26124411307968,0 33.59307385537267,35.26106048849868,0 33.59312425025097,35.26100778067721,0 33.5931821346339,35.26097001783812,0 33.59325608658735,35.26093929163216,0 33.59330109146272,35.26093491744208,0 33.5933503684885,35.26094900133193,0 33.5934028476424,35.26098505668705,0 33.59344888092043,35.2610439591836,0 33.59347884232163,35.26110548957414,0 33.59349165703235,35.26116964953713,0 33.59347764834678,35.26128916367127,0 33.59328024595803,35.26166872904436,0 33.59328128659347,35.26171530688818,0 33.59330910772329,35.26176980718472,0 33.59337659200723,35.26179971731959,0 33.59358870344735,35.26186132956363,0 33.59382700479574,35.26180692070655,0 33.59399122479393,35.26173533796438,0 33.59408460738988,35.26163193102244,0 33.59428133209605,35.26171461056956,0 33.59422754765734,35.26186929699177,0 33.59433041967357,35.26199104312023,0 33.59450905925524,35.26174566278054,0 33.59465007380195,35.26171923295278,0 33.5947443957531,35.26174450626682,0 33.5949180108318,35.26188520704859,0 33.59488743218392,35.2619947398665,0 33.59520126216884,35.26199963142376,0 33.59537450208236,35.26208885869714,0 33.59550795401082,35.26210107087024,0 33.59565864935968,35.26232552894322,0 33.59580055932629,35.26242134382223,0 33.59634939939389,35.26238003428121,0 33.59649840013662,35.26237286583113,0 33.59645199232898,35.26246317416759,0 33.59582545911393,35.26260781524238,0 33.59573245327323,35.26276269542966,0 33.59584270200077,35.26282006124597,0 33.5958121713701,35.26293602893806,0 33.59558406377342,35.26285350639841,0 33.59555122599142,35.26265420510907,0 33.59537037568382,35.26259718643885,0 33.59533654920287,35.2622627705877,0 33.59485784089534,35.26223938808683,0 33.59484327974192,35.26239388282939,0 33.59513465930442,35.26254687226892,0 33.59485962770307,35.26248388203194,0 33.59462522803324,35.26261371953672,0 33.59438378312715,35.26285297366048,0 33.59418898128768,35.26303409047826,0 33.59414374469297,35.26328524932109,0 33.59435700903509,35.26348366483565,0 33.59459366662482,35.26366266121514,0 33.59447003036675,35.26392064028997,0 33.59433812602315,35.26412075027528,0 33.59458347596636,35.26441552128045,0 33.59469494956704,35.26464017319387,0 33.59462632006945,35.26491075000956,0 33.59481577192631,35.26507067588783,0 33.59502781849855,35.26510180414343,0 33.59487294321505,35.26537924008242,0 33.59479505847553,35.26545683452137,0 33.59452908383764,35.26556108925495,0 33.59443762302603,35.26592829253367,0 33.59457117513856,35.26595337319777,0 33.59512003970477,35.26591206901602,0 33.59509782314247,35.26609233822717,0 33.5949657287667,35.26626671289448,0 33.59542891161141,35.26630947412169,0 33.59561441404875,35.26592893924576,0 33.59587287358919,35.26586975800105,0 33.59625065719755,35.26603518792393,0 33.59628246108509,35.26609293983427,0 33.59569597176343,35.26635320022621,0 33.59626034133093,35.26628607674996,0 33.59673982861607,35.26641239901604,0 33.59697296143257,35.26610883778903,0 33.59700684255911,35.26644968665349,0 33.5969999890434,35.26658484062222,0 33.5969615185467,35.26668797882236,0 33.59685995782078,35.26674638850473,0 33.59671099628812,35.26675999123361,0 33.59644426546912,35.26676130640997,0 33.59616184413058,35.26676269831103,0 33.59571472342508,35.26677133457031,0 33.59564472998974,35.26685532558137,0 33.59559864835992,35.26699067168649,0 33.59561513942114,35.2670999728847,0 33.59563233689401,35.26730578499142,0 33.59557845622405,35.26744760436772,0 33.59544626657914,35.26760911201192,0 33.59532943763098,35.26772550328205,0 33.59557497785791,35.26795386884081,0 33.59558911637297,35.26800164946341,0 33.59532898767094,35.26855159556435,0 33.59552888576935,35.268635610244,0 33.59549731807249,35.26876084445737,0 33.59551776852051,35.2687866780648,0 33.59560592429013,35.26880608421309,0 33.59572235266446,35.2689307358545,0 33.59565052154198,35.2692370456741,0 33.59592310645668,35.26929830903529,0 33.59595655263987,35.26930582578073,0 33.59600848664613,35.26944602346798,0 33.59592287041941,35.26967219999857,0 33.59589962387035,35.2697336113625,0 33.59572342320636,35.26972644695408,0 33.59546052485259,35.26967081231771,0 33.59532652062518,35.26994836587761,0 33.59567122127837,35.2701124981695,0 33.59579335443694,35.27041092404943,0 33.59592229065863,35.2705907652169,0 33.59597716420617,35.27066730257651,0 33.59609519940165,35.27074048750341,0 33.59611080573156,35.27087254443158,0 33.59607114431181,35.27091180437163,0 33.59592206478638,35.27094832410466,0 33.59585095626085,35.27096574360106,0 33.59566179833725,35.27131493696783,0 33.59592181567152,35.27134262658281,0 33.59595877559273,35.27134656199188,0 33.59605681003352,35.27138311458625,0 33.59598573789338,35.27147382627906,0 33.59595260515834,35.27163633545623,0 33.59653892297212,35.27158240848288,0 33.5968394881122,35.27159607726173,0 33.59666926398499,35.27178561623161,0 33.59682446572189,35.27185339908179,0 33.59682607681233,35.27191705497486,0 33.59678808083243,35.27193464517818,0 33.59672036438688,35.27194274269859,0 33.5966871951302,35.27216484368241,0 33.59652040720491,35.27214175007949,0 33.59639141490757,35.27241933858614,0 33.59630385009385,35.27247483045778,0 33.59616829107294,35.27268876201079,0 33.5959209649914,35.2726916390291,0 33.5958812185116,35.27269210160581,0 33.59559122900781,35.27272894802491,0 33.59538660992192,35.27262556288809,0 33.59504966341485,35.27263187439014,0 33.59504951044804,35.27286945762737,0 33.59583352427188,35.2730137636056,0 33.59586745788018,35.27288336549685,0 33.59592084182295,35.27288552093561,0 33.5959765895871,35.27288777106812,0 33.59612684217061,35.27294607241389,0 33.59642576338543,35.27295161542027,0 33.59612816423406,35.27346885473619,0 33.59592046533884,35.27348241604576,0 33.59589193442142,35.27348427909688,0 33.59578110790954,35.27351271333411,0 33.59567651669466,35.27355600651572,0 33.59558829656862,35.27362956817264,0 33.5954354601086,35.27379865150054,0 33.59523216794513,35.27407875776274,0 33.5951359152211,35.27440022837834,0 33.59504750901219,35.27476172984734,0 33.59501905638043,35.27497935703305,0 33.59501560045771,35.27500578419307,0 33.59479595729691,35.27549488620095,0 33.59478262864703,35.27564746184488,0 33.59480243024635,35.27571528457139,0 33.59488340837787,35.27581093736403,0 33.59491802891924,35.27598455588132,0 33.594842689082,35.27612218525719,0 33.59487483147675,35.27628970016349,0 33.59485816492971,35.27648770956586,0 33.59463764036695,35.27734817203476,0 33.59454820089037,35.27754614965365,0 33.5945978056649,35.2775678713508,0 33.59465407475139,35.27751093282961,0 33.5947632591917,35.27747029141484,0 33.59485421340279,35.27748931922442,0 33.59544980847677,35.27719933152461,0 33.59547797435116,35.27712339214482,0 33.59569300436581,35.2770895768189,0 33.59568787848392,35.27734726779381,0 33.5955621308713,35.27742587798071,0 33.59582092819605,35.27749278510624,0 33.59591793428805,35.27749748567355,0 33.59602102606134,35.27752791644254,0 33.59617846612472,35.27759791806706,0 33.59631288688156,35.27773880854676,0 33.59634502676778,35.27784159831933,0 33.59618242694555,35.27813837547325,0 33.59609706280308,35.27826748205005,0 33.59591777976535,35.27842922114535,0 33.59588646585045,35.27847306210136,0 33.59588645540769,35.2784906938548,0 33.59591729695762,35.27850811234287,0 33.59593543080444,35.27851835361814,0 33.59600019694376,35.2785154944936,0 33.59605187147139,35.2785250747496,0 33.59609105460514,35.2785184477043,0 33.59614611910342,35.27853747920822,0 33.59614899752411,35.27860507139034,0 33.59603830012589,35.27881468333789,0 33.59610210759635,35.27895592280747,0 33.59591474041349,35.27908553092255,0 33.59588363854279,35.27912428980667,0 33.59590422117981,35.27916883958986,0 33.59591687104315,35.27918476127265,0 33.59594078064364,35.27921485381051,0 33.59604202447559,35.27932297101226,0 33.59620788095848,35.2794701415465,0 33.59620868263929,35.27957951974685,0 33.59612265583833,35.27961854937185,0 33.59591132510887,35.2796903679451,0 33.59591652513479,35.27973352876877,0 33.59585172000607,35.27980592873934,0 33.5958326476541,35.27988729740703,0 33.59585328628383,35.27994426959754,0 33.59591636857206,35.27998193899178,0 33.59593450265211,35.2799927670538,0 33.59639414722726,35.28026063702933,0 33.59666181901216,35.28038156809714,0 33.59667084602641,35.28054238023238,0 33.59678910732725,35.2806190073084,0 33.59679733211733,35.28067044125827,0 33.59695463729239,35.28072113873316,0 33.59728220858326,35.2809098586721,0 33.59739540491777,35.28090555633477,0 33.59749740813986,35.28090505256538,0 33.59762295064811,35.28090443242304,0 33.5978940861008,35.28108778149836,0 33.59783444170144,35.2812545790829,0 33.59785095484742,35.28129934331847,0 33.59794521473762,35.28133193156354,0 33.59830942122534,35.28142221379429,0 33.59829599957106,35.28173112454979,0 33.59845311835711,35.28175608416933,0 33.59845354441242,35.28181399054812,0 33.59841464388526,35.28185428762328,0 33.59807716974043,35.28194095302138,0 33.59796016207465,35.28194511530028,0 33.59784251252628,35.28195213167023,0 33.59776423562867,35.28197825530194,0 33.59771653473938,35.28202896409381,0 33.59771483194066,35.28210898437791,0 33.59789040079808,35.28222152797043,0 33.59801003222999,35.28232448956536,0 33.59814389628086,35.28238817109267,0 33.59826862749622,35.28244671476387,0 33.59827813914339,35.2825033232993,0 33.59821926691728,35.28258741657153,0 33.59809349726971,35.28263613103526,0 33.59810106249164,35.28277128282094,0 33.59816129942998,35.28290993918385,0 33.59804068323629,35.28286739510436,0 33.59793278928809,35.28285899228498,0 33.59784439920031,35.28291050795807,0 33.59783842291667,35.28296066354807,0 33.59792073329277,35.28312510457433,0 33.5979214431315,35.28335848091663,0 33.59798681860766,35.28343095775452,0 33.59816348429864,35.28351462733336,0 33.59823481870479,35.28356969075931,0 33.59806648210743,35.28376050294305,0 33.59794324107944,35.28384196050841,0 33.59789560444685,35.28393877498184,0 33.59789718762143,35.28412826201328,0 33.59787078588793,35.28423483790164,0 33.5978019077891,35.28433303635993,0 33.59766677138141,35.2844123990559,0 33.59751462647253,35.28451613661495,0 33.59745341551221,35.28457950685466,0 33.59745762085005,35.28465126211238,0 33.59752045336478,35.28471537982696,0 33.59763937514932,35.28475513672436,0 33.5978169560179,35.28473848888571,0 33.59789592788927,35.28480818633663,0 33.5979256054331,35.28490433471158,0 33.59789749874011,35.28502066282082,0 33.59788185099795,35.28513783882398,0 33.59770570936745,35.28516466061345,0 33.59762581502339,35.28516258380374,0 33.59754713611107,35.28512095517061,0 33.5975079857448,35.28507111085766,0 33.59746410749588,35.28507964181589,0 33.59739685502475,35.28512708943276,0 33.59734350895641,35.28522712632397,0 33.59732742321987,35.28533806514171,0 33.59743004344674,35.28550384832868,0 33.59591233657583,35.28638957725715,0 33.59062349381688,35.28945930746069,0 33.58374035830069,35.29345370019505,0 33.58322822989387,35.29541236934722,0 33.58289357733575,35.29669128365765,0 33.5828181024217,35.29698605224913,0 33.5826538567767,35.29762750360545,0 33.58079425926356,35.30488937545915,0 33.58049086469356,35.30607402867638,0 33.57784704131112,35.30494722789459,0 33.57741365353073,35.30476250936307,0 33.57736404882456,35.30473523465973,0 33.56989238508189,35.30065187615909,0 33.56453462243295,35.29772325073336,0 33.56335478633577,35.2970782753918,0 33.56307756286279,35.29692672386734,0 33.5572787708713,35.29378489358736,0 33.55660146683944,35.29343051904461,0 33.55558987947471,35.29290123070897,0 33.55543311916365,35.29283701866571,0 33.55534444657627,35.29282632815681,0 33.555197090643,35.29286125940452,0 33.55464033405491,35.29340367407628,0 33.55273218353257,35.29529014141691,0 33.55257505397191,35.29538417731452,0 33.55245584945654,35.29541565416837,0 33.55237962838331,35.29541444472663,0 33.54520720219007,35.29286606094556,0 33.54667731279493,35.29050657717023,0 33.54686426747574,35.29020651024742,0 33.55129947630137,35.28324548693507,0 33.5513942328174,35.28309119088303,0 33.55181352183151,35.28244622675204,0 33.55247189250187,35.28142239906123,0 33.55319572669504,35.28028782141633,0 33.55327251474633,35.2801651873942,0 33.55327268654924,35.28016491168996,0 33.55341324595557,35.27985031901508,0 33.55361596987582,35.2794168923138,0 33.55372385464793,35.27918060496683,0 33.55372172273249,35.27901468289748,0 33.55374328643138,35.27851416298764,0 33.55377381515795,35.27826588803528,0 33.55382660044675,35.27775316566654,0 33.55354236525019,35.27731530161879,0 33.55315074019824,35.2767184669873,0 33.55306275359863,35.27598985699932,0 33.55305582456034,35.27593247843816,0 33.55301661976117,35.27584425731909,0 33.553013150043,35.27583299159729,0 33.55301077666547,35.27580481561624,0 33.55312125082281,35.27558572946057,0 33.55332860565655,35.27520112630386,0 33.55346313293217,35.27498199290385,0 33.55362069474445,35.27480602345105,0 33.55360913509627,35.27477035133273,0 33.55354707307127,35.27470002175463,0 33.55320947524906,35.27441794173003,0 33.55280758426411,35.27408526120634,0 33.55280412280606,35.27407681312943,0 33.55302868364414,35.2737006317307,0 33.55313352234575,35.27351443352521,0 33.55338075289483,35.27305742172,0 33.55340468226985,35.273015104561,0 33.5533654325785,35.27291091318212,0 33.55319731063076,35.27260877284113,0 33.55298471900444,35.27217896758706,0 33.55289942831815,35.27199877895318,0 33.55263728028585,35.27166112696781,0 33.55263495607216,35.27164985959942,0 33.5526347757075,35.27158786215251,0 33.55262528837721,35.27147703744976,0 33.55254813966043,35.27094551542752,0 33.55248674747053,35.27031814769711,0 33.55232469159511,35.26973606657015,0 33.5523246478361,35.26972103726357,0 33.55232691697108,35.26971351755976,0 33.55237446562089,35.26952179641186,0 33.55246256461895,35.26909515791345,0 33.55254761452595,35.26873870160414,0 33.55259525867047,35.2685390252827,0 33.55261671132886,35.26851181577508,0 33.55267130928964,35.26849133324799,0 33.55272252047909,35.268445047213,0 33.55275714799587,35.26839200270446,0 33.55276491088865,35.26821403962339,0 33.5527879011303,35.2681460755476,0 33.55292640015012,35.26792982140756,0 33.55297419352131,35.26784822513422,0 33.553027115997,35.26782095284287,0 33.55306997360393,35.2677502334374,0 33.55314407497801,35.2676020242743,0 33.55314065385319,35.26756535489228,0 33.5531024337095,35.26752196170351,0 33.55310232996145,35.26748664453915,0 33.55318984314118,35.26739410238538,0 33.55328229650715,35.26729204160096,0 33.55338630115418,35.26717501648145,0 33.55340932646695,35.26711927745635,0 33.55345699736843,35.2669955711499,0 33.55348160221595,35.26691401944452,0 33.55350461131989,35.26685284699036,0 33.55346947619179,35.26673202077253,0 33.55349257574596,35.26670209133663,0 33.55366794987891,35.26663654323753,0 33.55393428012111,35.26652327258111,0 33.5540037949072,35.26650683503165,0 33.55412797895917,35.26649436460807,0 33.55415279624551,35.26648480724927,0 33.55416596555787,35.2664576128661,0 33.55419879705523,35.26635702867412,0 33.55426319893242,35.26629169862108,0 33.55428621589459,35.26623324362274,0 33.55432063401732,35.26610956252488,0 33.55431544928291,35.26603622072663,0 33.55427546015562,35.26595479620613,0 33.55428863796072,35.26593031941224,0 33.55435647716086,35.26590709387689,0 33.55438787449792,35.26588257956458,0 33.55446375867492,35.26577919304926,0 33.55449832800934,35.26570713110212,0 33.55456101054904,35.26562007032333,0 33.5545906185949,35.26555073430945,0 33.55462500589324,35.26541618718871,0 33.55467602512905,35.2653060577567,0 33.55472549245211,35.2652312485587,0 33.5547949585963,35.26519850942547,0 33.55482799449598,35.2651685603099,0 33.55484609922082,35.26512913139774,0 33.55493194792644,35.26503523272363,0 33.5552159635004,35.26474397658323,0 33.55528866913542,35.26468678063416,0 33.55538953870089,35.26463224512133,0 33.55547382727032,35.26457095052473,0 33.55555142878027,35.26448929387904,0 33.55565380552056,35.26438449509662,0 33.5557876242822,35.26427012523079,0 33.55579245552016,35.26422393103596,0 33.55571938582771,35.26415751537441,0 33.5556429417083,35.26407073058061,0 33.55557306742069,35.26396491549812,0 33.55555796569578,35.26389838498355,0 33.55548648300128,35.26380887498402,0 33.55525554100737,35.26356210748281,0 33.55506783661374,35.2633750231015,0 33.5549365797083,35.26323401110142,0 33.55485682716067,35.26314723285103,0 33.55473738430948,35.26308090933696,0 33.55461293710444,35.26300236977661,0 33.55452164570072,35.26293463074487,0 33.55448337487807,35.26287357935367,0 33.55444254372256,35.26250553866509,0 33.5544049629499,35.26211575811071,0 33.5543811373404,35.2618984637819,0 33.55438711596837,35.26167839456521,0 33.55438910329917,35.2614828826575,0 33.55439113453771,35.26128316833248,0 33.55417942641716,35.26081494362148,0 33.55397844600323,35.26061565772429,0 33.55396995085807,35.26054232198426,0 33.55411709786655,35.26045645386241,0 33.55423093754586,35.26030816556968,0 33.55407180745004,35.26026093577265,0 33.55400875395037,35.2602203083601,0 33.55405177310114,35.26020663943706,0 33.55431859330567,35.26026724002413,0 33.55439943215195,35.26016112755607,0 33.55420688102467,35.26001208570088,0 33.55425293517899,35.25990332395494,0 33.55428416910071,35.25982447641261,0 33.55390757688306,35.25960380280327,0 33.55384929392741,35.25949524746007,0 33.55383416605697,35.25941920728227,0 33.5538919159684,35.25934574136285,0 33.55393990670086,35.25933342071396,0 33.55421670024268,35.25940758575506,0 33.55443566042911,35.25952669002331,0 33.55456297068074,35.25945444459138,0 33.55500583645254,35.25968449297046,0 33.55517637912789,35.25967057127513,0 33.55565429111999,35.25942918961536,0 33.55576201180914,35.25945342683848,0 33.55584558978271,35.25903587480461,0 33.55593827094845,35.258572843441,0 33.55604760173949,35.25858213452901,0 33.55617648234869,35.25848135796863,0 33.55635055378569,35.2585421379084,0 33.55649809096136,35.25857661581523,0 33.5565765936951,35.25859496189811,0 33.5566914360856,35.2586473695733,0 33.5567436519072,35.25866356591527,0 33.55678631558606,35.25866993342551,0 33.55681899137348,35.25865900081779,0 33.55688751692152,35.25859026568376,0 33.5569213667125,35.25855657873837,0 33.55695571210584,35.25854971803356,0 33.55706715599287,35.25857326724299,0 33.5571313649306,35.25858502391569,0 33.55719266830345,35.25859373106076,0 33.55720918503656,35.2585787561744,0 33.55726440148497,35.25849035010945,0 33.55727625863521,35.25843972745358,0 33.55727529314513,35.25839388345072,0 33.55729383872089,35.25836498107446,0 33.55736902434523,35.25830845747204,0 33.55738307130006,35.25829824148102,0 33.55734029218767,35.25825316064638,0 33.55727141414042,35.25820303871915,0 33.55721251022511,35.25816546123208,0 33.55714906753541,35.25813298656762,0 33.55719565940863,35.25806803075688,0 33.55727604515398,35.25795037002263,0 33.55728587468377,35.25791435357076,0 33.55716803973144,35.2578300299116,0 33.55713981755128,35.25780665379187,0 33.55711235642818,35.25776120218452,0 33.55700748261844,35.25771896249396,0 33.55693328303789,35.25768922693099,0 33.55684866368353,35.25763573935828,0 33.55672962049612,35.25756262401862,0 33.55664757266763,35.25753867696432,0 33.55663670988214,35.25750541750929,0 33.55655620787775,35.25744411208878,0 33.55649460112615,35.2573990850894,0 33.55649272468466,35.25739771371321,0 33.55648801052913,35.25734372768365,0 33.55649443151088,35.25734195759858,0 33.556559991558,35.25732388726473,0 33.55661182692261,35.25721239658215,0 33.55663570840433,35.25716752172169,0 33.55668075190762,35.25713890676383,0 33.55677002271472,35.25708575116474,0 33.55679391803535,35.25704597078292,0 33.5568453697181,35.25694432928959,0 33.55687782266568,35.25685834646826,0 33.5568966544661,35.25678665363522,0 33.55688695310728,35.25672622500252,0 33.55685272791332,35.2566335840974,0 33.55682389007628,35.25654229028418,0 33.55680141530106,35.25650294229826,0 33.55671479340943,35.25647187202509,0 33.55672522971378,35.25636114320939,0 33.55673322655321,35.25626570032437,0 33.55675176059064,35.25623306277525,0 33.55683756649255,35.2561286347961,0 33.55686193468066,35.25610854998019,0 33.55692075446322,35.25597904636723,0 33.5569256234548,35.25594575689005,0 33.55692473605141,35.25578614808875,0 33.55692237965598,35.25568970723656,0 33.55693582627331,35.25561700799564,0 33.55694969595307,35.25554736246871,0 33.55704062711651,35.25549624154033,0 33.55705878541477,35.25547650796205,0 33.55710683835107,35.25534600731563,0 33.55712992823025,35.25531403918472,0 33.55715556174361,35.2553021023271,0 33.55715154694667,35.25534489919949,0 33.55718721313557,35.25536520431962,0 33.55723122352316,35.25540722570666,0 33.5572871837789,35.25543020636973,0 33.55736053654572,35.25545451034102,0 33.55751963633714,35.25549392470323,0 33.55763984607535,35.25554292573366,0 33.55773101604225,35.25557228791654,0 33.55781622301879,35.25554528836268,0 33.55785639159018,35.25554826521628,0 33.55785287670205,35.2554800130352,0 33.55786400791857,35.25546436972459,0 33.55795257964586,35.25545502242622,0 33.55806011926721,35.25542016789684,0 33.55812047462253,35.25538982235435,0 33.55817328526461,35.25532858989305,0 33.5581635251659,35.25524880368006,0 33.55816370481831,35.25517001721364,0 33.5581946865799,35.25514720200335,0 33.558245469449,35.255099897004,0 33.55834177528921,35.25504672581577,0 33.55842814376661,35.2549932362539,0 33.55850475916086,35.25500089229407,0 33.55853909553751,35.25499199407613,0 33.55860662499603,35.25486858509906,0 33.55863514934232,35.25479563038109,0 33.55873789160974,35.25422199917127,0 33.55876275706184,35.25408317525022,0 33.55879886832071,35.25401608405685,0 33.55885560886611,35.25401690007585,0 33.55894984566725,35.2540334647807,0 33.55909052402048,35.25402294303995,0 33.55917678535572,35.25402928495667,0 33.55924253697685,35.25400774379559,0 33.55938669456395,35.25402141478141,0 33.55944867854815,35.25387887492136,0 33.55952851800176,35.25363576980159,0 33.55944788525772,35.2536145231019,0 33.55945233955302,35.25358565938519,0 33.55941146174661,35.25357736371072,0 33.55896973693902,35.2534758647599,0 33.55887883032015,35.25343416063705,0 33.55877434680565,35.25340551607583,0 33.55856060137123,35.2532681840243,0 33.55856051860163,35.25324025978122,0 33.55856040405089,35.25320209605445,0 33.55858861146697,35.25314805185668,0 33.55853638019814,35.25313698788585,0 33.55825479336337,35.25308077313429,0 33.55824995887309,35.25298211640406,0 33.55822366511112,35.25291701142994,0 33.55822222276058,35.25281369335625,0 33.55820512607528,35.25278859588803,0 33.5580232011653,35.25266609243916,0 33.55802306441166,35.25262048254226,0 33.55793896478615,35.25257690299784,0 33.55774218786753,35.25242091927768,0 33.55763533405047,35.25235783855825,0 33.55763739339926,35.25228709177823,0 33.55765878964932,35.25223213002463,0 33.55767447389194,35.25216414987503,0 33.55767936082713,35.2518997870896,0 33.55769282669186,35.25184949494636,0 33.55770631300604,35.25180572055795,0 33.55772322392503,35.25176845364408,0 33.55774700124033,35.25175071945068,0 33.55778208942881,35.25172086279084,0 33.55780126212456,35.25168173040858,0 33.55780685595607,35.25165472553444,0 33.55783283805839,35.25161557888551,0 33.55788254125704,35.25154008304903,0 33.55790965727422,35.25150093385996,0 33.55802976680408,35.25144298223286,0 33.5580716793791,35.25141869697396,0 33.55809203298256,35.25139445524179,0 33.55812028702017,35.25135623458276,0 33.5581360676408,35.25132083146036,0 33.55815632117206,35.25126307971556,0 33.5581686240287,35.2512034834665,0 33.55818182419441,35.25106383365667,0 33.55820369136048,35.25078640545918,0 33.55823516547889,35.25068674472939,0 33.5582564833428,35.25060572082685,0 33.55827092149764,35.25050050867565,0 33.55825700283989,35.25039907700881,0 33.55825680272453,35.25033205879868,0 33.55828263717525,35.25024357859851,0 33.55830718638862,35.2501048372653,0 33.55835482139032,35.25009729561371,0 33.55837402319394,35.25006747061148,0 33.55837393124911,35.25003675393162,0 33.55837152528636,35.24999114817681,0 33.55835096685388,35.24994651042525,0 33.55833722281029,35.24990372060023,0 33.55833714211916,35.24987672655204,0 33.55834948255202,35.24982922927486,0 33.55838111864016,35.24978355568729,0 33.55841122114904,35.24960477840345,0 33.55844149731343,35.24948371093399,0 33.55846063344427,35.24943247762656,0 33.55845484388843,35.24939339451995,0 33.55845238783887,35.24933103420724,0 33.55848957213061,35.24924346244259,0 33.55849488653313,35.24912337637025,0 33.5584879332582,35.2490749874143,0 33.55848993358806,35.24898469360659,0 33.55848178505654,35.24891582908744,0 33.55844153199604,35.24873533120763,0 33.55839784950184,35.24854646272425,0 33.55841133380846,35.24850268734579,0 33.55845104942451,35.24850260683937,0 33.55847929812641,35.24846345588782,0 33.55847919490165,35.24842901566539,0 33.55846536327056,35.24835643935584,0 33.5584777779741,35.24833407569825,0 33.55852418597966,35.24829581802548,0 33.55852820993795,35.24812360857338,0 33.55853477575265,35.2480426139153,0 33.55852325084813,35.24798306447386,0 33.55853323809824,35.24790764796735,0 33.55855472772027,35.24788433383004,0 33.55859420164384,35.24780420403102,0 33.55862767743542,35.24761518044503,0 33.55863646507306,35.24751835725914,0 33.55866801624744,35.24744475932465,0 33.55872692712492,35.24741392347812,0 33.55874390205673,35.24739899672839,0 33.55875289730015,35.24737105398188,0 33.55876296707491,35.2473235617212,0 33.55882716404272,35.24716333131869,0 33.55889852285537,35.24712130049689,0 33.55899246591019,35.24704292276195,0 33.5591374173039,35.24696900276799,0 33.55927769631305,35.2468974667019,0 33.55936268345859,35.24678913675394,0 33.55936547518348,35.24678557783421,0 33.55937901315781,35.24672077657544,0 33.55937626052506,35.24656588769061,0 33.55933024600402,35.24648524776332,0 33.55930812761937,35.24636043808157,0 33.55926552909574,35.24627415864857,0 33.55929716888109,35.24613985329752,0 33.55923520576489,35.24608365305176,0 33.55917316130832,35.24600022886172,0 33.55906782691211,35.24598166580052,0 33.55907222060147,35.24592063850934,0 33.55904456008327,35.2458549810907,0 33.5589781044733,35.24582695236509,0 33.55896076246314,35.24576784534617,0 33.55895943928675,35.24570776837187,0 33.55887121569489,35.24567133472841,0 33.55883329854615,35.24561977889122,0 33.55877821369235,35.2455673198066,0 33.55865340684463,35.24554222476922,0 33.55856268138826,35.24543445034173,0 33.55846422742058,35.24542056739315,0 33.55838698374664,35.24522827789492,0 33.55816677478275,35.24506162223729,0 33.55793511302304,35.24489123318502,0 33.55777120186074,35.24479956420716,0 33.55768496761598,35.24466173992017,0 33.55760784981118,35.2445116941557,0 33.55755823464251,35.24437379659262,0 33.55761831922776,35.24418404756562,0 33.55755969999056,35.24409686060234,0 33.55764757576571,35.24401782949165,0 33.55766909230845,35.24394174784712,0 33.55769264420302,35.24378117342596,0 33.55765700700503,35.24372585786216,0 33.55756417774104,35.24367910656589,0 33.55752876587871,35.2433149401723,0 33.55748273941703,35.24322960606513,0 33.55743342372217,35.24319215473756,0 33.55745951123373,35.24311418531415,0 33.55745475778984,35.24305505431334,0 33.55755394300229,35.2429309401545,0 33.55766716347588,35.24290912166913,0 33.55769930564448,35.24294379106873,0 33.55772011386368,35.24301415585772,0 33.5577967808967,35.24301400264191,0 33.55787451807647,35.24298850041513,0 33.55792018544264,35.24295367430575,0 33.55790381113287,35.24283448583226,0 33.55807073827349,35.24278815250184,0 33.55813582186542,35.24274014517307,0 33.55813678687648,35.24268006211148,0 33.55807469210531,35.24257880196988,0 33.55803070790166,35.2424108537047,0 33.5578716062534,35.24239521275163,0 33.55783827569239,35.24234646484739,0 33.55784151292821,35.24228074581296,0 33.55789518021909,35.24224214933169,0 33.55791560417723,35.24218390551456,0 33.55787658704546,35.24214643392602,0 33.55788330121459,35.24209572753007,0 33.55796658184813,35.24201107202671,0 33.55805683402375,35.24196207616902,0 33.5582363897262,35.24192979815246,0 33.55830397527596,35.2419540696721,0 33.55831673878408,35.2420131862313,0 33.55830132503311,35.24221598796322,0 33.55833598048257,35.24232575198486,0 33.5583443145383,35.24243463148899,0 33.55837090863319,35.24252657549606,0 33.55849397800832,35.24273754831825,0 33.55864203943332,35.24288745090245,0 33.55870282465395,35.24293332804851,0 33.55879676098693,35.24296787232203,0 33.55892384420532,35.24299014713448,0 33.55907150001455,35.24300393135346,0 33.55917270427814,35.24317270281945,0 33.55928730958331,35.24323161278992,0 33.55932861651701,35.2432690805402,0 33.55943546952585,35.24341343259665,0 33.55947446086529,35.24344151684468,0 33.559574041697,35.24345070300873,0 33.55963584304049,35.24345339450064,0 33.55975014996015,35.24341185862664,0 33.55980609939058,35.24337137949168,0 33.55981713535473,35.24323617593265,0 33.55980641638131,35.24309632364095,0 33.55984387977973,35.24299674014802,0 33.55996618923383,35.24295330931366,0 33.56002788751662,35.24292220664486,0 33.56034187067565,35.24268969879162,0 33.56042978526664,35.2426247467996,0 33.56046165890476,35.24256929519373,0 33.56049353346902,35.24251478281009,0 33.5605289286593,35.24248842576122,0 33.56067997940212,35.24248999756398,0 33.56071275398087,35.24235381165524,0 33.5604873004098,35.24234488130561,0 33.56028128277973,35.24232933999767,0 33.56019421235065,35.24229478131779,0 33.56004983609091,35.24222936140008,0 33.55998442844056,35.24216847404206,0 33.5599980154499,35.24212057056735,0 33.56009493218519,35.24200490802927,0 33.56023950535731,35.24175490616074,0 33.56025994950477,35.24170417213568,0 33.56029415024786,35.24166185908946,0 33.56034893138184,35.24161387212568,0 33.56040713430835,35.24156212226667,0 33.56047000343659,35.24154040359937,0 33.56054666381808,35.24153837020797,0 33.56060839864445,35.24151946992166,0 33.56067367284431,35.24153623513818,0 33.56072051456515,35.24151173322065,0 33.560721455643,35.24144414087007,0 33.5607728765029,35.24142056776927,0 33.56090102383365,35.24141655232233,0 33.56099734879207,35.2414848863882,0 33.56104543929869,35.24149511494181,0 33.56107973108873,35.24148284146047,0 33.56112190187037,35.24142736897911,0 33.56115709531623,35.24133529955535,0 33.56123004850208,35.24124221404507,0 33.56128035902548,35.24122990859015,0 33.56133985331872,35.24122697090164,0 33.56133318236559,35.24129175860533,0 33.5613277141973,35.2413753191272,0 33.56136447556607,35.24142312083718,0 33.56144585725538,35.24146895516411,0 33.56149067141132,35.24153082062734,0 33.5614989242345,35.24161153764857,0 33.56151853997503,35.24166500649116,0 33.56149467797685,35.2417204410406,0 33.56153736494569,35.24183582121471,0 33.56158100815468,35.24188924075766,0 33.56164633770948,35.2419238425469,0 33.5617230838416,35.24194997064645,0 33.56173009724853,35.24199877201861,0 33.56173604490195,35.2420738606982,0 33.56182445045201,35.24217131018295,0 33.56181663607195,35.24223610050556,0 33.56180423923145,35.24229902281155,0 33.5618138209356,35.24243981583787,0 33.56188185117529,35.24261053005671,0 33.56191869466673,35.2426855564027,0 33.56196792974718,35.24269578197386,0 33.56233982979727,35.24269690111343,0 33.56235800434598,35.24265274202273,0 33.56237685742933,35.24245462633959,0 33.56241449291225,35.24241324499186,0 33.56244065680045,35.24236249845197,0 33.56245527408782,35.24227704214837,0 33.56247543133092,35.24213243244676,0 33.56246374614483,35.24205266257805,0 33.56249682333251,35.24201692157334,0 33.56255162031567,35.2419745662536,0 33.56261044194756,35.24175008332492,0 33.56265845760844,35.24173590408662,0 33.56287804144107,35.24169696661668,0 33.56306463206874,35.24172099202526,0 33.56310603383525,35.24141299525316,0 33.56310925192756,35.2413425827047,0 33.56307597704429,35.24131260987726,0 33.56294532209009,35.2412443488195,0 33.56292686730077,35.2411965102205,0 33.56299138278521,35.24096356731493,0 33.56308677055493,35.24072305068615,0 33.56316073737449,35.24058865728027,0 33.56321561369898,35.24057258545567,0 33.56324269533353,35.24044767542737,0 33.56322535573288,35.24038950820079,0 33.56342338507444,35.24041351049068,0 33.56354928248756,35.24042263939678,0 33.56363510363937,35.24004790037014,0 33.56365663477163,35.23997932695143,0 33.56371610785659,35.23996981805634,0 33.56391528962745,35.23999663278725,0 33.56421179958991,35.24004483840134,0 33.56472808047579,35.24011699792254,0 33.56493528720586,35.24014848773076,0 33.56513565100897,35.24018656395231,0 33.56541381336979,35.24022166152483,0 33.56565873808778,35.240238990813,0 33.56584308156799,35.24027709836762,0 33.56598860908569,35.2403443880815,0 33.56623280718937,35.2404968982687,0 33.56634743200612,35.24056143508985,0 33.56662364422493,35.24070542988527,0 33.56689528030309,35.24084943285723,0 33.56703636079069,35.24095803511944,0 33.56728737661798,35.24109363201347,0 33.56738593139593,35.24114130357626,0 33.56759555011686,35.24121127261602,0 33.56787977291222,35.2413543093387,0 33.56816400645159,35.24150016123746,0 33.56833099957441,35.24166798878881,0 33.56843162146117,35.241717897817,0 33.56870912884615,35.24188201846935,0 33.56880977868003,35.24195442541835,0 33.56888597548741,35.2419668569248,0 33.56899567244208,35.24196675949346,0 33.56916337722762,35.2420516062662,0 33.56933412379702,35.24213145027461,0 33.5694101168206,35.24215933291075,0 33.56987921635447,35.24233144679619,0 33.57005329480621,35.24238025951512,0 33.57048645225716,35.24249274838066,0 33.57086697789914,35.24258785302322,0 33.57119899721692,35.2427220095031,0 33.57143994836566,35.2428454576711,0 33.57163436224841,35.24296728725892,0 33.57192386995841,35.24308654174718,0 33.57260615537214,35.24337475052992,0 33.57288353365755,35.24349899241987,0 33.57316096209567,35.24365975270084,0 33.57361355593811,35.24391994776777,0 33.57390314564687,35.24409314536525,0 33.5740186066967,35.24418433538121,0 33.57416042917354,35.24431451004592,0 33.57426077834198,35.24445053296581,0 33.57434798610807,35.24459486756001,0 33.5743835142639,35.24467949322376,0 33.5743848388954,35.24490690508245,0 33.57441231281603,35.24502058606314,0 33.5744568981002,35.24506951387085,0 33.57476976080426,35.24524019669539,0 33.57509172650396,35.24540755082904,0 33.57526902179289,35.24558250991456,0 33.57529129574574,35.24559244807072,0 33.57576303882934,35.24578704901514,0 33.57587037219016,35.24585085602404,0 33.57595969087543,35.24593213711672,0 33.57612750989942,35.24608485439212,0 33.57625509865483,35.24617102691636,0 33.57633021078307,35.24619498295954,0 33.57664301047067,35.24627691890303,0 33.57688071339047,35.2463436966387,0 33.5772124934488,35.24642798155289,0 33.57730621791002,35.24648677472808,0 33.57744788002588,35.24660541941642,0 33.57755071351695,35.24668789224669,0 33.57769524813692,35.24679672046744,0 33.57773528535799,35.24681360230354,0 33.57794615485776,35.24686483740766,0 33.57803656117316,35.24690942034098,0 33.57825660759274,35.24703238852389,0 33.57832059839173,35.24706752033863,0 33.57863963726446,35.24718091623789,0 33.57892853735343,35.247276067404,0 33.57926696302359,35.24738673597668,0 33.5796800644089,35.24750376027537,0 33.58000154860002,35.24759481647596,0 33.58015205958615,35.24763139667113,0 33.58040926327634,35.24769390778466,0 33.58063465631395,35.2478009610164,0 33.58084025485243,35.24791243182656,0 33.58091123632771,35.24793131296005,0 33.58097286620301,35.24801629805127,0 33.5812476099812,35.2480471506866,0 33.58168036787006,35.24823810006138,0 33.58344205516515,35.24889878626853,0 33.58333404510156,35.24915024439746,0 33.58276709751827,35.24993796007516,0 33.58255960566382,35.25053734865065,0 33.58273230094549,35.25055582013536,0 33.58241665346026,35.25138736270054,0 33.58283263903157,35.251423965829,0 33.58279443480053,35.25156570443691,0 33.58281067392144,35.25164283800005,0 33.5826958740611,35.25204231679093,0 33.58310438948185,35.25213042884123,0 33.5833474497902,35.25211638848434,0 33.58335630718193,35.25225790038045,0 33.58414159652189,35.2523827979345,0 33.58407266579454,35.25261476590858,0 33.58459957836067,35.25280524917043,0 33.58456091468949,35.25288264769082,0 33.58466325262826,35.25293362809331,0 33.5846249112332,35.2530560649589,0 33.58439733007805,35.25307957869737,0 33.58437657049216,35.25316273159947,0 33.58437637408876,35.25316415041007,0 33.58435170879675,35.25334249920522,0 33.58436752573342,35.25343588003942,0 33.58440559855099,35.25351570217942,0 33.58449487030526,35.25362389836571,0 33.58456848555261,35.25374632259603,0 33.58460416374553,35.25387826018429,0 33.58453818516497,35.25388559250295,0 33.58420829424804,35.25392224994211,0</coordinates>
						</LinearRing>
					</outerBoundaryIs>
				</Polygon>
			</MultiGeometry>
		</Placemark>
	</Document>
</kml>