<?xml version='1.0' encoding='UTF-8'?>
<kml xmlns="http://www.opengis.net/kml/2.2">
	<Document>
		<name>KYNOUSA</name>
		<Style id="PolyStyle70">
			<LabelStyle>
				<color>00000000</color>
				<scale>0.000000</scale>
			</LabelStyle>
			<LineStyle>
				<color>ff0055ff</color>
				<width>2.000000</width>
			</LineStyle>
			<PolyStyle>
				<color>00828282</color>
				<outline>1</outline>
			</PolyStyle>
		</Style>
		<Placemark id="ID_70137">
			<name>KYNOUSA</name>
			<snippet />
			<description>&lt;html xmlns:fo="http://www.w3.org/1999/XSL/Format" xmlns:msxsl="urn:schemas-microsoft-com:xslt"&gt;

&lt;head&gt;

&lt;META http-equiv="Content-Type" content="text/html"&gt;

&lt;meta http-equiv="content-type" content="text/html; charset=UTF-8"&gt;

&lt;/head&gt;

&lt;body style="margin:0px 0px 0px 0px;overflow:auto;background:#FFFFFF;"&gt;

&lt;table style="font-family:Arial,Verdana,Times;font-size:12px;text-align:left;width:100%;border-collapse:collapse;padding:3px 3px 3px 3px"&gt;

&lt;tr style="text-align:center;font-weight:bold;background:#9CBCE2"&gt;

&lt;td&gt;6&lt;/td&gt;

&lt;/tr&gt;

&lt;tr&gt;

&lt;td&gt;

&lt;table style="font-family:Arial,Verdana,Times;font-size:12px;text-align:left;width:100%;border-spacing:0px; padding:3px 3px 3px 3px"&gt;

&lt;tr&gt;

&lt;td&gt;DIST_CODE&lt;/td&gt;

&lt;td&gt;6&lt;/td&gt;

&lt;/tr&gt;

&lt;tr bgcolor="#D4E4F3"&gt;

&lt;td&gt;VIL_CODE&lt;/td&gt;

&lt;td&gt;361&lt;/td&gt;

&lt;/tr&gt;

&lt;tr&gt;

&lt;td&gt;VIL_CCD&lt;/td&gt;

&lt;td&gt;6361&lt;/td&gt;

&lt;/tr&gt;

&lt;tr bgcolor="#D4E4F3"&gt;

&lt;td&gt;VIL_NM_E&lt;/td&gt;

&lt;td&gt;KYNOUSA&lt;/td&gt;

&lt;/tr&gt;

&lt;tr&gt;

&lt;td&gt;VIL_NM_G&lt;/td&gt;

&lt;td&gt;ΚΥΝΟΥΣΑ&lt;/td&gt;

&lt;/tr&gt;

&lt;/table&gt;

&lt;/td&gt;

&lt;/tr&gt;

&lt;/table&gt;

&lt;/body&gt;&lt;script type="text/javascript"&gt;

				function changeImage(attElement, nameElement) {

				document.getElementById('imageAttachment').src = attElement;

				document.getElementById('imageName').innerHTML = nameElement;}

			&lt;/script&gt;&lt;/html&gt;

</description>
			<styleUrl>#PolyStyle70</styleUrl>
			<MultiGeometry>
				<Polygon>
					<extrude>0</extrude>
					<altitudeMode>clampToGround</altitudeMode>
					<outerBoundaryIs>
						<LinearRing>
							<coordinates> 32.49572608402933,35.02698934344557,0 32.49563285697501,35.02665291861558,0 32.4950955440197,35.02638209588724,0 32.49537809582617,35.02622513372924,0 32.49556650968162,35.02626251259548,0 32.49577471283443,35.02607616177902,0 32.49585931270066,35.02595758004328,0 32.49591742873414,35.02585326215704,0 32.49623326012407,35.02588066864343,0 32.49642116417616,35.02596859255847,0 32.49646506302272,35.02596888919707,0 32.4966547732181,35.02587629171885,0 32.49661778098821,35.02562329214593,0 32.49662447690334,35.02539225280068,0 32.49661317556171,35.02520441920453,0 32.49658366754719,35.02508145683498,0 32.49664318648126,35.0248363284644,0 32.49712061406084,35.02450736325107,0 32.49720164589638,35.02430570960314,0 32.49710589712434,35.02422201784052,0 32.49688211609291,35.0242096766077,0 32.49681032921026,35.02392394670569,0 32.49696189031452,35.02369388374286,0 32.49679618874623,35.02358083479897,0 32.49682785557507,35.02348717051719,0 32.49686217940483,35.02312632952817,0 32.49691100841203,35.0230724976802,0 32.497083223876,35.0229725597423,0 32.49734762064404,35.02287324137087,0 32.49760744999933,35.02279194618809,0 32.49766908569638,35.022774308287,0 32.49779682366057,35.02280976850555,0 32.49784103657667,35.02281917741874,0 32.49790278540384,35.02283231860466,0 32.4980200371096,35.02282455302629,0 32.49819624387401,35.0226449649489,0 32.4982670629611,35.022539270545,0 32.49840778912866,35.02241970295695,0 32.49862275238144,35.0222674321869,0 32.49882278509042,35.02208103227395,0 32.4989182760777,35.02194967878186,0 32.49905573919297,35.02180713255369,0 32.49921355985363,35.0217221100073,0 32.49948997715747,35.02163788470926,0 32.49967201488302,35.02157311162039,0 32.49981208232812,35.02151953300156,0 32.49988615746643,35.02143681724112,0 32.50002030205192,35.02127702931708,0 32.50008019442043,35.02121717342944,0 32.50017409308906,35.02124649825406,0 32.50028133801298,35.0213361716792,0 32.50032639880998,35.02136516817979,0 32.50039496512411,35.02148614516801,0 32.50043885902426,35.02163278113915,0 32.50050776661961,35.02171932729061,0 32.50049613777562,35.02183689579692,0 32.50052647573937,35.02194326930915,0 32.5006918043827,35.02215671825073,0 32.5007526286061,35.02235511798077,0 32.50090162097329,35.02245654844529,0 32.50094163107019,35.02264332889379,0 32.50122160021127,35.0232563994994,0 32.50073015395952,35.02356587085713,0 32.50077563005699,35.02390477188629,0 32.5005937171596,35.0243081411335,0 32.50067328114417,35.02472761277514,0 32.50060214963356,35.02486487112702,0 32.50058231668402,35.02510577133354,0 32.50046804358999,35.02537186129794,0 32.50137239103328,35.02528897730606,0 32.50129087860069,35.02541755426019,0 32.50126484043085,35.02558093733751,0 32.5014794391246,35.025751673153,0 32.50150915435674,35.02592117242266,0 32.50214399621827,35.02592829642671,0 32.50286650730106,35.0255371518332,0 32.5028294682927,35.02540203970339,0 32.50321397669297,35.02532426842996,0 32.50334377754879,35.02525053143797,0 32.50370295791055,35.02526441154384,0 32.50399574738615,35.02564226657028,0 32.50403777771452,35.02562533134375,0 32.50402421840836,35.02523212751191,0 32.50415149989694,35.02506081134672,0 32.50432366985987,35.02493570723518,0 32.50456433418326,35.02494018387225,0 32.50455652915802,35.02467040424241,0 32.50395098805866,35.02416994416213,0 32.50390314614358,35.02406919419317,0 32.50360114580161,35.02391796326027,0 32.50320136354409,35.02342461382064,0 32.50311330821568,35.02315716647573,0 32.50333544942652,35.0229176193973,0 32.50365380962425,35.02282505775526,0 32.50368466201117,35.02252684146467,0 32.50374279537343,35.02229193568341,0 32.50374149082279,35.02207097957581,0 32.50394300907573,35.02179972992304,0 32.50413953614191,35.0216805270305,0 32.50449832513902,35.02137876246581,0 32.50477382953975,35.02138634113049,0 32.50502200405375,35.02168929006851,0 32.5051365170898,35.02175031310757,0 32.50525494270278,35.02176832032446,0 32.50560018139351,35.02177923176601,0 32.50571863538046,35.02179436944814,0 32.50597801461571,35.02202278544589,0 32.50609433886803,35.02190017454411,0 32.50624688228194,35.02199588444879,0 32.50640044683955,35.02198829816012,0 32.50663011054559,35.02240015929537,0 32.50711690450615,35.02256122143478,0 32.50722559786515,35.02250455560093,0 32.50753252935829,35.02250946755244,0 32.50777088381056,35.0223934076751,0 32.50822470546422,35.0223591224842,0 32.50832916357044,35.0220240937798,0 32.5082276184142,35.02170777932579,0 32.50845142377394,35.02165187894961,0 32.50861418800022,35.02141766581055,0 32.50876784134812,35.02104565884844,0 32.50930433202944,35.02111808899483,0 32.50932180274756,35.02111533550418,0 32.50927099785473,35.02096004819481,0 32.50922351654521,35.02082200031451,0 32.50920033967075,35.02069559060231,0 32.50924459085513,35.02045198134397,0 32.5093455730728,35.02046986805853,0 32.50950180525541,35.02054551162698,0 32.50976670417813,35.02056735503897,0 32.51022668064198,35.02061631919496,0 32.51043199986708,35.02066646125648,0 32.51055093125969,35.02063281614812,0 32.51083344046876,35.02063755902859,0 32.51091880905887,35.02046882763222,0 32.51113079629821,35.02055057641297,0 32.51132860812412,35.02065518618921,0 32.51143217967138,35.02076491221246,0 32.51149693801069,35.02092029086167,0 32.51154726962629,35.02112435535112,0 32.51178556034062,35.02136983435172,0 32.51174618314672,35.02147287517209,0 32.51184481089027,35.02173177840943,0 32.51239484303666,35.02184732523284,0 32.51258702427514,35.02181416442576,0 32.51274424357241,35.02178937679837,0 32.51290109797398,35.02180189430622,0 32.51312352682378,35.02188657866296,0 32.51336573374508,35.02208903859001,0 32.5135241992509,35.02229381523705,0 32.5139348059076,35.02204114648154,0 32.5166669107887,35.02053261081044,0 32.51730683028705,35.01976891066757,0 32.51752742769669,35.01950563835452,0 32.51770866083017,35.01977155203218,0 32.51783755971892,35.01996067879284,0 32.51815011735023,35.0201033348981,0 32.51838315328519,35.02017373189089,0 32.51867174042096,35.02027031940977,0 32.51901142986579,35.02049349515066,0 32.51934849922228,35.02062770081434,0 32.51940745930364,35.02066251976554,0 32.51956281244828,35.02082996587331,0 32.51975584026159,35.02106939545448,0 32.520022481483,35.02127200557342,0 32.52018356055822,35.02156861279339,0 32.51988149920147,35.02178184380699,0 32.51978589759449,35.02192755950533,0 32.51963485426831,35.02203560734905,0 32.51955619324375,35.02223308238785,0 32.51972418391488,35.02217679689971,0 32.51991719722598,35.02205754364765,0 32.52018999532952,35.02198472548996,0 32.52043801559358,35.02194904801824,0 32.52051486435859,35.02193807407905,0 32.52055395701716,35.02186372396162,0 32.52057558019143,35.02179212985069,0 32.52074409123788,35.02168132297279,0 32.52120334180172,35.021446163884,0 32.52142057334078,35.02134715576731,0 32.52152242388488,35.02127608605117,0 32.5215721443137,35.02118458932992,0 32.52166137200567,35.02097570301008,0 32.52182362604785,35.02079024907884,0 32.52205217860804,35.02060235990836,0 32.52224098166127,35.0205576819497,0 32.52253059958782,35.02054809670537,0 32.52261021918576,35.0206117441879,0 32.52275223282775,35.02071597167524,0 32.52296860757996,35.0207059071419,0 32.52286559538496,35.02089748808789,0 32.52286819679606,35.02098932717887,0 32.52288890388639,35.02101241718361,0 32.52299717451781,35.02099877711788,0 32.52307083933238,35.02095621610625,0 32.52302469122012,35.02103912890287,0 32.52298155999147,35.02117084167732,0 32.52296891150008,35.02139744623025,0 32.52296910542555,35.02173891075647,0 32.52306121118129,35.02195471973236,0 32.52318861302631,35.02212772034521,0 32.5232851452373,35.02224599641311,0 32.52321629750282,35.02251240476465,0 32.5230937977872,35.02291619856033,0 32.52303325128707,35.02304492950042,0 32.52306400674293,35.02311112581174,0 32.52351229719171,35.02328908973965,0 32.52381876488047,35.02370428767537,0 32.5239818300235,35.02379717358411,0 32.52408412378124,35.0240417434397,0 32.52427843847894,35.02409475216042,0 32.52436792651675,35.02411916436218,0 32.52442591301939,35.02418382196654,0 32.52446848051383,35.02427159086638,0 32.5244567005496,35.02436793377817,0 32.52444479887662,35.02447677340999,0 32.52447663581526,35.02455197420839,0 32.52458377138574,35.02469730162482,0 32.52466649878183,35.02489782155017,0 32.52464402087796,35.02497802422146,0 32.52454602115475,35.02523628922992,0 32.52447492944467,35.02540545299678,0 32.52447167560239,35.0255179204342,0 32.52456621850634,35.02561852715184,0 32.52458527385586,35.02566864648158,0 32.5245782973769,35.02571681052088,0 32.52450823436549,35.02577884803075,0 32.52436215139708,35.02584574725804,0 32.52428354600234,35.0258934439191,0 32.52427606991656,35.02599338587462,0 32.52427720909765,35.02610052603568,0 32.52432811654399,35.02622405968337,0 32.52443007159149,35.02645684456277,0 32.52451297275958,35.02663951002521,0 32.52450549797,35.02673945198858,0 32.52445902152714,35.02683199736278,0 32.52441068089757,35.02689239101138,0 32.52425085582916,35.02695842675742,0 32.5241208494143,35.02701214152743,0 32.52402795544978,35.02714714605127,0 32.52400510554499,35.02730018671186,0 32.52410837643323,35.02735610798417,0 32.52420595012995,35.02736930057472,0 32.52424684138848,35.02737515512212,0 32.5243256052036,35.02738643138286,0 32.52433558091425,35.02747755919769,0 32.52430619676303,35.02782376247383,0 32.52424205500463,35.02787195386809,0 32.52406241319971,35.02800692564879,0 32.52403942557019,35.02849145592251,0 32.52419459784464,35.02854771678846,0 32.52420457332804,35.02863320715835,0 32.52412525223203,35.0287732794916,0 32.52420048918268,35.02888678027439,0 32.52423205031228,35.0289105399706,0 32.52457436744778,35.0291682371579,0 32.52478558490093,35.02932674056083,0 32.52496348022906,35.02933861280915,0 32.5251930599793,35.02939367452251,0 32.52525783587661,35.0294298069007,0 32.52538950232994,35.02973420538832,0 32.52565264532507,35.02991090165969,0 32.52575605242279,35.02999370940189,0 32.52587551906935,35.03021232267707,0 32.52600869667092,35.03035960199139,0 32.52628579485893,35.03043996781997,0 32.52639285574004,35.03059422084505,0 32.52646043431611,35.03079107011123,0 32.52643119495179,35.03112299052312,0 32.52626608008876,35.0311362016415,0 32.52598422385577,35.03109865772606,0 32.52589722117318,35.03111594676351,0 32.52577893815506,35.03122588149282,0 32.52579568514738,35.03129026905038,0 32.526060347024,35.03130984599503,0 32.5261506264222,35.03140328205543,0 32.52617513041545,35.03156413929643,0 32.52612207176396,35.0316637851962,0 32.52598607577222,35.03180931443308,0 32.52591096568971,35.03194452676632,0 32.52594463340841,35.03205545003004,0 32.52604369948359,35.03213822973406,0 32.5261955176349,35.03215350032689,0 32.52638750744713,35.03205475820606,0 32.52693291082137,35.03177618760129,0 32.52725214057784,35.03153899902068,0 32.52759614920904,35.0314341000464,0 32.52762465537234,35.03163069377245,0 32.52761391600466,35.0318448889378,0 32.52746828078212,35.03209034808592,0 32.52741891377627,35.03225786817437,0 32.52744642697245,35.03255801774264,0 32.52736806032024,35.03303246401736,0 32.52735394071529,35.0331466459365,0 32.52755057155911,35.03346932052498,0 32.52774744309113,35.03376699684835,0 32.52794100222687,35.03395751987527,0 32.52806502543898,35.0341547355738,0 32.528107619436,35.03426880911243,0 32.52819024760566,35.03449010446639,0 32.52847017170264,35.03488987555518,0 32.52848767104947,35.03494664780209,0 32.52846369988512,35.03505171431485,0 32.5284514695125,35.03512987692452,0 32.52849193023838,35.03518679789225,0 32.52872641411837,35.03536503737154,0 32.52866783345088,35.03548741722776,0 32.52874025625673,35.03563223097,0 32.52885385140115,35.03575977303228,0 32.52887149225207,35.0358017067188,0 32.52882856242767,35.03600242965298,0 32.52884961341975,35.03603089506232,0 32.52891161625579,35.03606502168837,0 32.5291063799381,35.03610945201483,0 32.52919920822335,35.03617885319476,0 32.52920810665835,35.03627738773497,0 32.52944625077946,35.03641652863947,0 32.52949378942225,35.03641953440796,0 32.52952832224467,35.03641031525716,0 32.52960455576258,35.03632851921229,0 32.52970783441888,35.03616326072297,0 32.5297734001453,35.03599640922823,0 32.5298228234863,35.03597379592209,0 32.52989668165721,35.03596887824229,0 32.5299721022778,35.03597206395628,0 32.5300292234065,35.03600211114202,0 32.53008275422579,35.03606451230756,0 32.53010193183496,35.03611724798188,0 32.53004942427467,35.03646225215362,0 32.52999314548523,35.03668717177271,0 32.5301974135037,35.03659541215475,0 32.53032389996707,35.03657599594374,0 32.53043541756663,35.03657806542464,0 32.53054825246301,35.03661387074381,0 32.53064743823013,35.03670489505279,0 32.530646677373,35.03678448139617,0 32.53059770682622,35.03693120591505,0 32.53056571835662,35.03701733558351,0 32.53043830302566,35.03713387470198,0 32.53032604989117,35.03720869372702,0 32.53028119795952,35.03726775910315,0 32.5302341509027,35.03738481732253,0 32.53023886481655,35.03740643250446,0 32.53025841904732,35.03742004922048,0 32.53037315192744,35.03742888458976,0 32.53047803344106,35.03743900680581,0 32.53107310861949,35.03764655417407,0 32.5311353971078,35.03765100357807,0 32.53132277565845,35.03761039505349,0 32.53140487455817,35.03760148168551,0 32.53150139958938,35.03762773666953,0 32.53156319826793,35.03768344546483,0 32.53159082727582,35.03788192768368,0 32.53176316276793,35.03787089883627,0 32.53184193013351,35.03786736095854,0 32.53194495224939,35.0379004012489,0 32.53199952047679,35.03802621178699,0 32.53203037512407,35.03805878703441,0 32.53235220451136,35.03819576428121,0 32.53247899417821,35.03831664367529,0 32.53268989622263,35.03838950148686,0 32.53276826490169,35.03842777887949,0 32.53281207400974,35.03847797413486,0 32.53290579924229,35.03879829297022,0 32.53289562319298,35.03883330159415,0 32.53278353661659,35.03889058564197,0 32.53251758053176,35.03891450150566,0 32.53250102383018,35.03893058290291,0 32.53250245824094,35.03895217634403,0 32.53251705289846,35.03896980740465,0 32.53268564646873,35.03900731739418,0 32.53279466490539,35.03909975335787,0 32.53280185052594,35.03920637118249,0 32.53300046373472,35.03936413650167,0 32.53310317908922,35.03942954973856,0 32.53313070406715,35.03946749962849,0 32.5331448089968,35.03953639021917,0 32.53312305606127,35.03975343950682,0 32.53311124041982,35.03978843732715,0 32.53296556654831,35.0399277947277,0 32.53297594168664,35.04004387610846,0 32.53297214617745,35.04009781099426,0 32.53294719741191,35.04013407430489,0 32.53283974708423,35.04022106603122,0 32.53280653694714,35.04043534344785,0 32.53276827181235,35.04049175517791,0 32.5328647823352,35.04069203015894,0 32.53286447311412,35.04072440497191,0 32.53278580076767,35.04088982388124,0 32.53278389030941,35.04091814158294,0 32.53284699746196,35.04100893137763,0 32.53286435965006,35.04108054056254,0 32.53284863290747,35.04118161479022,0 32.53291226152795,35.04138977124713,0 32.53280388395127,35.04157388554184,0 32.53278530781625,35.04180174853753,0 32.53270681411804,35.04194828347877,0 32.53266618687974,35.04208022344252,0 32.53266955149832,35.04224347390548,0 32.53263945473029,35.04247530916545,0 32.53266056554188,35.04266970142912,0 32.53266918575687,35.04279791262648,0 32.5327097299235,35.04284673779046,0 32.53291565910841,35.04292630779013,0 32.53306953503066,35.04295967629965,0 32.53313481204286,35.04299517088305,0 32.5331783541239,35.04307369450771,0 32.53318115984867,35.04312362546341,0 32.53295080118942,35.04354168063589,0 32.53293224323743,35.04359552170165,0 32.53284876113512,35.043748769221,0 32.5328549380778,35.04378927898851,0 32.53284153033296,35.04381887027184,0 32.53281510741432,35.04383758638995,0 32.53274280737035,35.04385061009131,0 32.53260468461962,35.0438847932159,0 32.53254535026316,35.04391408854337,0 32.53245892464347,35.04403224332112,0 32.53238928700036,35.04411003534992,0 32.53231344508128,35.04415001626572,0 32.53202405893992,35.04422099435509,0 32.53190895076631,35.04424992999887,0 32.53186604535092,35.04427663281724,0 32.53180939897311,35.04436799940524,0 32.53177638848011,35.04438937066893,0 32.53173694236636,35.04439720943976,0 32.53153721227012,35.04435544943879,0 32.53146511810733,35.04434688978292,0 32.53139284378086,35.04435721395058,0 32.5312671225804,35.04446702045092,0 32.53115485569958,35.04454184006229,0 32.53105951386568,35.04456280798779,0 32.53084224593708,35.04463964531011,0 32.5307827806685,35.04468242887665,0 32.53071910902407,35.04482231145929,0 32.53067576413425,35.04489487864612,0 32.53062283195626,35.04494040245325,0 32.5305405573574,35.04496684881742,0 32.53035960911205,35.04501964094073,0 32.53028707551348,35.04505694086826,0 32.53019410438808,35.04517235540418,0 32.53015778851458,35.04519640052796,0 32.52973708908482,35.04527461846561,0 32.52963546488744,35.04526586663655,0 32.52954399588133,35.04522480426823,0 32.52934609905162,35.04499149615534,0 32.52920614468632,35.04487457469226,0 32.5289217609245,35.04476481204722,0 32.52831324256108,35.04492814241486,0 32.52744322393927,35.04498994505297,0 32.52716770142046,35.04498276001811,0 32.5268207588872,35.04489686768483,0 32.52591237905322,35.04451324254271,0 32.52533378588826,35.04429363569484,0 32.525045975055,35.04420002909679,0 32.52408673470378,35.04398871942134,0 32.52243653880498,35.04364339482692,0 32.5206056163841,35.04400643940683,0 32.51680890274748,35.04476392914793,0 32.51280488285533,35.04557658737341,0 32.50978695790419,35.04619601267303,0 32.50675530103901,35.04687192705442,0 32.50536503011926,35.04412689704394,0 32.50419457391926,35.04371438028183,0 32.50272602122678,35.04325668889483,0 32.50233550347358,35.0442604228659,0 32.50219112645254,35.04459400568485,0 32.50210078596608,35.04477146688204,0 32.50199088942835,35.04493530765891,0 32.50182504277736,35.04511765890901,0 32.50117348194307,35.04564479152167,0 32.50105176312871,35.04600820263361,0 32.50100110811724,35.04615355389671,0 32.50093775692883,35.04625565196165,0 32.50083842447465,35.04634671653701,0 32.50044998993913,35.04647630977869,0 32.50018326487519,35.04657434372025,0 32.50002149034066,35.04667578067355,0 32.49880436653291,35.04765505783256,0 32.49849513734385,35.04865258621397,0 32.49847192301895,35.04872747034525,0 32.49825612987794,35.04875428647677,0 32.49817363753045,35.04893857094888,0 32.49806542698794,35.0490498330913,0 32.49785132274294,35.04917234183593,0 32.49776921752107,35.04918483532212,0 32.4975771547093,35.04931429995144,0 32.49703815694459,35.0496776202524,0 32.4963249978866,35.04962880323896,0 32.49598195103767,35.04944068415704,0 32.49576344177558,35.04928763278639,0 32.49567195881434,35.0489202980334,0 32.49553679923525,35.04875803056706,0 32.49531425696156,35.04863113041036,0 32.49523731694832,35.04856681479757,0 32.49513731712202,35.04843655526206,0 32.49499002920683,35.04834454299239,0 32.49487328536558,35.04820028677008,0 32.49464077464906,35.04800125460085,0 32.49453613341947,35.04777223309971,0 32.49442095587653,35.04765883908927,0 32.49426626303367,35.04755752048363,0 32.49410572695071,35.04747775884711,0 32.49390541081415,35.0474362932769,0 32.49378203638492,35.04739226303587,0 32.49376099419185,35.04724556828548,0 32.49371032256023,35.04706010558085,0 32.49354304034095,35.0469047066664,0 32.49350050019891,35.04684425456102,0 32.49349044904763,35.04672386007709,0 32.49356835594055,35.04643745251018,0 32.49356190319556,35.04633250787181,0 32.4936998834696,35.0460418799607,0 32.49351668609094,35.04560252478262,0 32.49344693575567,35.04544932844323,0 32.49343793464418,35.04522403952132,0 32.49334970291991,35.0450429511675,0 32.49298460119074,35.04441107225618,0 32.49274255076248,35.04460380669479,0 32.49194997009679,35.04432383701457,0 32.49182656138676,35.04372290495751,0 32.49179443588243,35.04337250344442,0 32.49185038091297,35.04321861839468,0 32.49240473578956,35.04237391594656,0 32.4924817960656,35.04235901080423,0 32.49269136689358,35.04241134062447,0 32.49260238308534,35.04230583622169,0 32.49260477035191,35.04225494360506,0 32.49264994046693,35.04223982476044,0 32.49273627274168,35.04223578235378,0 32.49274056628345,35.04218181758682,0 32.49261008142914,35.04209917158602,0 32.49253574790137,35.04202924844356,0 32.49249424688986,35.04186544466697,0 32.49232184943501,35.04184730638615,0 32.49219274790369,35.04181403412839,0 32.49196344176136,35.0416720973144,0 32.49177378552734,35.04131754029022,0 32.49184253450031,35.0411961370338,0 32.49198640488393,35.0410659873241,0 32.49192365285067,35.0409637462739,0 32.49190619508855,35.04083404413214,0 32.49190281241552,35.04061033520944,0 32.4918088837915,35.0404369207189,0 32.4917040775039,35.04041306847641,0 32.49165200584488,35.04036797813797,0 32.49159134811619,35.04024415421274,0 32.49140566595119,35.04005468839615,0 32.4912545565823,35.0399719012911,0 32.49114249430295,35.03992331770675,0 32.49061831056004,35.04000614636856,0 32.49048893284137,35.04000063907394,0 32.49029432808502,35.039953035834,0 32.49014535786449,35.03984403703011,0 32.4901068530143,35.03975584263353,0 32.49005552766364,35.03963670933508,0 32.49006284452214,35.03946860821398,0 32.48974584171249,35.03928133176206,0 32.48976698668855,35.03923056854482,0 32.48988019288548,35.03916500365422,0 32.48992367509593,35.03913136105094,0 32.48992415641204,35.03908354147411,0 32.48984931530006,35.0390645216661,0 32.48961898145735,35.03902593085045,0 32.48955773526189,35.03896072211273,0 32.48940385557658,35.03878072652146,0 32.48917488819635,35.03860639007703,0 32.48894898863325,35.03849995130762,0 32.48876680482827,35.0383367308137,0 32.4885638667618,35.03818571058687,0 32.4883754214608,35.03808569612207,0 32.48815198742387,35.03810731336195,0 32.48781211597952,35.03832868154561,0 32.48779068934981,35.03840721116966,0 32.48781762820478,35.03852618029562,0 32.48694505217199,35.03800189259201,0 32.48645015354749,35.03815740685727,0 32.48654368024395,35.03799760860893,0 32.48665310563271,35.03793510723283,0 32.48709273731124,35.03749382246723,0 32.48722778921985,35.03730808263864,0 32.48755347540045,35.03700485767198,0 32.48790866031168,35.03675274096816,0 32.48802573542419,35.03630308246712,0 32.48806226277536,35.03602873822455,0 32.48836486435204,35.03559577003733,0 32.48826609616355,35.03553184826784,0 32.48860128416598,35.03484301989501,0 32.48892965138335,35.03464470940835,0 32.4888740363414,35.03457953843573,0 32.48945656839884,35.03408702358987,0 32.49036509371061,35.03335931284695,0 32.490786881795,35.03333148850312,0 32.49093858722932,35.03330904982726,0 32.49129808896232,35.03292514485199,0 32.4914560428432,35.03227990180361,0 32.49187461639633,35.03235315162112,0 32.49195953562732,35.03220388287271,0 32.49197892635944,35.0320216734976,0 32.49216654821673,35.03192004323027,0 32.4922384651319,35.03197288563762,0 32.49240848899925,35.0318747437305,0 32.49230258954488,35.03170793445607,0 32.49257386111044,35.03158339799828,0 32.49285368956,35.03126213664815,0 32.49264909957333,35.03108563151992,0 32.49249472641196,35.03093654698078,0 32.4924059376728,35.03081498536621,0 32.4922811528744,35.03056139029655,0 32.49245392944688,35.03040730109267,0 32.49247447553745,35.03010955710487,0 32.49224276963723,35.03001049710063,0 32.49215073091773,35.02977517708788,0 32.49226432948142,35.0296116604742,0 32.4923019535853,35.02958122398825,0 32.49241910805593,35.02950077815362,0 32.49263135853197,35.02935056668085,0 32.4926443772145,35.02914665151487,0 32.49287901818125,35.02917171082578,0 32.49289096047157,35.02929455552015,0 32.49311259298251,35.02930327962447,0 32.49322325954346,35.02943220921376,0 32.49323782291638,35.02929329581021,0 32.49328110280116,35.02913652276254,0 32.49320366080742,35.02875867916763,0 32.49328468074781,35.02877908653787,0 32.49347914076174,35.02887067144092,0 32.49397277527228,35.02911954102633,0 32.49436602948936,35.02886945205987,0 32.4947731088558,35.02899316447903,0 32.49499991183296,35.0287040360659,0 32.49514581484497,35.02860211839403,0 32.49513735996987,35.02856956388835,0 32.49500810168137,35.02854341514048,0 32.49494255629826,35.02851228072288,0 32.49476385864543,35.02838108724394,0 32.49458670657079,35.02831489623402,0 32.49430442555057,35.02822452462699,0 32.49419107524923,35.02814432234317,0 32.4940604182301,35.02803872804301,0 32.49402825144148,35.02796268604093,0 32.49412296430448,35.02793083020073,0 32.49422975281317,35.02778892978328,0 32.49431381495065,35.02772450556052,0 32.49451635603035,35.02766629882412,0 32.49471001011749,35.02761886447479,0 32.49489239687227,35.02760023801238,0 32.49510332130747,35.02758180483115,0 32.49518201869807,35.027614832757,0 32.49523475422023,35.02760977435872,0 32.49530121886733,35.02754884042936,0 32.49536502035394,35.02753482920206,0 32.49551631644863,35.02755210013762,0 32.49560388509633,35.02757616046659,0 32.49572196792035,35.02762209229927,0 32.49580050337266,35.02767136710182,0 32.49594201069278,35.02778966944896,0 32.496059337178,35.02791142097514,0 32.49616772449436,35.02804935978513,0 32.49646632512046,35.02804415227987,0 32.49710392233258,35.02772529508644,0 32.49669249006063,35.02737769683814,0 32.49646145376202,35.02721185210285,0 32.49610950805312,35.02706324291769,0 32.49577154475792,35.02705373992566,0 32.49572608402933,35.02698934344557,0</coordinates>
						</LinearRing>
					</outerBoundaryIs>
				</Polygon>
			</MultiGeometry>
		</Placemark>
	</Document>
</kml>