<?xml version='1.0' encoding='UTF-8'?>
<kml xmlns="http://www.opengis.net/kml/2.2">
	<Document>
		<name>LAPATHOS</name>
		<Style id="PolyStyle70">
			<LabelStyle>
				<color>00000000</color>
				<scale>0.000000</scale>
			</LabelStyle>
			<LineStyle>
				<color>ff0055ff</color>
				<width>2.000000</width>
			</LineStyle>
			<PolyStyle>
				<color>00828282</color>
				<outline>1</outline>
			</PolyStyle>
		</Style>
		<Placemark id="ID_70272">
			<name>LAPATHOS</name>
			<snippet />
			<description>&lt;html xmlns:fo="http://www.w3.org/1999/XSL/Format" xmlns:msxsl="urn:schemas-microsoft-com:xslt"&gt;

&lt;head&gt;

&lt;META http-equiv="Content-Type" content="text/html"&gt;

&lt;meta http-equiv="content-type" content="text/html; charset=UTF-8"&gt;

&lt;/head&gt;

&lt;body style="margin:0px 0px 0px 0px;overflow:auto;background:#FFFFFF;"&gt;

&lt;table style="font-family:Arial,Verdana,Times;font-size:12px;text-align:left;width:100%;border-collapse:collapse;padding:3px 3px 3px 3px"&gt;

&lt;tr style="text-align:center;font-weight:bold;background:#9CBCE2"&gt;

&lt;td&gt;3&lt;/td&gt;

&lt;/tr&gt;

&lt;tr&gt;

&lt;td&gt;

&lt;table style="font-family:Arial,Verdana,Times;font-size:12px;text-align:left;width:100%;border-spacing:0px; padding:3px 3px 3px 3px"&gt;

&lt;tr&gt;

&lt;td&gt;DIST_CODE&lt;/td&gt;

&lt;td&gt;3&lt;/td&gt;

&lt;/tr&gt;

&lt;tr bgcolor="#D4E4F3"&gt;

&lt;td&gt;VIL_CODE&lt;/td&gt;

&lt;td&gt;135&lt;/td&gt;

&lt;/tr&gt;

&lt;tr&gt;

&lt;td&gt;VIL_CCD&lt;/td&gt;

&lt;td&gt;3135&lt;/td&gt;

&lt;/tr&gt;

&lt;tr bgcolor="#D4E4F3"&gt;

&lt;td&gt;VIL_NM_E&lt;/td&gt;

&lt;td&gt;LAPATHOS&lt;/td&gt;

&lt;/tr&gt;

&lt;tr&gt;

&lt;td&gt;VIL_NM_G&lt;/td&gt;

&lt;td&gt;ΛΑΠΑΘΟΣ&lt;/td&gt;

&lt;/tr&gt;

&lt;/table&gt;

&lt;/td&gt;

&lt;/tr&gt;

&lt;/table&gt;

&lt;/body&gt;&lt;script type="text/javascript"&gt;

				function changeImage(attElement, nameElement) {

				document.getElementById('imageAttachment').src = attElement;

				document.getElementById('imageName').innerHTML = nameElement;}

			&lt;/script&gt;&lt;/html&gt;

</description>
			<styleUrl>#PolyStyle70</styleUrl>
			<MultiGeometry>
				<Polygon>
					<extrude>0</extrude>
					<altitudeMode>clampToGround</altitudeMode>
					<outerBoundaryIs>
						<LinearRing>
							<coordinates> 33.82147234994896,35.25502083903601,0 33.82157515336613,35.2547287687156,0 33.82147256059505,35.25470823823044,0 33.82136573418335,35.25468685937297,0 33.821407132582,35.25448751864748,0 33.82123120396322,35.25443393987084,0 33.82118759149196,35.25351595919759,0 33.82118003341661,35.25335687102872,0 33.82121907441965,35.25293906947869,0 33.82147374519371,35.25295313721271,0 33.82185286653247,35.25297407848054,0 33.82189011342403,35.25270046490522,0 33.82180161830587,35.25267931883899,0 33.8217451109242,35.25254096537473,0 33.82157845521995,35.2524379683605,0 33.82155586286522,35.25236714781882,0 33.82147415351324,35.25234948966832,0 33.82136610161913,35.25232614061738,0 33.82133522584068,35.25214479659719,0 33.82122318373995,35.2521125564496,0 33.8212781957198,35.25184958828599,0 33.8210731706413,35.25180735289737,0 33.82102442090635,35.25160375020058,0 33.82066205798802,35.25153007037114,0 33.82054557786434,35.25092897114437,0 33.82067976500465,35.24979248778437,0 33.82093252231225,35.24983005733986,0 33.82099475113395,35.24946664410547,0 33.82116169248404,35.24947399590318,0 33.82133622204393,35.24874107681402,0 33.82083908622759,35.24862085904546,0 33.82099543796486,35.24794005047249,0 33.82024696749101,35.24779578771408,0 33.82068027405415,35.24635637223475,0 33.8206967833743,35.24627901460837,0 33.82071410779849,35.2461859425453,0 33.82102789991495,35.24617866461026,0 33.82104837887645,35.24628017927132,0 33.82104877454071,35.24628727479834,0 33.82109449977182,35.24636069041969,0 33.82147815255011,35.24643503137273,0 33.82169647143039,35.24649340222508,0 33.82178849565758,35.24628164366615,0 33.82185676568985,35.24614186582924,0 33.82192933004156,35.24593051422521,0 33.82140720661859,35.24582076727346,0 33.82134635994453,35.24601171608165,0 33.82118331677272,35.24602827095079,0 33.82115862416979,35.24606963607204,0 33.82068676858373,35.24596469438622,0 33.82075116614021,35.24579810090707,0 33.82099241558078,35.24577208631941,0 33.82121179385348,35.24573970012877,0 33.82141338487339,35.24571041146622,0 33.82193996246135,35.24571003601317,0 33.82201800125765,35.24571270579012,0 33.82245661633307,35.24588571898308,0 33.8233271688274,35.24595659715332,0 33.82383144659312,35.24606516112353,0 33.82414357203476,35.24607263541214,0 33.82445576229757,35.24608650810915,0 33.82461944690769,35.24607259356029,0 33.82489169455433,35.24599394138955,0 33.82510930316496,35.24591246042345,0 33.8253040284865,35.24588233417196,0 33.82576053054475,35.24589521926427,0 33.82595171222433,35.24590031425456,0 33.82609179978232,35.24586735889917,0 33.82644975488297,35.24577851866973,0 33.8265745007425,35.24577126704738,0 33.82790074385012,35.24577500066078,0 33.82953452668576,35.24571901428337,0 33.83031160551538,35.24580328216608,0 33.83116002072948,35.24580647358855,0 33.83130975920282,35.24583075435834,0 33.8315382268606,35.245852314519,0 33.83161159803446,35.24585181035097,0 33.8316443588653,35.24605125976743,0 33.8328949291806,35.24601172104971,0 33.83285805968392,35.2457045427576,0 33.83300354376142,35.24563898067432,0 33.83317932020037,35.24560395343144,0 33.83341911370594,35.24559922774809,0 33.83412479799703,35.24571119013294,0 33.83433108757026,35.24572821351467,0 33.83456710338842,35.24572043796339,0 33.83456096389819,35.24621852001253,0 33.83448976562038,35.24621901098786,0 33.83445087647036,35.24644677858788,0 33.83408067863334,35.24652618863691,0 33.83404090670761,35.24666788148979,0 33.83397367487147,35.24668986477693,0 33.83392439291516,35.24663486724553,0 33.83364828702864,35.24675359382253,0 33.83370458932334,35.24712827230385,0 33.83381329378344,35.24713059790611,0 33.83381386032111,35.24718593204153,0 33.83400510127235,35.24719691146478,0 33.83405438253175,35.24725190896038,0 33.83407519747338,35.24745467133152,0 33.83450554604411,35.24739329191827,0 33.83449697979457,35.2472888239923,0 33.83473296859896,35.24727797373878,0 33.83474376921188,35.24723485844604,0 33.83512549501204,35.24718303582251,0 33.83513371045125,35.2468878444503,0 33.83553146331074,35.24693736241279,0 33.83546562037539,35.24709460748261,0 33.83583755352475,35.24718426893277,0 33.8358782691072,35.24713479875234,0 33.83614470931282,35.24716984983571,0 33.83606259202234,35.24756700336943,0 33.8361873281325,35.24767066941855,0 33.83631527550013,35.24772204785308,0 33.83627626003094,35.24793087206812,0 33.8367758432329,35.24800458218349,0 33.83678068538293,35.24739311558919,0 33.83692910290599,35.24668027083967,0 33.83651319584501,35.24662230742759,0 33.8365438789339,35.24636048670983,0 33.83663280561164,35.24635378869253,0 33.83666075001521,35.24618628795056,0 33.83699913381369,35.24627824822456,0 33.83696804474,35.24650052653866,0 33.83728723442395,35.24652873763034,0 33.83728455837331,35.24662914138604,0 33.8379816697096,35.24662735744057,0 33.83797534906903,35.2467338697115,0 33.83738953603861,35.24674096680901,0 33.83738296440958,35.24682314500183,0 33.83723122280958,35.24685157276497,0 33.83725198215729,35.24706740824121,0 33.83751696322538,35.24723288219536,0 33.83750713706051,35.24771966318765,0 33.83766606116447,35.24802884332725,0 33.83765632975199,35.24852474896167,0 33.83784961245703,35.24856904038663,0 33.83779372701154,35.24890404223416,0 33.83789412500735,35.24893072498755,0 33.83780001710883,35.24951543249748,0 33.83833534821724,35.24964557140234,0 33.83900774028381,35.24904164603013,0 33.83902461887696,35.24888030483133,0 33.83918032246368,35.2488761831072,0 33.8391909453339,35.24882743879152,0 33.83933555577276,35.24882643587974,0 33.83936274289995,35.24858593253743,0 33.83966321270069,35.24859601552281,0 33.83979647988038,35.24857379707736,0 33.83988493808483,35.24852147044184,0 33.83994706290291,35.24843282240772,0 33.84004441631276,35.24816445401426,0 33.84026686202341,35.24815986848279,0 33.84029394147741,35.24790932093505,0 33.84037372200392,35.24789333658083,0 33.84050312584263,35.24676212076714,0 33.84049802540159,35.2467235789439,0 33.84080829318442,35.24671370801634,0 33.84082328218556,35.24588804858043,0 33.84073298877421,35.24534087691201,0 33.84077088446226,35.24536761834995,0 33.84090493508248,35.24559815049177,0 33.84111159011024,35.24602878155683,0 33.8412019275466,35.24612459632291,0 33.84128716552991,35.2461818701221,0 33.84126552679357,35.24636333424316,0 33.84124779337879,35.24646761671527,0 33.84126273710744,35.24654852514094,0 33.8415853200891,35.24727539474573,0 33.84170291686276,35.24727843379524,0 33.84176902797417,35.24730497865355,0 33.84182613312642,35.24737016246182,0 33.84229516327864,35.24725116711399,0 33.84237936579549,35.24720814596722,0 33.84240737934227,35.24718866189523,0 33.84248277560349,35.24720356828572,0 33.84262348387792,35.24716786920644,0 33.84274375500865,35.24742935764031,0 33.84267813008013,35.24790431578318,0 33.84304985152297,35.24792487274183,0 33.84328506500188,35.24702438138623,0 33.8434359363381,35.24706190720352,0 33.84350687003215,35.24709999093981,0 33.84324718130817,35.24760200773405,0 33.84330673013685,35.24764201779497,0 33.8432934541511,35.24778763910633,0 33.84386747242608,35.24801810170185,0 33.84403381764825,35.24742673948398,0 33.84418293350038,35.24758185067027,0 33.84406642724347,35.24792503974255,0 33.8435916175635,35.24900238005063,0 33.84357572988044,35.2491244328283,0 33.84382820012848,35.24921178446942,0 33.8450097393635,35.24957405647253,0 33.84549037737321,35.24905947978093,0 33.84522661770369,35.24898628156617,0 33.84571616548295,35.24809008788353,0 33.8459039141073,35.24813728583612,0 33.84609336649817,35.24836685054935,0 33.84625105232314,35.24882208022373,0 33.84632260025437,35.24906817064046,0 33.84602483317626,35.24934109815437,0 33.84569342574651,35.24922214054168,0 33.84523355356038,35.24962063132696,0 33.84510869280854,35.24962238850787,0 33.84439395847528,35.25085751672346,0 33.84394458689725,35.25083971569693,0 33.84387995597825,35.25183815595835,0 33.84365096363436,35.25256739789816,0 33.84406565040508,35.25263727084121,0 33.8443137638785,35.25185129939735,0 33.84424418917228,35.25179519037861,0 33.84430898856973,35.2515238676981,0 33.84459473007896,35.25151349917224,0 33.84471470825689,35.25126980623347,0 33.84463784319711,35.25124103242031,0 33.8447869255414,35.25085058721638,0 33.84495659567298,35.25047674528903,0 33.84505374519043,35.2504928159364,0 33.84513449653534,35.25040432185239,0 33.84524202808394,35.2504370679689,0 33.84571339549521,35.25011555030223,0 33.84596592645035,35.25034826616915,0 33.84573876923272,35.25059270856256,0 33.84564663610276,35.25056822979943,0 33.8453945656771,35.25087146633992,0 33.84516156089658,35.25126625439013,0 33.84517890297536,35.25138095811172,0 33.84518018641937,35.25150460729333,0 33.84500260315068,35.25203139299707,0 33.84502003574904,35.25215492849745,0 33.84502113566545,35.25226091324367,0 33.84483347039932,35.25285401341768,0 33.84456619278487,35.25355807800234,0 33.84453492012398,35.25417658498316,0 33.84465164150458,35.2545290779727,0 33.84503287241721,35.2544292562816,0 33.84494877211447,35.25410745063497,0 33.84484682622409,35.25362236424968,0 33.84491092530165,35.25357333715282,0 33.84504931567216,35.25290108672773,0 33.84511664367889,35.25264446788792,0 33.84517767063608,35.25229956719489,0 33.8453159888442,35.25171761305458,0 33.84543040324978,35.25172402821987,0 33.84548813974325,35.25163704133035,0 33.84560836699267,35.25163860697165,0 33.84571359631529,35.25132520869332,0 33.84563941191339,35.25095774699929,0 33.84586187508524,35.25092252107588,0 33.84587983207526,35.2512398681109,0 33.84603556508807,35.25127245142561,0 33.84602412106435,35.25101759056673,0 33.84609542728004,35.251021492448,0 33.84611736267569,35.25096162143325,0 33.84621735302633,35.25095513283024,0 33.8464169511554,35.25101243870236,0 33.84651976287545,35.2510309599119,0 33.8466819348121,35.25111881456454,0 33.84666795066947,35.25118384980675,0 33.84636004099274,35.25117878838913,0 33.8461833451988,35.25166825879744,0 33.84611007645142,35.25167117594343,0 33.84581155019741,35.25200516615071,0 33.84593493540329,35.25202835458757,0 33.84581419827092,35.25226008847405,0 33.84556443643893,35.25249031816251,0 33.84529564426418,35.25270844254479,0 33.84518878199339,35.25294074678408,0 33.84522675545515,35.25308987341453,0 33.84529119133637,35.25315664925038,0 33.84550933511802,35.25311777748072,0 33.84571120205058,35.25312349024315,0 33.84556145549377,35.25375232933392,0 33.84570059931838,35.25399785290077,0 33.84587756301487,35.25437756555663,0 33.84505898616824,35.25447292043307,0 33.84481352176685,35.25451198215467,0 33.84514028299165,35.25528653767888,0 33.84504969029355,35.25533198855437,0 33.84505972629239,35.25542155301157,0 33.84557890909165,35.25543286515224,0 33.84563618206938,35.25568643124159,0 33.84591884849042,35.25572180321307,0 33.84616563675092,35.2558097131312,0 33.84639304819189,35.25578571401748,0 33.84666598811769,35.25576139592101,0 33.8459792737801,35.25817305837464,0 33.84441220677316,35.2634858685007,0 33.84406665731674,35.26476785242713,0 33.84404830953067,35.26481638502985,0 33.84315206399337,35.26788564032351,0 33.84314738831203,35.26790162239077,0 33.84308775673859,35.2681592036304,0 33.84307797059864,35.26860100800857,0 33.84299983294488,35.26868401026249,0 33.84201356328714,35.26868498895617,0 33.84138877658611,35.27090963125749,0 33.84137353128139,35.2709615057071,0 33.84134357698754,35.27111702109549,0 33.83960479824233,35.2772612950622,0 33.83938294441671,35.27828977267917,0 33.83967645517181,35.27827280930051,0 33.84039185769719,35.27856363698626,0 33.84064294093075,35.27864476380417,0 33.84081915278488,35.27890340398387,0 33.84063177957159,35.27925409080488,0 33.84044046317391,35.27922329318598,0 33.83945475149873,35.27909359587259,0 33.83918495912864,35.27905129331532,0 33.83807326588617,35.27922888293394,0 33.8377054660578,35.2793751486976,0 33.83748193917258,35.27955121207803,0 33.83738237623675,35.27960836214395,0 33.83643805776878,35.27969188720452,0 33.83612526510517,35.27970944834707,0 33.8364527396017,35.27990223113714,0 33.83676054056949,35.280007891731,0 33.83699228387491,35.28002168722215,0 33.83736183151809,35.28004479305835,0 33.83799048434194,35.28030734598943,0 33.83837503786863,35.28057158761774,0 33.83864698304572,35.28084174195755,0 33.83886853886474,35.281081447655,0 33.83904660069906,35.28135225117128,0 33.83906892592923,35.28169599427977,0 33.83904537091588,35.28183987669642,0 33.83940447485546,35.28206322847112,0 33.84025201066893,35.2823037192901,0 33.84039103381009,35.28236739768285,0 33.8404199101906,35.28245968133083,0 33.84055633666397,35.28274420914547,0 33.84061218259019,35.28280941074868,0 33.84079309121152,35.28319419583136,0 33.84023513756053,35.28336498899453,0 33.8399762446762,35.28348038640611,0 33.83968340436775,35.2836681199761,0 33.83955282097848,35.28376387938761,0 33.83933985688898,35.28392909443747,0 33.8391947665792,35.28405976889503,0 33.83915428298648,35.28405763141993,0 33.83876135847056,35.28390022671504,0 33.83826226494287,35.28367605235339,0 33.83802341022329,35.28360959389252,0 33.83796195260997,35.28360025799541,0 33.83791124989091,35.28364254198987,0 33.83792666241673,35.28372031035845,0 33.83812099294929,35.28387037879124,0 33.83827373495394,35.28412028058406,0 33.83829264247952,35.28440600654226,0 33.83827351357519,35.28448550596949,0 33.83819024542055,35.28469178893913,0 33.83830333894988,35.28482591976391,0 33.8384411195071,35.28484705878352,0 33.83889756237994,35.28488367620174,0 33.83896009090218,35.28493949508091,0 33.8391402733229,35.28522147111553,0 33.83939317754645,35.28538607640171,0 33.83942401906706,35.28544243309506,0 33.8394278977653,35.28548305179215,0 33.8393888664821,35.28561338158593,0 33.83933157038793,35.28569119097727,0 33.83924841941975,35.28578980629459,0 33.83895248580067,35.28613930104155,0 33.83860417882298,35.28636935034237,0 33.83847447335226,35.28654397088447,0 33.8382339947748,35.28731240503888,0 33.83817355546633,35.28782799568604,0 33.83822864569051,35.28821099801044,0 33.83794724953444,35.28855439911548,0 33.83850585654033,35.28889048299702,0 33.83926557564819,35.2886922695018,0 33.83940472908876,35.28889419383684,0 33.83945316229257,35.28900325937238,0 33.83960298584353,35.28918123979184,0 33.83973751648584,35.28928771824403,0 33.83999767595606,35.28957831140264,0 33.84005188728493,35.28965948836671,0 33.83974766821929,35.28980083907512,0 33.83942202525215,35.28998211979643,0 33.8393087695808,35.29005650297054,0 33.8389627697498,35.29038114049881,0 33.8385828872477,35.29071396819617,0 33.83842207518866,35.29088216851623,0 33.83824701564534,35.29108030392903,0 33.8381586108197,35.29121219854555,0 33.83789416044869,35.29144675728568,0 33.83764138724243,35.29163747392667,0 33.83741513303752,35.29181209396384,0 33.8371265423249,35.29205875207165,0 33.83682049714239,35.2922597812227,0 33.83624115801756,35.29254425381186,0 33.83605499415988,35.29260720321179,0 33.83591702252375,35.29263799341755,0 33.83573497445776,35.29262930594993,0 33.83520919356007,35.29245988541221,0 33.83504184470801,35.29246501858199,0 33.83484828018774,35.29251608331927,0 33.8347346287571,35.29255267125934,0 33.83447352501059,35.29264199430776,0 33.83421729338866,35.29273327157419,0 33.83409187899635,35.29280574536678,0 33.83398395534621,35.29292782513578,0 33.83393384686006,35.29300972410194,0 33.83386716533206,35.29313152029808,0 33.83382635219647,35.29317357304528,0 33.83374409348576,35.29319602044267,0 33.8335164613371,35.2932373714731,0 33.83337840146284,35.29329439596602,0 33.83329920528451,35.29334429157468,0 33.83324159310263,35.29340436252605,0 33.83319611170671,35.29346434898175,0 33.83317244272825,35.29375890091537,0 33.83316151552663,35.29387633406201,0 33.83305656555437,35.29405209869138,0 33.83305587175207,35.29422117822694,0 33.83303350736993,35.294406320392,0 33.83298886083958,35.29454785446195,0 33.83295189928383,35.29472911856907,0 33.83292199096692,35.29488845376325,0 33.83288464195191,35.29503192771607,0 33.83282419417902,35.29528893999493,0 33.8328235406827,35.29546199688792,0 33.83261168611699,35.2954801711004,0 33.8325985302675,35.29552447929743,0 33.83242098294046,35.29612245237568,0 33.83227810822932,35.29644092518275,0 33.83187815347634,35.29734223188372,0 33.83256792915943,35.2976098829611,0 33.83240668037172,35.29799563395144,0 33.8313636299417,35.29775910548257,0 33.83136693815622,35.29808256259496,0 33.83134630537127,35.2982085015914,0 33.83131824356195,35.29832251178116,0 33.83112415530664,35.29863534480383,0 33.83097371981177,35.29892990643022,0 33.83104727480028,35.29897732318123,0 33.83063219041647,35.29983080647216,0 33.830207309229,35.29972589790399,0 33.82981468266002,35.30063313674375,0 33.83034947416656,35.30076724487036,0 33.83083361154812,35.30094962077138,0 33.83070414989824,35.30117776963942,0 33.83057644826138,35.30152646202553,0 33.83079311526919,35.30189101166102,0 33.83063494051842,35.30224490419425,0 33.83075399237173,35.30245374884688,0 33.83135480397683,35.30261135947229,0 33.83113586006247,35.30341862992005,0 33.83084241966141,35.30333130075972,0 33.83069197372949,35.30376495213444,0 33.83028362393527,35.30365960239608,0 33.82990218092461,35.30450394462524,0 33.82997144479431,35.30454579041043,0 33.82990405362757,35.30468732334785,0 33.82992733445,35.30472008091585,0 33.82983131154921,35.30486651264864,0 33.82973399316525,35.30488598980061,0 33.82950546764564,35.3049769030575,0 33.82896042940362,35.30553081693221,0 33.82833319502176,35.30533761539067,0 33.82837778842265,35.30521034653301,0 33.82767006230716,35.30499888346169,0 33.82732577090746,35.30555141593598,0 33.82716846543012,35.30587695584904,0 33.82758332588053,35.30605750993399,0 33.82754389218304,35.30612831501044,0 33.82602633122563,35.30581892894966,0 33.82588632469648,35.30615375375236,0 33.82602790813242,35.30653838108712,0 33.82578192467657,35.30717017750447,0 33.82521778147993,35.30697652994129,0 33.8251611848209,35.30705215371468,0 33.82504608152929,35.30701532028976,0 33.82497767727909,35.30705810809931,0 33.82463829374807,35.30696637504651,0 33.82457767821708,35.30721131229539,0 33.82439349857144,35.30775409158451,0 33.8240375532412,35.3076901313362,0 33.82391151212259,35.3083998287512,0 33.82398999075787,35.30841000117098,0 33.82388746735561,35.30886255771599,0 33.82319065500506,35.3086767089685,0 33.82324406074245,35.30853286476091,0 33.82336035697575,35.30840786592304,0 33.82348184146399,35.30802156695839,0 33.82331683190567,35.30797986102617,0 33.82333932289981,35.30787905673565,0 33.82306435973148,35.30781454222245,0 33.82303131023657,35.30790471027685,0 33.82246150882519,35.30775897445449,0 33.82250152151623,35.3075786511197,0 33.82200926719636,35.30751340812252,0 33.82194729578242,35.30759099403153,0 33.82180078706259,35.3075834152133,0 33.82171869365717,35.30825702096745,0 33.82144481425288,35.30806597005193,0 33.82136940620313,35.30836656728673,0 33.82168117155562,35.30843787423422,0 33.82136658805397,35.3096398032785,0 33.82163294582978,35.30960369827832,0 33.8216195540227,35.30983099638582,0 33.82176114088023,35.30986861661268,0 33.82174896443411,35.3102159402487,0 33.82164947341491,35.3102037549352,0 33.82156291191666,35.31043583699022,0 33.8213534694914,35.31041153883286,0 33.82130718357015,35.31048901785407,0 33.82126552147084,35.31050644811189,0 33.82123993650688,35.3105623523908,0 33.82070932694484,35.3103258863398,0 33.82096651524564,35.30989973497051,0 33.82096170755499,35.30942391922379,0 33.8208255243995,35.30940340867129,0 33.82061410361275,35.30970064173668,0 33.82053237942908,35.30989410793642,0 33.82057715954982,35.31018531537129,0 33.82006440581096,35.31016307193485,0 33.81993037483104,35.30931945640594,0 33.81991264908731,35.30859937272998,0 33.8198356315881,35.30822264518412,0 33.81977576831019,35.3074728392308,0 33.81980070465062,35.30735263632494,0 33.81998014166607,35.30699560408437,0 33.81998977819428,35.30691408722215,0 33.8194810640008,35.30677178079566,0 33.81949009688375,35.30663025066899,0 33.81928066482966,35.30660594786326,0 33.81914461643888,35.30659829584463,0 33.81921484517493,35.3068207405564,0 33.81888531187887,35.3068143988315,0 33.81922867453454,35.30767374532477,0 33.81901491795036,35.30773949744879,0 33.81855710771548,35.30797837813144,0 33.81846718269566,35.30782894424944,0 33.8182157018958,35.30732044241042,0 33.81778945371072,35.30675320103784,0 33.8172479996455,35.30598785613898,0 33.8170113559358,35.30577731570539,0 33.81678835489824,35.30531476652466,0 33.81670247543394,35.30427217857839,0 33.81664506775656,35.3041198817316,0 33.81664188430704,35.30380308248132,0 33.81672481122658,35.30371472806222,0 33.81680251976386,35.3034546318482,0 33.81698955250584,35.30349219239832,0 33.81719479035916,35.30284677967515,0 33.81732673486392,35.30267003599867,0 33.81741580611671,35.30227864100686,0 33.81747523061903,35.30170567151041,0 33.81711784908971,35.3013569117184,0 33.81691145509026,35.30120562146084,0 33.81585864716025,35.30022791148415,0 33.81664369846243,35.29958133745789,0 33.81653111551242,35.29949812039145,0 33.81655835986428,35.29942922903096,0 33.81604346312115,35.29915787112295,0 33.81636932591618,35.2982242949909,0 33.81548174939666,35.29793254805692,0 33.81577067517895,35.29702975843339,0 33.81542678646158,35.29686314047703,0 33.81560633159524,35.29642776148343,0 33.81517655873996,35.29628560868625,0 33.81542823401617,35.29564146260133,0 33.81543076585383,35.2956349837289,0 33.81473005576799,35.29540304482741,0 33.81437483537866,35.29540211750561,0 33.8143670732702,35.2952881746914,0 33.81424719371262,35.29521841304983,0 33.81408172946802,35.29522495484768,0 33.81359803596091,35.29519021124035,0 33.81302724203969,35.295052912043,0 33.81258132123977,35.29482248884032,0 33.81174386515329,35.29475773740889,0 33.81137326677374,35.29452118150407,0 33.81126554895958,35.29434276811199,0 33.81133750936756,35.29425543184962,0 33.81147507938264,35.29410794247294,0 33.81142624306123,35.29385856533924,0 33.8114766077346,35.29359766583767,0 33.81168299361537,35.29304801435973,0 33.81174111513274,35.29290105871857,0 33.81171903200305,35.29267864367518,0 33.81178925615443,35.2924176107222,0 33.81204746147945,35.29175361647676,0 33.81218394270771,35.29149756636585,0 33.81232226693805,35.29142606861927,0 33.81194150040207,35.29122532933661,0 33.81151071416737,35.2910673493928,0 33.81103098104856,35.29091975072487,0 33.8108954442047,35.29085530587195,0 33.81024726763864,35.29041725497231,0 33.81004288734268,35.29021250756097,0 33.80945753223951,35.28992484804547,0 33.80849647325314,35.28963834372938,0 33.80855251727965,35.28955386007998,0 33.80893912319552,35.28958646487854,0 33.80898747105677,35.28951576103604,0 33.80881535245462,35.28947166680089,0 33.80885656857383,35.28930046637372,0 33.80793774440612,35.28898155349722,0 33.80802886920512,35.2886876501957,0 33.80819080113053,35.28830829938478,0 33.80839321261059,35.28771496292376,0 33.80796400011027,35.28771280386523,0 33.80799809182103,35.28757372147999,0 33.8073226436107,35.28734004399483,0 33.80724992133094,35.28742599224753,0 33.80703434298258,35.2873268864174,0 33.80718591809919,35.28715495011334,0 33.80734467212161,35.28708853603473,0 33.80791343090106,35.28632562878958,0 33.80801112351033,35.28628475866637,0 33.80885580321905,35.28552502946798,0 33.80784560535132,35.28517129500199,0 33.8086273824203,35.28413401656624,0 33.80868873863964,35.28413863414849,0 33.80917701616227,35.2833008496248,0 33.809550256034,35.2826096228061,0 33.80977808550881,35.28219388162238,0 33.8101580713425,35.28146437400041,0 33.81070526680729,35.28038990889962,0 33.81113260105161,35.27959274318137,0 33.81147615853281,35.27900225372628,0 33.81054045590718,35.27861640267987,0 33.81112781771795,35.27788351911139,0 33.81136358476041,35.27755014066575,0 33.81192373449168,35.27777763529026,0 33.81209824588899,35.27744969340662,0 33.81191358988482,35.2773755245102,0 33.8126950374498,35.27582189211073,0 33.81285054929214,35.27543375073235,0 33.81248814584377,35.27537422147887,0 33.81253616337592,35.27525990981825,0 33.81258424875848,35.27516406918227,0 33.81254631479484,35.27504869795116,0 33.81255752052743,35.27494305129206,0 33.81278267320646,35.27416231776417,0 33.81248743585483,35.274063756411,0 33.81268570388418,35.27366024648916,0 33.81280860175957,35.27368958474681,0 33.8130260602148,35.27336638060514,0 33.81347388754379,35.27339856095101,0 33.8137165168225,35.2731405400984,0 33.81393919434314,35.27272680929916,0 33.81441239331287,35.27284427853991,0 33.81453191873781,35.27253681243658,0 33.81482201794353,35.27212262605619,0 33.81518482954615,35.27223580886475,0 33.81535987149083,35.27196315862064,0 33.81574800763038,35.27215660434019,0 33.81592254341174,35.27183368442968,0 33.81442497809727,35.27103941856527,0 33.81422711948606,35.27086982420408,0 33.81407319865868,35.27061938498551,0 33.81387787803731,35.27027393348553,0 33.81371777876709,35.26996969096023,0 33.81353597705419,35.26979864619415,0 33.81358993594321,35.2696776303574,0 33.81337374433652,35.26951318468262,0 33.81336666057217,35.26941771546633,0 33.81345076553208,35.26924622380236,0 33.81325341574915,35.26912689664387,0 33.81333264664151,35.26908111949289,0 33.8134184584601,35.26846722020452,0 33.81341474010632,35.26809522971042,0 33.81394137378005,35.26815121083644,0 33.81392317897047,35.26806164726703,0 33.81394412714499,35.26770457235145,0 33.81391277638031,35.26763440255706,0 33.81391076529339,35.26743332680901,0 33.8139582412479,35.26727716268176,0 33.81385982025387,35.26724263397787,0 33.81385238316085,35.26711197632788,0 33.81397974222394,35.26697538409489,0 33.81413242208627,35.2669190576042,0 33.81421220357504,35.26692857446726,0 33.81430519514869,35.26652299745439,0 33.81424576140446,35.26651315262376,0 33.81420900574147,35.26658511470749,0 33.8139365610853,35.26651011071832,0 33.81392460658579,35.26625150506397,0 33.81377719866871,35.26618846597283,0 33.81384149552068,35.26605997127621,0 33.81405755038534,35.26611742601237,0 33.81408514243814,35.26606601619546,0 33.81404121927888,35.26604582116145,0 33.81411017248424,35.26575849827568,0 33.81436259644025,35.26570557444046,0 33.81450045215787,35.26543827720205,0 33.81477656166062,35.26447595185465,0 33.81486639415051,35.26409116014598,0 33.81509100452263,35.26344421353966,0 33.81563592703822,35.26359933809337,0 33.81584803876633,35.26295247433524,0 33.81632385148111,35.26306708245375,0 33.81641758108018,35.26307157245545,0 33.81654713561856,35.2629119014412,0 33.81692906632063,35.26300665104856,0 33.81697108510539,35.26283732484462,0 33.81607700363786,35.26274090837583,0 33.81631635924629,35.26107448504673,0 33.81648601151535,35.26073557702357,0 33.81601847906971,35.26064108236231,0 33.8160499916596,35.26004666095989,0 33.81613950660657,35.25963113481836,0 33.81667150351488,35.25974536278198,0 33.81660771938569,35.25961260853311,0 33.81658099206248,35.25943862389911,0 33.81707515961154,35.25951724844408,0 33.81685805420442,35.25904232195871,0 33.81651043523158,35.2585835033633,0 33.81666435102723,35.25799048555805,0 33.81682767747706,35.25799968204232,0 33.81707320812149,35.25744186790332,0 33.8171343840722,35.25728181692819,0 33.81757917404033,35.25718612027256,0 33.81764605748597,35.25696938457789,0 33.81754504435943,35.25691342121057,0 33.81755630669772,35.25678460492684,0 33.81769436545809,35.25677852348894,0 33.81781203863,35.25661809036402,0 33.81813427051891,35.25682189602898,0 33.81824949519039,35.25704254922289,0 33.82083612433604,35.25642252769617,0 33.82126444646991,35.25531760663134,0 33.82130211214871,35.25531735098662,0 33.82144381918478,35.2551018954271,0 33.82147234994896,35.25502083903601,0</coordinates>
						</LinearRing>
					</outerBoundaryIs>
				</Polygon>
			</MultiGeometry>
		</Placemark>
	</Document>
</kml>