<?xml version='1.0' encoding='UTF-8'?>
<kml xmlns="http://www.opengis.net/kml/2.2">
	<Document>
		<name>LEFKOSIA, AGLANTZIA</name>
		<Style id="PolyStyle70">
			<LabelStyle>
				<color>00000000</color>
				<scale>0.000000</scale>
			</LabelStyle>
			<LineStyle>
				<color>ff0055ff</color>
				<width>2.000000</width>
			</LineStyle>
			<PolyStyle>
				<color>00828282</color>
				<outline>1</outline>
			</PolyStyle>
		</Style>
		<Placemark id="ID_70459">
			<name>LEFKOSIA, AGLANTZIA</name>
			<snippet />
			<description>&lt;html xmlns:fo="http://www.w3.org/1999/XSL/Format" xmlns:msxsl="urn:schemas-microsoft-com:xslt"&gt;

&lt;head&gt;

&lt;META http-equiv="Content-Type" content="text/html"&gt;

&lt;meta http-equiv="content-type" content="text/html; charset=UTF-8"&gt;

&lt;/head&gt;

&lt;body style="margin:0px 0px 0px 0px;overflow:auto;background:#FFFFFF;"&gt;

&lt;table style="font-family:Arial,Verdana,Times;font-size:12px;text-align:left;width:100%;border-collapse:collapse;padding:3px 3px 3px 3px"&gt;

&lt;tr style="text-align:center;font-weight:bold;background:#9CBCE2"&gt;

&lt;td&gt;1&lt;/td&gt;

&lt;/tr&gt;

&lt;tr&gt;

&lt;td&gt;

&lt;table style="font-family:Arial,Verdana,Times;font-size:12px;text-align:left;width:100%;border-spacing:0px; padding:3px 3px 3px 3px"&gt;

&lt;tr&gt;

&lt;td&gt;DIST_CODE&lt;/td&gt;

&lt;td&gt;1&lt;/td&gt;

&lt;/tr&gt;

&lt;tr bgcolor="#D4E4F3"&gt;

&lt;td&gt;VIL_CODE&lt;/td&gt;

&lt;td&gt;13&lt;/td&gt;

&lt;/tr&gt;

&lt;tr&gt;

&lt;td&gt;VIL_CCD&lt;/td&gt;

&lt;td&gt;1013&lt;/td&gt;

&lt;/tr&gt;

&lt;tr bgcolor="#D4E4F3"&gt;

&lt;td&gt;VIL_NM_E&lt;/td&gt;

&lt;td&gt;LEFKOSIA, AGLANTZIA&lt;/td&gt;

&lt;/tr&gt;

&lt;tr&gt;

&lt;td&gt;VIL_NM_G&lt;/td&gt;

&lt;td&gt;ΛΕΥΚΩΣΙΑ, ΑΓΛΑΝΤΖΙΑ&lt;/td&gt;

&lt;/tr&gt;

&lt;/table&gt;

&lt;/td&gt;

&lt;/tr&gt;

&lt;/table&gt;

&lt;/body&gt;&lt;script type="text/javascript"&gt;

				function changeImage(attElement, nameElement) {

				document.getElementById('imageAttachment').src = attElement;

				document.getElementById('imageName').innerHTML = nameElement;}

			&lt;/script&gt;&lt;/html&gt;

</description>
			<styleUrl>#PolyStyle70</styleUrl>
			<MultiGeometry>
				<Polygon>
					<extrude>0</extrude>
					<altitudeMode>clampToGround</altitudeMode>
					<outerBoundaryIs>
						<LinearRing>
							<coordinates> 33.47220707843506,35.15561726454347,0 33.47188342967534,35.15541951111802,0 33.47176697825114,35.15554956440682,0 33.47151454019942,35.15589150945927,0 33.47133430794045,35.1559530043841,0 33.47111581114043,35.15607732629929,0 33.47072784095499,35.1558013039215,0 33.47020186667472,35.15547583991098,0 33.47006662816396,35.15559946542889,0 33.46976529210251,35.15586028176408,0 33.46955844195978,35.15567809419411,0 33.46951052661875,35.15572482699736,0 33.46932623313975,35.15577940836296,0 33.46910287009576,35.15591170122001,0 33.46871933860771,35.15623161761905,0 33.46850184615833,35.1560745921894,0 33.46841101705601,35.15598357622062,0 33.46833338213098,35.15590523687259,0 33.4682466959005,35.15599414025132,0 33.46798458839005,35.15634390070191,0 33.4676925251901,35.15677023700138,0 33.46710289632099,35.1573604317782,0 33.46578250800933,35.15649849438024,0 33.46517340877285,35.157193274093,0 33.46514552708571,35.1572727281966,0 33.46477824746962,35.15786626104617,0 33.46459335749769,35.15810401348396,0 33.46439152623626,35.15802040323315,0 33.46417225333311,35.1579179986889,0 33.46379331907932,35.15782188743403,0 33.46347609013502,35.15780306158857,0 33.46326931441404,35.15779077949637,0 33.46331998205243,35.15723826974005,0 33.46337529789199,35.15695917750885,0 33.46269551172619,35.15697928778977,0 33.46261584176376,35.15655308809553,0 33.46221528044226,35.15646668492938,0 33.46226584985603,35.15627965809661,0 33.46176884649027,35.15622088856227,0 33.4614185211776,35.1561975051936,0 33.46110513130265,35.15616498432698,0 33.46097684006794,35.1561557843174,0 33.46096782593774,35.15565789527293,0 33.46001847725125,35.15564612478396,0 33.45999206760494,35.15587733912053,0 33.4601077496942,35.15683668891709,0 33.4596151213899,35.15686589982736,0 33.45961420202925,35.15773025256107,0 33.45923278402947,35.15774340711064,0 33.45890799074882,35.15777325075027,0 33.45763142201683,35.15786985754561,0 33.45729850194351,35.15790691439067,0 33.45697329163194,35.15783456419551,0 33.45662378526745,35.15772952366991,0 33.45644064066797,35.15766734419553,0 33.45564452511631,35.15741156117953,0 33.45536814672342,35.15734362912856,0 33.45522265226103,35.15730080616527,0 33.45549609088305,35.15689750752358,0 33.45568281380598,35.15661552146798,0 33.4559319119589,35.15630120623649,0 33.45600819928625,35.15615977238387,0 33.45751067443454,35.15622922411256,0 33.45754852972318,35.15582447557185,0 33.45596138087453,35.15552977062497,0 33.45594629801565,35.15517051322554,0 33.45591230372368,35.15496376823144,0 33.45584664362369,35.15496153194074,0 33.45573650085,35.15478980953015,0 33.45564905429281,35.15458790677535,0 33.45541015083562,35.15460145606524,0 33.45546461435712,35.1554742779079,0 33.45456411701294,35.15536598315546,0 33.45456025311523,35.15519165698741,0 33.45409070645745,35.15516991110306,0 33.45401721128248,35.15468591187391,0 33.45398595254417,35.15456605958494,0 33.45389626397454,35.15397506847118,0 33.45356994689176,35.15396255861943,0 33.45269807636205,35.15390587111636,0 33.45194681901506,35.15385290275933,0 33.45196248553277,35.15424234365848,0 33.45195980116061,35.15568159824964,0 33.45194306489778,35.15568087556424,0 33.45149059996846,35.15567966810143,0 33.45145202103739,35.15611838575058,0 33.45138240053863,35.15655278234137,0 33.45134244634639,35.15654792754174,0 33.451038491919,35.15643275964347,0 33.45101536511433,35.15641427338787,0 33.45099708361017,35.15640087279183,0 33.45098916524356,35.15641847947442,0 33.45085515873297,35.1566709127788,0 33.45077012029525,35.15689261636854,0 33.45065115133048,35.15722485439198,0 33.45058855167424,35.15736870110004,0 33.45045580712706,35.15760625802407,0 33.45044764117605,35.1576202086292,0 33.45043064230105,35.15764618513465,0 33.45048177523143,35.15769810918173,0 33.45049771159512,35.15770178891324,0 33.45062730333029,35.1577312260869,0 33.45074181715596,35.15779102231684,0 33.45080977754337,35.1578262465695,0 33.45092018461945,35.15792545338014,0 33.45099775176905,35.15800710057233,0 33.45100763176134,35.15802908307181,0 33.45100126743015,35.15819901972309,0 33.45099802316234,35.15823266645278,0 33.4509860190408,35.15825180178176,0 33.45089269321905,35.15836144688707,0 33.45085732739482,35.15839581438228,0 33.45084623091322,35.15840261343344,0 33.45080445060121,35.15841826027416,0 33.45076176212672,35.1584388023499,0 33.45074764891927,35.15845446070884,0 33.45072911022169,35.15855150625654,0 33.45066875038742,35.15866419514022,0 33.45065352173661,35.15868598171427,0 33.4506188414904,35.15871374837788,0 33.45034242954434,35.15918864395301,0 33.45032695052631,35.15922478252333,0 33.45031249162399,35.15930223002955,0 33.45025220736353,35.15938162900179,0 33.45023253862527,35.15939464702796,0 33.45017895234139,35.15943011142456,0 33.45013347382942,35.15946035634403,0 33.45007371084037,35.1595282334637,0 33.45003688385493,35.15957307314097,0 33.45001797746393,35.15961351864656,0 33.44999049682513,35.15966378604516,0 33.4499440043083,35.15976745236587,0 33.44993789727211,35.15982547078825,0 33.44993065603913,35.1599264800382,0 33.44992235747439,35.16002743281923,0 33.44859415109322,35.15969440980628,0 33.44714060797424,35.15974153932965,0 33.44602404057289,35.16011669179355,0 33.4457511440019,35.16020837918832,0 33.44569658148338,35.16011704507263,0 33.44536792953451,35.1595668973947,0 33.44514957315484,35.15927093359132,0 33.44503575621184,35.15908440058115,0 33.44491026436789,35.15886335264266,0 33.4446406828437,35.15849628282383,0 33.44428920638287,35.15811759086331,0 33.44424359876533,35.15810941839255,0 33.44414474257198,35.15812970436948,0 33.44384219763483,35.15820092812341,0 33.44351524808459,35.15828020338957,0 33.44316797054992,35.15840725757787,0 33.44308567487288,35.15844324661737,0 33.44221014709171,35.15880603993519,0 33.44168036674453,35.15899456848735,0 33.44122511964715,35.15914784466734,0 33.44109422764855,35.15920245818294,0 33.44103001338173,35.15922320861252,0 33.44069210073306,35.15929374470223,0 33.43902719246897,35.15944202675809,0 33.43900525079348,35.15944398116868,0 33.43870549335787,35.15947067561944,0 33.43850102601172,35.15933767490695,0 33.43815680213871,35.15925110815535,0 33.43803316486949,35.15924852023057,0 33.43795601554238,35.15925349450784,0 33.43789716799407,35.15925811504274,0 33.43782543889252,35.15926948848264,0 33.43758193104894,35.15930320605715,0 33.43745541008484,35.15880730505322,0 33.43729839056424,35.15881733475312,0 33.43708315257501,35.15879770565396,0 33.43698522113588,35.15880545756963,0 33.43651691504373,35.15884252824223,0 33.43602348536854,35.15910500845803,0 33.43597033132829,35.15924606351815,0 33.43595173502127,35.15927535818298,0 33.43591986509192,35.15930645832599,0 33.43584104984327,35.1593304458786,0 33.43574308219829,35.15932825813611,0 33.43556379122257,35.15923970074468,0 33.43518496558322,35.15927432176527,0 33.4350881321278,35.15931444362762,0 33.43501581784995,35.15935782876505,0 33.43482303142651,35.15952441275373,0 33.43470034799459,35.15963618706267,0 33.43447273518814,35.15960914860199,0 33.43431831281395,35.15948783361145,0 33.43419341677222,35.1594498016073,0 33.4341358549566,35.15936098966861,0 33.4339493225474,35.15931480339297,0 33.4337675383876,35.15932233562325,0 33.43352452666765,35.15936116590332,0 33.43345430159805,35.15933362624214,0 33.43317244752824,35.15933498044143,0 33.43308804776577,35.15935728523914,0 33.43249436764079,35.15950256745271,0 33.43215481285049,35.15953404167029,0 33.43156079013227,35.15963871176493,0 33.43102518764269,35.15970867201089,0 33.43071555001392,35.15971992291909,0 33.42930748667349,35.15972318808441,0 33.42933104877649,35.15996940554191,0 33.42895504489198,35.15997880849998,0 33.42882077457455,35.15997400074274,0 33.42871867887177,35.15997068978037,0 33.42864795067349,35.16009120515024,0 33.42864762526845,35.1601342082817,0 33.42864497924099,35.1604840961504,0 33.42865719256027,35.16089375614437,0 33.42865141142155,35.16107139658318,0 33.42878204308143,35.16108255330769,0 33.42873102018486,35.16134830481344,0 33.4289541651365,35.16138596847019,0 33.42927844267096,35.16145382891278,0 33.42928693545671,35.16142465310047,0 33.42940499930863,35.16141023061643,0 33.42987010405525,35.16144178501921,0 33.42984710310144,35.16171259351726,0 33.42969231790453,35.16174173125688,0 33.4296237087391,35.16212705246333,0 33.42948229012167,35.16275698556829,0 33.42943371454567,35.16294597391564,0 33.42923154757824,35.16293666324365,0 33.42914606616553,35.16351438989438,0 33.4288196611094,35.16370210743429,0 33.42873203760335,35.16377843761503,0 33.4286936096648,35.16424894678067,0 33.4287805694512,35.16476068005401,0 33.4279044699511,35.16476259509256,0 33.4273303315159,35.16478446497531,0 33.42734775338165,35.16465216616908,0 33.42690133930766,35.16488302973954,0 33.42684153591545,35.16492977317733,0 33.42677214654566,35.16500638472655,0 33.42673958410946,35.16507516860398,0 33.42674109974782,35.16514362150883,0 33.4268355020487,35.16531046975516,0 33.42687130881946,35.16536638241207,0 33.42700115918272,35.16551114041908,0 33.42656772857845,35.16561148097495,0 33.42657707605074,35.16580100058896,0 33.42657678493157,35.16592750336925,0 33.42657248313358,35.1660519632864,0 33.42658556734978,35.16625579559557,0 33.426688787054,35.16656569216563,0 33.42675233358054,35.16673428063249,0 33.42683189980067,35.1669078063447,0 33.42698392640272,35.16723002758369,0 33.42707000308977,35.16738802077877,0 33.42707483329183,35.16739688699442,0 33.42713983449099,35.16753983263643,0 33.42720626814944,35.16779438386238,0 33.42724731270923,35.16797837328365,0 33.42729236891294,35.16819684670484,0 33.42731473419116,35.16826507909484,0 33.42734788136831,35.16838408144537,0 33.4273781406883,35.16844164501168,0 33.42765144312862,35.16895270587771,0 33.42776853296439,35.16918824866122,0 33.42777960297911,35.16922290964597,0 33.42779973552671,35.16938995074469,0 33.42786350113865,35.16972208583228,0 33.42758132105951,35.16985068804303,0 33.42640148591944,35.17023538024618,0 33.42434251055097,35.17097773423615,0 33.42375525593469,35.17121259484811,0 33.42367536476492,35.17124454477863,0 33.42357659887998,35.17127931982458,0 33.42342989612089,35.17133644206714,0 33.4232257248255,35.17139122209631,0 33.42285204808226,35.17149148032168,0 33.4226226948439,35.17159029741345,0 33.42228935560447,35.17168616489732,0 33.42222948097298,35.17169277981866,0 33.42169393689457,35.17172417048653,0 33.42144323991782,35.17172431281566,0 33.42118225190531,35.17181291447472,0 33.42121099600645,35.17173031352407,0 33.42122355338915,35.17170859042706,0 33.42121176989265,35.17167751617424,0 33.42121577890425,35.17158406100501,0 33.42123413121142,35.1715073858901,0 33.42124257497333,35.17147816848089,0 33.4212150638277,35.17141795005394,0 33.42121937933872,35.17135221168848,0 33.42119542146466,35.17130811946302,0 33.42109341526837,35.17105722396099,0 33.4211331868204,35.17099730162492,0 33.42125833903599,35.17094247182783,0 33.42131313841612,35.1709012038079,0 33.42139451415915,35.17086027868946,0 33.42146013209015,35.17081479951269,0 33.42148507152776,35.17074362788211,0 33.42151414799504,35.17071024362526,0 33.42151629004201,35.17069137359361,0 33.42146060731624,35.17054587947383,0 33.42144037528128,35.17046539495177,0 33.42140360624629,35.17044035863923,0 33.42135757271416,35.17042287667694,0 33.42131486408885,35.17039194514538,0 33.4212031079869,35.17033658614065,0 33.42114880816136,35.17030286717812,0 33.42112167497044,35.17040805147558,0 33.4210724731236,35.17045354642362,0 33.42100470911672,35.1704672875434,0 33.42094833404516,35.17044987652054,0 33.42090026310697,35.17044516430748,0 33.42088641801361,35.17042595772627,0 33.42081338031068,35.17040154841702,0 33.42075121456077,35.17028311020053,0 33.42072574353159,35.17028037640094,0 33.42070308586371,35.17020557084638,0 33.42072314880976,35.17016515475189,0 33.42076360254529,35.17011430539915,0 33.42073006723429,35.17006144421951,0 33.42068181346968,35.16997110188061,0 33.42060504883158,35.16984746185022,0 33.42058529193344,35.16984306223387,0 33.42050135873359,35.16986836370737,0 33.42045241422284,35.16975678681561,0 33.42043096820981,35.16976182703171,0 33.42040867565785,35.16973100369346,0 33.42036398603123,35.16971814624771,0 33.42027751278103,35.16959028420773,0 33.42022563978738,35.16949616927794,0 33.42014418502514,35.16944112872043,0 33.42010600632963,35.16943659731299,0 33.41999215114382,35.16936904407833,0 33.41989775355314,35.16929934107064,0 33.41986807239386,35.16928773032577,0 33.41975219311728,35.16929937590309,0 33.41961675225548,35.16929973876977,0 33.41948615845302,35.16927156277144,0 33.41927727293902,35.16919082148429,0 33.41925419528335,35.16915919840466,0 33.41921546681195,35.16908579845996,0 33.41916765117143,35.16908402682377,0 33.41892877785116,35.16924695274447,0 33.418749204664,35.16893492937457,0 33.4186933713527,35.1688610087871,0 33.41866830638777,35.16876756399366,0 33.41849788175838,35.16877503231654,0 33.41826008987345,35.1688197424828,0 33.41822335933362,35.16862094048487,0 33.41824373674145,35.16854572806017,0 33.41826485287641,35.16845808014205,0 33.41824517368923,35.16814826116396,0 33.41812498503201,35.16794739188143,0 33.41832918587357,35.16783614884651,0 33.41822517089348,35.16768837455176,0 33.41819708877889,35.16762722261404,0 33.41806483490085,35.16756683674271,0 33.41804749123892,35.1674973999455,0 33.41790218198624,35.16739614012106,0 33.41784208181247,35.16735425769506,0 33.41773647907027,35.16739627986136,0 33.41741919803255,35.16752253402628,0 33.41725737608456,35.16739668438063,0 33.41717774207729,35.16733475337261,0 33.41693578180601,35.16728000364684,0 33.41672821324909,35.16720029358798,0 33.41666220584394,35.16718099191017,0 33.41652451926625,35.16715208081799,0 33.41630607400224,35.16704540794123,0 33.41626769802356,35.16697992996867,0 33.41621306071914,35.16693838400717,0 33.41620873450892,35.1668118934738,0 33.41612023182719,35.16674209510645,0 33.4160321839378,35.16669690500188,0 33.41632764229337,35.16634227445271,0 33.41612550036182,35.16620824193668,0 33.41583367874142,35.16605361809194,0 33.41558173547173,35.16595360839298,0 33.41556101372748,35.16593516662001,0 33.41545591293549,35.16578286769382,0 33.4152839903652,35.16562385430574,0 33.41525582102496,35.16558362153746,0 33.41514957902441,35.16540614125798,0 33.41509380026225,35.16526903364838,0 33.414818262397,35.16502010972423,0 33.41472659387547,35.16506015888784,0 33.41464455374602,35.16497209664875,0 33.41469045661086,35.16491001636464,0 33.41419930157409,35.16434389675964,0 33.41445838717964,35.16414182549,0 33.41442368417129,35.16405807024851,0 33.41420547586898,35.16414252731133,0 33.41414456836517,35.16382058124893,0 33.41410837472138,35.16332485080695,0 33.41410643916118,35.16309825825063,0 33.41407861086572,35.16267239067336,0 33.41395186531999,35.16238608979163,0 33.4136363500464,35.16251915073688,0 33.41344308495851,35.16233771494932,0 33.41322490757323,35.16220990854074,0 33.41294328648771,35.16215780179829,0 33.41272847823738,35.16211240574961,0 33.4126550552842,35.16207018208274,0 33.41216908439398,35.16183314492672,0 33.4120408817889,35.16295659507475,0 33.41207286377009,35.16303289041202,0 33.41210070006716,35.16310572676355,0 33.41210883786815,35.16312809155706,0 33.41161910199489,35.16326977120693,0 33.41113951660867,35.16344240442101,0 33.41117841562887,35.16352331960592,0 33.41060040272485,35.16385724064939,0 33.41049883760783,35.1638954795156,0 33.41023085053558,35.16388220110396,0 33.41013672759907,35.16378294619771,0 33.41003889741386,35.16368771587636,0 33.40997516467671,35.16365315932435,0 33.40986231649782,35.16360933039735,0 33.40970464313117,35.16344425387015,0 33.40965088889006,35.16338350849573,0 33.40960185795744,35.1633591040295,0 33.40938097210523,35.16329670064626,0 33.40930737120178,35.16327119194499,0 33.40926694145212,35.16324783094343,0 33.40922661921363,35.16320429271847,0 33.40921450967165,35.16317095312815,0 33.40901920082189,35.1629260607028,0 33.40896996776982,35.16294100349592,0 33.4089374450654,35.16281881277326,0 33.40868633167259,35.1622146133624,0 33.40819418011758,35.1623459059595,0 33.40829531037905,35.16273060642244,0 33.4081612630995,35.16275531017205,0 33.40758466239259,35.16283883135848,0 33.40724530251325,35.16290207427882,0 33.40678902361953,35.16301528387184,0 33.40653982458623,35.16254435668856,0 33.40623208685982,35.1622295559743,0 33.40535306369207,35.16243898128828,0 33.4052768008095,35.16246591505389,0 33.4053291700354,35.16254274793335,0 33.40581721595343,35.16355001068674,0 33.40587625158916,35.16353209147174,0 33.40596105616076,35.16351730025872,0 33.40608990957535,35.16375681912079,0 33.40634677099805,35.16371850844808,0 33.40646907931564,35.16380976200394,0 33.40658297752064,35.16386770372797,0 33.40662699126398,35.16390418783516,0 33.4066758031166,35.16396187107387,0 33.40671428666774,35.16411230384488,0 33.40670775137211,35.16418489536523,0 33.40670755343245,35.1642212042559,0 33.40672097031821,35.16423840381739,0 33.40680530325173,35.16431438956883,0 33.40685275602261,35.16484915184725,0 33.40646776659877,35.16495347100241,0 33.40656266487992,35.16511826663443,0 33.40666981671426,35.16528916947368,0 33.40618877544579,35.16544349416887,0 33.40607842924184,35.16518584768035,0 33.40601939143061,35.16497784206418,0 33.40593953050241,35.1649855795575,0 33.40592189827409,35.16506618916933,0 33.40587579221489,35.16518903893625,0 33.40581561964659,35.16518979667915,0 33.40569776370089,35.16518527159887,0 33.40560424184235,35.16522219764596,0 33.40565160123928,35.16554310181702,0 33.40544481387575,35.1654111275385,0 33.40531024882789,35.16532080907012,0 33.4052551670266,35.16529032425196,0 33.40511551709929,35.16523326875482,0 33.40475151870626,35.16512082572886,0 33.40463386105383,35.16508605171204,0 33.40448088378568,35.16500172228945,0 33.40440014807921,35.16495097011219,0 33.40431332199891,35.16489212744647,0 33.40393425377066,35.16463445967177,0 33.40386201642043,35.1646029073724,0 33.40344246552094,35.16435216229993,0 33.40323700583836,35.16422631288129,0 33.40298050883925,35.16401356704487,0 33.40283664383628,35.16384866817224,0 33.40276723234471,35.16375463996786,0 33.4026684443191,35.16364839809795,0 33.40260749046951,35.16357860005887,0 33.40250643039676,35.16344110518437,0 33.4019828619284,35.16361440900407,0 33.40195379494843,35.16354776878094,0 33.40075538984203,35.16378787775859,0 33.4006670301705,35.16379961594716,0 33.40044711440329,35.16387330387373,0 33.4005128278276,35.16396225455475,0 33.4005370671624,35.16401274274119,0 33.40054648274305,35.16408231922363,0 33.40052718877889,35.16424147311872,0 33.40053144965957,35.16435537296386,0 33.40054695204293,35.16443303827726,0 33.40065724306917,35.1646632786282,0 33.40071436077134,35.16475523041708,0 33.4005434675517,35.16483212396992,0 33.40014795016464,35.16495040337341,0 33.40014406635418,35.16498666674379,0 33.40014496189667,35.16504512292257,0 33.39949239937837,35.16509579241387,0 33.39941588623189,35.16475386214048,0 33.39936191491856,35.16454404001963,0 33.39933954874531,35.16438171371584,0 33.39928297819822,35.16419808837608,0 33.39909419082175,35.16419933060345,0 33.39891649638239,35.16419154909022,0 33.39869723533654,35.16416646841298,0 33.39829533190183,35.16414870154647,0 33.39795946117878,35.16416243748628,0 33.39792220037567,35.16382276865016,0 33.39794932690742,35.16379366270009,0 33.39795942068237,35.16374333163132,0 33.39816551035754,35.16370688887054,0 33.39825499413346,35.16370322081382,0 33.39824198774141,35.16362055415109,0 33.39825850863765,35.1635178578461,0 33.39831256467895,35.16328131689166,0 33.39833283600346,35.16316553709215,0 33.3972503593393,35.16315970515503,0 33.39550504569591,35.16316104824233,0 33.39550028444886,35.16297066631653,0 33.39550874238006,35.16290977100545,0 33.39493744292982,35.16290079725367,0 33.39494001306221,35.16334027734982,0 33.39495144027551,35.16399544711285,0 33.3947069301075,35.16402216904972,0 33.39450557027042,35.1640459105878,0 33.39438691972516,35.16406959890102,0 33.39425389286453,35.16409919746757,0 33.39398175257266,35.16417576042877,0 33.39369991707598,35.1642609743402,0 33.39339639276625,35.16434224591264,0 33.3932084821375,35.16437796084259,0 33.39310488515523,35.16439384703254,0 33.39286872908766,35.16440626995218,0 33.39174349364546,35.16441622984276,0 33.3915118340894,35.16441826411085,0 33.39136772559024,35.16442539737059,0 33.39127537997334,35.16440152831978,0 33.39116843494344,35.16435374271452,0 33.39060207140511,35.16405102969688,0 33.38991311966785,35.1636484309468,0 33.38933016495205,35.16339738649642,0 33.38874490051204,35.16321336006635,0 33.38848112177923,35.16309963597034,0 33.3880535031803,35.16285241022116,0 33.3878050690188,35.16264352099869,0 33.38749774831937,35.16234809532428,0 33.38742055440127,35.16240538259724,0 33.38736307907328,35.16245790959557,0 33.38733264057885,35.16250779106343,0 33.38731347992154,35.16254575605856,0 33.38730091555171,35.16256067287939,0 33.38728730713068,35.16256652137866,0 33.38722594323929,35.16256869248922,0 33.38717810695017,35.16256903737413,0 33.38712248910604,35.16259040153962,0 33.38709006585553,35.16261711527678,0 33.38706849479377,35.16265303365106,0 33.38704183692918,35.16269793536816,0 33.38703242502324,35.16273905020252,0 33.38703689608997,35.16282160386768,0 33.38704645176364,35.16289517329063,0 33.38704139697757,35.16296350990844,0 33.38702507791277,35.16310412135009,0 33.38703280066544,35.16320784384074,0 33.38709645246146,35.16321375825643,0 33.38710072880725,35.16324500232771,0 33.38709266373073,35.16328009964199,0 33.38708463961121,35.16331318580859,0 33.38708039530517,35.16334129410311,0 33.38709100513098,35.16336256741941,0 33.38714723081463,35.16343276250227,0 33.38715165997795,35.16351732640184,0 33.38713778173584,35.16359761038166,0 33.38713472155678,35.16362774844373,0 33.38714645904291,35.16377578967801,0 33.3871362250101,35.16379677174188,0 33.3870427834775,35.1638085459849,0 33.38694496757162,35.16379410438593,0 33.3867750742663,35.16370522384461,0 33.38673604585635,35.16369461911462,0 33.38669794996073,35.16363775712505,0 33.38665645095475,35.1636281247496,0 33.38658929082013,35.16361411233452,0 33.38613740547235,35.16303748592237,0 33.38636371440923,35.16275897102391,0 33.38638272886016,35.16272805106148,0 33.38644714846826,35.16263438515924,0 33.38650333312119,35.16252350357448,0 33.3865209800802,35.16249960532688,0 33.38655993303998,35.16245286350129,0 33.38664425421855,35.16234538408057,0 33.38690053022543,35.16210245070977,0 33.38669752660999,35.16195278459114,0 33.38673254102231,35.1619190624364,0 33.38661317013259,35.16187919605329,0 33.38655946900351,35.16194160436429,0 33.38641726315299,35.16183962056432,0 33.38631646846198,35.1619263814754,0 33.3862439828612,35.1618833338168,0 33.38610215119488,35.16178517037469,0 33.38608425602105,35.16173261015681,0 33.38606286412988,35.16168453651471,0 33.38602547396112,35.16165384680826,0 33.38400351779804,35.16365610687145,0 33.38307229681662,35.16455853357335,0 33.38289579895779,35.16424875506739,0 33.38244045734833,35.16340031675926,0 33.38238268157538,35.16326823896584,0 33.38188340079362,35.16328936331408,0 33.38167991946389,35.16402221645235,0 33.38005917306678,35.16351768092853,0 33.38030525702055,35.16282731924098,0 33.38034734188658,35.16278031267382,0 33.38041627489008,35.16245291073306,0 33.380432769842,35.16209000061988,0 33.37981488380709,35.16147688713204,0 33.37975835894903,35.16134280570772,0 33.37962833672277,35.16105141286017,0 33.379194704682,35.1609934742383,0 33.37915305465813,35.16098819260164,0 33.37913210796341,35.16100013226118,0 33.37892347454557,35.16116679172166,0 33.37850706797303,35.16065947269077,0 33.37849372137885,35.16064229679502,0 33.37833215748812,35.16017087387453,0 33.37830113027712,35.16008560390787,0 33.37718058082355,35.16017146823709,0 33.37723413890305,35.16065875833633,0 33.37724614827164,35.16068899798221,0 33.37731440874055,35.16073868677762,0 33.377448881535,35.16078978457311,0 33.37748782778807,35.16082521705044,0 33.37740700129879,35.16095846374593,0 33.37662471088424,35.16065001428407,0 33.37651802284105,35.16064936337178,0 33.37625971782855,35.16059449103593,0 33.37621217780127,35.16056001238468,0 33.37633289281072,35.16035058535371,0 33.3763528071272,35.16017188902877,0 33.37636460359059,35.15998704514303,0 33.37634140560492,35.15977689955937,0 33.37616132783072,35.15947324249345,0 33.37614370315173,35.1594331156079,0 33.37612216037359,35.15926120301521,0 33.37606153370081,35.15910565942937,0 33.37650025281511,35.15894368221004,0 33.37650237686045,35.15847277458163,0 33.37585511468605,35.15808584460243,0 33.37585231883079,35.15838669211848,0 33.37577140371999,35.15861362664005,0 33.37519431813799,35.15990441933627,0 33.37516942292029,35.15995124201169,0 33.37513815854131,35.16002276557235,0 33.37408914280152,35.15992498322804,0 33.37245171015597,35.15971473643724,0 33.37342251082028,35.15731494813421,0 33.37357902055044,35.15696462852932,0 33.37359967524947,35.15691839612847,0 33.37389770088141,35.15635905068293,0 33.3740396206557,35.15610356560531,0 33.3741189608207,35.15595715530677,0 33.37421697724041,35.1558357605667,0 33.37441562787137,35.15560803774037,0 33.37454162125701,35.1554653193296,0 33.37464959603723,35.15535692766951,0 33.3747479132686,35.1552626852872,0 33.37476842011473,35.1552313577571,0 33.37482187047885,35.15507305378698,0 33.37484396109155,35.15496325551377,0 33.37475201095166,35.15463498652764,0 33.37471805221042,35.15444813880742,0 33.37472012969382,35.15430328214943,0 33.37474268126764,35.15412408197921,0 33.37478196866413,35.15390553536578,0 33.37484756776161,35.15370724468911,0 33.37488104380529,35.15343976645717,0 33.37488130745276,35.15334961225584,0 33.3748206692086,35.15307948842079,0 33.3748213432827,35.15292038585823,0 33.37479024865933,35.15278477646637,0 33.37477458471826,35.15273281601273,0 33.37472631149133,35.15253153514332,0 33.37456685095958,35.1519261655963,0 33.37446327609909,35.15149412975074,0 33.37441979349241,35.15124867707629,0 33.3743980448802,35.15105640736787,0 33.37436215239396,35.15059755922552,0 33.37432370434895,35.15014064161585,0 33.37423658193526,35.14896185438452,0 33.37423639939178,35.14895937790293,0 33.37422348423839,35.14871603455918,0 33.37421770214329,35.14843061979423,0 33.37421589242082,35.147977047495,0 33.37420248091753,35.14709274835992,0 33.37418587527917,35.1466870372978,0 33.37416620394995,35.14647873860348,0 33.37413220950832,35.14626287630892,0 33.3740933643618,35.14599947652851,0 33.37401657431968,35.14566832475253,0 33.37392172957026,35.14525931341904,0 33.3738164805187,35.14464638872927,0 33.3738028155261,35.14448053542559,0 33.37383478081898,35.14418027691664,0 33.37388649849503,35.14396218676374,0 33.37404872022172,35.14327573145219,0 33.37427899985869,35.14235834144833,0 33.37446933095369,35.14159160099746,0 33.37463868237143,35.14108493940587,0 33.3746867881601,35.14090713906117,0 33.37475706854419,35.14055608673806,0 33.37479240952091,35.14030937768118,0 33.37481344938555,35.14006645094624,0 33.37481501165623,35.14004841810167,0 33.37483099989762,35.13986381407965,0 33.37488310419808,35.13933267922217,0 33.37492740532139,35.13899051106082,0 33.37500184451925,35.13841555928973,0 33.37507717608812,35.13783370443567,0 33.37518452952013,35.1371906173324,0 33.37521585049421,35.13683865575228,0 33.37518706593808,35.13668200113298,0 33.37504793489418,35.13631154667883,0 33.37495024513951,35.13606759627974,0 33.37477513532218,35.1356313846815,0 33.37465353857741,35.13533789390861,0 33.37456444528828,35.13489847653037,0 33.37447564458992,35.13443695398082,0 33.37438536976367,35.13399667290215,0 33.37428636352078,35.13366828262593,0 33.37412284328203,35.13310260182596,0 33.37402058390019,35.13274307157987,0 33.37400740981749,35.13252029022826,0 33.37402937268174,35.13203686465816,0 33.3740611290462,35.13155459326234,0 33.37447074852853,35.13145894523217,0 33.37498134562656,35.13133482814936,0 33.37562280347446,35.13116286894262,0 33.37586167070911,35.13109883285261,0 33.37585588895414,35.13106053038447,0 33.37731572819558,35.1307432493634,0 33.37688628536274,35.12984607524692,0 33.37693609699674,35.12962183899318,0 33.37753312613081,35.12946569495048,0 33.37730814807399,35.12736239464857,0 33.37868825557219,35.12600937784146,0 33.37907300112055,35.12521497329043,0 33.3792443811956,35.12497224199206,0 33.37961624494361,35.12452520263867,0 33.37979178152496,35.12436809349943,0 33.38035146924069,35.12390811848215,0 33.3804650865566,35.12381474163227,0 33.38171189170202,35.1229257620525,0 33.3813446822491,35.12259957702783,0 33.38123994005869,35.12255003729757,0 33.38134421774508,35.12242811451201,0 33.38218103880574,35.1219874925538,0 33.38300214035831,35.12181407593225,0 33.38292594474938,35.12234566399707,0 33.38288276570459,35.12235927367005,0 33.38312670964723,35.12267901739376,0 33.38328978761158,35.12283409297231,0 33.38344912285719,35.12314040942207,0 33.38352580691206,35.12342163163503,0 33.38377424581537,35.12390622992092,0 33.38385786553655,35.12406933535547,0 33.38397040686133,35.12417180459817,0 33.38405670512202,35.12422383687736,0 33.38422221508947,35.12427804189447,0 33.38442257628062,35.12432017904915,0 33.38479084564211,35.12439041328793,0 33.38492390275058,35.12443057735827,0 33.38519718553297,35.12443155614659,0 33.38553287819888,35.12440717497321,0 33.38556424315896,35.12390520398034,0 33.38556483586402,35.12389571212791,0 33.38574545430548,35.1238276413148,0 33.38581700053712,35.12379273663773,0 33.38592597226821,35.12361598522137,0 33.38611460243705,35.12349125321822,0 33.38630575169576,35.1234421820424,0 33.38663698117955,35.12338667849887,0 33.38686754680047,35.1233852703654,0 33.38727869695314,35.12332536440632,0 33.3876821760323,35.12314426186023,0 33.38943188712555,35.12390289620072,0 33.38944708746982,35.12390948619166,0 33.39039119218283,35.12406719976689,0 33.3910158046456,35.12414379497905,0 33.39123313125143,35.12417044494164,0 33.39159104235898,35.12420611684566,0 33.39206656554329,35.12390125410952,0 33.39349836050128,35.12298328991365,0 33.3942660137867,35.1224827362122,0 33.39441317560723,35.12238265787047,0 33.39449210482717,35.12233728761772,0 33.39491394118547,35.12213833464571,0 33.39543415799214,35.12189952648018,0 33.39557491936917,35.12184059680413,0 33.39573146298471,35.12178609721338,0 33.39601025099448,35.12167622605981,0 33.39618470203231,35.1216020158995,0 33.39635774526319,35.12153280746784,0 33.39645982619453,35.1214920448155,0 33.39663681111639,35.12141587688468,0 33.39648947998403,35.12118733863461,0 33.39687506707655,35.12100957850683,0 33.39709384244436,35.12093143240519,0 33.39720798256636,35.12092185059838,0 33.39765472405141,35.12086867595791,0 33.39773185044385,35.12086047884778,0 33.39815419590258,35.12080834962073,0 33.39862077216435,35.12081047672778,0 33.39876280292631,35.12080014190641,0 33.39914484948514,35.12078431508462,0 33.39917582823928,35.12141427362696,0 33.3991895463783,35.12151187197423,0 33.39920229858173,35.12171213152306,0 33.39920326862773,35.1220976049681,0 33.39919856152426,35.12265923290598,0 33.39921007496358,35.12285447478314,0 33.3992338002579,35.1230345959705,0 33.39927097488533,35.12320563718915,0 33.39934123037396,35.1233816524125,0 33.39942252472488,35.1235626817692,0 33.3996291381502,35.12389622081909,0 33.40099093119729,35.12496852276302,0 33.40280735728689,35.12482170173723,0 33.40351080941105,35.12476754752138,0 33.4039574689618,35.12473749248925,0 33.40414731252162,35.12473154226029,0 33.40439104637714,35.12472375246683,0 33.40457623546756,35.1247279443446,0 33.40472310361149,35.12471862749698,0 33.40522738987009,35.124687677666,0 33.40535235208503,35.12468474130164,0 33.40539636920395,35.12468003209237,0 33.40559939897616,35.1246607812735,0 33.40581350687076,35.12464337334865,0 33.40641936958536,35.12465516633459,0 33.4065922081079,35.12465451004554,0 33.40722284777654,35.12472735887671,0 33.40762349513001,35.12476850872552,0 33.40822636804643,35.12521850741692,0 33.40845517799134,35.12540534707343,0 33.40859991165383,35.12551088930559,0 33.40864424894932,35.1255192706946,0 33.40934241795278,35.12564447213199,0 33.40961014089736,35.12566249799646,0 33.41045388743786,35.12582236913131,0 33.41064153405907,35.12584522765729,0 33.41086875489017,35.12589115652365,0 33.41191850551239,35.12607249611235,0 33.41217654734194,35.12612372257231,0 33.41223339015962,35.12614482486116,0 33.41247471303662,35.12623441169323,0 33.41401913212821,35.12681372808923,0 33.41463173818236,35.12639723278427,0 33.41484880992938,35.12636685553476,0 33.4150831637393,35.12634009011983,0 33.41582510647426,35.12618334514899,0 33.41637743376788,35.12607142936037,0 33.41707209841785,35.12593193965391,0 33.41748517878571,35.12658052054952,0 33.41826180128017,35.12576145845741,0 33.41832452734209,35.12586969225563,0 33.41859690434403,35.12571114008203,0 33.41911646091692,35.12588291299959,0 33.41947250609481,35.12593779531882,0 33.41952674414762,35.12598079011525,0 33.41969635136348,35.12599584855086,0 33.42005117956241,35.12595008294085,0 33.41996501725966,35.12550014880715,0 33.42019036467784,35.12522899252351,0 33.42017449045587,35.12502805312486,0 33.42011777231074,35.12505155726173,0 33.41995469155615,35.1247434240529,0 33.42020477665218,35.12458041415166,0 33.42030312037952,35.1246575756465,0 33.42102164438636,35.12437566016196,0 33.42109691473171,35.12469392231876,0 33.42138867474658,35.12493654804918,0 33.42226061720199,35.12533737632597,0 33.42232236625127,35.12521712431283,0 33.4230484100009,35.12531243221999,0 33.42344702854995,35.12422397939235,0 33.42369294259205,35.12427623057741,0 33.42438874745142,35.12441270222535,0 33.42427610006869,35.12474428847366,0 33.4245326588688,35.12478878739238,0 33.42454856886931,35.12473133765869,0 33.42502733949993,35.12482535786664,0 33.42548769543209,35.12489718974,0 33.4258032549067,35.12501430301364,0 33.42618877997538,35.12512036977986,0 33.42609948668954,35.12554470630847,0 33.42617560248603,35.12555684738176,0 33.42618059913724,35.12567378026255,0 33.42621994162131,35.12575646082553,0 33.42633536922896,35.12580995322642,0 33.42637478114779,35.12598738513763,0 33.42636884176706,35.12625550335029,0 33.42669444253516,35.12667702701351,0 33.42663682498396,35.12678080708734,0 33.42702122643393,35.12703807062618,0 33.42716966260389,35.12689907260179,0 33.42795076941378,35.12741461975087,0 33.42786982288149,35.12752644483474,0 33.42796563729388,35.12761721830918,0 33.42811793168669,35.1277191147073,0 33.42819891365036,35.12765768753809,0 33.4282369915782,35.12768895599422,0 33.42818547328505,35.1277514112609,0 33.42830826662137,35.12779684785595,0 33.42810710771158,35.12805472719426,0 33.42917793182318,35.12853519128507,0 33.43000933340171,35.12890866642623,0 33.43078283624337,35.12888602031143,0 33.43114882616964,35.12904350145344,0 33.43128263431542,35.12898815985624,0 33.43179114761348,35.12928382122202,0 33.4321362820379,35.12944229849372,0 33.43266444747224,35.12971278028761,0 33.43288676463303,35.12980969278639,0 33.43325901786971,35.13014759096898,0 33.43334066486028,35.13012726906278,0 33.43349723178468,35.13008829870866,0 33.43367901245705,35.13014285371972,0 33.43384344688942,35.12985471414667,0 33.43407054858911,35.12962204201002,0 33.43421778083503,35.1292834688973,0 33.43428405481338,35.12917364373804,0 33.43451492643516,35.12910122075832,0 33.43463528886709,35.12909222858931,0 33.43486744919924,35.12914984078592,0 33.43498415577471,35.12920233506239,0 33.43498786374574,35.12925979411418,0 33.43515983393331,35.12929216532009,0 33.43517844815645,35.12977500725779,0 33.43508637880604,35.12989791466927,0 33.43536531846401,35.13022770779475,0 33.43498123585116,35.13110529069887,0 33.4351715935087,35.13108023620232,0 33.43518510993382,35.13111853321114,0 33.43519790159367,35.13116867721223,0 33.43545163746212,35.1311182690639,0 33.43575007585711,35.13105748320631,0 33.43580536677529,35.13111791794955,0 33.43589828918891,35.13120836283382,0 33.43647654935768,35.13123390686187,0 33.43656568406568,35.13111715924395,0 33.43669950806225,35.1309271506374,0 33.43694385604604,35.13103315971953,0 33.43710722824061,35.13111661530787,0 33.43723277965517,35.13116607112132,0 33.43768032337883,35.13154753790079,0 33.43791979029545,35.13150981013389,0 33.43810185115167,35.13158727013646,0 33.43821534266537,35.1315565719074,0 33.43856367265514,35.13133448798528,0 33.43860452946143,35.13133679374231,0 33.43877112786701,35.13141293226074,0 33.43885505973736,35.13147042880784,0 33.43887708536002,35.13148551689907,0 33.43915725860789,35.13167744385181,0 33.43896862196284,35.13196943158258,0 33.43887997419819,35.13202390960848,0 33.43885810150399,35.13203735115781,0 33.43840667813369,35.13231476990301,0 33.43853527021716,35.13266951820047,0 33.43828041413416,35.13329914086453,0 33.438502259,35.13344796073836,0 33.43879521447805,35.1334606909147,0 33.43886571227991,35.13345577270969,0 33.43888764926958,35.13345424291791,0 33.43918891969488,35.13343322609606,0 33.43929939944299,35.13338235273589,0 33.4393842300026,35.1334434926924,0 33.43949819812622,35.13345658781596,0 33.43960252006188,35.13350434867551,0 33.43964472709451,35.13366434805376,0 33.43972200439981,35.133809935701,0 33.43971878731652,35.13388709992331,0 33.43987946489245,35.13393249810238,0 33.44027021895173,35.13391741127782,0 33.44045122289179,35.13378844213716,0 33.44058330179294,35.13364241404427,0 33.44063555911313,35.13361658556321,0 33.44076124053631,35.13363347326328,0 33.44082775341982,35.13369335105845,0 33.44088038105322,35.13377612438677,0 33.44090523018706,35.13389610123899,0 33.44096143981918,35.1340017254827,0 33.44105614968952,35.13414442384647,0 33.44108454026547,35.13427867493825,0 33.44128057459132,35.13445545576565,0 33.44137849551579,35.13451812679278,0 33.44128871531818,35.13478979103071,0 33.4413434221511,35.13493840195117,0 33.44117802993364,35.13498512242085,0 33.44113482289777,35.13508511232853,0 33.44111785129919,35.13521715331478,0 33.44096138518038,35.13532092748717,0 33.44101000405812,35.13552061682582,0 33.44117991669857,35.13552384556449,0 33.44119763703754,35.13560585972111,0 33.44109354041088,35.13573807271992,0 33.44135212360146,35.1361799181499,0 33.44151759814384,35.13615818120989,0 33.44178981419851,35.13601923550517,0 33.44181273091613,35.13614795822399,0 33.44196663344038,35.13624646797246,0 33.4417798389649,35.136453162808,0 33.44182918664451,35.13649335925372,0 33.44187486493065,35.13656766085424,0 33.44203762918343,35.13656733228759,0 33.44204181634692,35.13668200375762,0 33.44206111457877,35.13678735102391,0 33.44197790888992,35.136809207848,0 33.44198194486803,35.13688048834469,0 33.44193274910582,35.136883690145,0 33.44181582490389,35.13700479931443,0 33.44187765963922,35.13737040464258,0 33.44201773392044,35.13737632349186,0 33.44217274557836,35.13732332365488,0 33.4422105581929,35.13751474457084,0 33.44230113250487,35.13762974074812,0 33.44234469064608,35.13771234005273,0 33.4424212465595,35.13794547770032,0 33.44260161576879,35.13795692846758,0 33.44294280800265,35.13753985869057,0 33.44322436759428,35.13760721383967,0 33.44355960220052,35.13755043231559,0 33.44374699224232,35.13750280507714,0 33.44388018187659,35.13742575613471,0 33.44440106399066,35.1360732097272,0 33.4449577887335,35.13585704421615,0 33.44522961012525,35.13585648667777,0 33.44542354293606,35.13598435313786,0 33.44554841685405,35.13612367667777,0 33.44564134634798,35.13635737949802,0 33.44573456818595,35.1366778380541,0 33.44584256456898,35.13727739621586,0 33.44605485044696,35.13757495353359,0 33.44622689828034,35.13770824990226,0 33.44632294661518,35.13764294685124,0 33.44640625761215,35.13752626587397,0 33.44656098858573,35.13748483452068,0 33.44669062869174,35.13745373083392,0 33.44706732113386,35.13745296283668,0 33.4473478800526,35.13749008820329,0 33.44828875882087,35.13751437716807,0 33.44904389011302,35.1375540292071,0 33.44940048826635,35.13745589808942,0 33.45019616181705,35.13737313957742,0 33.45054247800316,35.13733711808158,0 33.45072701945255,35.13805562221187,0 33.45119993860344,35.13802959041679,0 33.45122292767002,35.13835397563508,0 33.45122421043572,35.13837207092924,0 33.45126059962504,35.13850623650998,0 33.4515679970211,35.13848336145746,0 33.45174400205362,35.13848442806029,0 33.45240435525978,35.13835264200208,0 33.45262994651603,35.13830762211465,0 33.45265185535929,35.13835236319346,0 33.45270446777369,35.13845980799112,0 33.45310207615478,35.13835184980568,0 33.45346078926534,35.13825445422135,0 33.45337802925789,35.13808090315108,0 33.45325298470903,35.13783276716156,0 33.45259882395563,35.13786961840578,0 33.45248267259658,35.13739918076755,0 33.45216482255724,35.13735286795672,0 33.45209684926331,35.13723451109259,0 33.45215370276562,35.13704015947232,0 33.45210961972207,35.13692467636636,0 33.45183743753142,35.13693105479835,0 33.45173007944128,35.13669587732701,0 33.45240425759602,35.13655380888351,0 33.45263743860799,35.13646383857645,0 33.45294495713578,35.13632085460802,0 33.45311861933728,35.13625540750905,0 33.45348602859203,35.13617729449689,0 33.45361591728686,35.13616713458109,0 33.45413579160176,35.13605545855016,0 33.45456510614548,35.13600421171176,0 33.45492355533129,35.13596075516456,0 33.45539149603889,35.13587310616683,0 33.45587941047897,35.13574012373565,0 33.45630208953228,35.13566082617487,0 33.45671461277129,35.13555684457234,0 33.45706706309542,35.13553535064019,0 33.45731371881549,35.13550589628516,0 33.45786689536131,35.13539092190339,0 33.45834359651126,35.13521999422677,0 33.45873069509491,35.13512282635588,0 33.45915935587291,35.13503686101048,0 33.45985816389396,35.13499543775276,0 33.4601209276935,35.13494383682281,0 33.46055002101649,35.13493706175502,0 33.46146186933262,35.13486080521491,0 33.46163725623682,35.13484646305307,0 33.46206200088345,35.13488697121324,0 33.46225995806193,35.13485406704193,0 33.46283211548789,35.13493582598226,0 33.46343463901594,35.13494651075953,0 33.46371628828906,35.13495150431461,0 33.46396193453485,35.13498585476719,0 33.46418490474613,35.13498233821956,0 33.46455942603696,35.13493040683625,0 33.46488615680483,35.13493285778222,0 33.46512849662344,35.13495858766756,0 33.46515601219841,35.13509695118825,0 33.46519228768741,35.13528415756664,0 33.46526168420996,35.13561165471469,0 33.46529646826665,35.13573586537976,0 33.46511380457182,35.1357867726152,0 33.46495223720895,35.13583382899446,0 33.46467717140454,35.13591102145576,0 33.46439959773512,35.13602144481818,0 33.46444074540883,35.13622978041882,0 33.46428075023233,35.13625556320359,0 33.46436336414678,35.13645298718333,0 33.4645044901269,35.13677216306291,0 33.46456737299373,35.13676129634577,0 33.46463914426711,35.13694360648347,0 33.46474510384301,35.13694909622377,0 33.46474986285084,35.13737406797854,0 33.46475621372301,35.13753599590613,0 33.4647806650045,35.13784140014964,0 33.46495356530399,35.13781271065922,0 33.46522944607119,35.13777508128155,0 33.46554284705402,35.13773879174814,0 33.46588564489974,35.13769442364858,0 33.465938636343,35.13785694648379,0 33.46599167885486,35.13802974141846,0 33.46611179658577,35.13833634497745,0 33.46616106236473,35.13846209780486,0 33.46626838250312,35.13879070574184,0 33.4662820426285,35.13885353915931,0 33.4663320793407,35.13902432184,0 33.46648767027326,35.13963716431787,0 33.46663386913614,35.13959737084245,0 33.46682931384267,35.13958171620075,0 33.46834296900544,35.13915982153437,0 33.46839666913363,35.13933507993804,0 33.46840764689573,35.13939274043825,0 33.46835433476628,35.13972300472803,0 33.46835142259252,35.13974104392292,0 33.46834370556617,35.13978885139348,0 33.4683722951706,35.14010101725476,0 33.46848871478267,35.14054608986326,0 33.46830015832195,35.1405958375379,0 33.46812870870018,35.14063185546294,0 33.46817222098418,35.14089882353237,0 33.46822551292108,35.14232104959741,0 33.46771586867316,35.14235477124304,0 33.46766502331099,35.14241453267095,0 33.46754920291729,35.1425310587522,0 33.46732805848052,35.14270205762096,0 33.46724598918085,35.14284330835305,0 33.46720936102586,35.14287774321295,0 33.46712537226057,35.14291915897223,0 33.46707811714958,35.14293672726181,0 33.4676846426745,35.14308720977791,0 33.46798168224749,35.14302639415174,0 33.4681686638355,35.14300685254152,0 33.46820255141458,35.14308891905911,0 33.46849557702692,35.14306939443182,0 33.46872519115131,35.1430395464204,0 33.46874322133746,35.14342487053443,0 33.46878607097192,35.14354329879678,0 33.4688293424527,35.14366503623805,0 33.46886324038042,35.14376079833475,0 33.46893357386246,35.14397321154817,0 33.46898799339247,35.14413286087537,0 33.4691386237929,35.1443958091155,0 33.46929107377245,35.14466357077331,0 33.46932544197155,35.14471759174855,0 33.46868244084522,35.14515627418643,0 33.46870458523588,35.14518588142527,0 33.4688440425599,35.1454298465297,0 33.46964972607142,35.14498954851085,0 33.4699351969371,35.14516589870443,0 33.46997550277469,35.14518918138864,0 33.47009255883562,35.14524857101888,0 33.47062240032057,35.14512446533386,0 33.47122687121131,35.14512093624074,0 33.47116513311801,35.14492295120135,0 33.4712186147882,35.14490150364087,0 33.47124206329359,35.14476672945271,0 33.47121132314834,35.14468018606697,0 33.47159233357527,35.14454548200674,0 33.47163027420298,35.144640782278,0 33.47173202521099,35.14474374389172,0 33.47178004587947,35.14476660113075,0 33.47184923349895,35.14480087954662,0 33.47201156093431,35.1448673319459,0 33.47208020553373,35.14487614700361,0 33.47216205677189,35.14487818614855,0 33.47231856968517,35.14490346428676,0 33.47258307259798,35.14489972341925,0 33.47252919201186,35.144777852967,0 33.47266259701089,35.14471245920067,0 33.47292686457708,35.14510352094754,0 33.47311828311476,35.14527605177241,0 33.47321082825527,35.1452459037717,0 33.47342324575941,35.1455581036214,0 33.47342406424855,35.14557929584686,0 33.47344285308639,35.14606571209628,0 33.47343980106268,35.14618091159011,0 33.47328188485726,35.14643747351343,0 33.47306884872865,35.1468542427654,0 33.47297283091149,35.1470600997581,0 33.47292699051398,35.14711202510193,0 33.47276128806642,35.14746540226637,0 33.47285255339478,35.14749567287213,0 33.47278964397162,35.1476684490798,0 33.47269867878766,35.14777058145707,0 33.47256765807504,35.14806967529266,0 33.47252291807155,35.14807345805777,0 33.47233126562954,35.14818653719999,0 33.47229946660229,35.14856751879331,0 33.47243522847196,35.14862323391552,0 33.47228982046524,35.14888842884726,0 33.47214670423462,35.14887738022826,0 33.47201157408957,35.14899819431842,0 33.47191874427882,35.14907280023725,0 33.47191355983465,35.14919255819406,0 33.47164673537717,35.15045376041672,0 33.47149414142562,35.15057505022121,0 33.47127161439609,35.1508742110515,0 33.47120019944837,35.1509781474421,0 33.47109067400382,35.15121312356235,0 33.47204314667023,35.15142659245191,0 33.4719496255552,35.15175333659407,0 33.47176851542424,35.15228134266429,0 33.4718409259887,35.15281802887985,0 33.47184665387156,35.15283379630836,0 33.47187774682421,35.15291938164805,0 33.47222341482828,35.15283330831912,0 33.47231246882099,35.15281113302824,0 33.47224505698341,35.15259762187748,0 33.4726215201256,35.15253652312065,0 33.47271136450931,35.15283267476137,0 33.47276058950741,35.15299493388507,0 33.47257751570241,35.1530559126279,0 33.47319591292425,35.15392464933271,0 33.47371928970142,35.15374677541271,0 33.47402186963267,35.15431588726057,0 33.4736628079762,35.15450262723456,0 33.47351852954288,35.15460849300131,0 33.47330284586506,35.15471799615111,0 33.4732399987376,35.15479046948545,0 33.473146856611,35.15480201505226,0 33.47307783027878,35.15485897239079,0 33.47292844520381,35.15490518777899,0 33.47220707843506,35.15561726454347,0</coordinates>
						</LinearRing>
					</outerBoundaryIs>
				</Polygon>
			</MultiGeometry>
		</Placemark>
	</Document>
</kml>