<?xml version='1.0' encoding='UTF-8'?>
<kml xmlns="http://www.opengis.net/kml/2.2">
	<Document>
		<name>LETYMVOU</name>
		<Style id="PolyStyle70">
			<LabelStyle>
				<color>00000000</color>
				<scale>0.000000</scale>
			</LabelStyle>
			<LineStyle>
				<color>ff0055ff</color>
				<width>2.000000</width>
			</LineStyle>
			<PolyStyle>
				<color>00828282</color>
				<outline>1</outline>
			</PolyStyle>
		</Style>
		<Placemark id="ID_70128">
			<name>LETYMVOU</name>
			<snippet />
			<description>&lt;html xmlns:fo="http://www.w3.org/1999/XSL/Format" xmlns:msxsl="urn:schemas-microsoft-com:xslt"&gt;

&lt;head&gt;

&lt;META http-equiv="Content-Type" content="text/html"&gt;

&lt;meta http-equiv="content-type" content="text/html; charset=UTF-8"&gt;

&lt;/head&gt;

&lt;body style="margin:0px 0px 0px 0px;overflow:auto;background:#FFFFFF;"&gt;

&lt;table style="font-family:Arial,Verdana,Times;font-size:12px;text-align:left;width:100%;border-collapse:collapse;padding:3px 3px 3px 3px"&gt;

&lt;tr style="text-align:center;font-weight:bold;background:#9CBCE2"&gt;

&lt;td&gt;6&lt;/td&gt;

&lt;/tr&gt;

&lt;tr&gt;

&lt;td&gt;

&lt;table style="font-family:Arial,Verdana,Times;font-size:12px;text-align:left;width:100%;border-spacing:0px; padding:3px 3px 3px 3px"&gt;

&lt;tr&gt;

&lt;td&gt;DIST_CODE&lt;/td&gt;

&lt;td&gt;6&lt;/td&gt;

&lt;/tr&gt;

&lt;tr bgcolor="#D4E4F3"&gt;

&lt;td&gt;VIL_CODE&lt;/td&gt;

&lt;td&gt;125&lt;/td&gt;

&lt;/tr&gt;

&lt;tr&gt;

&lt;td&gt;VIL_CCD&lt;/td&gt;

&lt;td&gt;6125&lt;/td&gt;

&lt;/tr&gt;

&lt;tr bgcolor="#D4E4F3"&gt;

&lt;td&gt;VIL_NM_E&lt;/td&gt;

&lt;td&gt;LETYMVOU&lt;/td&gt;

&lt;/tr&gt;

&lt;tr&gt;

&lt;td&gt;VIL_NM_G&lt;/td&gt;

&lt;td&gt;ΛΕΤΥΜΒΟΥ&lt;/td&gt;

&lt;/tr&gt;

&lt;/table&gt;

&lt;/td&gt;

&lt;/tr&gt;

&lt;/table&gt;

&lt;/body&gt;&lt;script type="text/javascript"&gt;

				function changeImage(attElement, nameElement) {

				document.getElementById('imageAttachment').src = attElement;

				document.getElementById('imageName').innerHTML = nameElement;}

			&lt;/script&gt;&lt;/html&gt;

</description>
			<styleUrl>#PolyStyle70</styleUrl>
			<MultiGeometry>
				<Polygon>
					<extrude>0</extrude>
					<altitudeMode>clampToGround</altitudeMode>
					<outerBoundaryIs>
						<LinearRing>
							<coordinates> 32.54500079361786,34.84874298622258,0 32.54453038824206,34.84877248570419,0 32.54426135283938,34.84876297552989,0 32.54315288829704,34.84878917123085,0 32.54288991871947,34.84877348700972,0 32.54276863617856,34.8487348749595,0 32.54268246198095,34.84862485197739,0 32.54255581666801,34.84850990720454,0 32.54241405299942,34.84843317788134,0 32.54231237928863,34.84842771390127,0 32.54221989542874,34.84843244726557,0 32.54191403068682,34.84856849490664,0 32.54193532159283,34.848619389292,0 32.54164616270231,34.84874972814466,0 32.54141442891085,34.84880608888154,0 32.54128149680898,34.84878173999011,0 32.54115984437619,34.8488098982397,0 32.54107154523518,34.84886101931321,0 32.54101150511015,34.84901166862865,0 32.5408776543253,34.8492182332934,0 32.54062721221356,34.84935357370232,0 32.54036711143654,34.84947677074594,0 32.54021954459067,34.84958255859878,0 32.53996359128715,34.84978431744027,0 32.53968131364947,34.84992750869438,0 32.53971250337094,34.84998812058194,0 32.54001447403299,34.84982894458116,0 32.54054235928329,34.85060496239417,0 32.54050882517367,34.85072672573271,0 32.54013946092928,34.85082856353739,0 32.54062036170365,34.85135014219367,0 32.54023740192194,34.85158635976118,0 32.54000359631309,34.8517701356593,0 32.53990305231121,34.85207155741353,0 32.53966822669413,34.85236406856812,0 32.53941813619171,34.85272092209903,0 32.539386779087,34.8529382080695,0 32.53943795222544,34.85321240527846,0 32.53918187240085,34.85342624291629,0 32.53905109585967,34.85356435719228,0 32.5389817345838,34.85392639006084,0 32.53857011709383,34.8537928691177,0 32.53863978238204,34.85339861838179,0 32.53838781292884,34.85334536886711,0 32.53840763798716,34.85345061056299,0 32.53842161962944,34.8536883407912,0 32.53840468296599,34.85397909172077,0 32.53840085766671,34.8542077859231,0 32.53839482613532,34.85437392626822,0 32.53844763208087,34.85451294655536,0 32.53853025919872,34.85465450214323,0 32.53835367061695,34.85498765659844,0 32.53841050231873,34.8551793263119,0 32.53821796657869,34.85512976623384,0 32.53814877112015,34.85521390163482,0 32.53795364015207,34.85518043549651,0 32.53762356198015,34.85520853187628,0 32.53765819890201,34.85542221001659,0 32.53664827813254,34.85578024020813,0 32.53657065519189,34.85572134368476,0 32.53628085091118,34.85588260262269,0 32.53605570365401,34.85592344900927,0 32.53573936466165,34.85604828913898,0 32.53552521598428,34.85621808591706,0 32.53530785998817,34.8564684100244,0 32.53510253677598,34.85647917634476,0 32.53471868020226,34.85625117404057,0 32.53482350970688,34.85601623637019,0 32.53439355627749,34.85603292811616,0 32.53407479079472,34.85613628323619,0 32.5339685975653,34.85627949360652,0 32.53386057736436,34.85643051956377,0 32.53366526794808,34.8568143012016,0 32.53352121254847,34.85706308040599,0 32.53336051211051,34.8573246221314,0 32.53321211514243,34.85739556557077,0 32.53298175841469,34.85752088169725,0 32.53283796389429,34.85768018244261,0 32.53277628683461,34.85781344767145,0 32.53254458526749,34.85802944161453,0 32.53247520907875,34.85813169644275,0 32.5323812494206,34.85850766326783,0 32.53227810769711,34.85856338478063,0 32.53212794112055,34.85868324293604,0 32.53209513057777,34.85879378811089,0 32.53208356597646,34.8589830060374,0 32.53200418651942,34.85910936080495,0 32.5318480796012,34.85933993654807,0 32.53174373417747,34.85952251599291,0 32.53169308006705,34.85971148237465,0 32.53167114671243,34.85996306056511,0 32.53159963097877,34.86003308019108,0 32.53139777190475,34.86019287933261,0 32.5313559498242,34.86031068398751,0 32.53120370039664,34.86057556351527,0 32.53113959672355,34.86073897789407,0 32.53107807370119,34.86091743096174,0 32.53095060362515,34.86120489656665,0 32.53084739734739,34.86133670335813,0 32.5307969569031,34.86147785243839,0 32.53074667895675,34.8615583966381,0 32.53063309990491,34.86167055963735,0 32.53059004671635,34.86182551381133,0 32.53059992168216,34.86207354473051,0 32.53052275907975,34.86221416594799,0 32.53041395801642,34.86233845528581,0 32.53016980775229,34.86254855958378,0 32.53001177931151,34.8627047873947,0 32.52997630058189,34.86295135487162,0 32.52993515849122,34.86304418546191,0 32.5297355023912,34.86323683141772,0 32.52963599554151,34.86338175021672,0 32.52934542066872,34.8638435520343,0 32.52920689900861,34.86400595247292,0 32.52898163513295,34.86407081837841,0 32.5288129691828,34.8643677312914,0 32.52878069775456,34.86458178689688,0 32.52903929108778,34.86465401938909,0 32.52918515583598,34.86500574461828,0 32.52890430717591,34.86521560859099,0 32.5287202000709,34.86502693016988,0 32.52844446012876,34.86547068178939,0 32.52816386056509,34.86642444617906,0 32.52804156219085,34.86642365516283,0 32.52798069473336,34.86690709944187,0 32.52807212408555,34.86706695550462,0 32.52794457413412,34.86736046411622,0 32.52799486348628,34.86747368602089,0 32.52812773454536,34.86739189059519,0 32.5281661526056,34.8672106993789,0 32.52841163436032,34.86711955274188,0 32.52869265424832,34.86714959464416,0 32.52893659872547,34.86721971530154,0 32.52896114407346,34.86746784171039,0 32.52886014998153,34.86754177933796,0 32.52876605037851,34.86766213064875,0 32.52853746003571,34.86777757951787,0 32.52843376729567,34.86787770839067,0 32.52842160350971,34.86812761347012,0 32.52846403684618,34.86829521453674,0 32.52855072988419,34.86843891161817,0 32.52855603406488,34.86865264034125,0 32.52842331469961,34.86871831009384,0 32.52849596645445,34.86879538794621,0 32.52861064118018,34.8688263696368,0 32.52883817861744,34.86882179332048,0 32.52891348922212,34.8688767121893,0 32.52890330064782,34.86891898165623,0 32.5286719357869,34.86906868450755,0 32.52895500813705,34.8695261293152,0 32.52867149733192,34.86950010415836,0 32.5282293193988,34.86943878005548,0 32.52795855775477,34.86935840279641,0 32.52775013775734,34.86915343971437,0 32.52714500150031,34.86899428755714,0 32.52693731990185,34.86896874973638,0 32.52672524683348,34.86889076600409,0 32.52660883691681,34.86878518008547,0 32.52659787732024,34.86865205379453,0 32.52649864829185,34.86854053108737,0 32.52623850400017,34.86837353171946,0 32.52614721024449,34.86819956375665,0 32.52597677930914,34.86811580232393,0 32.52583213427455,34.86800631864737,0 32.52577608992103,34.86799202415148,0 32.52552243640385,34.86792733009921,0 32.52526987173851,34.86778210359626,0 32.5247645761309,34.86781775938445,0 32.52452983936329,34.86796955234912,0 32.52421774853677,34.8681816845631,0 32.5241100969045,34.86832213622667,0 32.52388139577705,34.86876844008907,0 32.52342175291606,34.86896987464161,0 32.52326501881853,34.8689931906758,0 32.52288964018561,34.86902968325905,0 32.52259642493763,34.86912025266515,0 32.52196799510745,34.86936925384644,0 32.52186481491061,34.86965818493213,0 32.52154727386674,34.86982160036243,0 32.5212400633031,34.86983176366761,0 32.52114219968526,34.86987493029969,0 32.52083538804674,34.87015036253162,0 32.52041800735086,34.87056135670272,0 32.52016219126221,34.8707543761885,0 32.51970297117965,34.87090955993433,0 32.51945815716624,34.87118539394384,0 32.51912785614955,34.87113942645964,0 32.51862134615872,34.87129916151576,0 32.51809576040071,34.87098664574445,0 32.51777042791883,34.87103805297029,0 32.51707685255418,34.87099699827133,0 32.51693750280348,34.87105449090878,0 32.51674094273478,34.87122598959387,0 32.51661706269623,34.87121057390267,0 32.51656135781315,34.87116883590119,0 32.51643577219217,34.87102442586711,0 32.51632054022807,34.87103097079663,0 32.51605901310773,34.87120204045433,0 32.51588089793574,34.87129821594663,0 32.51571532455998,34.87131903060503,0 32.51558305466564,34.87125488577745,0 32.51534493163651,34.87114380573631,0 32.51519081634098,34.87120119874714,0 32.51503122038922,34.87121475090238,0 32.51473439940467,34.87137098441309,0 32.51451012140345,34.87135490623663,0 32.51441758883001,34.87145650896281,0 32.51436727385092,34.87146834669146,0 32.51428919734233,34.87129747685743,0 32.51420681950691,34.87096109066212,0 32.51385004171585,34.87120940571576,0 32.51367537265027,34.87125449385398,0 32.51246129063758,34.87098851836785,0 32.51205208942058,34.87116103973263,0 32.5117040757388,34.87111493504268,0 32.51147844924824,34.87123755969751,0 32.51134055168387,34.87144837513119,0 32.51094860312982,34.87136547267858,0 32.51082316826766,34.87120645604319,0 32.51067311578156,34.8711494891018,0 32.51033308151913,34.87119347864891,0 32.51001026276885,34.8709869149629,0 32.5094315269969,34.87128242024504,0 32.50901538220734,34.87125775846511,0 32.50871064382466,34.87131657938796,0 32.50863739272401,34.87125768647502,0 32.50845972129801,34.8713076137122,0 32.5076689610003,34.87123909010869,0 32.50746683015154,34.87107226042208,0 32.50689114192991,34.87135803852025,0 32.50679448318813,34.87157885785102,0 32.50646706796586,34.87154017564083,0 32.50663531353113,34.87094505102308,0 32.50677490914773,34.87056146337289,0 32.50550805620257,34.87056033472562,0 32.50506797281854,34.87117068199372,0 32.50486499637579,34.87078967971824,0 32.50466031736325,34.8699803467318,0 32.50419364648102,34.86938829106107,0 32.50407604512993,34.86903462897646,0 32.50394321389134,34.86842776433813,0 32.50378972489681,34.86812010182444,0 32.50374149182207,34.86792022071916,0 32.50369361282026,34.86768383828947,0 32.50372519443317,34.86747475473067,0 32.50373020310036,34.86726549419869,0 32.50368441742261,34.86711673625697,0 32.50353194053054,34.86730797814095,0 32.50330367239128,34.86739893200139,0 32.50314119929584,34.86740514888788,0 32.50298582892706,34.86728972958724,0 32.50254332090154,34.86724540115573,0 32.50225974548906,34.86755501163008,0 32.50196939285767,34.86765284999678,0 32.50140716734389,34.86747143336839,0 32.50123537630776,34.86722448451703,0 32.50001618472905,34.86718711421227,0 32.4998610840651,34.8670449230069,0 32.49978268289812,34.86691054619039,0 32.49996815328916,34.86666842614431,0 32.49987462696368,34.8665704529672,0 32.49996784423754,34.86610138382799,0 32.49997418211337,34.86575828189236,0 32.50009452271196,34.86553275962772,0 32.50026942698222,34.86546335673571,0 32.50024930990387,34.86510790902678,0 32.50088880974007,34.86463763130849,0 32.50096548217386,34.86464787981225,0 32.50056747425855,34.86428503399119,0 32.50077249954781,34.86385565189067,0 32.5004551052894,34.86370263941835,0 32.50038829652626,34.86329090522781,0 32.50060891385676,34.86302302653989,0 32.50054157917351,34.86279972831095,0 32.50061517087728,34.86267651121484,0 32.50060981919222,34.86252895202768,0 32.50050575371399,34.86252852462063,0 32.50046797289545,34.8622367258688,0 32.50014369125813,34.86182537673071,0 32.50047233351033,34.86165605726357,0 32.50057317518287,34.86161049277755,0 32.50044167862384,34.86117155516401,0 32.50018785749403,34.86086078125809,0 32.50002883018341,34.86081834324705,0 32.49979169382729,34.86061232726409,0 32.49956526671929,34.86010054786492,0 32.49948322748241,34.85997519627266,0 32.49954273038331,34.85967989787657,0 32.49945813470251,34.85968290485901,0 32.49887266974871,34.85966481589177,0 32.4988928688075,34.85946247607091,0 32.49901159937317,34.85941828103104,0 32.49914941658695,34.85928422271567,0 32.49924255296229,34.85906737528627,0 32.49941047872043,34.85864855860186,0 32.49946778756044,34.85870504596317,0 32.49964341849636,34.85869573030597,0 32.49990836464224,34.85869215517912,0 32.50002245341663,34.85857946599113,0 32.50036814917303,34.85855181360736,0 32.50068919424654,34.85839020373344,0 32.5008889709448,34.85814750597579,0 32.50102072961577,34.85808630903168,0 32.50109500587246,34.85792839892083,0 32.50122679398959,34.85773233964841,0 32.50136717771393,34.85771829491856,0 32.50150446640082,34.85762288352794,0 32.50151573660567,34.85740140060958,0 32.50117618780438,34.85720111882098,0 32.50117955512047,34.85712300686277,0 32.50134728779101,34.856968931465,0 32.50136984256646,34.85692872428577,0 32.50169803094181,34.85682357274165,0 32.50191298571068,34.85675329834964,0 32.5023632979,34.8566503461279,0 32.50247548227101,34.85659864975919,0 32.5029555642263,34.85624115561006,0 32.50301723873928,34.85630792834324,0 32.50326652820306,34.85617901270947,0 32.50340041070034,34.8560332705803,0 32.50362538635571,34.85613217259632,0 32.50372188846365,34.85622272371548,0 32.50385366817567,34.85629103418574,0 32.50402411272749,34.85599247917996,0 32.50398659461081,34.85597831421936,0 32.50391895779043,34.85598963713783,0 32.50385482389373,34.85590893392158,0 32.50388942782767,34.85569081810194,0 32.50397502436206,34.85556937220108,0 32.50429597544628,34.85515087315128,0 32.50451403607284,34.85489544694097,0 32.50472279069138,34.85492680732703,0 32.50486355489593,34.85500587950918,0 32.5049610952995,34.85499047438089,0 32.50504706682796,34.85483049816849,0 32.50509424698316,34.85452148706445,0 32.50528508034208,34.85426159738567,0 32.50549214917892,34.85419982744422,0 32.50565288996933,34.85422765567284,0 32.50575397204458,34.85411594294511,0 32.50592111399314,34.85402072620658,0 32.5058164975602,34.85383058180182,0 32.50562028988881,34.85371153914063,0 32.50578904470959,34.85358422261106,0 32.50593495068753,34.85353595838622,0 32.50591918075557,34.85342239875823,0 32.50615116896225,34.85333510552945,0 32.5062752821904,34.85325779640152,0 32.50637169222288,34.85295981622252,0 32.50618140185919,34.8528996822179,0 32.50635894922252,34.85266967176843,0 32.50650138654289,34.85257749993816,0 32.50666785372715,34.85241805732526,0 32.50672746500271,34.85243022694478,0 32.5068747073865,34.85224496820088,0 32.5068166361926,34.85220819112549,0 32.50697407660353,34.85204226618905,0 32.50729727092845,34.85192239555952,0 32.50731185523794,34.8517587317935,0 32.50749371182904,34.8516186564633,0 32.50766791667909,34.85159733603273,0 32.50793233834304,34.85164511597663,0 32.50804077496888,34.85171005437528,0 32.50811624907499,34.85169343063031,0 32.50808709294657,34.85135501276139,0 32.50865230361468,34.85118322791271,0 32.50867678249769,34.85106993484585,0 32.50913362025083,34.85095950891916,0 32.50913453826197,34.8508653258097,0 32.50920851039309,34.85073630575106,0 32.50882392585608,34.85022856114186,0 32.50847477103786,34.8498163090694,0 32.5081634714129,34.84951669240451,0 32.50832950305342,34.84940112767671,0 32.50844887500035,34.84927669059071,0 32.50853434328722,34.84916701356852,0 32.50896271117983,34.84904569465553,0 32.50920565474036,34.84889852916768,0 32.50956257039787,34.84878101681629,0 32.5098515850262,34.84870265602871,0 32.50994805808696,34.8486626224453,0 32.51016388005473,34.8485002908084,0 32.51048092941487,34.84834290859022,0 32.51065931614249,34.8481578515462,0 32.51090462197109,34.84803424492452,0 32.51112981582986,34.84797579501899,0 32.51117808375079,34.84795256692429,0 32.51120709510083,34.84790673445939,0 32.51119771742429,34.84780285007837,0 32.51111747388066,34.84764284031833,0 32.5112472884646,34.84751204758447,0 32.51129128857472,34.84739353188331,0 32.51141312487358,34.84728195263524,0 32.5114941395694,34.84736276305232,0 32.51163560526245,34.84736904807787,0 32.51177371490718,34.84731965559246,0 32.51186397607872,34.847250680066,0 32.51191264837595,34.847185711249,0 32.51189688202285,34.84707108135235,0 32.51186808251431,34.84696171763873,0 32.51192300833196,34.84678761591498,0 32.51189677361164,34.84668148063392,0 32.51174527857994,34.84650494497051,0 32.51174439649519,34.84646212666391,0 32.51184175994953,34.84646383988034,0 32.51189160351494,34.8464117230769,0 32.51187275597669,34.8462135876747,0 32.51196215285614,34.8460996519999,0 32.51211242383098,34.84600110283174,0 32.51238264842234,34.8458508996734,0 32.51256293568797,34.84573649405878,0 32.5126334758761,34.84568213416728,0 32.51266890849951,34.84565482910622,0 32.51259187128999,34.8455387467352,0 32.51260376239658,34.84548716443332,0 32.51297596021698,34.84498946869655,0 32.51326746371529,34.84488337774656,0 32.51345321923312,34.844816505747,0 32.51356641556092,34.84459652853315,0 32.51360416221752,34.84452163642579,0 32.51373936553453,34.84438163984541,0 32.51374426140325,34.84417034028996,0 32.51369129425376,34.84375906744684,0 32.51370038350418,34.8437027728074,0 32.51396251708656,34.84339454642289,0 32.51394742998875,34.84318781119028,0 32.51391492115872,34.84301618322247,0 32.51388981838505,34.84296201182641,0 32.51402962280392,34.84293475473355,0 32.51426655620096,34.84287526407658,0 32.51437104652427,34.84267166377658,0 32.51451704673512,34.84259278825406,0 32.51486164498117,34.84259035997869,0 32.5154157687012,34.84241789494823,0 32.51564058699466,34.84243346223077,0 32.51575745058531,34.84242248825373,0 32.51615066963905,34.8421033783121,0 32.51620799473218,34.84177031951828,0 32.51623954457677,34.84174704631257,0 32.51634241598888,34.84171015109204,0 32.51644991719515,34.84178365014751,0 32.51651547948569,34.84177703637896,0 32.51679782316563,34.84143841085308,0 32.51708850122989,34.84112097093288,0 32.51734487287785,34.84081739534481,0 32.51794352479167,34.84045501218655,0 32.51810425376791,34.8403245696714,0 32.51882464022293,34.84003577116683,0 32.51885135067261,34.83992323549924,0 32.5189172507054,34.83988140067176,0 32.51896418756643,34.83973847176502,0 32.51942892778923,34.83938224833727,0 32.51994322617978,34.83920245758801,0 32.51982022005371,34.838964491092,0 32.51982433564979,34.83883302316953,0 32.51978609778013,34.83866370781934,0 32.51983895226533,34.8384973355876,0 32.52000396544383,34.83821663718935,0 32.52026576296275,34.8382347856078,0 32.52044528539481,34.83822186999735,0 32.52061808900837,34.83801871006143,0 32.5209137848774,34.83776939157089,0 32.52123942213755,34.8376635022052,0 32.52157095441314,34.83753651888834,0 32.5220354586714,34.83749962981515,0 32.52205624367952,34.83741053641047,0 32.52190950843102,34.83727103958898,0 32.52185357536398,34.83716500857388,0 32.52178943996564,34.83702370253958,0 32.52176572996978,34.83682395631204,0 32.52176461306104,34.83664314262759,0 32.52176386428273,34.83642476101412,0 32.52187971743396,34.83622122925581,0 32.52176015266087,34.83621810090573,0 32.52158947214055,34.83620055028113,0 32.52141693522016,34.83607966980487,0 32.52128141201779,34.83595903120476,0 32.52103816690264,34.83578837736835,0 32.5209133157834,34.83574294796945,0 32.52078579461003,34.83567871557518,0 32.52061940620008,34.83551091111867,0 32.52039028820617,34.8353520889885,0 32.52036526961966,34.83528852616486,0 32.52032429830902,34.83510745162371,0 32.52029645759522,34.83504152218914,0 32.52036332227338,34.8348987234725,0 32.52034691350998,34.83482817145684,0 32.52028953596457,34.83457654668402,0 32.5202912510422,34.83439809956783,0 32.52031253569034,34.83425735037871,0 32.52027479633373,34.83403637901202,0 32.52062271727397,34.83368408342591,0 32.52068774817384,34.83343560575904,0 32.52072003776519,34.83333484632248,0 32.52090751971163,34.83308482084597,0 32.5205836826886,34.83300521697984,0 32.52030506068542,34.83296113067785,0 32.51989221811379,34.83295843204185,0 32.51963890603609,34.83294738368492,0 32.51953954730562,34.83291620797353,0 32.51914261133174,34.83273985007121,0 32.5193318587421,34.832602547571,0 32.51944140792133,34.83246237618146,0 32.51957940470147,34.83232473920965,0 32.51970542685104,34.83224807430164,0 32.51964658390766,34.83214906737776,0 32.51945670464665,34.83235211364813,0 32.51926899496871,34.83232975274221,0 32.51919833469996,34.83227528331798,0 32.51918208773343,34.83189243082959,0 32.51937381785552,34.83149684969163,0 32.51942095377365,34.83133278776957,0 32.51943883687469,34.83122196301883,0 32.51947836417057,34.83116055246811,0 32.51991585742322,34.83102072990246,0 32.51947288998479,34.83070578578247,0 32.51958106877928,34.83028308421498,0 32.52044519367618,34.83010776735421,0 32.52038165869441,34.82983822634521,0 32.520526559894,34.82969300906456,0 32.52052704703526,34.82949580786177,0 32.5210840536287,34.82936256105414,0 32.52133976683776,34.82925170744719,0 32.52165662303639,34.82922013399497,0 32.52193644428915,34.82923587873823,0 32.52222029813543,34.82927136944723,0 32.52241041969689,34.82925172803532,0 32.52197872719423,34.82893454754648,0 32.52178765243247,34.82876045734345,0 32.5216679799677,34.82862279363924,0 32.52270371751042,34.82756695881869,0 32.52299719180591,34.82762571111583,0 32.52298893646654,34.82731244993741,0 32.52336872893267,34.82702491516771,0 32.52375897674646,34.82667364573673,0 32.52369368291883,34.82644005524008,0 32.52386758046928,34.82635070431697,0 32.52390109106801,34.82608295546039,0 32.52402926408347,34.82592022547907,0 32.52419832127825,34.82574848036749,0 32.52457357164866,34.82549339303016,0 32.52465201853552,34.82538137974498,0 32.52467193536086,34.82521098475009,0 32.52473965908449,34.8250432203194,0 32.52494208624208,34.82476496916357,0 32.52519980723193,34.82444183424511,0 32.5253168158146,34.82421936840071,0 32.52561388840235,34.82365454325086,0 32.52620606118835,34.82294927350437,0 32.52624427351755,34.82285381970942,0 32.52632620273371,34.82273224640672,0 32.52646074722208,34.82203378804372,0 32.52683732972473,34.8220695305388,0 32.52684640009715,34.82253026031539,0 32.52723873741773,34.82303232283025,0 32.52737970923895,34.8230720869261,0 32.52737054570769,34.82332733924251,0 32.52731522318135,34.82348238715071,0 32.52717208673963,34.82367016865278,0 32.52720357154291,34.82389793162344,0 32.52752695303815,34.82386672598865,0 32.52776898640806,34.8238960421961,0 32.52793777869733,34.82384163255416,0 32.52821972045129,34.82392115895921,0 32.52807096367866,34.82399235045707,0 32.52796852830933,34.82414709600066,0 32.52800201881522,34.82416396122905,0 32.52837882353284,34.82417749999758,0 32.52841551243777,34.82423141872355,0 32.52848503763855,34.82433359276612,0 32.52862664313989,34.82430675833319,0 32.52899713951653,34.82427585122023,0 32.52905618323386,34.82443719026553,0 32.52891405065613,34.82451952412744,0 32.52876590481326,34.82523454681013,0 32.52865758254408,34.82530045179321,0 32.52896822500678,34.82590188448532,0 32.52912929000888,34.82595287790804,0 32.52916829781343,34.82609743557093,0 32.52950183238367,34.82641595367254,0 32.52954884270768,34.8264273575317,0 32.52961630478102,34.82641114360615,0 32.52973157288358,34.82632308372146,0 32.5298871151577,34.82624638429476,0 32.53002104519048,34.82631940121315,0 32.53016848854087,34.82638695604255,0 32.53029547842725,34.82648212947326,0 32.5304851483688,34.82635569680333,0 32.5310572049769,34.82636493619655,0 32.53115700766171,34.82648768455402,0 32.53123966941078,34.82699883922428,0 32.53148876354851,34.82699489308132,0 32.53137838636997,34.827277244379,0 32.53141120122454,34.82736626027813,0 32.5306816943118,34.82763351974064,0 32.53067985219874,34.82782776729853,0 32.52994324548226,34.82813382815763,0 32.52982528840818,34.82850493268992,0 32.52985736311608,34.8286716468942,0 32.52932024178988,34.82923430229527,0 32.52930514670168,34.82940626350636,0 32.52926296749519,34.82959469834686,0 32.52919370940454,34.82979961041221,0 32.52904388559271,34.82998180070486,0 32.52891887677969,34.83038615817875,0 32.52921409155633,34.83048797137374,0 32.52897375736957,34.83098594083399,0 32.52888418066728,34.83128337557201,0 32.52863514469119,34.83211027122374,0 32.52856825222765,34.83260628933434,0 32.5283643750286,34.83271019799217,0 32.5280307778364,34.83303451051341,0 32.52777904169901,34.83318127724954,0 32.52734780758801,34.83327696638686,0 32.52708681698074,34.83336431322516,0 32.52648121987199,34.83304201225519,0 32.52616068884469,34.83336775416607,0 32.52610564855159,34.83347728131439,0 32.52609472363211,34.83349902210075,0 32.52593555107743,34.83372923235558,0 32.52590403180449,34.83404837500665,0 32.52591815725868,34.83435842058903,0 32.52593228280499,34.83466846615484,0 32.52591535898976,34.83495013320781,0 32.52592390309663,34.83524840219293,0 32.52582552517714,34.83541213253206,0 32.52582904711645,34.83593813836121,0 32.52590368441747,34.83617343689629,0 32.52582629243797,34.83652515538322,0 32.52586335499085,34.83711712592444,0 32.52561229442249,34.83746536910333,0 32.52547046558514,34.83770630664387,0 32.52521460450409,34.83796059193349,0 32.52520283354511,34.83800043296328,0 32.52544952325744,34.8387064767817,0 32.52547344701691,34.83888508881539,0 32.52552183036777,34.83888775290746,0 32.52576244609675,34.83873903215261,0 32.5258610524608,34.83855182212024,0 32.52593862538063,34.83847953320093,0 32.52605775961986,34.8384963847296,0 32.5262211717592,34.83851950054556,0 32.52638046182574,34.83845982524986,0 32.52640234031963,34.83856789227733,0 32.52641259733699,34.83869342004265,0 32.5263798998199,34.83886183970803,0 32.52645536068268,34.83901342237154,0 32.52673141977125,34.83906377763122,0 32.52699259472059,34.8389588948916,0 32.52712374084271,34.83910544276971,0 32.52722874574302,34.83924777292663,0 32.52733597000955,34.83950074007947,0 32.52754390025121,34.83948859595718,0 32.52747730772065,34.83960822986599,0 32.52738817556844,34.84003260478013,0 32.52728164283126,34.84022213075847,0 32.52724261503313,34.84071158324037,0 32.52771707888954,34.84072005194022,0 32.52778913105622,34.84088645101937,0 32.5281277401151,34.84072675687677,0 32.52833114935724,34.84067411107043,0 32.52844913970398,34.84065598713016,0 32.52861589757995,34.84067190569038,0 32.52879544874561,34.84071893363387,0 32.52970140300474,34.83991940352844,0 32.5297853260249,34.83987002971554,0 32.52990182721798,34.84000838518797,0 32.52996773706084,34.84013292429004,0 32.52996903989573,34.84016800710468,0 32.52965266370231,34.84039935058221,0 32.53008726262674,34.84064228747932,0 32.52979539057485,34.84087783563533,0 32.52981292340199,34.84109919276138,0 32.52982069525832,34.84114241444802,0 32.52993920718674,34.8412416596033,0 32.52988281465178,34.84149356840031,0 32.52994897959768,34.84159112744373,0 32.53009987206738,34.84172700592271,0 32.53035980609133,34.84192564441879,0 32.53058794165418,34.84185426733223,0 32.53084595000846,34.84173856399801,0 32.53149886227043,34.8422567606453,0 32.53168262530744,34.84237800987962,0 32.53208608541673,34.84228212673911,0 32.53235372024724,34.84218671802986,0 32.53243842206287,34.84205505645901,0 32.53294205538411,34.84226739848807,0 32.53344955110195,34.84241770796787,0 32.53370127218435,34.84244765544303,0 32.53440972741527,34.84263162923576,0 32.53449855319538,34.84240960533813,0 32.53486606801733,34.84213405881241,0 32.53514649851692,34.84241645979112,0 32.53543509217569,34.84252758324072,0 32.53547569308992,34.84256022082839,0 32.53553425228893,34.84277104812286,0 32.53570659242683,34.84288951991692,0 32.53582795090085,34.84268794040587,0 32.53595968174572,34.84260109519245,0 32.53734679239491,34.8419637768292,0 32.53848059213259,34.8414637789762,0 32.53836356655633,34.84137938997655,0 32.53843426775362,34.84134341672991,0 32.53879095028412,34.84152242032688,0 32.53901276299958,34.84160073193578,0 32.53902183342938,34.84168038341454,0 32.53908273350988,34.84181702661093,0 32.53921036611969,34.84199186786209,0 32.53970468817714,34.8425009146792,0 32.54102712678356,34.84212620763346,0 32.54136245592412,34.84248988705441,0 32.54173069729823,34.84300891593107,0 32.54190587839169,34.84317461438303,0 32.54207352207685,34.84327146277122,0 32.54221853137256,34.84333916147575,0 32.54234507925191,34.84345598490015,0 32.54251107433975,34.84355417053114,0 32.54260897567862,34.84358447197321,0 32.54270617168883,34.84369031506519,0 32.54281258116497,34.84386097027453,0 32.54309825225904,34.84446176348699,0 32.54323665849822,34.84471086561777,0 32.54338332663557,34.84442579919565,0 32.54339772707628,34.84428558901165,0 32.54336097236499,34.84401554421832,0 32.54303573051931,34.84309612551515,0 32.54291295847308,34.84292536482434,0 32.54280370615388,34.84270882284132,0 32.54281073119891,34.84265760410728,0 32.54289436053303,34.8424638723361,0 32.54273697734573,34.84214449775209,0 32.54260049184712,34.84169034679041,0 32.54235198567866,34.84131642891691,0 32.54236563094504,34.84125715909011,0 32.54247581765354,34.84102312395945,0 32.54248531054456,34.84070750725976,0 32.54251545081153,34.84028409447308,0 32.54262238933514,34.84004734172239,0 32.5426103319322,34.83993664260598,0 32.54259457472719,34.8398717877204,0 32.54244867402474,34.83972516306481,0 32.54275372021893,34.8396515526433,0 32.54309760687455,34.83962405727888,0 32.543658229953,34.83951699175912,0 32.54381961532313,34.83975814685866,0 32.544784242238,34.83984520347835,0 32.54485118972038,34.84073869990279,0 32.54502268208967,34.84305745890263,0 32.54504584860905,34.84338137845845,0 32.54504121794308,34.84352704577996,0 32.54492658026745,34.84388786593915,0 32.54483595715349,34.84413012182617,0 32.54470840295287,34.84447197305232,0 32.54449810095089,34.84491312982183,0 32.54428376857408,34.84543520426541,0 32.54420419280934,34.84588633692596,0 32.54416549826108,34.84610571261835,0 32.54434152341749,34.84661429536241,0 32.54444883323847,34.84689488767666,0 32.54473421995026,34.8474645760673,0 32.54489623242566,34.84790460048428,0 32.54499024324247,34.84830190612007,0 32.54500079361786,34.84874298622258,0</coordinates>
						</LinearRing>
					</outerBoundaryIs>
				</Polygon>
			</MultiGeometry>
		</Placemark>
	</Document>
</kml>