<?xml version='1.0' encoding='UTF-8'?>
<kml xmlns="http://www.opengis.net/kml/2.2">
	<Document>
		<name>LOUTROS</name>
		<Style id="PolyStyle70">
			<LabelStyle>
				<color>00000000</color>
				<scale>0.000000</scale>
			</LabelStyle>
			<LineStyle>
				<color>ff0055ff</color>
				<width>2.000000</width>
			</LineStyle>
			<PolyStyle>
				<color>00828282</color>
				<outline>1</outline>
			</PolyStyle>
		</Style>
		<Placemark id="ID_70375">
			<name>LOUTROS</name>
			<snippet />
			<description>&lt;html xmlns:fo="http://www.w3.org/1999/XSL/Format" xmlns:msxsl="urn:schemas-microsoft-com:xslt"&gt;

&lt;head&gt;

&lt;META http-equiv="Content-Type" content="text/html"&gt;

&lt;meta http-equiv="content-type" content="text/html; charset=UTF-8"&gt;

&lt;/head&gt;

&lt;body style="margin:0px 0px 0px 0px;overflow:auto;background:#FFFFFF;"&gt;

&lt;table style="font-family:Arial,Verdana,Times;font-size:12px;text-align:left;width:100%;border-collapse:collapse;padding:3px 3px 3px 3px"&gt;

&lt;tr style="text-align:center;font-weight:bold;background:#9CBCE2"&gt;

&lt;td&gt;1&lt;/td&gt;

&lt;/tr&gt;

&lt;tr&gt;

&lt;td&gt;

&lt;table style="font-family:Arial,Verdana,Times;font-size:12px;text-align:left;width:100%;border-spacing:0px; padding:3px 3px 3px 3px"&gt;

&lt;tr&gt;

&lt;td&gt;DIST_CODE&lt;/td&gt;

&lt;td&gt;1&lt;/td&gt;

&lt;/tr&gt;

&lt;tr bgcolor="#D4E4F3"&gt;

&lt;td&gt;VIL_CODE&lt;/td&gt;

&lt;td&gt;453&lt;/td&gt;

&lt;/tr&gt;

&lt;tr&gt;

&lt;td&gt;VIL_CCD&lt;/td&gt;

&lt;td&gt;1453&lt;/td&gt;

&lt;/tr&gt;

&lt;tr bgcolor="#D4E4F3"&gt;

&lt;td&gt;VIL_NM_E&lt;/td&gt;

&lt;td&gt;LOUTROS&lt;/td&gt;

&lt;/tr&gt;

&lt;tr&gt;

&lt;td&gt;VIL_NM_G&lt;/td&gt;

&lt;td&gt;ΛΟΥΤΡΟΣ&lt;/td&gt;

&lt;/tr&gt;

&lt;/table&gt;

&lt;/td&gt;

&lt;/tr&gt;

&lt;/table&gt;

&lt;/body&gt;&lt;script type="text/javascript"&gt;

				function changeImage(attElement, nameElement) {

				document.getElementById('imageAttachment').src = attElement;

				document.getElementById('imageName').innerHTML = nameElement;}

			&lt;/script&gt;&lt;/html&gt;

</description>
			<styleUrl>#PolyStyle70</styleUrl>
			<MultiGeometry>
				<Polygon>
					<extrude>0</extrude>
					<altitudeMode>clampToGround</altitudeMode>
					<outerBoundaryIs>
						<LinearRing>
							<coordinates> 32.75911563255001,35.16840771395271,0 32.75888968434636,35.16870370343224,0 32.75865456287528,35.16908215771922,0 32.75849821891282,35.16927474305513,0 32.75830221157818,35.16938935275903,0 32.75810083167716,35.16944971777718,0 32.75749118093644,35.16959778330242,0 32.75482674347809,35.17046242323442,0 32.75370719276033,35.17086034571444,0 32.75341684156491,35.17091557600683,0 32.75097169936285,35.17160906047209,0 32.74931436223486,35.17213173479115,0 32.74694210459118,35.1729756346347,0 32.74691396445392,35.17298564447393,0 32.7469087516532,35.17298791682693,0 32.74684326878206,35.17266999256289,0 32.74673869796161,35.17187646137855,0 32.74704933063864,35.17182450205969,0 32.74710002757746,35.1710111552291,0 32.74696494501459,35.17100641210875,0 32.7469018887852,35.17071848511426,0 32.74734900448416,35.17046993268969,0 32.74729941842237,35.17040395406864,0 32.74647591357975,35.17008780532294,0 32.74635221064717,35.16988588341474,0 32.74638260828427,35.16983260853303,0 32.74653324680625,35.16975935427806,0 32.74646530644446,35.16945496713765,0 32.74648592406923,35.16936877516984,0 32.74708232368498,35.16924008504452,0 32.74767483214822,35.16895112217985,0 32.74746591717673,35.16876934590798,0 32.7476327939381,35.16851947766732,0 32.74763839436547,35.16843321453928,0 32.74742845367818,35.16839935849778,0 32.7475910131343,35.16805085370996,0 32.74771102127257,35.16806374313328,0 32.74779780280534,35.16781760815508,0 32.74803296302655,35.16782281814067,0 32.74799999710376,35.16824589289585,0 32.74805939076676,35.16834067695801,0 32.74833938807875,35.16837486135163,0 32.74899961299209,35.16769996113469,0 32.74901570879937,35.16754389271131,0 32.74910160391888,35.1674251335947,0 32.7491427150842,35.16726918275651,0 32.74876503652017,35.16688938652236,0 32.7489024488794,35.16655719894665,0 32.74885818289185,35.16644604835852,0 32.748263691578,35.16630356051354,0 32.74778314449418,35.16632596402941,0 32.74736575074259,35.16613995388857,0 32.74731772871806,35.16610858866218,0 32.74718619307583,35.16602267849473,0 32.74705136003189,35.16610733959395,0 32.74614901363785,35.16672920035641,0 32.7455865977546,35.16701008034738,0 32.74534017164054,35.16718560781675,0 32.74524552662332,35.16712352860208,0 32.74540176602129,35.16696401177863,0 32.74566280261987,35.16684607736577,0 32.74551880618127,35.16668514905103,0 32.74575582278751,35.1664232851681,0 32.74580214895447,35.16623859713486,0 32.7458364230467,35.16612064059707,0 32.74584714952723,35.16610168501957,0 32.74596724973363,35.1658894624498,0 32.74625968667738,35.16558407694789,0 32.74631391633494,35.1652295255174,0 32.74647131573418,35.1649253529335,0 32.74655767928638,35.16480379499886,0 32.74654021463656,35.16472609920091,0 32.74658425894268,35.16454151059932,0 32.74680376488637,35.16436698518749,0 32.74664329677144,35.16414263001943,0 32.74655332204496,35.16381327284413,0 32.746284040516,35.16370297898175,0 32.74632090999981,35.16357933985094,0 32.7462112865723,35.16348642733133,0 32.74605380356911,35.16348014446918,0 32.74592272156803,35.16323744692,0 32.74582590660659,35.16324438382969,0 32.74568754620641,35.16307741815706,0 32.74559325658631,35.16272216924284,0 32.74565160084993,35.16242307535526,0 32.74561316266192,35.16180383139685,0 32.74555743366594,35.16172780378703,0 32.74567383814467,35.16117026939333,0 32.74561498664416,35.16089649670261,0 32.74565311658669,35.16059176437663,0 32.74573579087392,35.16003037581503,0 32.74550309484576,35.1598389434094,0 32.74537406405368,35.15962582171642,0 32.74534432765646,35.15937251323458,0 32.74488238965889,35.15881780244826,0 32.74482370516107,35.15884339764325,0 32.74459794446685,35.15862612408638,0 32.74412177116244,35.15850006792596,0 32.74405331973993,35.15831310248882,0 32.74407470731776,35.1581505835286,0 32.74375719898661,35.15753926249101,0 32.74320950713067,35.1570229473998,0 32.74310997200141,35.15677669972948,0 32.74321531491756,35.15619324473513,0 32.74294837825592,35.15607371529581,0 32.74287099688463,35.1558774673754,0 32.74298469355929,35.15570799269295,0 32.74298610411036,35.15550657294875,0 32.7427427328032,35.15523562237392,0 32.74259839256854,35.1549614428844,0 32.74228580019163,35.15493594295784,0 32.7421863346241,35.15468045433254,0 32.74235408657518,35.15418230074134,0 32.74215027851731,35.1540464369347,0 32.74214438328012,35.15392444396453,0 32.74229143982009,35.15381056633181,0 32.74231922578105,35.15305673418155,0 32.74206846143411,35.15223690532905,0 32.74213020033663,35.15157975580653,0 32.74217886254447,35.15106178914693,0 32.74213328922207,35.15071549863163,0 32.74201303729996,35.1503688570989,0 32.741791636311,35.14999545271331,0 32.74122388644076,35.14957222102151,0 32.74034189600205,35.14908616464446,0 32.7405304505515,35.14881983808933,0 32.74059676332067,35.14849160265165,0 32.74051305367504,35.1475011746825,0 32.74057359910739,35.14723424026369,0 32.74086095092392,35.14656974049299,0 32.74040070063941,35.1460331145549,0 32.74070419864987,35.14458893213641,0 32.74122247421019,35.14217763623763,0 32.74126615368996,35.14203328135872,0 32.74180431097911,35.14210592044083,0 32.74246080823209,35.14203455344541,0 32.74297787566267,35.14207204183027,0 32.74336667479974,35.14214834850961,0 32.74373456230018,35.14216322592446,0 32.74406028570061,35.14210781274792,0 32.74499261276979,35.14225238581153,0 32.74502866370463,35.14243654365332,0 32.7458122628775,35.14249279693653,0 32.74618933938355,35.14272236270256,0 32.74621495948504,35.14287142651784,0 32.74638551113541,35.14288974946683,0 32.74642875356392,35.14280671971779,0 32.74680592004002,35.14302314308454,0 32.74727002975383,35.14300779742423,0 32.74734258828278,35.1433104030399,0 32.74814126766125,35.14350251245543,0 32.74813818619963,35.14317832881719,0 32.74854475455712,35.14300062311104,0 32.74890756285497,35.14298041599103,0 32.74918016278883,35.14289407619869,0 32.74945743026252,35.14290413165216,0 32.74975556525327,35.14297999599034,0 32.75019831792749,35.14296891904056,0 32.75065109542055,35.14304988091286,0 32.75079066689237,35.14291911112316,0 32.75105187638125,35.1429378509859,0 32.75140329379641,35.1430227193844,0 32.75170095811811,35.14316866572879,0 32.7523135495603,35.14327665014019,0 32.75242096500161,35.14316763122196,0 32.7523157209738,35.1429612506619,0 32.75235048860851,35.14255838966231,0 32.75248165569661,35.14193800043934,0 32.75251480602481,35.14193271470857,0 32.75279297172889,35.14181134685915,0 32.75290089826184,35.14162785902708,0 32.75324405742017,35.14136223032137,0 32.75358133411343,35.14117542547616,0 32.75428617328893,35.14105164986431,0 32.75467672060987,35.14087385042221,0 32.75515208343283,35.14077091147276,0 32.75544531104083,35.14078540865292,0 32.75569578511001,35.14081284873761,0 32.75613665749078,35.14107334298426,0 32.75656315159404,35.14109721336279,0 32.75674825939278,35.14132586390528,0 32.75704541948206,35.14154626566618,0 32.75785309327678,35.14198367065689,0 32.75809734613281,35.14214249824423,0 32.75838503467712,35.14218762860791,0 32.75904840457007,35.14267255007705,0 32.75896786939969,35.14275103201033,0 32.75894015849174,35.14290422729636,0 32.75882807289096,35.14291685378576,0 32.75885339949503,35.14311410254597,0 32.75934923223512,35.14313828408571,0 32.75971755344744,35.14309178502529,0 32.75984563680385,35.14307922637742,0 32.7597815881829,35.14387183735558,0 32.75990406889548,35.14389868413408,0 32.76070606001525,35.14386980037472,0 32.76077320120655,35.14380505078919,0 32.76087342100379,35.14377982901087,0 32.76102826976549,35.14407029641696,0 32.76151611548047,35.14413020212623,0 32.76166068602227,35.14414795487391,0 32.76164299696855,35.14426911744211,0 32.76151484308576,35.14431809726704,0 32.76148249477584,35.14433046035207,0 32.76122169875079,35.14436693313301,0 32.76116073153167,35.14444369461837,0 32.76138804305203,35.14449686825878,0 32.761513149133,35.14456811362238,0 32.76163547370928,35.14463777412539,0 32.76211736422937,35.14474333172191,0 32.76230263112847,35.14473406739044,0 32.76263422323768,35.14458199704041,0 32.76283149971495,35.14454175794688,0 32.76306160773904,35.14458394580971,0 32.76327858430299,35.14459316036979,0 32.76348639383195,35.14447617993317,0 32.76372399375578,35.14439772734498,0 32.76398856510481,35.14428100093055,0 32.76452701856009,35.14415180731589,0 32.76476805025099,35.14405965619743,0 32.76482858122358,35.1439440496375,0 32.76516185643445,35.14408886924497,0 32.76561607875387,35.14407173321511,0 32.76613106409728,35.14395613792795,0 32.76620658285484,35.1436493141029,0 32.76643777681976,35.14352968930681,0 32.76675192639824,35.14348723072805,0 32.76708691972468,35.14332419360766,0 32.76747127621329,35.1432683380074,0 32.76749312417297,35.14349606831263,0 32.76777287390053,35.14360429190626,0 32.76779440615913,35.1443777892526,0 32.76771181087628,35.14474491882377,0 32.76768748056774,35.14538656540651,0 32.76730661612776,35.14541775423182,0 32.76730261596234,35.14551646830002,0 32.76766702329133,35.14544955144141,0 32.76741606189564,35.14602709519491,0 32.76718341009203,35.14636337769297,0 32.76709702949686,35.14679630912033,0 32.76742707901361,35.14687459357296,0 32.76783785111606,35.14686547938174,0 32.76834637712639,35.14671967888287,0 32.76839899401766,35.14684058828892,0 32.76854158234941,35.14698932913583,0 32.7686684634484,35.14698990134842,0 32.76862315074978,35.14727492249148,0 32.76848815798584,35.1474882332982,0 32.76866762345737,35.14761519982261,0 32.76908731858338,35.14777067489815,0 32.76932659059728,35.14744264745843,0 32.76944690673609,35.14742673320838,0 32.76954425227496,35.14735038111059,0 32.76973780648939,35.14736770718508,0 32.76973049470016,35.14796280804487,0 32.76983637552849,35.14810863996669,0 32.76988022289574,35.14804301633942,0 32.76987588741857,35.1476919501829,0 32.77001667636603,35.14761030694098,0 32.77011668506155,35.14763544035814,0 32.77027059108237,35.14758950917471,0 32.77039625136429,35.14777382568283,0 32.77049660641259,35.14774685110464,0 32.77054599744927,35.14785129022062,0 32.77068567250272,35.14793693648343,0 32.77088594475109,35.14794880642658,0 32.77085779138631,35.14766345535045,0 32.7711637639341,35.14734669353165,0 32.77139372083237,35.1474135466243,0 32.77157424753829,35.14738144646402,0 32.77171740816537,35.14744516696467,0 32.77193105276552,35.14745435345664,0 32.77198767487807,35.14797843422356,0 32.77213238551148,35.14780904426313,0 32.77220232400067,35.14783678305486,0 32.7722275247358,35.14806452767996,0 32.77294781027164,35.14770847929621,0 32.77299386598739,35.14781290305857,0 32.77313051230148,35.14785190942229,0 32.77305848190773,35.14813955484702,0 32.77356153924955,35.1483145858675,0 32.77382171513135,35.14835688700931,0 32.77411805893566,35.14848436734844,0 32.77433161600841,35.14850726250098,0 32.77488198691023,35.14859747925752,0 32.77520140093455,35.14877168439699,0 32.77572096229096,35.14897694850838,0 32.77590591692154,35.1487803079015,0 32.77608348699263,35.14869059407451,0 32.77627708278489,35.14870242474441,0 32.77648657899635,35.14883499949961,0 32.77671022587697,35.14884696333006,0 32.77673149044743,35.14866056521549,0 32.77717539176818,35.14869270521942,0 32.77747282435729,35.1486556299401,0 32.77756216956441,35.1487794404217,0 32.77741779392391,35.14940684420505,0 32.77712638664934,35.14954267827037,0 32.77709194883241,35.14970159274196,0 32.77679465558818,35.14971672716985,0 32.7768118375071,35.15015012742927,0 32.77628929872642,35.15039463394255,0 32.77641766563843,35.15067768796603,0 32.7768437611855,35.15087978747134,0 32.7768326434075,35.15104703228081,0 32.77679506231758,35.15117576546317,0 32.77694346699698,35.1514589062885,0 32.77690323234751,35.15148341257513,0 32.77695602778313,35.15157963630828,0 32.77702295600033,35.15155799241057,0 32.77722269775844,35.1516521264878,0 32.77740954868081,35.15167489500269,0 32.77744490546584,35.15174164936127,0 32.77751667288515,35.15187715118019,0 32.77737358489986,35.15200748724206,0 32.77740270575695,35.15216690520459,0 32.77737069695029,35.15244640302939,0 32.7781899962815,35.15238632271482,0 32.77898492117917,35.15209958416678,0 32.77926547951058,35.152037108264,0 32.77949358283102,35.15208767406986,0 32.77952279982301,35.15223293426637,0 32.78003245515839,35.15272721292577,0 32.77996231432255,35.15290743107285,0 32.77951063039303,35.15277446336382,0 32.77893260379881,35.15350463809681,0 32.77909939104999,35.15370360248016,0 32.77921436271432,35.15391649624436,0 32.7792831137358,35.1539486582652,0 32.77954169325553,35.15395334129564,0 32.77965733939081,35.15406358681106,0 32.77978652825458,35.15408185515023,0 32.77982318319825,35.15440767522114,0 32.78004976033508,35.15469185916309,0 32.78031322758605,35.15526646218942,0 32.78046829627777,35.15523221773771,0 32.78131895066471,35.15504435604782,0 32.78121330397292,35.15472177051496,0 32.78134355218707,35.15457721601904,0 32.78173200598688,35.15449397239916,0 32.78188151558275,35.15469993635717,0 32.78203847309923,35.1550864617894,0 32.7824858616851,35.15521940152717,0 32.78263595121798,35.15533687307087,0 32.78261184103161,35.15572968093083,0 32.78270576266225,35.15586814260636,0 32.78309708224617,35.15600791309697,0 32.78333374501703,35.15606912984888,0 32.78395036391877,35.15602935777983,0 32.78400314235079,35.15586676042472,0 32.78391359840789,35.15571769714769,0 32.78408173719718,35.15571135447162,0 32.78428140242573,35.15549630373429,0 32.78452325180926,35.15542302910123,0 32.7846171505367,35.15556503177929,0 32.78491411278749,35.1556335863845,0 32.78520178382334,35.15580475389547,0 32.78514909991407,35.1559531945162,0 32.78514412150438,35.15605582390138,0 32.78540969482607,35.15631184942568,0 32.78498679887692,35.1563878730268,0 32.784508080612,35.15643179428135,0 32.78440422124876,35.15649505653375,0 32.78415723343951,35.15669573951275,0 32.78385879950561,35.15685372001344,0 32.78433964922037,35.15714609045438,0 32.78441163635107,35.15734463167512,0 32.78422579326033,35.1574216925459,0 32.78424179283359,35.15761290939295,0 32.78437898227934,35.15772678351225,0 32.78430926070837,35.15784328915704,0 32.78379897587052,35.15809945506732,0 32.78389260270327,35.15828393364125,0 32.78440971353285,35.15830389795307,0 32.78460064802377,35.15810650865651,0 32.78466225493961,35.15791209013585,0 32.78474839059386,35.15792308707125,0 32.78478179531864,35.1580896020782,0 32.78471576035067,35.15830169829918,0 32.78478438007269,35.15835509579353,0 32.78492616040129,35.15842651057337,0 32.78501561699935,35.15858973391883,0 32.78512302832479,35.15864329830111,0 32.78549017767751,35.15852455277692,0 32.78548479263463,35.15802542325338,0 32.78567476100686,35.15797669703107,0 32.78579111438307,35.15798074548519,0 32.78587050689345,35.15836692670968,0 32.7859553140358,35.15858322292681,0 32.78616236567907,35.15936987721469,0 32.78587077239884,35.1595870499125,0 32.78573993192102,35.15973392921884,0 32.78568008765967,35.15983092240293,0 32.78565274598439,35.15992335247804,0 32.78565227899748,35.1599955070854,0 32.7856764904873,35.1600912986495,0 32.78566621883453,35.1602026270677,0 32.78558522142686,35.16032148864389,0 32.78558686729533,35.16036227999819,0 32.78563203701033,35.16046600764125,0 32.78564305274369,35.16053507452535,0 32.7856132718852,35.16070906181918,0 32.78554937293121,35.16084211644382,0 32.78552056989835,35.16086551993416,0 32.78546502323589,35.16088880845724,0 32.78529692676776,35.16089591478809,0 32.7852968839554,35.16089591651499,0 32.78507522003549,35.16091533448989,0 32.78507517831837,35.1609153371201,0 32.78496069509405,35.16090229259693,0 32.7849606522959,35.16090228891536,0 32.78488811142165,35.16090196993922,0 32.78488807079977,35.1609019734727,0 32.78477329969074,35.16092656449572,0 32.78451110307037,35.16100384703117,0 32.78436580048159,35.16102360322302,0 32.78427584136808,35.16105144422038,0 32.78415136943877,35.16109952593989,0 32.78380026633918,35.16133641746896,0 32.78371984862201,35.16136587055916,0 32.78365107450768,35.16137340697321,0 32.78365103388553,35.16137341050627,0 32.78347344475453,35.16137106418186,0 32.78347340194664,35.16137106410535,0 32.78337599784392,35.16137534019992,0 32.7833759561265,35.16137534282952,0 32.7832688545501,35.16139526245294,0 32.78307349135009,35.16147597315963,0 32.78301026435428,35.1615054989233,0 32.78284944509512,35.16156126264179,0 32.78267872688899,35.16167031728982,0 32.78260580503382,35.16172176106129,0 32.78245008037871,35.16187480184674,0 32.78214592472053,35.16223424808053,0 32.78211131844064,35.16226860586768,0 32.78207303323252,35.16228098806573,0 32.78202340134857,35.16228233741251,0 32.78202335854023,35.16228233733548,0 32.78180956014936,35.16226728125549,0 32.78180951734824,35.16226727847421,0 32.78155379483032,35.16223635387248,0 32.78155375203647,35.16223634838692,0 32.78137427168218,35.1622308523847,0 32.78137422887629,35.16223085140606,0 32.78097911847106,35.16219146670835,0 32.7809790745772,35.16219146212199,0 32.78047686239693,35.16217199238372,0 32.7804768195935,35.16217199050334,0 32.78044970036007,35.16216976357337,0 32.78044965646383,35.16216975988824,0 32.78019430644941,35.16214878636993,0 32.78019426255076,35.16214878358605,0 32.77933090404298,35.1621481046595,0 32.7793308612347,35.16214810458153,0 32.77909780568184,35.16215648294017,0 32.7790977639639,35.16215648556831,0 32.77858521508912,35.16224990050861,0 32.77809932783033,35.16235598263779,0 32.77781837170261,35.16267002979446,0 32.77763278834706,35.16271469627461,0 32.77735135537964,35.16281070234886,0 32.77731106703425,35.16283718989643,0 32.77679861729757,35.16291491395398,0 32.77616582598881,35.1629983709172,0 32.77616578536307,35.16299837534917,0 32.77601289890929,35.16301494537738,0 32.77601285828602,35.16301494890786,0 32.77576461207111,35.16300913895601,0 32.77576456926239,35.16300913887679,0 32.77548761771178,35.1630110425983,0 32.77548757490059,35.16301104342035,0 32.77507070436027,35.16307820156253,0 32.77489082762404,35.16312602753192,0 32.77452906866857,35.16323578547166,0 32.77437006942888,35.16330409600631,0 32.77416679008418,35.16342397228861,0 32.77411893278426,35.16343944485929,0 32.77375844754412,35.16364489291944,0 32.77351676667271,35.16379440025531,0 32.77335363287392,35.16390974945266,0 32.77323089169235,35.16398292626992,0 32.77313326394005,35.16401386075558,0 32.77262573337493,35.16421237311004,0 32.77227128421323,35.16437078480958,0 32.77211043231775,35.16442967374041,0 32.77198623653617,35.16444009370832,0 32.77198619481433,35.1644400972354,0 32.7718296033831,35.16443939407004,0 32.77182956057618,35.16443939308802,0 32.77168068022166,35.16442774862406,0 32.77168063742482,35.1644277440364,0 32.7715433561224,35.16439576492208,0 32.77154331333818,35.16439575582739,0 32.77142692850271,35.16438112108492,0 32.77142688570844,35.16438111559579,0 32.77125505325692,35.16437407222147,0 32.77125501044752,35.16437407214062,0 32.77105046080073,35.16440295152947,0 32.77105042017402,35.1644029559597,0 32.77097022443109,35.16440416278437,0 32.77097018162165,35.16440416270345,0 32.77084239982712,35.16438006728162,0 32.77084235703793,35.16438005998949,0 32.77078129480893,35.16437665074935,0 32.77078125200963,35.16437664706277,0 32.77071997665699,35.16439833239541,0 32.77056314355385,35.16442743196329,0 32.76982121211542,35.16454017166856,0 32.76928381830453,35.16463813767056,0 32.76928377767255,35.164638143903,0 32.76911754910209,35.16464994114058,0 32.76911750738259,35.16464994376528,0 32.7686585459792,35.16472473449475,0 32.76840588509825,35.16480045708469,0 32.76826225011477,35.16485470995877,0 32.7681471979925,35.16492007395294,0 32.76810682172052,35.16495910575579,0 32.76797599266873,35.16509812350395,0 32.76789345351028,35.16515735779725,0 32.76782447728299,35.16518841860141,0 32.76768097360385,35.1652285478828,0 32.76768093735448,35.1652285568273,0 32.76757393169406,35.16523904849867,0 32.76757389216188,35.16523905383122,0 32.76742654315986,35.16527760068538,0 32.76717360623172,35.16539410404595,0 32.76650787078236,35.16553697205833,0 32.76597782082442,35.16567104041813,0 32.7655991739856,35.16573245904757,0 32.7653847210998,35.16580678175469,0 32.76522427391987,35.16581075797566,0 32.76522423001202,35.16581075789055,0 32.76521615718306,35.16587503555675,0 32.76520586578892,35.16598479270258,0 32.7651575179616,35.1660724160964,0 32.76506143711102,35.16615668563967,0 32.76500584532485,35.16617521697869,0 32.76487415805204,35.16618962093783,0 32.76487411632643,35.16618962536383,0 32.7646471849481,35.16621444645402,0 32.76464714431759,35.16621445178351,0 32.76345333315503,35.16649396573203,0 32.76248593237125,35.16675857647782,0 32.76196344530631,35.1668889318802,0 32.76169339382898,35.16698150389903,0 32.76158130020278,35.16698983672844,0 32.76158125738675,35.166989838447,0 32.76148177602838,35.16703894021067,0 32.76136063931073,35.16707244286447,0 32.76101022402386,35.16716935300559,0 32.76069067059259,35.16729990297159,0 32.76039727453345,35.16738342458568,0 32.76008575775374,35.16759887371931,0 32.75981721530835,35.16782630663931,0 32.75958410739628,35.16791010263239,0 32.75937706965644,35.1679586574344,0 32.75924679336561,35.16811836019193,0 32.75911563255001,35.16840771395271,0</coordinates>
						</LinearRing>
					</outerBoundaryIs>
				</Polygon>
			</MultiGeometry>
		</Placemark>
	</Document>
</kml>