<?xml version='1.0' encoding='UTF-8'?>
<kml xmlns="http://www.opengis.net/kml/2.2">
	<Document>
		<name>LOUVARAS</name>
		<Style id="PolyStyle70">
			<LabelStyle>
				<color>00000000</color>
				<scale>0.000000</scale>
			</LabelStyle>
			<LineStyle>
				<color>ff0055ff</color>
				<width>2.000000</width>
			</LineStyle>
			<PolyStyle>
				<color>00828282</color>
				<outline>1</outline>
			</PolyStyle>
		</Style>
		<Placemark id="ID_70524">
			<name>LOUVARAS</name>
			<snippet />
			<description>&lt;html xmlns:fo="http://www.w3.org/1999/XSL/Format" xmlns:msxsl="urn:schemas-microsoft-com:xslt"&gt;

&lt;head&gt;

&lt;META http-equiv="Content-Type" content="text/html"&gt;

&lt;meta http-equiv="content-type" content="text/html; charset=UTF-8"&gt;

&lt;/head&gt;

&lt;body style="margin:0px 0px 0px 0px;overflow:auto;background:#FFFFFF;"&gt;

&lt;table style="font-family:Arial,Verdana,Times;font-size:12px;text-align:left;width:100%;border-collapse:collapse;padding:3px 3px 3px 3px"&gt;

&lt;tr style="text-align:center;font-weight:bold;background:#9CBCE2"&gt;

&lt;td&gt;5&lt;/td&gt;

&lt;/tr&gt;

&lt;tr&gt;

&lt;td&gt;

&lt;table style="font-family:Arial,Verdana,Times;font-size:12px;text-align:left;width:100%;border-spacing:0px; padding:3px 3px 3px 3px"&gt;

&lt;tr&gt;

&lt;td&gt;DIST_CODE&lt;/td&gt;

&lt;td&gt;5&lt;/td&gt;

&lt;/tr&gt;

&lt;tr bgcolor="#D4E4F3"&gt;

&lt;td&gt;VIL_CODE&lt;/td&gt;

&lt;td&gt;145&lt;/td&gt;

&lt;/tr&gt;

&lt;tr&gt;

&lt;td&gt;VIL_CCD&lt;/td&gt;

&lt;td&gt;5145&lt;/td&gt;

&lt;/tr&gt;

&lt;tr bgcolor="#D4E4F3"&gt;

&lt;td&gt;VIL_NM_E&lt;/td&gt;

&lt;td&gt;LOUVARAS&lt;/td&gt;

&lt;/tr&gt;

&lt;tr&gt;

&lt;td&gt;VIL_NM_G&lt;/td&gt;

&lt;td&gt;ΛΟΥΒΑΡΑΣ&lt;/td&gt;

&lt;/tr&gt;

&lt;/table&gt;

&lt;/td&gt;

&lt;/tr&gt;

&lt;/table&gt;

&lt;/body&gt;&lt;script type="text/javascript"&gt;

				function changeImage(attElement, nameElement) {

				document.getElementById('imageAttachment').src = attElement;

				document.getElementById('imageName').innerHTML = nameElement;}

			&lt;/script&gt;&lt;/html&gt;

</description>
			<styleUrl>#PolyStyle70</styleUrl>
			<MultiGeometry>
				<Polygon>
					<extrude>0</extrude>
					<altitudeMode>clampToGround</altitudeMode>
					<outerBoundaryIs>
						<LinearRing>
							<coordinates> 33.02361617615446,34.83347474244725,0 33.02359108996033,34.83334481731927,0 33.02385350220771,34.83309136687228,0 33.0237330132337,34.83276512309752,0 33.02393275592141,34.83246137547808,0 33.0238498627746,34.8323976581316,0 33.0236231160664,34.83231019292099,0 33.02351572509363,34.83229489082652,0 33.02318738361303,34.83227404554169,0 33.02294813389442,34.83228350026584,0 33.02262850859027,34.83151715289792,0 33.02234873282606,34.83152149462211,0 33.02223313387687,34.83153458867193,0 33.02215395929615,34.83156615937887,0 33.02203233854446,34.83156252336539,0 33.02198375567725,34.83154234771733,0 33.02187303205417,34.8307514282001,0 33.02180818799494,34.83074458518931,0 33.02169469430223,34.83073595423155,0 33.0216156199926,34.83073910626296,0 33.02149214971596,34.83068531949239,0 33.02140312558322,34.83063662786546,0 33.02123680550869,34.83066130003316,0 33.02115596654145,34.83059089890182,0 33.02103501859246,34.83039837577401,0 33.02091193607405,34.83023593528321,0 33.02088186163316,34.83014225511508,0 33.02087598209916,34.83008540777626,0 33.02096545239456,34.8300087319049,0 33.02105278744998,34.82996213963567,0 33.02099043089341,34.82982491946756,0 33.02086079306594,34.82979618990809,0 33.02082044562603,34.82974093051818,0 33.02077233890024,34.82958703000573,0 33.02066009011909,34.82922904141468,0 33.02060202144338,34.82902664071243,0 33.02057831045267,34.82885441212764,0 33.02040274381628,34.82862999690392,0 33.0202715752789,34.8284625224549,0 33.01963835932631,34.82810159865844,0 33.01945445681727,34.82794235216794,0 33.01937957438086,34.82790873989754,0 33.01923776480007,34.8278833215759,0 33.01922597746826,34.82777798407676,0 33.01911053320964,34.82774928555524,0 33.0190578081862,34.82775417158977,0 33.01900103175316,34.82775904831813,0 33.01885926469957,34.82772192958132,0 33.01857843249307,34.82745880781133,0 33.01854024110212,34.82736845011666,0 33.01872692719168,34.82731541515162,0 33.01884262474326,34.82727390698366,0 33.01876380554584,34.82720685371183,0 33.01858190256807,34.82705596835626,0 33.01839336525897,34.8270605231994,0 33.01821675879894,34.82712862755103,0 33.01806848617564,34.82721017262386,0 33.01804192739746,34.82726694020277,0 33.0179869615321,34.82733199813993,0 33.01768257472094,34.82741984794597,0 33.01760348809589,34.8274280121595,0 33.01746400094397,34.82732069075885,0 33.01713600932118,34.82720789251235,0 33.0169882485438,34.82714735356942,0 33.01701691742758,34.82706718779125,0 33.01696441725779,34.8270102268512,0 33.01687958681507,34.82692476821212,0 33.01682339954236,34.82676583166514,0 33.0167910982146,34.82672897838579,0 33.01636603254696,34.82655409205812,0 33.0155239617915,34.82621937900062,0 33.01482959755385,34.82596191661752,0 33.01472316782463,34.82568417355873,0 33.0144900529271,34.82568359846579,0 33.01442130382874,34.82563662375406,0 33.01397832658795,34.82537309210429,0 33.01357778039603,34.82514461796053,0 33.01276864718965,34.82468307633007,0 33.01261082440851,34.82460412089991,0 33.01253985836156,34.82460895912528,0 33.01182606498507,34.82514480078671,0 33.0114523798615,34.82542531943003,0 33.01072058225873,34.82598012462116,0 33.01060717020722,34.82595142325147,0 33.01054232449436,34.82594624642722,0 33.01052635342028,34.82587934370324,0 33.01047579744809,34.82584578603441,0 33.01026109434903,34.82580011503457,0 33.01014171246964,34.82574131148201,0 33.00981798338151,34.82557668566015,0 33.00981410889742,34.82552820036965,0 33.00986378123765,34.82525084420237,0 33.00987838534294,34.82514497445516,0 33.0099220991363,34.82482808365892,0 33.01001549186979,34.82478820018849,0 33.00994126713323,34.82457739582512,0 33.00994856588238,34.8245205810832,0 33.00979633094157,34.82454239149346,0 33.00967333833766,34.82439953617644,0 33.00951176120737,34.82423865917722,0 33.00950412624098,34.82411160251275,0 33.00946400437931,34.82399783400748,0 33.00912464504143,34.8236760407646,0 33.00891381161215,34.82368219619216,0 33.00892946129724,34.82383601829382,0 33.00896957687964,34.82394978697893,0 33.00926883946077,34.82415112868995,0 33.00927639979702,34.82429824633483,0 33.00930022920731,34.82443203022702,0 33.00943750680277,34.8245861602017,0 33.00949401111281,34.8246531644967,0 33.00951671540497,34.82509451553587,0 33.00951913273443,34.82514500308269,0 33.00953176404062,34.82540880990476,0 33.00962798190347,34.8257032433386,0 33.00981402373235,34.82582406747788,0 33.01039022017174,34.82620961114742,0 33.01023882623758,34.82632029005939,0 33.00973639820186,34.82608197426617,0 33.00919960340907,34.82621538251907,0 33.00906196000376,34.82621539284497,0 33.00903786760475,34.82616715603676,0 33.00914796115596,34.82597419250847,0 33.00925805832004,34.82581811727041,0 33.00915825168497,34.82568192054013,0 33.0090532555752,34.82544103826095,0 33.0091106264256,34.82527402520432,0 33.00918400220309,34.82516722533411,0 33.0091996844859,34.82514502764734,0 33.0092614134449,34.825057645928,0 33.00936119799327,34.82500372413091,0 33.00938183750807,34.8249412959472,0 33.00935429715187,34.82484198306982,0 33.00925449453318,34.82472281215961,0 33.00919601686017,34.82452469410752,0 33.00906616700683,34.82431333088348,0 33.00894964389269,34.82419804442161,0 33.00869661911379,34.82391531624813,0 33.00869327634568,34.8237808059956,0 33.00872321108324,34.82354197887594,0 33.00880307788135,34.82330040321021,0 33.00888612297247,34.82295618765891,0 33.00897806686554,34.82304811122587,0 33.00900287365138,34.82316048919753,0 33.00904059781686,34.82318970253589,0 33.009199465941,34.82319842121729,0 33.00928555798723,34.82310712259785,0 33.00937707119433,34.82291391949308,0 33.00941511143468,34.8228578587156,0 33.009435350046,34.8228412694866,0 33.00953875328911,34.82284361061701,0 33.00963710211926,34.82284801639036,0 33.00969761970791,34.82285232864866,0 33.00970540147355,34.82279411030223,0 33.00968285506485,34.82275245498972,0 33.00945627476033,34.82263957105035,0 33.00933792301267,34.82258727600033,0 33.00934568275529,34.82253529754349,0 33.01014101091231,34.82230850366504,0 33.01149674846921,34.82194790863847,0 33.0124359424686,34.82169025992408,0 33.01364271588002,34.8213667085689,0 33.01636424334721,34.82063505085859,0 33.01759118346338,34.82030735054874,0 33.02041596885503,34.81957509402987,0 33.0215139224007,34.81929815643893,0 33.02243042944942,34.81899650658504,0 33.02251799602108,34.81896673428819,0 33.02357989894559,34.81860567083359,0 33.02730738257623,34.81722488818868,0 33.02754415201091,34.81713717552498,0 33.02802758686398,34.81695808121638,0 33.02861912386017,34.81676622204549,0 33.02868593514386,34.81675494984354,0 33.02889375968569,34.81676998472816,0 33.02962416273589,34.81686001503807,0 33.03023746083394,34.81693314349102,0 33.03094646421185,34.81701896047852,0 33.03124115071235,34.81705393556401,0 33.03135574717204,34.81706874855043,0 33.03194898530352,34.81711376797119,0 33.03274742906555,34.81720393832924,0 33.0333809032615,34.81727294117643,0 33.03415040519257,34.81735368374424,0 33.03486072897734,34.81742389589361,0 33.03565163841778,34.81750779595224,0 33.03807599134552,34.81777205057072,0 33.03852938951388,34.81781879704494,0 33.03897266955192,34.81787694847623,0 33.03985554416658,34.81796518630576,0 33.03996885929526,34.8179872609302,0 33.04035248879525,34.81817722594077,0 33.04100028415817,34.8184914260772,0 33.04178027367666,34.81883501173576,0 33.04214852293999,34.81901234965586,0 33.04455358559309,34.82017050855639,0 33.04594790763391,34.82086462753875,0 33.04741617300448,34.82159497168257,0 33.04999847891202,34.82124817254225,0 33.05243588931319,34.82095373578789,0 33.05391395619421,34.82132462253509,0 33.05781308256897,34.82230291436621,0 33.06123449920413,34.82311469850565,0 33.06884663283513,34.82496244676803,0 33.06946790298784,34.82512554525326,0 33.06991420152787,34.82524270668607,0 33.06996052924335,34.8252470466991,0 33.07083975581062,34.82566703640011,0 33.07179867867864,34.82612751378435,0 33.07183185260572,34.82622735994119,0 33.07155427951938,34.82694223645348,0 33.07134868069046,34.82769334905829,0 33.07124261770714,34.82786509481122,0 33.0710746850539,34.82806431506229,0 33.07076187522747,34.82850101444665,0 33.07060663023331,34.82876182565806,0 33.07047480737908,34.82893776569826,0 33.07040234836698,34.82906287346488,0 33.07028863480064,34.82920912787745,0 33.07008736451316,34.82936157425046,0 33.06982437650986,34.829490544923,0 33.06974694420789,34.82955620070265,0 33.06953199830379,34.82997823443951,0 33.06937931536003,34.83024117089185,0 33.0693199050875,34.83030686208799,0 33.06901552684855,34.83049943405098,0 33.06873700077581,34.8306559694845,0 33.06859765582506,34.83076183453905,0 33.06861262974057,34.83092108578965,0 33.06866634329391,34.83104007882461,0 33.06866083210583,34.83116107584735,0 33.06861689285687,34.83121830683796,0 33.06817057535494,34.83152098165755,0 33.06774215688697,34.83186402904642,0 33.06699961384105,34.83221068103583,0 33.06661512831491,34.83249649312869,0 33.06649101495714,34.83267244526468,0 33.06644161785546,34.83283156512922,0 33.06648240917745,34.83296539324183,0 33.06673618221965,34.83333955005295,0 33.06684402643316,34.83343742555893,0 33.06687991946838,34.83348844968382,0 33.06686463634045,34.83357067146033,0 33.06682988779495,34.83375761575426,0 33.06667453897502,34.83393213656178,0 33.06627669172158,34.83415888986224,0 33.06581161459435,34.83435775214555,0 33.0652962251238,34.83449823095054,0 33.06484141763703,34.83463883124729,0 33.06458857300014,34.83477429538681,0 33.06427118594864,34.83510389113219,0 33.06414939645857,34.83530900426818,0 33.06393332508161,34.83552502485197,0 33.06387226923616,34.83568030954195,0 33.0639150366753,34.8360050965512,0 33.06396701028275,34.8366240739075,0 33.06393540364819,34.83705694077616,0 33.06387754707909,34.83726773606686,0 33.06365867985345,34.83729503588008,0 33.06266594433674,34.83722637567438,0 33.06213418559539,34.83720861938642,0 33.06208617999244,34.83749714099826,0 33.06249136928708,34.83818068214216,0 33.06237684766288,34.83820542176785,0 33.06145089647499,34.83830895150658,0 33.06132575331087,34.83850572948537,0 33.06229658169651,34.8391377218497,0 33.06253082691522,34.83958779027075,0 33.06244342065576,34.83955153100325,0 33.06208321774744,34.83956465840501,0 33.06192694870699,34.84003334328243,0 33.06187956883753,34.84011650016298,0 33.06167741491866,34.84017990906689,0 33.06193877117671,34.84056898070357,0 33.06197515592643,34.84077997214634,0 33.0621116155687,34.84128534189086,0 33.06238090989848,34.84128312625044,0 33.06267331277311,34.84142804383121,0 33.06277340466088,34.84171964780941,0 33.06259120379602,34.84186080440954,0 33.06252611677186,34.84223254683145,0 33.0623140354417,34.84223765600584,0 33.06203140236018,34.84219821592688,0 33.0616042136671,34.84209741817989,0 33.06135423018549,34.8423882932159,0 33.06136359292254,34.84262698016987,0 33.06078455520402,34.84264797271018,0 33.06079852653342,34.8424842657839,0 33.06036823868923,34.8422974262303,0 33.06007540510209,34.84229126194056,0 33.05998038336447,34.8425408314494,0 33.05970107008156,34.84251526757204,0 33.05929064932226,34.84243670039079,0 33.05919277234759,34.84251975098682,0 33.05933362496911,34.84268933369324,0 33.05893943938573,34.84280228785673,0 33.05844252969323,34.84239051028091,0 33.05822380327146,34.84236784811175,0 33.05803318481543,34.84196504273191,0 33.05830305889267,34.84177689797181,0 33.05790713562933,34.84136533201498,0 33.05764108227111,34.84140917245576,0 33.05740865703108,34.84146140969575,0 33.05723364191579,34.84145548759492,0 33.05740642670931,34.84109785356466,0 33.05741677650836,34.84101739503432,0 33.05732001570205,34.84074244476107,0 33.05725535152197,34.84096987447705,0 33.05708668789863,34.84108607512136,0 33.05701262437655,34.84108869251326,0 33.0569218907146,34.84104132225916,0 33.05687130254294,34.8410717410618,0 33.05702244620404,34.84117752054644,0 33.05707927305884,34.84130529988452,0 33.05696782849409,34.84142162133477,0 33.05686665605782,34.84148246165598,0 33.05666144729764,34.84144317299673,0 33.05671151828155,34.84157648875668,0 33.05665358813859,34.84180393120928,0 33.05658614177685,34.84184264117662,0 33.05637416847386,34.84181443852688,0 33.05621954688883,34.8417447296309,0 33.05610493121601,34.84179721456602,0 33.05605440892999,34.84180820761881,0 33.05563825878366,34.84141046735057,0 33.05537553899677,34.84146263523058,0 33.05516348172078,34.84146218259163,0 33.05492425335164,34.84153660108709,0 33.05463056709632,34.84180239287152,0 33.0544850479785,34.84204907360211,0 33.05448125385136,34.84218504932436,0 33.05457546134985,34.84244487568519,0 33.05414699975279,34.84260236860401,0 33.05387212912003,34.84304118911264,0 33.05384532991135,34.84305643009503,0 33.05135884191651,34.84447045963801,0 33.05101815420196,34.84423028155746,0 33.05100600818977,34.84434673880367,0 33.05077816803055,34.84441095794283,0 33.05046432019035,34.84437144723671,0 33.05040429708587,34.84473047409264,0 33.05049823353449,34.84481156932857,0 33.05041857638118,34.84517379004228,0 33.05033141487819,34.84542921709796,0 33.0500959696062,34.84541576187515,0 33.04993035355945,34.84565807506015,0 33.04964354984173,34.84574804816496,0 33.04934504965828,34.84581534483448,0 33.04962662842011,34.84612981769112,0 33.04913166630307,34.84626463406278,0 33.04918937205366,34.84662715350083,0 33.04907194118867,34.84652982622234,0 33.04858542830431,34.84647699187111,0 33.04853504656939,34.84627950592396,0 33.04780187101225,34.84604169514691,0 33.04764564254845,34.84580514903229,0 33.0471554759716,34.84567140787279,0 33.0465001673177,34.84563113541422,0 33.0460910642162,34.84591496868438,0 33.04556495617555,34.84597204573348,0 33.04527131307207,34.84575137022409,0 33.04517690805163,34.84581587348161,0 33.04493347482322,34.84584445490151,0 33.04450953748236,34.845862926437,0 33.0441708727116,34.8462083866831,0 33.04392334209637,34.84628872707004,0 33.04384510307203,34.8462108969895,0 33.04366820236835,34.84629786498744,0 33.04335868677686,34.84613215563076,0 33.04317342105711,34.8463744152153,0 33.04286385004328,34.84622488205724,0 33.04265646811181,34.84603351294197,0 33.04210584041964,34.84638172880034,0 33.04189817171386,34.84627772170025,0 33.04198473817407,34.84620996855794,0 33.04198143580432,34.84602229304305,0 33.04203296244602,34.84587033390456,0 33.04193977873298,34.84556273693597,0 33.04173598028984,34.84547491826836,0 33.04185014272804,34.84537163406767,0 33.04172554270665,34.84507043719798,0 33.04160824981395,34.84493427533931,0 33.04146370892892,34.84473010366711,0 33.0412086373172,34.84471982275316,0 33.04126016951512,34.84456462589512,0 33.04121711788997,34.84452893761868,0 33.04018509023994,34.8444748406807,0 33.03993425390837,34.84437073446763,0 33.0396446754017,34.84411446009234,0 33.03939359310446,34.8440847712359,0 33.03909008167255,34.84330105281502,0 33.03876406559907,34.84338120240367,0 33.03868986355567,34.84327102180637,0 33.03890224744784,34.84313560747475,0 33.0390007100196,34.84303228946131,0 33.03897761669401,34.84289633997589,0 33.03909949710945,34.84283190478653,0 33.03903725280189,34.84266674463512,0 33.03892737782911,34.8426632596764,0 33.03887661636739,34.84258548786809,0 33.03870759704516,34.8426627609903,0 33.03867255691488,34.84257855313937,0 33.03886108875248,34.84253368371459,0 33.03892798355276,34.84248206324982,0 33.03907777412999,34.84228502826266,0 33.03894867389509,34.8421617799566,0 33.03867344421624,34.84231323227541,0 33.03842618012844,34.8423159059089,0 33.03822576628147,34.84239310444261,0 33.03801352457857,34.84248645494192,0 33.03731603846857,34.84215806300549,0 33.03694373437638,34.84199866660644,0 33.03619931525231,34.84162486284652,0 33.03600367964007,34.84144968773899,0 33.03523674991675,34.84077167363345,0 33.03478673579365,34.84038559330022,0 33.0348144724741,34.84030800372692,0 33.03463819520015,34.84021052688367,0 33.03467416234388,34.84001970634569,0 33.03452154691805,34.8398899289736,0 33.03412108707239,34.83993753854281,0 33.03410124189438,34.8400022070458,0 33.03381520534058,34.83986888284173,0 33.03372810627629,34.84009194151367,0 33.03359057439136,34.84014339296464,0 33.03343709594834,34.8402659921162,0 33.03331957141835,34.84020424426755,0 33.03341032232238,34.84006208657947,0 33.03325753281457,34.83998407624238,0 33.03344319282001,34.83962858380314,0 33.03335712819226,34.8395474938942,0 33.03307813080255,34.83965362317587,0 33.03303826607693,34.83983472846556,0 33.03286135579262,34.83992491524914,0 33.03277135551479,34.83984705138715,0 33.0322173590545,34.84003343208513,0 33.03168479464657,34.83969244817009,0 33.03085849655233,34.83917605292635,0 33.03047085269385,34.83891952800466,0 33.02991091923325,34.83855258850295,0 33.02973081984634,34.83842921124798,0 33.02925932071965,34.83859312118886,0 33.02914968236578,34.83852168129437,0 33.02884007891025,34.83839799833947,0 33.02859294946499,34.83836505811811,0 33.02831825175075,34.83836117490912,0 33.02791765576055,34.83844759324337,0 33.02758781591023,34.83850182231271,0 33.02746990565476,34.8384957641916,0 33.0274473124416,34.83849460371333,0 33.02742388723996,34.83823968647444,0 33.02730718661773,34.83833963688001,0 33.02689757649052,34.83767399945174,0 33.02667263054924,34.83777377121546,0 33.02676113181693,34.83788971908795,0 33.02670015490278,34.83793201149017,0 33.02652731079235,34.83785058597444,0 33.02643864006012,34.83778479115821,0 33.02594274029774,34.83776046585411,0 33.02559206696958,34.83768633168273,0 33.02533029524513,34.83761240879452,0 33.02518106669589,34.83746931170534,0 33.02483652298,34.83698239460764,0 33.02469217941223,34.83678143889657,0 33.02464620081452,34.83654985611116,0 33.02460936564196,34.83638002003408,0 33.0244554742558,34.83623305213164,0 33.02402617807138,34.83590024662407,0 33.02409191384537,34.83583481973108,0 33.0243307158325,34.83578523740037,0 33.02456052586191,34.83563147105063,0 33.02452960361121,34.83511058018285,0 33.02389827681976,34.83501648150012,0 33.02389431796386,34.83481200309076,0 33.0239228390898,34.83468476106078,0 33.02444828495405,34.83428479567029,0 33.02440659650478,34.83416510104353,0 33.02418786959593,34.83382894073081,0 33.02409476795681,34.83369369171506,0 33.02394983276841,34.83366248138729,0 33.02386999320672,34.83374716422164,0 33.02363663648498,34.83358071596497,0 33.02361617615446,34.83347474244725,0</coordinates>
						</LinearRing>
					</outerBoundaryIs>
				</Polygon>
			</MultiGeometry>
		</Placemark>
	</Document>
</kml>