<?xml version='1.0' encoding='UTF-8'?>
<kml xmlns="http://www.opengis.net/kml/2.2">
	<Document>
		<name>MAMOUNTALI</name>
		<Style id="PolyStyle70">
			<LabelStyle>
				<color>00000000</color>
				<scale>0.000000</scale>
			</LabelStyle>
			<LineStyle>
				<color>ff0055ff</color>
				<width>2.000000</width>
			</LineStyle>
			<PolyStyle>
				<color>00828282</color>
				<outline>1</outline>
			</PolyStyle>
		</Style>
		<Placemark id="ID_70090">
			<name>MAMOUNTALI</name>
			<snippet />
			<description>&lt;html xmlns:fo="http://www.w3.org/1999/XSL/Format" xmlns:msxsl="urn:schemas-microsoft-com:xslt"&gt;

&lt;head&gt;

&lt;META http-equiv="Content-Type" content="text/html"&gt;

&lt;meta http-equiv="content-type" content="text/html; charset=UTF-8"&gt;

&lt;/head&gt;

&lt;body style="margin:0px 0px 0px 0px;overflow:auto;background:#FFFFFF;"&gt;

&lt;table style="font-family:Arial,Verdana,Times;font-size:12px;text-align:left;width:100%;border-collapse:collapse;padding:3px 3px 3px 3px"&gt;

&lt;tr style="text-align:center;font-weight:bold;background:#9CBCE2"&gt;

&lt;td&gt;6&lt;/td&gt;

&lt;/tr&gt;

&lt;tr&gt;

&lt;td&gt;

&lt;table style="font-family:Arial,Verdana,Times;font-size:12px;text-align:left;width:100%;border-spacing:0px; padding:3px 3px 3px 3px"&gt;

&lt;tr&gt;

&lt;td&gt;DIST_CODE&lt;/td&gt;

&lt;td&gt;6&lt;/td&gt;

&lt;/tr&gt;

&lt;tr bgcolor="#D4E4F3"&gt;

&lt;td&gt;VIL_CODE&lt;/td&gt;

&lt;td&gt;229&lt;/td&gt;

&lt;/tr&gt;

&lt;tr&gt;

&lt;td&gt;VIL_CCD&lt;/td&gt;

&lt;td&gt;6229&lt;/td&gt;

&lt;/tr&gt;

&lt;tr bgcolor="#D4E4F3"&gt;

&lt;td&gt;VIL_NM_E&lt;/td&gt;

&lt;td&gt;MAMOUNTALI&lt;/td&gt;

&lt;/tr&gt;

&lt;tr&gt;

&lt;td&gt;VIL_NM_G&lt;/td&gt;

&lt;td&gt;ΜΑΜΟΥΝΤΑΛΗ&lt;/td&gt;

&lt;/tr&gt;

&lt;/table&gt;

&lt;/td&gt;

&lt;/tr&gt;

&lt;/table&gt;

&lt;/body&gt;&lt;script type="text/javascript"&gt;

				function changeImage(attElement, nameElement) {

				document.getElementById('imageAttachment').src = attElement;

				document.getElementById('imageName').innerHTML = nameElement;}

			&lt;/script&gt;&lt;/html&gt;

</description>
			<styleUrl>#PolyStyle70</styleUrl>
			<MultiGeometry>
				<Polygon>
					<extrude>0</extrude>
					<altitudeMode>clampToGround</altitudeMode>
					<outerBoundaryIs>
						<LinearRing>
							<coordinates> 32.59417054034309,34.91871718532935,0 32.59406697252442,34.91887137554097,0 32.5939219684652,34.91878509364751,0 32.59374502490958,34.91882560032461,0 32.59345408825802,34.91875922932206,0 32.59329953861285,34.91912308278329,0 32.59313416632897,34.91912210101618,0 32.59289206600288,34.91924071461003,0 32.59279404508517,34.91923089590363,0 32.59256982316791,34.91954816146182,0 32.59220924683428,34.919751489601,0 32.59218069199171,34.91981134621374,0 32.59203071064392,34.91965346265543,0 32.59176502130799,34.91958492960959,0 32.59156432480196,34.91945675665821,0 32.59132656237202,34.91939993237126,0 32.59115631482959,34.91931580595772,0 32.59077828783741,34.9192719967284,0 32.59078809503162,34.91911275572338,0 32.59072648932322,34.91878686443932,0 32.59078386127767,34.91869704424769,0 32.5911463773021,34.91812949142314,0 32.5914831191366,34.91805951354489,0 32.59153772756863,34.91796570837527,0 32.59163890427342,34.91792755185018,0 32.59119814955444,34.91759270402805,0 32.59039824684643,34.91758239607119,0 32.59010441128596,34.91735916347819,0 32.59025444420303,34.91711642605338,0 32.59027158696018,34.91669570874023,0 32.59039419691499,34.9165137163228,0 32.59040281727633,34.9162978207542,0 32.5904983356702,34.91613781568658,0 32.59049901612194,34.91606030199521,0 32.59043325575699,34.91589379763045,0 32.59042804362721,34.91572211575633,0 32.59023402420418,34.91561575520378,0 32.58965280510242,34.91520254151974,0 32.58951442197256,34.91488610129662,0 32.58949571436807,34.91471987702201,0 32.58947783986708,34.91445952705,0 32.58983177897388,34.91445307892417,0 32.59014575358765,34.91441190160693,0 32.59043437696899,34.91428139168937,0 32.59078516525441,34.91429885869786,0 32.59126575494851,34.91441550428215,0 32.59142303917299,34.91436108725125,0 32.59160377500775,34.91418687809454,0 32.59176605720468,34.91398795789222,0 32.59201761380027,34.91382647173374,0 32.59223457307531,34.91377855858729,0 32.59262307174686,34.91375319353281,0 32.59294566488236,34.91357982558072,0 32.59351701793345,34.91313731978943,0 32.59394961924338,34.91276471631308,0 32.59436921686226,34.91217062177172,0 32.59457034991692,34.91179664374402,0 32.59472152898817,34.91158535262829,0 32.5948453146213,34.91151843280347,0 32.59530695891635,34.91166570117875,0 32.59559408958805,34.91170430354686,0 32.59577341637981,34.91168998954053,0 32.59585124943509,34.91175502900855,0 32.59594449636023,34.9117648068226,0 32.59607571821078,34.91170100418665,0 32.59619518086405,34.91170171127642,0 32.59637356385557,34.91179502168967,0 32.59683142795863,34.91194841229137,0 32.59681367679356,34.91184375107215,0 32.59676992326325,34.91172356112092,0 32.59680824394871,34.91161000579003,0 32.59703247581096,34.91158365421928,0 32.59735658640506,34.91166244826122,0 32.59762203970477,34.91161788799732,0 32.59821734778352,34.91142151516505,0 32.59846445796994,34.91133994265041,0 32.59899669186225,34.91152759180878,0 32.59913420408995,34.91159913071524,0 32.59935099271431,34.91156965569061,0 32.59940763060607,34.91149618536166,0 32.59955727487051,34.91146016506771,0 32.59979729211329,34.91090497038024,0 32.59985453713678,34.91076077354381,0 32.6000946561309,34.91062380410972,0 32.60024219311084,34.91040018406465,0 32.60038213180582,34.91019189476937,0 32.60063739144791,34.91003041175733,0 32.60109143738534,34.90976246436328,0 32.60135712253542,34.90969022173793,0 32.60187599002402,34.90969634231635,0 32.60204396102698,34.91013092925322,0 32.60213595814293,34.91028522781283,0 32.60254783059199,34.91057670916688,0 32.60290522738429,34.91069258671613,0 32.60354479492887,34.91098847549011,0 32.60388709957964,34.91112271000086,0 32.60417823198761,34.91113056444657,0 32.60460221976941,34.91137802973611,0 32.60517567680682,34.91171272960825,0 32.60521815761986,34.91147431939861,0 32.60542086252297,34.91140890080575,0 32.60555547422175,34.91142633792384,0 32.60608470041836,34.91178463822341,0 32.60653212404659,34.9122534648055,0 32.60697600789252,34.91235040533579,0 32.6070383645062,34.91215096104879,0 32.60721459423748,34.91202988407714,0 32.60749715163818,34.91208148280111,0 32.60758957720643,34.91230402886144,0 32.60793168045373,34.91248362590931,0 32.608295903618,34.91244134408549,0 32.60889723166594,34.91225058127345,0 32.60909467028858,34.91201306941622,0 32.60916983161756,34.9118914030449,0 32.60930501434877,34.91184223540989,0 32.60936418202909,34.91201463553141,0 32.60992944319896,34.91210117152003,0 32.61016602582103,34.91201373976823,0 32.61055078941691,34.91193271934417,0 32.61072720263026,34.91178943642717,0 32.61099319879442,34.91141356448035,0 32.6111492559284,34.91128681387682,0 32.61127708214924,34.91130975595174,0 32.61144486351109,34.91138842969876,0 32.61173226559803,34.91166205365828,0 32.6121319220109,34.91141460616969,0 32.6126252882323,34.91123985295742,0 32.61285569468392,34.91108578027264,0 32.61290718627084,34.9113691370207,0 32.61300123017728,34.91140298159539,0 32.61331903761902,34.91127161219986,0 32.61348116651512,34.91122259684927,0 32.61396195140397,34.91094231145033,0 32.61416346941226,34.91101562682407,0 32.6145406394157,34.91103445212963,0 32.61501802551,34.91115375752945,0 32.61528546095723,34.91139950784991,0 32.61556194387575,34.91137334875824,0 32.61590693221889,34.91121437731768,0 32.61603598417112,34.91109301487447,0 32.61630476185987,34.91100832035107,0 32.61666668999318,34.91077617220121,0 32.61655936208895,34.91135133538091,0 32.6168206297892,34.91153044328103,0 32.61697330956189,34.91154231690496,0 32.6175141940499,34.91158437852464,0 32.61769554992808,34.91165202217873,0 32.61803229688949,34.91167060402166,0 32.61824050913134,34.91174950184298,0 32.61888747460929,34.91173655870573,0 32.61860078640247,34.9121733831418,0 32.61826753896178,34.91253778543983,0 32.61838137852494,34.91262169148492,0 32.61807451616004,34.91305284793076,0 32.61821568387109,34.91309250838459,0 32.61847036251248,34.91325492540416,0 32.61824571407132,34.91352559661447,0 32.61825773618404,34.91369772262296,0 32.61816822028628,34.9139247677036,0 32.61767170382322,34.91447138838321,0 32.61732034205011,34.9145859255956,0 32.61716330151589,34.91482923184045,0 32.61729801449878,34.91483555693464,0 32.61743296350335,34.91481413108419,0 32.61795267980042,34.91471165948859,0 32.61839215007634,34.9145365729108,0 32.61863518651305,34.91448246466317,0 32.61893165960667,34.91448416360322,0 32.61928086166602,34.91462491814373,0 32.61973221266094,34.91463860253828,0 32.62019708993792,34.91464681255918,0 32.62041392058051,34.91530297663288,0 32.6207052552308,34.9159151647136,0 32.62068420143598,34.91601494720067,0 32.62077114222688,34.91609314748224,0 32.620842595239,34.91640991697259,0 32.62080745928704,34.91658177202457,0 32.62085963425216,34.91678742741689,0 32.62079772863225,34.91693692901678,0 32.62096332898464,34.91727643693485,0 32.62090086414302,34.91749253924111,0 32.62104259973352,34.91746559847709,0 32.62121615897923,34.91766084651201,0 32.62117530376013,34.91771056482062,0 32.62084424378592,34.91781412564778,0 32.62055918702097,34.91805670494562,0 32.62049025838218,34.91823946804611,0 32.6203274675172,34.91836619233899,0 32.62017908049295,34.91838199499412,0 32.62006518809643,34.91830364154097,0 32.61989766595849,34.91819167887051,0 32.61968887040834,34.91817938268407,0 32.61904742382517,34.91833111745059,0 32.61877138972523,34.91830178272833,0 32.61891836485669,34.91845248019834,0 32.61910904276062,34.9185816755749,0 32.61910345941553,34.91886255908266,0 32.61909226400254,34.91893450613369,0 32.61906635458535,34.91910753974496,0 32.61891854050777,34.91924362718173,0 32.61863544030906,34.91918964733997,0 32.61831261727369,34.91920793436652,0 32.61856030560234,34.91940267346184,0 32.61884173897288,34.91965399178096,0 32.61920037741325,34.92002657419891,0 32.6194285846922,34.92021314567935,0 32.6192749231176,34.92046197094825,0 32.61912221609023,34.92059803064517,0 32.61904579407403,34.92096409374991,0 32.61894278815463,34.92100377907378,0 32.61899900457789,34.92129407970513,0 32.61971809758013,34.9212458393859,0 32.61985165791533,34.92106134095839,0 32.62008156801756,34.92104654543169,0 32.62036908461751,34.92115693205568,0 32.62007243305689,34.92154992926027,0 32.62007141437649,34.92167074781895,0 32.62037139674791,34.92204299185377,0 32.62038935443181,34.92223238759282,0 32.62045158636077,34.92238981439322,0 32.62049871199218,34.92259951313317,0 32.62058603272332,34.92268056139608,0 32.62052566992251,34.92288159069926,0 32.62065661332932,34.92300719142157,0 32.62069959797989,34.92312826270722,0 32.62046313506283,34.92334036701143,0 32.6200394947046,34.92313656957392,0 32.61959382273381,34.92322665254171,0 32.61939993670776,34.92302819447909,0 32.6192925144864,34.92301146901787,0 32.61927018032772,34.92276163640864,0 32.61943286889853,34.92260147108806,0 32.61936961903999,34.9225648605084,0 32.6185809126205,34.92274963476083,0 32.61764938785909,34.9224784760198,0 32.61717024740553,34.9224797510417,0 32.6169751360697,34.92242627166769,0 32.61692309310683,34.92235111563102,0 32.61678193693131,34.9221472676894,0 32.61650874084106,34.92207722986215,0 32.61594440370668,34.92174775784192,0 32.61580430246121,34.92154960283457,0 32.61542803495328,34.92152729653422,0 32.61551849488173,34.92123784159567,0 32.61549989619415,34.92112496483777,0 32.6154913158415,34.92098395270784,0 32.6159671992509,34.92078934640244,0 32.61616281935239,34.9207824158774,0 32.61624008289063,34.92089563107147,0 32.61661152611799,34.92090984820063,0 32.61690304560037,34.92112498049448,0 32.61692879025389,34.92112512836231,0 32.6171817048884,34.92112658074484,0 32.61718754951506,34.92101384433918,0 32.61697260918515,34.92099247282376,0 32.61692949365688,34.92097375567773,0 32.61656831242278,34.92081696703669,0 32.6162365251399,34.92073853705965,0 32.61610476660077,34.92070958602051,0 32.61572816186344,34.92072755921615,0 32.61568457419588,34.92067897837208,0 32.61590559282323,34.92055942514591,0 32.61586802086051,34.92037797144904,0 32.61585567838997,34.92010403295942,0 32.61580302854799,34.91997082042312,0 32.61585300876533,34.91984222947653,0 32.61584928133119,34.91970527380568,0 32.61630638784516,34.91941792500874,0 32.61650569912588,34.91955197617285,0 32.61676322835975,34.91973872270533,0 32.61693492815573,34.91980421052813,0 32.61751369896018,34.92002495655544,0 32.61763636406643,34.91997330467307,0 32.61762764196261,34.91984840261971,0 32.61750770743316,34.91957787020534,0 32.61727499188518,34.91934696917549,0 32.61721814469691,34.91920565184537,0 32.61721942836296,34.91905410425652,0 32.61725412818822,34.91902023493683,0 32.61725739441424,34.91888669340354,0 32.61733906314723,34.91885243923879,0 32.61768974208673,34.91871184223683,0 32.61761118134679,34.91843943525032,0 32.61779288018182,34.91846822804245,0 32.61793508793729,34.91838579206043,0 32.61803700044366,34.91828647161563,0 32.61801824789655,34.91811430833236,0 32.61802620050658,34.91797004811927,0 32.61808411985557,34.91795728648329,0 32.61829624672601,34.91791054569851,0 32.61838445974675,34.91783889828917,0 32.61794839119722,34.9176088371721,0 32.61785602809936,34.917375199917,0 32.61748613778875,34.91728982516447,0 32.61725628224173,34.91737730667773,0 32.61694680669429,34.91724762400138,0 32.61693397711703,34.91724224797589,0 32.61675887832057,34.91723014312228,0 32.61670586259532,34.91712438652017,0 32.61652500820621,34.91699569432206,0 32.61637701013108,34.9169670907667,0 32.61603784042434,34.91723154669269,0 32.61562676446471,34.91723472997351,0 32.61547367189819,34.91701184581972,0 32.61528453342293,34.91706625895741,0 32.6151825615218,34.91717112343851,0 32.6152216661292,34.91732675351845,0 32.61507997672651,34.91734814021412,0 32.61494653750425,34.91719196151919,0 32.61466273290831,34.9172846811719,0 32.61469826454547,34.91706843001996,0 32.61452330670019,34.91703967201983,0 32.61453786623611,34.91691210048906,0 32.61441756846147,34.91679485072478,0 32.61392662708909,34.91668101757854,0 32.61371764808239,34.91669091015995,0 32.61333875596266,34.91687187943757,0 32.61311017385236,34.91680950739832,0 32.61295444148038,34.91689740964157,0 32.612966167522,34.91710283404295,0 32.6128319197513,34.91704100708094,0 32.61238625247064,34.91714943501088,0 32.61213128928673,34.91702030518108,0 32.61194945823725,34.9170081538842,0 32.61186751037048,34.91713532958601,0 32.6117655864465,34.91723464481866,0 32.61161828930251,34.91712279036009,0 32.61140912113418,34.91715487885705,0 32.61118808806786,34.91699819326836,0 32.61097825467204,34.91710798243373,0 32.61089180078078,34.91697427640752,0 32.61075029999301,34.91697345635965,0 32.61068823604576,34.91713960260694,0 32.61042781262072,34.91686058304985,0 32.61024446415708,34.91702602559744,0 32.60998166949675,34.91702450096705,0 32.60968347576764,34.91722257547715,0 32.6094942848955,34.91728253044248,0 32.60938007574588,34.917243015944,0 32.6092473024887,34.91700913774672,0 32.60895068378338,34.91702406324919,0 32.60858179228831,34.91682211384714,0 32.60822496009072,34.91678673655976,0 32.60773649932408,34.91638428090353,0 32.60750090510493,34.91635515660322,0 32.60717196699544,34.91620893505847,0 32.60692944995199,34.91620197244387,0 32.60633745253819,34.91608751673896,0 32.60609028841255,34.91583631662663,0 32.60578071848658,34.91579010680883,0 32.60553265521544,34.91564435589914,0 32.60519598774871,34.91561463669149,0 32.60521008338628,34.91554256783234,0 32.60479982803789,34.91545136687794,0 32.60456629099925,34.91554742560675,0 32.60449188570885,34.91557802961144,0 32.60446648034658,34.9157374771484,0 32.60456396446744,34.9158173575902,0 32.60461467691535,34.91585891099692,0 32.60458532649467,34.91593438894448,0 32.6045630740281,34.91592064900838,0 32.60433408815211,34.91577925577062,0 32.60389021528617,34.91566318442886,0 32.60380776057792,34.91557286787913,0 32.60370120422669,34.91561479584502,0 32.60353773443651,34.91559965492175,0 32.60336445398112,34.91572393615881,0 32.60305494020406,34.91567011239263,0 32.60283302160369,34.91610852761718,0 32.60283173515592,34.9162574554641,0 32.60270959900007,34.91644113694808,0 32.60252288323835,34.91645895346894,0 32.60188362075716,34.91636773259528,0 32.60170110317758,34.91623191056463,0 32.60151530889931,34.91614334955869,0 32.60068605371931,34.9161171992752,0 32.60053371623356,34.91614230921993,0 32.60004790219964,34.91622928518238,0 32.59971825967942,34.91618006330754,0 32.59921728105724,34.91621526177786,0 32.59936893755035,34.91625653816303,0 32.5988765017829,34.91683885555447,0 32.59863626488322,34.91677940069603,0 32.59834256013101,34.91679217983984,0 32.59814967781224,34.91668947293869,0 32.59807908687851,34.9167035668581,0 32.59799612966209,34.91679013558208,0 32.5980301364162,34.91693059483435,0 32.598021827401,34.91721106344507,0 32.59827048480736,34.91765265562279,0 32.59781110018112,34.91780955024024,0 32.59735347737232,34.91776331744145,0 32.59727173746777,34.91770963399366,0 32.59694519265134,34.91744653286081,0 32.59668100257591,34.91744013323973,0 32.59668247737743,34.91727086442338,0 32.59678385934494,34.91709251258111,0 32.59669007908234,34.91707261144128,0 32.59661210251397,34.91726077457067,0 32.59654963434757,34.91769085519773,0 32.59638370579123,34.9178639895043,0 32.59622445236334,34.91794526725402,0 32.59593052504493,34.9179822207353,0 32.59580037422031,34.91809269202924,0 32.59560102828659,34.91805765718041,0 32.5955680779789,34.91779628806345,0 32.59545254378617,34.91757796056429,0 32.59529573609831,34.91737873477609,0 32.59517213201057,34.91741185635894,0 32.59499893751063,34.91774455146575,0 32.59500354225379,34.91788967219357,0 32.59497887017937,34.91802494995683,0 32.59491973108846,34.91807296774794,0 32.59464882581658,34.91816325419417,0 32.59451782848134,34.91837044857581,0 32.59432300121835,34.91849020263797,0 32.59417054034309,34.91871718532935,0</coordinates>
						</LinearRing>
					</outerBoundaryIs>
				</Polygon>
			</MultiGeometry>
		</Placemark>
	</Document>
</kml>