<?xml version='1.0' encoding='UTF-8'?>
<kml xmlns="http://www.opengis.net/kml/2.2">
	<Document>
		<name>MARGI</name>
		<Style id="PolyStyle70">
			<LabelStyle>
				<color>00000000</color>
				<scale>0.000000</scale>
			</LabelStyle>
			<LineStyle>
				<color>ff0055ff</color>
				<width>2.000000</width>
			</LineStyle>
			<PolyStyle>
				<color>00828282</color>
				<outline>1</outline>
			</PolyStyle>
		</Style>
		<Placemark id="ID_70493">
			<name>MARGI</name>
			<snippet />
			<description>&lt;html xmlns:fo="http://www.w3.org/1999/XSL/Format" xmlns:msxsl="urn:schemas-microsoft-com:xslt"&gt;

&lt;head&gt;

&lt;META http-equiv="Content-Type" content="text/html"&gt;

&lt;meta http-equiv="content-type" content="text/html; charset=UTF-8"&gt;

&lt;/head&gt;

&lt;body style="margin:0px 0px 0px 0px;overflow:auto;background:#FFFFFF;"&gt;

&lt;table style="font-family:Arial,Verdana,Times;font-size:12px;text-align:left;width:100%;border-collapse:collapse;padding:3px 3px 3px 3px"&gt;

&lt;tr style="text-align:center;font-weight:bold;background:#9CBCE2"&gt;

&lt;td&gt;1&lt;/td&gt;

&lt;/tr&gt;

&lt;tr&gt;

&lt;td&gt;

&lt;table style="font-family:Arial,Verdana,Times;font-size:12px;text-align:left;width:100%;border-spacing:0px; padding:3px 3px 3px 3px"&gt;

&lt;tr&gt;

&lt;td&gt;DIST_CODE&lt;/td&gt;

&lt;td&gt;1&lt;/td&gt;

&lt;/tr&gt;

&lt;tr bgcolor="#D4E4F3"&gt;

&lt;td&gt;VIL_CODE&lt;/td&gt;

&lt;td&gt;224&lt;/td&gt;

&lt;/tr&gt;

&lt;tr&gt;

&lt;td&gt;VIL_CCD&lt;/td&gt;

&lt;td&gt;1224&lt;/td&gt;

&lt;/tr&gt;

&lt;tr bgcolor="#D4E4F3"&gt;

&lt;td&gt;VIL_NM_E&lt;/td&gt;

&lt;td&gt;MARGI&lt;/td&gt;

&lt;/tr&gt;

&lt;tr&gt;

&lt;td&gt;VIL_NM_G&lt;/td&gt;

&lt;td&gt;ΜΑΡΓΙ&lt;/td&gt;

&lt;/tr&gt;

&lt;/table&gt;

&lt;/td&gt;

&lt;/tr&gt;

&lt;/table&gt;

&lt;/body&gt;&lt;script type="text/javascript"&gt;

				function changeImage(attElement, nameElement) {

				document.getElementById('imageAttachment').src = attElement;

				document.getElementById('imageName').innerHTML = nameElement;}

			&lt;/script&gt;&lt;/html&gt;

</description>
			<styleUrl>#PolyStyle70</styleUrl>
			<MultiGeometry>
				<Polygon>
					<extrude>0</extrude>
					<altitudeMode>clampToGround</altitudeMode>
					<outerBoundaryIs>
						<LinearRing>
							<coordinates> 33.31253529186718,35.03299497782755,0 33.31263570190833,35.03287457450649,0 33.31280179545702,35.03284390568331,0 33.31294459386028,35.03289800210987,0 33.31309589942444,35.03286313255074,0 33.31299772814597,35.0323946021831,0 33.31277298390147,35.03176090474243,0 33.31252010182727,35.03140824430193,0 33.31221498443301,35.03088108223652,0 33.31209481793151,35.03059863607809,0 33.31201575847921,35.03019120962991,0 33.31193456627624,35.02995775163444,0 33.31175943982224,35.02992359259115,0 33.31163642995978,35.02947329908596,0 33.31165523277158,35.02915191021382,0 33.31168901604207,35.02901877488523,0 33.31168963887654,35.02876800839098,0 33.31147464936137,35.0281611796072,0 33.31146713816344,35.0279690108848,0 33.31141022554129,35.02757415769508,0 33.31126363239411,35.02763534172837,0 33.31084351812223,35.027230755486,0 33.31099110871237,35.02708872109144,0 33.31104231813149,35.02694570765394,0 33.3112199243924,35.02697379485427,0 33.31133443729878,35.02670811422164,0 33.31126532543868,35.02650122462682,0 33.31129007114019,35.02629933872776,0 33.31149146625125,35.02580213526635,0 33.31149151819174,35.02559800414868,0 33.31135746717752,35.0254470890239,0 33.31084730841482,35.02553488984127,0 33.31034602920837,35.02570361780268,0 33.30981280151512,35.02585787364187,0 33.30957137455233,35.02579883288337,0 33.30939811401649,35.02562528901003,0 33.30932911239072,35.02541441280245,0 33.30935455285113,35.0247680272596,0 33.30942115207945,35.02458078671395,0 33.30980971050373,35.02433214833193,0 33.31014168354221,35.02426074447344,0 33.31045376733902,35.02419924130484,0 33.31064560562464,35.0240718683458,0 33.31067746143869,35.02369640308936,0 33.31065349787485,35.02284367061006,0 33.31060229641918,35.02239144200074,0 33.31043219917208,35.02176598690529,0 33.31020229138423,35.0213279887172,0 33.30957952660086,35.02097862347852,0 33.30899641464098,35.02080424957454,0 33.30880135926817,35.02058173550903,0 33.30881954252676,35.02029533859841,0 33.30897320466608,35.01991330858063,0 33.30911745908622,35.01955066392311,0 33.30907900419305,35.01929358294552,0 33.30897044799833,35.01908376433103,0 33.30875594591706,35.01897916038274,0 33.30843313287657,35.01897567148587,0 33.30822514782688,35.01890954430458,0 33.30812814027848,35.01873425786229,0 33.30810814475694,35.01810399372334,0 33.30865366588499,35.0179618084039,0 33.30859235263912,35.01784163814715,0 33.3081279455257,35.01799327962064,0 33.30795897060379,35.01741094977447,0 33.30750261112884,35.01710846769971,0 33.30707375786275,35.01689731749265,0 33.30786983702202,35.01592941812249,0 33.30796211555295,35.01577547908169,0 33.30800553367177,35.01560254482498,0 33.3075141507403,35.01532173518159,0 33.30732855341813,35.01514094747424,0 33.3072265753576,35.0149676171372,0 33.30701068013978,35.01492565419807,0 33.30689379598603,35.01486515343026,0 33.30673284770634,35.01468479013373,0 33.30656664839928,35.01451847501153,0 33.3064984535538,35.01384093241721,0 33.30677678650189,35.0137385146474,0 33.30701678197215,35.0135890155184,0 33.30722908579104,35.01303719681053,0 33.3076657337954,35.01291109695523,0 33.30772366080361,35.0128575201432,0 33.30734731893899,35.01239694216961,0 33.30726267208795,35.01221985403171,0 33.30717184073054,35.01177609132977,0 33.30701594517004,35.01158976522996,0 33.30718813791648,35.01096043544559,0 33.3075360990227,35.01051165037038,0 33.3075301967849,35.01044692429397,0 33.30723576179702,35.01017554592355,0 33.30767457400103,35.00984936900564,0 33.30821834931615,35.00935516394247,0 33.30850619389869,35.00895172684569,0 33.30875281424261,35.00884053945247,0 33.30953756351039,35.0081661825812,0 33.30982520847242,35.00820310474364,0 33.30993322696875,35.00788645679987,0 33.31008059284108,35.00758442666316,0 33.31080690433122,35.00788649537315,0 33.31109050190108,35.00799840340579,0 33.31126772821325,35.00801539069209,0 33.31160256137797,35.00793787376427,0 33.31172749688989,35.00789751901672,0 33.31180825792164,35.00788652246497,0 33.31192700025299,35.00787050199092,0 33.31203563321115,35.00786563905227,0 33.31215148968517,35.007872977121,0 33.31228942724587,35.0078865348758,0 33.31246028054833,35.00797584530378,0 33.31299991604575,35.00832810908138,0 33.31376318833775,35.00861728073701,0 33.31425401913138,35.00873835290957,0 33.31495549290788,35.00882643183152,0 33.31515759012276,35.00894694031237,0 33.3153530700351,35.00914012386244,0 33.31542474312198,35.00913723517141,0 33.31557918298175,35.00897189696028,0 33.31614994937996,35.00874246461822,0 33.31609460266928,35.0085737480743,0 33.31615107766797,35.00805700862094,0 33.3160477841441,35.00788656538401,0 33.31600205464301,35.00781027809597,0 33.31569603075907,35.00780893711158,0 33.31591836887887,35.00728804694338,0 33.31588746727228,35.00686944376157,0 33.31630855876163,35.00659722371987,0 33.31623830355765,35.00623830984902,0 33.31652763986665,35.00613082190656,0 33.31748588704398,35.00626251777015,0 33.3175970362757,35.00625766671526,0 33.31776274635112,35.0063564057212,0 33.31803649278952,35.00615110019478,0 33.31851852833115,35.00603268655092,0 33.31878467587533,35.00600661015067,0 33.31887282257681,35.00595552849462,0 33.31891126311839,35.00569483621884,0 33.31951897182758,35.00555937329525,0 33.3200124428901,35.00536816531286,0 33.32035281933809,35.00535367496549,0 33.32069204399066,35.00525237071638,0 33.32089971059603,35.00527918639253,0 33.32167174173963,35.00505773500905,0 33.32195845870154,35.00490226376626,0 33.32222157289686,35.00482772561218,0 33.3226494934672,35.00452181263657,0 33.32289314889737,35.00446759593422,0 33.32348201162731,35.00438469550957,0 33.32414132580575,35.00440227408349,0 33.32496717206195,35.00431567579828,0 33.32568386817587,35.00399352474368,0 33.32593797348575,35.00397961255161,0 33.32596154130077,35.00408447573974,0 33.32632374851767,35.00402940462558,0 33.32606654541037,35.00418674225045,0 33.32597625002069,35.00426816866229,0 33.32603344072533,35.00449194821763,0 33.32606812719778,35.0046936627776,0 33.32605042977338,35.00504517666764,0 33.3260477015012,35.00521684273649,0 33.32624141965024,35.00550020084641,0 33.32602465237964,35.00591968853645,0 33.3260791584321,35.00612726584409,0 33.32604603299963,35.00623854073174,0 33.32597801576168,35.00632381224301,0 33.32585373041021,35.00644783547137,0 33.32580068201801,35.00654511059774,0 33.32573622997634,35.00671513942531,0 33.32564466622404,35.00707914042626,0 33.32554330790967,35.00725748189917,0 33.32518400873867,35.00752844517906,0 33.32545838300092,35.00775259026159,0 33.3255621321166,35.00775993987614,0 33.32567226722797,35.00788611122002,0 33.3256910477126,35.00797289660038,0 33.32583615962682,35.00805726244526,0 33.32597266823421,35.00810711955206,0 33.32622694667075,35.00831327757693,0 33.32688468619232,35.00883635546573,0 33.3266368669013,35.00905809805587,0 33.32614191782742,35.00927965616049,0 33.32615839112146,35.00963731582207,0 33.32609830841006,35.00992647029972,0 33.32683648747081,35.0102843179328,0 33.32698338693488,35.01032235800481,0 33.32714239469776,35.01016486948665,0 33.32745172537754,35.01076226371905,0 33.32750475254572,35.01154317698253,0 33.3278751028645,35.01182726331982,0 33.32812627800465,35.01192249939118,0 33.3284084952224,35.01198013650995,0 33.32867750762198,35.01199299367468,0 33.32960113241261,35.01202036580251,0 33.32996062850439,35.0123081962675,0 33.33024993751872,35.01253982824385,0 33.33053219917321,35.01266617020181,0 33.33133905843069,35.01291891828478,0 33.33158751495561,35.01239982537837,0 33.33180292881291,35.01245981129503,0 33.33173115540981,35.01267015664915,0 33.33202064123833,35.01280274116765,0 33.33205019619623,35.01329254651521,0 33.33253954322105,35.0132988229237,0 33.33275124496397,35.0133951103149,0 33.33311713261659,35.01360645528446,0 33.33298566696428,35.01403776094215,0 33.33376867154937,35.01427381250631,0 33.33486933313172,35.01433792222068,0 33.33436395260932,35.01506933725815,0 33.33496647504149,35.01530899789632,0 33.33582151591781,35.01582810774095,0 33.33573574600361,35.01594733070831,0 33.33631120870378,35.01611555519115,0 33.33685063150223,35.01632536753458,0 33.33708434865259,35.01629077387725,0 33.33763859692993,35.01643014511667,0 33.3379360805984,35.01641131403004,0 33.33843988107409,35.01657976755588,0 33.33856537579764,35.01659910727368,0 33.3387255197206,35.01632795585581,0 33.338855546937,35.0162867116962,0 33.33913075243922,35.0163401562556,0 33.3391195374575,35.01666967739018,0 33.33959434050822,35.01674634880901,0 33.33969416826151,35.01686621973526,0 33.33952246583384,35.01711487283986,0 33.33930666743755,35.01720457808991,0 33.33914967627042,35.01767427450286,0 33.33882111861377,35.01802233259809,0 33.33902187196487,35.01852141191783,0 33.33837813668217,35.01903789927313,0 33.33836285067151,35.01919550466107,0 33.33841473319861,35.01941557505015,0 33.33859969775825,35.01958024883353,0 33.338775779717,35.01949755158444,0 33.33910476070614,35.01950376938166,0 33.33969009612755,35.01939486897939,0 33.3402696795908,35.01923519229109,0 33.34058448511261,35.01929371644616,0 33.34071237695572,35.01953796762771,0 33.34100274962494,35.01980859480674,0 33.34129702140983,35.02084938763333,0 33.34144030469414,35.0210799778462,0 33.34101545260144,35.02105110641605,0 33.34073058323404,35.02135006451037,0 33.34107097377586,35.02146196698919,0 33.34213926718037,35.02238852521049,0 33.34211905600262,35.02246044602844,0 33.3422190774748,35.02257085739944,0 33.34292067854521,35.02284906869222,0 33.34322718408158,35.02289557812286,0 33.34330261232419,35.02301220311126,0 33.34352572508485,35.02309962328655,0 33.34378948354507,35.02307977353231,0 33.34400260412199,35.02315716039551,0 33.34409200632014,35.0232050481322,0 33.34410297642219,35.02329583589336,0 33.34421238926888,35.02365854866573,0 33.34421244254699,35.02380903950138,0 33.34436600969989,35.02405362842578,0 33.344357048535,35.02410674742423,0 33.34428331344336,35.02416771315661,0 33.34421258679849,35.02421600627773,0 33.34414968548346,35.02431404900785,0 33.34415611403961,35.02454219520407,0 33.34417648670946,35.02463906158263,0 33.3442127656093,35.0247235000523,0 33.34424987024057,35.02475891611385,0 33.34427849995674,35.02485655319877,0 33.34427920562607,35.02498305449988,0 33.34421288058928,35.02504661237437,0 33.34407765210461,35.02527685582042,0 33.34398624378316,35.02547130306888,0 33.3437211156853,35.02599200156406,0 33.34379142724156,35.02609252601079,0 33.34380865306254,35.02629234874906,0 33.34378283121796,35.02640157016521,0 33.3436519835033,35.02680430964968,0 33.34363976914475,35.02701846988367,0 33.34360788719015,35.02744281093472,0 33.34361428868841,35.02756395425609,0 33.34378004201036,35.02800521945802,0 33.34377730849445,35.02818702163558,0 33.34388317783315,35.02837014496721,0 33.34359418508947,35.02875780898461,0 33.34352491625227,35.02894813131162,0 33.34410349009686,35.02923931237256,0 33.34421859041419,35.02925082426538,0 33.3443830038883,35.02928822095545,0 33.34497615319665,35.02941856511478,0 33.3451235593471,35.0294324830359,0 33.34516875090112,35.02924948111793,0 33.34555174667355,35.02930058774729,0 33.34558614544424,35.02943817869206,0 33.34566418461009,35.02947746557825,0 33.34585370561959,35.02934262872607,0 33.34596940552819,35.02920688159745,0 33.34604681194372,35.02941560688544,0 33.3461577973426,35.02953800849369,0 33.34635836414352,35.02974220772148,0 33.34646341056624,35.02978586550061,0 33.34705364868438,35.029950496821,0 33.34742565655485,35.03007007991014,0 33.34761095236891,35.03016920642143,0 33.34771543206134,35.03024514540769,0 33.34776782162454,35.03034263505648,0 33.34772774321216,35.03038047514451,0 33.34822685552435,35.0308244768019,0 33.34808518979556,35.03089737976719,0 33.34807207537202,35.0309416084872,0 33.34808934995299,35.03107499309603,0 33.34801238071768,35.03111036013372,0 33.34815163625307,35.03130579277763,0 33.34831164343421,35.03130777645066,0 33.3484666664861,35.03144893057406,0 33.34822998520053,35.03160136996955,0 33.34821933227519,35.03164563039768,0 33.34826434652096,35.03174304902451,0 33.34805786379026,35.03185953941076,0 33.34832525553199,35.0321857361438,0 33.34851919149148,35.0322184208735,0 33.3486733021646,35.0322748251514,0 33.34838811657974,35.03265672120084,0 33.34834270428244,35.0327166966765,0 33.34828252147096,35.0327764882735,0 33.34812088886071,35.0328632664012,0 33.34768901707357,35.03305160550217,0 33.34699137934577,35.03323257163498,0 33.34635598171863,35.03337797909706,0 33.34620620620588,35.03335592155167,0 33.34597934148555,35.0331068948937,0 33.34568016807332,35.03277424467962,0 33.34543800241232,35.03228696541417,0 33.34510993295192,35.03192172049901,0 33.3450564595308,35.03188473776151,0 33.34491458515713,35.03183656730906,0 33.34421527379037,35.03180765960031,0 33.3441024400849,35.03179890143351,0 33.34413961474899,35.03282909835514,0 33.34412294981695,35.03287972145134,0 33.34400762656318,35.03293704867677,0 33.3438918614893,35.03295800935334,0 33.34344223737882,35.03292861110759,0 33.34277976782325,35.03285412337517,0 33.34274044394284,35.03286852372297,0 33.34269151421428,35.03290521349672,0 33.34246633368246,35.03327039420532,0 33.34231748379026,35.0334148336858,0 33.34228885921605,35.03349786918442,0 33.34228684006936,35.03374036881097,0 33.34225561039986,35.03401741922104,0 33.34168749673796,35.0339928331902,0 33.34165766458018,35.03438709081416,0 33.34106927325116,35.0343201986795,0 33.33993394180168,35.03435184676673,0 33.3398750526334,35.03438254363617,0 33.33941035543523,35.03496154834598,0 33.33903788528436,35.03520043941202,0 33.33854397751609,35.03477721384053,0 33.33770490249776,35.03523337234724,0 33.33766357185107,35.03528821241748,0 33.33814361349623,35.03558219530139,0 33.33857586849773,35.0355935259815,0 33.33875267898527,35.03571970688049,0 33.34017551606325,35.03535470424816,0 33.34079520615198,35.03514451175236,0 33.3411031539611,35.03508793258062,0 33.34137784147701,35.03514070519583,0 33.34166348909714,35.0350782082378,0 33.34192757125241,35.03507041890151,0 33.34247708140798,35.03518808165156,0 33.34296411596367,35.03524350076794,0 33.34295069437186,35.03535878309372,0 33.34289014771473,35.03545618737382,0 33.342668866498,35.03553241523338,0 33.34239278223936,35.03556858151259,0 33.34232392487878,35.03559126434536,0 33.34199153165272,35.03546207392741,0 33.34168596589089,35.03571670533605,0 33.34155872334397,35.03560637944953,0 33.34149741448557,35.03564113938802,0 33.34116368581392,35.03540079489118,0 33.34083513464572,35.03559292322036,0 33.34036417094671,35.0358526833158,0 33.34027676909842,35.03577038837295,0 33.3397827312082,35.03616774555126,0 33.3394556229638,35.03627700963217,0 33.33930611880884,35.03657915465191,0 33.33928778241581,35.03669853102155,0 33.33927553254355,35.03670669695767,0 33.33942507441847,35.03689411423715,0 33.33949155820216,35.03698843461677,0 33.33964440678455,35.03708770720923,0 33.33959244904273,35.03715425191724,0 33.33966636172367,35.03722711029822,0 33.33968113110358,35.03724935739167,0 33.33967603249366,35.03733619525381,0 33.33954953803861,35.0376631353869,0 33.33949700512301,35.03803668354622,0 33.33944965911761,35.03827694085862,0 33.33935067485525,35.03841004241428,0 33.33934022199816,35.03871905301414,0 33.33952295962277,35.03867903812911,0 33.33979690482533,35.03870788732575,0 33.33986842028594,35.03874641550379,0 33.33999095222021,35.03922943174255,0 33.33998059320446,35.03949200470285,0 33.33998230755378,35.03990004689501,0 33.33968633530185,35.03976003580129,0 33.33936520807622,35.04035283971792,0 33.33931558574967,35.04033240095932,0 33.33906932563772,35.04041086901376,0 33.33898977578503,35.04057731972119,0 33.33872328592493,35.04052819128215,0 33.33858622957716,35.04049815010485,0 33.33828241785174,35.04063392515833,0 33.33801501796314,35.04080234738596,0 33.33786266963062,35.04085109935173,0 33.33751339894481,35.04118999626004,0 33.33787952288016,35.04160816388045,0 33.33882898709781,35.04130203448595,0 33.33971265953473,35.04203941371008,0 33.33965720290119,35.0423404554276,0 33.33905832686086,35.04221192626346,0 33.33896534057045,35.04233023105082,0 33.3387806757437,35.0424157359453,0 33.33851394683625,35.04240785836005,0 33.33837294436069,35.04236677660525,0 33.3382357016143,35.04232865797753,0 33.33795535486119,35.04221223070589,0 33.33783824857206,35.042142576274,0 33.33768020138297,35.0420554436345,0 33.33756584464483,35.0419978350247,0 33.33737485348855,35.04191928407575,0 33.33713042045815,35.04171066901399,0 33.33708823388625,35.04158948801588,0 33.33646962625348,35.04170199996182,0 33.33634090360288,35.04171007929043,0 33.33614655726475,35.04179773797411,0 33.33602575773212,35.0418288496463,0 33.33591942094501,35.04190000895218,0 33.33582153468129,35.04191363891096,0 33.33550771802494,35.0420353969454,0 33.3353624760617,35.04186451131702,0 33.33514693811897,35.04167964131965,0 33.33512097907631,35.04167199689542,0 33.33500827499761,35.04167634106833,0 33.33501784384011,35.04161926128976,0 33.33510915913679,35.0414335660987,0 33.33515240146607,35.04129091737322,0 33.33521077349423,35.04121649291466,0 33.33524920250644,35.04112929457076,0 33.33531407321788,35.0410185178031,0 33.33534754665693,35.04092938335651,0 33.33550405307653,35.04059462967746,0 33.33564477909681,35.04026716682606,0 33.33590029035781,35.03934781867436,0 33.3359685817886,35.03927724607096,0 33.3359478424447,35.03881944139404,0 33.33588717263837,35.03859185374,0 33.33583869904972,35.03841240311389,0 33.33579239329453,35.03822083592533,0 33.33570806895911,35.03767043322237,0 33.33568511883926,35.03689480469605,0 33.33571261834199,35.03681988664679,0 33.33564144338908,35.03616686338649,0 33.33562088351221,35.03603427038092,0 33.33552846861338,35.0356044110378,0 33.33547347010058,35.03525519803352,0 33.33529941067793,35.03520406846727,0 33.33518435931065,35.03515556465323,0 33.33507471495445,35.03509511643909,0 33.33499443119152,35.03503950340328,0 33.33494236200499,35.0349866789443,0 33.33489252800172,35.03490872037771,0 33.33484604091694,35.03480868314719,0 33.33482379426101,35.03471838012611,0 33.33476440259728,35.03429448739471,0 33.33376684236254,35.03402232639662,0 33.33362280433359,35.0339911800879,0 33.33326782272929,35.03397039081568,0 33.33310875382053,35.03394588806141,0 33.33246540044674,35.03399480381174,0 33.33229500079251,35.03403850976751,0 33.3321189821833,35.03406896289516,0 33.33197590185815,35.03407613218004,0 33.3316364388197,35.03422302338534,0 33.33098988636559,35.03453227491848,0 33.33014369700303,35.03490633470652,0 33.33005162201861,35.03495262419136,0 33.32988275781947,35.03503751827584,0 33.32970774868439,35.03513233450096,0 33.32864780797446,35.03566274656093,0 33.32827934665927,35.03581268969893,0 33.32777194937486,35.03600385844037,0 33.32751665853336,35.03607170608753,0 33.32712954814252,35.03614971246489,0 33.32683401310965,35.03624688120964,0 33.32663115440486,35.03628869704384,0 33.32639132709767,35.03633371917168,0 33.32591624315356,35.03639565614855,0 33.3258569163304,35.03640642246388,0 33.32579141936116,35.03641805715638,0 33.32572705453939,35.03643273827024,0 33.32505486787754,35.03673306329095,0 33.32507165597801,35.0369229172541,0 33.32510955226169,35.03736198995113,0 33.32511210273621,35.03740214577413,0 33.32518082654496,35.03779647598568,0 33.32517627926545,35.03817519706062,0 33.32520827180389,35.03836593957194,0 33.32525296433416,35.03863896455356,0 33.32525430919452,35.03865253539175,0 33.32528197674554,35.03877925458033,0 33.32530135180458,35.03885585826202,0 33.32537783809406,35.03913117947599,0 33.32538268450198,35.03914442091867,0 33.32543422307711,35.03935260382251,0 33.32548508221285,35.03952729997012,0 33.3255222967302,35.03969410473373,0 33.3255992348081,35.04003678204467,0 33.32569067583048,35.04037719115313,0 33.32576846781642,35.04072175989944,0 33.32578631218156,35.04094872393487,0 33.32582248781001,35.04128972386081,0 33.32584326096328,35.04164640920997,0 33.32584549108967,35.04168470352094,0 33.32584730771246,35.04194541993509,0 33.32584454295201,35.04197509569097,0 33.32584126101452,35.04201033187284,0 33.32583803579409,35.04204494682599,0 33.32582872179877,35.04214492363457,0 33.32578751447058,35.04239466452864,0 33.3257663440591,35.04252298666098,0 33.32573956451031,35.04274394260798,0 33.32577210519124,35.04293142923283,0 33.32579010938067,35.04305329208312,0 33.32580806970186,35.04317485847986,0 33.32582441862007,35.0433076797792,0 33.32586739851841,35.04360610450681,0 33.32590577096443,35.04387253678682,0 33.32596419521614,35.04430978857736,0 33.3259322088754,35.04447986001272,0 33.32590070425788,35.04470336700638,0 33.32573489028598,35.04517705226686,0 33.32562457625234,35.04544060070392,0 33.32557685587332,35.04551489910317,0 33.32517934303707,35.04547252230372,0 33.32494516569716,35.04545245770364,0 33.32413073442224,35.04540156893804,0 33.32417409170711,35.04491948199179,0 33.32394787540347,35.04481293933952,0 33.32399383332347,35.0446034581468,0 33.32403137602046,35.04442412113805,0 33.3239873113728,35.04432493065904,0 33.3239603484362,35.04426423546466,0 33.3239257791833,35.0441864183332,0 33.32392573884299,35.04404430381446,0 33.32392838192995,35.0438425543235,0 33.32392823853517,35.04379595327212,0 33.32392777227125,35.04364506549217,0 33.32392827040069,35.0435108017634,0 33.32397594202813,35.04338825218621,0 33.32399026790544,35.04335142531653,0 33.32411931211011,35.0432397962678,0 33.32383906898536,35.04301344706576,0 33.323666235137,35.04296583839592,0 33.32361187921499,35.04296989823766,0 33.32344741217459,35.04298218410854,0 33.32326319510956,35.04263937589854,0 33.3231985942165,35.0424382219654,0 33.32298356252402,35.0424392074147,0 33.3228537721805,35.04255181709638,0 33.32277656845864,35.04275406065408,0 33.3224788742062,35.04268370070886,0 33.3222947501438,35.04261929784509,0 33.32227928447598,35.04261388895967,0 33.32206686795903,35.04253958942206,0 33.32206073134299,35.04253823285329,0 33.32204559384999,35.04271755311835,0 33.32203258688213,35.04282840601888,0 33.32199831354848,35.04288600376557,0 33.32189288043687,35.0430471043897,0 33.32185675569928,35.04311560693794,0 33.32182919606861,35.04319711403088,0 33.32177913358227,35.04331337542629,0 33.32163610300532,35.04359739084419,0 33.32154268461435,35.04375294353047,0 33.32148357293266,35.04390574606628,0 33.32145690819523,35.04408883223501,0 33.3214581657076,35.04414767337948,0 33.32145985028593,35.04422655729122,0 33.32148708160314,35.04447569797642,0 33.32125277157996,35.04465653430772,0 33.32106799227643,35.04470989510883,0 33.32094223545099,35.04471870384931,0 33.32064746633137,35.04465727196023,0 33.3205949978891,35.04435445892354,0 33.32044773382592,35.04426571678517,0 33.32039814912633,35.04385793236331,0 33.32036691706189,35.04382292088004,0 33.32034087018082,35.04379372245592,0 33.3200918655324,35.04384554134032,0 33.31999723847696,35.04385470595885,0 33.3198936664681,35.0438644484591,0 33.31969601454732,35.04387358515985,0 33.31964088907172,35.04387613357601,0 33.31949373508802,35.04389288187355,0 33.31940672130713,35.04390602016113,0 33.31938099888414,35.04390181155303,0 33.31929337130845,35.04390509798912,0 33.31926095526737,35.04390428367737,0 33.31922565103482,35.04390091873537,0 33.31910976808785,35.04388788981834,0 33.3190641232587,35.04388105903586,0 33.31896183471623,35.04385953082546,0 33.31878014241403,35.04379415263273,0 33.31866327325502,35.04375939632747,0 33.31866215930489,35.04375902426381,0 33.31863591466687,35.04376680661312,0 33.31862656188697,35.04377497727805,0 33.31856523439133,35.04384995590493,0 33.31851494129366,35.04387844471216,0 33.31844282848631,35.04390686096452,0 33.31820912991136,35.0439538637146,0 33.31805812018192,35.04359381105127,0 33.31805198536188,35.04357821549567,0 33.31804815543489,35.04356937452381,0 33.31766115178014,35.04366264838313,0 33.3174573122804,35.04295452312316,0 33.31741379199534,35.04282718835094,0 33.31734584355833,35.04259113626009,0 33.31723982181096,35.04248768476056,0 33.31711518287004,35.0423235263195,0 33.31708685280548,35.04228621408942,0 33.31694499685081,35.04209937844018,0 33.31663891749085,35.04181708485756,0 33.31658901046786,35.04177105532108,0 33.31631038148544,35.04158685629132,0 33.31595894674732,35.04139304872094,0 33.31587634105679,35.0412877141591,0 33.31586702909925,35.04126832998747,0 33.3158348780963,35.04120139421367,0 33.31579331584711,35.0409442604517,0 33.31571007888972,35.04067863648799,0 33.31570059441898,35.04064172919799,0 33.31564599762992,35.04042926024866,0 33.31544421135962,35.0400969844296,0 33.31531062787001,35.03995490679078,0 33.31486621739564,35.03903583978632,0 33.3148257174513,35.03889455572646,0 33.31480645969894,35.03881598765516,0 33.31480946713907,35.03870854980396,0 33.31483755758793,35.03867884552071,0 33.31487337287226,35.03867549666451,0 33.31488825445901,35.03867410591926,0 33.31490887043187,35.03867217836908,0 33.31495723366147,35.03866765752988,0 33.31498138532398,35.03864802506056,0 33.31498793163684,35.03862315958881,0 33.31498284629298,35.03860747189793,0 33.31493700483771,35.0384914143826,0 33.31498631491296,35.03840864441722,0 33.3150443678494,35.03831137225932,0 33.31510304042681,35.03827762046513,0 33.31485781188932,35.03789035267385,0 33.31462086945097,35.03757866207704,0 33.3144761617258,35.03736675511271,0 33.3143963087305,35.03723428505464,0 33.31436885365066,35.03718741936132,0 33.31426906663754,35.037059041013,0 33.31423167242193,35.03703053045979,0 33.31413185793089,35.03689658400704,0 33.31392580321594,35.03667254973252,0 33.31377364814177,35.03646169237878,0 33.31374756550589,35.03638664195783,0 33.3136432335739,35.0361043081192,0 33.31341887482019,35.0358000661034,0 33.31330895077866,35.03527646469501,0 33.31321177268752,35.03512966361765,0 33.31306898533385,35.03507148498474,0 33.31309258147402,35.03496238945869,0 33.31305386495796,35.03489112046297,0 33.31282232993342,35.03480772883443,0 33.31278844177555,35.03474663603447,0 33.31291407100268,35.03438552938326,0 33.31284350081204,35.0342896444895,0 33.31269311383001,35.0342475960442,0 33.31285576615511,35.03389297977731,0 33.312882576626,35.03372321322947,0 33.31283132677701,35.03346357820654,0 33.31269020385628,35.03327184966612,0 33.31253529186718,35.03299497782755,0</coordinates>
						</LinearRing>
					</outerBoundaryIs>
				</Polygon>
			</MultiGeometry>
		</Placemark>
	</Document>
</kml>