<?xml version='1.0' encoding='UTF-8'?>
<kml xmlns="http://www.opengis.net/kml/2.2">
	<Document>
		<name>MARGO</name>
		<Style id="PolyStyle70">
			<LabelStyle>
				<color>00000000</color>
				<scale>0.000000</scale>
			</LabelStyle>
			<LineStyle>
				<color>ff0055ff</color>
				<width>2.000000</width>
			</LineStyle>
			<PolyStyle>
				<color>00828282</color>
				<outline>1</outline>
			</PolyStyle>
		</Style>
		<Placemark id="ID_70383">
			<name>MARGO</name>
			<snippet />
			<description>&lt;html xmlns:fo="http://www.w3.org/1999/XSL/Format" xmlns:msxsl="urn:schemas-microsoft-com:xslt"&gt;

&lt;head&gt;

&lt;META http-equiv="Content-Type" content="text/html"&gt;

&lt;meta http-equiv="content-type" content="text/html; charset=UTF-8"&gt;

&lt;/head&gt;

&lt;body style="margin:0px 0px 0px 0px;overflow:auto;background:#FFFFFF;"&gt;

&lt;table style="font-family:Arial,Verdana,Times;font-size:12px;text-align:left;width:100%;border-collapse:collapse;padding:3px 3px 3px 3px"&gt;

&lt;tr style="text-align:center;font-weight:bold;background:#9CBCE2"&gt;

&lt;td&gt;1&lt;/td&gt;

&lt;/tr&gt;

&lt;tr&gt;

&lt;td&gt;

&lt;table style="font-family:Arial,Verdana,Times;font-size:12px;text-align:left;width:100%;border-spacing:0px; padding:3px 3px 3px 3px"&gt;

&lt;tr&gt;

&lt;td&gt;DIST_CODE&lt;/td&gt;

&lt;td&gt;1&lt;/td&gt;

&lt;/tr&gt;

&lt;tr bgcolor="#D4E4F3"&gt;

&lt;td&gt;VIL_CODE&lt;/td&gt;

&lt;td&gt;123&lt;/td&gt;

&lt;/tr&gt;

&lt;tr&gt;

&lt;td&gt;VIL_CCD&lt;/td&gt;

&lt;td&gt;1123&lt;/td&gt;

&lt;/tr&gt;

&lt;tr bgcolor="#D4E4F3"&gt;

&lt;td&gt;VIL_NM_E&lt;/td&gt;

&lt;td&gt;MARGO&lt;/td&gt;

&lt;/tr&gt;

&lt;tr&gt;

&lt;td&gt;VIL_NM_G&lt;/td&gt;

&lt;td&gt;ΜΑΡΓΟ&lt;/td&gt;

&lt;/tr&gt;

&lt;/table&gt;

&lt;/td&gt;

&lt;/tr&gt;

&lt;/table&gt;

&lt;/body&gt;&lt;script type="text/javascript"&gt;

				function changeImage(attElement, nameElement) {

				document.getElementById('imageAttachment').src = attElement;

				document.getElementById('imageName').innerHTML = nameElement;}

			&lt;/script&gt;&lt;/html&gt;

</description>
			<styleUrl>#PolyStyle70</styleUrl>
			<MultiGeometry>
				<Polygon>
					<extrude>0</extrude>
					<altitudeMode>clampToGround</altitudeMode>
					<outerBoundaryIs>
						<LinearRing>
							<coordinates> 33.48233633903047,35.13192872680762,0 33.4820820708679,35.13205775406442,0 33.48171357545692,35.13106365177261,0 33.48165789100523,35.13091342530476,0 33.48161896925048,35.1306037245117,0 33.48150077692674,35.13042481147055,0 33.48136466343187,35.13012250502622,0 33.48118728756462,35.12981057486102,0 33.48061918079267,35.129104594369,0 33.47984869039959,35.12832654259832,0 33.47897546576936,35.12874715383409,0 33.47862413397104,35.12886676194382,0 33.477624316473,35.12915021621461,0 33.47697012509643,35.12825694687633,0 33.47666429008715,35.12839076108511,0 33.4764740591236,35.12847399424553,0 33.47616085723105,35.12859408261175,0 33.47497867532272,35.12869413883627,0 33.47506761918562,35.12818532133184,0 33.47473928301694,35.12809218998223,0 33.47434702368695,35.12797469795263,0 33.4740693205251,35.12788547878367,0 33.47367072098162,35.12776847807961,0 33.4731243310078,35.12759413640516,0 33.47292398835852,35.12752925231569,0 33.47227157475674,35.12727070523703,0 33.47004738393871,35.12654807192614,0 33.46923980396725,35.12630070512294,0 33.46848495806713,35.12581897176234,0 33.46864309402935,35.12566260858276,0 33.46876325901687,35.12552211335665,0 33.46899991487765,35.1251596556878,0 33.46904159033222,35.1251151221454,0 33.46906767368367,35.12509460992305,0 33.46941226470496,35.12484514140737,0 33.46929760115713,35.12479463744741,0 33.46915021647576,35.12481279882315,0 33.46904206636661,35.12420932498815,0 33.46879875719666,35.12409963035152,0 33.46897624084512,35.12398467697493,0 33.4690770321664,35.12390890743287,0 33.46921005472493,35.12382777410657,0 33.47000595269061,35.12334092206842,0 33.47029581759386,35.12347312819705,0 33.47091416237576,35.12288315564523,0 33.47118847824203,35.12300346299681,0 33.47135695112148,35.12312296177954,0 33.47163279800503,35.12330230201124,0 33.47294056300292,35.12287599324706,0 33.47223389720501,35.12105089791722,0 33.47088045408499,35.12126397018677,0 33.47059884459696,35.12132547656084,0 33.47048533871117,35.12077379547662,0 33.4698380859604,35.12084882908853,0 33.46956299985644,35.11956584109046,0 33.4692674084887,35.11882363999501,0 33.46849171371295,35.11812812572735,0 33.4679240903224,35.1176767624743,0 33.46782138633362,35.11764843667415,0 33.46761185448145,35.11769733035658,0 33.46704004261238,35.11809290053969,0 33.46673533668161,35.11814778861955,0 33.46667200027405,35.11797806985007,0 33.46585373063499,35.11777953895395,0 33.46476880980232,35.11793883643504,0 33.46340379627465,35.11792398471758,0 33.46265818960261,35.11791569964976,0 33.46227036242104,35.1177385523592,0 33.46065325102965,35.11691158813955,0 33.46045481521534,35.11677560048818,0 33.46035379889269,35.1166628349341,0 33.46025763652705,35.11658642418653,0 33.46009123125414,35.11634119162503,0 33.46028459706188,35.11623354329164,0 33.46024707864122,35.11614301744495,0 33.46023191306077,35.11608463811007,0 33.46022983735848,35.11579745516814,0 33.45981708662324,35.11581336283265,0 33.4593131322262,35.11545077662045,0 33.45833551961052,35.11466700755307,0 33.45702039951877,35.11326788802117,0 33.45686575378767,35.11312343726343,0 33.45536428169633,35.11180892818864,0 33.45557720604381,35.1116716442508,0 33.45643964581707,35.11117471496262,0 33.45666606585674,35.11105571280823,0 33.45710681799049,35.11084093956907,0 33.45733567128227,35.11071485278876,0 33.45753366213391,35.11056873392845,0 33.45771190236981,35.11040959194894,0 33.45846105408784,35.10950248380314,0 33.45857415157364,35.10933602321827,0 33.45924870068456,35.1085201897288,0 33.45950527560023,35.10821022228802,0 33.46109742545035,35.1062454446693,0 33.4629230687068,35.10403510031487,0 33.46292368515975,35.10391462641566,0 33.46355078286621,35.10326315559011,0 33.46452520985071,35.10207654233173,0 33.46858324209204,35.09713439692836,0 33.4687913084319,35.09688319902822,0 33.47051116841335,35.09481661859838,0 33.47057899201018,35.09473512090383,0 33.47120276114278,35.09395478713865,0 33.47198142011976,35.09299212700979,0 33.47280374510258,35.09199228350819,0 33.47329796122185,35.09138495004635,0 33.47384286502912,35.09071838713214,0 33.47456374658259,35.0898323461442,0 33.47516922856653,35.08912045725882,0 33.47598162718189,35.08813684614205,0 33.47645741574208,35.08755644821099,0 33.47658362216109,35.08740249087149,0 33.47735268918563,35.08646430745154,0 33.47787948757156,35.08581116522465,0 33.47817033830326,35.08561083442427,0 33.47859880937666,35.08540768651215,0 33.47898786459803,35.08527312291255,0 33.47920968927658,35.08519639873301,0 33.48074491536865,35.08468656865112,0 33.48200805918549,35.08416657214153,0 33.48229259545043,35.08401622502647,0 33.48230150904681,35.08367946987327,0 33.48236157548325,35.08331633805662,0 33.4824124919331,35.08317157453872,0 33.48280245444176,35.08293163351586,0 33.48314787783919,35.0828232935095,0 33.48318606259114,35.08271537753118,0 33.48313410700203,35.08234977012923,0 33.48299290122906,35.08216054812701,0 33.48221389895233,35.08152234098506,0 33.48183556544722,35.08118348866192,0 33.48153103752944,35.08094187322249,0 33.48108253609357,35.08071887075117,0 33.48099644536284,35.08087683645127,0 33.48069257008084,35.08095617511968,0 33.48042419780183,35.08118278908196,0 33.48025450933761,35.08114881929478,0 33.47946009521566,35.0807894806336,0 33.47897953372622,35.08053494335221,0 33.47868623005265,35.08030105188885,0 33.47862742144531,35.08025415402558,0 33.47803688830215,35.07963910888044,0 33.47801304619675,35.07964698649505,0 33.47750142119992,35.07911616771946,0 33.47725994582421,35.07885956324305,0 33.4770159992911,35.07855981409439,0 33.47678445176279,35.07849736211753,0 33.47656590775069,35.07840918295841,0 33.47610127342151,35.07822170728835,0 33.47592104916257,35.07819120800631,0 33.4752199826186,35.07778135036696,0 33.47523689503386,35.07773801390945,0 33.4755664011331,35.07762160911938,0 33.47656380198502,35.07733989141568,0 33.47670812714077,35.07729912510242,0 33.47682503610324,35.07730093074132,0 33.47704229540451,35.07737909088096,0 33.47713051395096,35.07734955451849,0 33.47696525474668,35.07702616538879,0 33.47656267616853,35.07676836123077,0 33.47584265672518,35.07630726628965,0 33.47578910277286,35.07628815926757,0 33.47520581884732,35.07624380739726,0 33.47523452558887,35.07618736604628,0 33.47533190499519,35.07616241930487,0 33.47543078446908,35.07620289967247,0 33.47562009196975,35.07617219106863,0 33.47578070707351,35.07620469315875,0 33.47584905435995,35.07607036068924,0 33.47613040745694,35.07609480590314,0 33.47646787131426,35.07604133784719,0 33.47656127469956,35.07605662828158,0 33.47702386688326,35.07613235672111,0 33.47721890867467,35.07620699382582,0 33.47753389909695,35.07624187600626,0 33.47780101611772,35.07619836862229,0 33.47792982473544,35.07618642945756,0 33.47800117811866,35.07607650122815,0 33.47829682323766,35.07598196259259,0 33.47843522909306,35.07599746530523,0 33.47887882834399,35.0759223391891,0 33.4789635692789,35.07584785219559,0 33.47893699417153,35.07577980814848,0 33.47891043897398,35.07571535161183,0 33.47898412686003,35.07563256483437,0 33.47927151125681,35.07553458693991,0 33.47932768340687,35.07544110818541,0 33.47939728055039,35.07540496615552,0 33.47939253906137,35.07534042259267,0 33.47945729074944,35.07522180300064,0 33.47955201511664,35.0750062223017,0 33.47998280413699,35.07481083304627,0 33.48071618403908,35.0748796631908,0 33.48072163490001,35.07469312985682,0 33.48079021985585,35.07448482518348,0 33.48095508140853,35.0743263542409,0 33.48118131744958,35.07421785331638,0 33.48146045331441,35.0742023987541,0 33.48223452161856,35.07423891316894,0 33.48263084570141,35.07438350146863,0 33.48322338097899,35.07481416217276,0 33.48400275137112,35.07560543451824,0 33.48493500953199,35.07648670696428,0 33.4860154452986,35.07747759494775,0 33.48669035173816,35.07848865927542,0 33.48691104881036,35.0790610382426,0 33.48710282793303,35.07949617048405,0 33.4873304345051,35.08028908739765,0 33.48733463464623,35.08030371744819,0 33.48749878594965,35.08049682820044,0 33.48770752039603,35.08083327300091,0 33.48796113027056,35.08120385423972,0 33.48808320709767,35.08142466685526,0 33.48881093084948,35.0820076632239,0 33.48917968215727,35.08233861521979,0 33.48968284194705,35.08266410894091,0 33.48980846980034,35.08272899217582,0 33.49001453686828,35.08283541960706,0 33.49036491527625,35.08298523193213,0 33.49102632779786,35.08320975007887,0 33.49127475341967,35.08332534958674,0 33.49156491166276,35.08341082305402,0 33.49180296081789,35.08355972084105,0 33.4921483403967,35.08381153581652,0 33.49233961642302,35.08407538641793,0 33.49243006187365,35.08422235007756,0 33.49257577267411,35.08455605662395,0 33.49266944247898,35.08498432436872,0 33.49277735904015,35.08535673901343,0 33.49281972001422,35.0856154374504,0 33.49292619963647,35.08592665333818,0 33.49311594318066,35.08668440416665,0 33.49317262899303,35.08692268145428,0 33.49333833637602,35.08743781220765,0 33.49334752141549,35.08753280621434,0 33.49338476702948,35.08791800920386,0 33.4934582675201,35.08814139971421,0 33.49345108824057,35.08831317513713,0 33.49347916685208,35.08848903555827,0 33.49381766296986,35.08900382726355,0 33.49413313056976,35.08934688811831,0 33.49439078352207,35.08973142395449,0 33.49493576749918,35.09025418514025,0 33.49507443939422,35.09034296521806,0 33.49541259143982,35.09069219836157,0 33.49563454337526,35.09086777072392,0 33.4957784396975,35.09104138850266,0 33.49612131448448,35.09124575115878,0 33.49675473232275,35.09189874723759,0 33.4971028301476,35.09218587680251,0 33.49871155530866,35.0932326580504,0 33.49888557705432,35.0933606985057,0 33.50034365044537,35.09345988335353,0 33.50119005954973,35.09363655912069,0 33.50174696599687,35.09383643862352,0 33.50198698059788,35.0941940815884,0 33.50237522499198,35.09440663595156,0 33.50253410235921,35.09451606942422,0 33.50270300849645,35.09477110334618,0 33.50276132625756,35.0948591583871,0 33.50277316325124,35.09501225751332,0 33.5027557311639,35.09520210737283,0 33.50281187871109,35.09519992301167,0 33.5029318581533,35.09520707831145,0 33.5029644488435,35.09523509390866,0 33.502819285118,35.0953028405191,0 33.50286327381605,35.09535686029407,0 33.50287440429672,35.09542896234611,0 33.50293020646087,35.09585256918816,0 33.5030299355686,35.09630315297552,0 33.50307418433722,35.09647885722311,0 33.50314943136458,35.09673136745845,0 33.50394063518227,35.09759322524786,0 33.50441023107707,35.09802619067185,0 33.50531048068459,35.09908300391778,0 33.50600040306249,35.09985100939036,0 33.50654802772207,35.10114545478502,0 33.50687211569494,35.10192559683801,0 33.50731823600016,35.10253206734306,0 33.50767177106196,35.1032612736524,0 33.50779044105528,35.10345538094418,0 33.50807541910225,35.10375446875845,0 33.50844147011715,35.10441541661425,0 33.50846036303923,35.10454372563689,0 33.50853161706373,35.10467217018383,0 33.50894403439012,35.10520517905598,0 33.50901525495597,35.10531867461817,0 33.50911028585917,35.10549940203923,0 33.50934991213493,35.1060476339443,0 33.50944298809741,35.10617006312742,0 33.50953653718309,35.10649130934895,0 33.50977015418032,35.1068063508645,0 33.50843213925183,35.10723004263534,0 33.50783204596249,35.10735208261397,0 33.50769311446364,35.10707126816227,0 33.50765117194118,35.10702947822166,0 33.50732340607447,35.10690741976593,0 33.50641919423318,35.10690287043812,0 33.50632633924186,35.1068716245473,0 33.5059536769655,35.10700076998227,0 33.50588456244459,35.10700984796016,0 33.50596484001642,35.10710688759417,0 33.50583399088088,35.10716838269623,0 33.50550697009683,35.10736472408405,0 33.50534350625483,35.10748456977021,0 33.50474521661129,35.10760061068959,0 33.50444137180045,35.10768040894807,0 33.50445815362548,35.10776997975034,0 33.50452423963875,35.10881179614685,0 33.50418937861302,35.10927357568141,0 33.50408546013779,35.10941687790876,0 33.50386671859819,35.11116427809394,0 33.50386430353149,35.11160362757766,0 33.5039257814116,35.11200626606227,0 33.50413575621432,35.11239928564594,0 33.50422073706775,35.11258972420193,0 33.50467491236153,35.11335129871245,0 33.50532968211083,35.11439325202702,0 33.50552583144813,35.11473090230708,0 33.50583546587705,35.11523078214389,0 33.50591926020223,35.1153986911731,0 33.50610548222998,35.11637659944743,0 33.50612583873947,35.11646104762549,0 33.50613735387876,35.1165228949888,0 33.506265178188,35.11720947304723,0 33.50697525334736,35.11979070807433,0 33.5080837246783,35.12152060172259,0 33.50862813761258,35.12211711610698,0 33.50938394574624,35.12258851993172,0 33.50860213641958,35.12279771828523,0 33.50838579828937,35.12277537882439,0 33.508013285314,35.12287427541556,0 33.50757666719498,35.12310938452224,0 33.50721462473076,35.12374893006768,0 33.50720333124747,35.12377358367828,0 33.50705239655631,35.12410308197612,0 33.50695783243018,35.1244405253932,0 33.50692791588213,35.12477786781932,0 33.5069103496871,35.12486819460673,0 33.50682030895337,35.12506752668405,0 33.50675430624416,35.12517917661669,0 33.50665761423466,35.12529884203027,0 33.50630911294256,35.12555568313844,0 33.50555393025776,35.12607343687469,0 33.50448942540583,35.12632608296196,0 33.50360099917776,35.12654259125896,0 33.50331177219736,35.12657623846054,0 33.50332481891046,35.12662800831889,0 33.50314345238183,35.1266498234059,0 33.50269375391851,35.12670391364949,0 33.50210651347554,35.12683549555112,0 33.50119469241396,35.12698090701666,0 33.50038347188536,35.1271128242775,0 33.4997214624162,35.1271991728193,0 33.49934824798594,35.12723707610738,0 33.49893928765906,35.12725903095306,0 33.49871541663622,35.12730737395492,0 33.49847873211328,35.12743307308992,0 33.49805076768362,35.12766573444558,0 33.4974833755595,35.12797060793481,0 33.4971170146797,35.12817383759037,0 33.4967668605509,35.12836637494208,0 33.49635830371342,35.1285723316122,0 33.4956772017759,35.12884003165042,0 33.4952067728313,35.12896073902998,0 33.49505097683675,35.1289689706708,0 33.49482705902006,35.12900130509044,0 33.49439228626453,35.12909795416713,0 33.49400949560924,35.12921586020181,0 33.49355224760161,35.12942721416195,0 33.49314028438883,35.12956649480734,0 33.49220291472486,35.12992788957231,0 33.49165794572701,35.13011002858412,0 33.49103194062616,35.13034828548617,0 33.48991079317665,35.13068581957935,0 33.4897552803162,35.13073263751095,0 33.48945193121125,35.13075969340979,0 33.48929857879182,35.13067763465592,0 33.48904505503142,35.13058604114425,0 33.48888023782609,35.13065403597258,0 33.48854453823675,35.13070533517624,0 33.48801161597892,35.13082467380364,0 33.48740809264835,35.13099008864018,0 33.48713418288447,35.13100983801021,0 33.48697778353691,35.13105630440234,0 33.48679088129608,35.1311118322721,0 33.48664616886425,35.13119567731698,0 33.48633703522744,35.13129905645543,0 33.4858243115678,35.1314188056034,0 33.48537034659595,35.13155133796577,0 33.48481838955794,35.1316357519657,0 33.48439194321556,35.1318197133911,0 33.48360876665161,35.13181758681729,0 33.48292767938342,35.131950427516,0 33.48249295311381,35.13191885777204,0 33.48233633903047,35.13192872680762,0</coordinates>
						</LinearRing>
					</outerBoundaryIs>
				</Polygon>
			</MultiGeometry>
		</Placemark>
	</Document>
</kml>