<?xml version='1.0' encoding='UTF-8'?>
<kml xmlns="http://www.opengis.net/kml/2.2">
	<Document>
		<name>MARONAS</name>
		<Style id="PolyStyle70">
			<LabelStyle>
				<color>00000000</color>
				<scale>0.000000</scale>
			</LabelStyle>
			<LineStyle>
				<color>ff0055ff</color>
				<width>2.000000</width>
			</LineStyle>
			<PolyStyle>
				<color>00828282</color>
				<outline>1</outline>
			</PolyStyle>
		</Style>
		<Placemark id="ID_70099">
			<name>MARONAS</name>
			<snippet />
			<description>&lt;html xmlns:fo="http://www.w3.org/1999/XSL/Format" xmlns:msxsl="urn:schemas-microsoft-com:xslt"&gt;

&lt;head&gt;

&lt;META http-equiv="Content-Type" content="text/html"&gt;

&lt;meta http-equiv="content-type" content="text/html; charset=UTF-8"&gt;

&lt;/head&gt;

&lt;body style="margin:0px 0px 0px 0px;overflow:auto;background:#FFFFFF;"&gt;

&lt;table style="font-family:Arial,Verdana,Times;font-size:12px;text-align:left;width:100%;border-collapse:collapse;padding:3px 3px 3px 3px"&gt;

&lt;tr style="text-align:center;font-weight:bold;background:#9CBCE2"&gt;

&lt;td&gt;6&lt;/td&gt;

&lt;/tr&gt;

&lt;tr&gt;

&lt;td&gt;

&lt;table style="font-family:Arial,Verdana,Times;font-size:12px;text-align:left;width:100%;border-spacing:0px; padding:3px 3px 3px 3px"&gt;

&lt;tr&gt;

&lt;td&gt;DIST_CODE&lt;/td&gt;

&lt;td&gt;6&lt;/td&gt;

&lt;/tr&gt;

&lt;tr bgcolor="#D4E4F3"&gt;

&lt;td&gt;VIL_CODE&lt;/td&gt;

&lt;td&gt;203&lt;/td&gt;

&lt;/tr&gt;

&lt;tr&gt;

&lt;td&gt;VIL_CCD&lt;/td&gt;

&lt;td&gt;6203&lt;/td&gt;

&lt;/tr&gt;

&lt;tr bgcolor="#D4E4F3"&gt;

&lt;td&gt;VIL_NM_E&lt;/td&gt;

&lt;td&gt;MARONAS&lt;/td&gt;

&lt;/tr&gt;

&lt;tr&gt;

&lt;td&gt;VIL_NM_G&lt;/td&gt;

&lt;td&gt;ΜΑΡΩΝΑΣ&lt;/td&gt;

&lt;/tr&gt;

&lt;/table&gt;

&lt;/td&gt;

&lt;/tr&gt;

&lt;/table&gt;

&lt;/body&gt;&lt;script type="text/javascript"&gt;

				function changeImage(attElement, nameElement) {

				document.getElementById('imageAttachment').src = attElement;

				document.getElementById('imageName').innerHTML = nameElement;}

			&lt;/script&gt;&lt;/html&gt;

</description>
			<styleUrl>#PolyStyle70</styleUrl>
			<MultiGeometry>
				<Polygon>
					<extrude>0</extrude>
					<altitudeMode>clampToGround</altitudeMode>
					<outerBoundaryIs>
						<LinearRing>
							<coordinates> 32.68481306928249,34.76541977179484,0 32.68486073484447,34.76549941279094,0 32.68495373604731,34.76575159927199,0 32.68541792407783,34.76635535383068,0 32.68578271715248,34.76690707307204,0 32.6858638341932,34.76715435215606,0 32.68600950385116,34.76760207184411,0 32.68625929373053,34.76789989394311,0 32.68661217654084,34.76834526017934,0 32.6866582600935,34.76838162640177,0 32.68677793031152,34.76844817523807,0 32.68702308719496,34.76861603599808,0 32.68719263054299,34.76878148353222,0 32.6873574905697,34.76897234531564,0 32.68739604385689,34.76903676150754,0 32.6874175208271,34.76910108606947,0 32.68743371283645,34.7692195575335,0 32.68729211427353,34.7692328456077,0 32.68698025496138,34.76917700122829,0 32.68671212994776,34.76914546912439,0 32.68637449281539,34.76912359589959,0 32.68608402667707,34.76914411181387,0 32.68588120414038,34.76918917451048,0 32.68563576350129,34.76923028211913,0 32.68521312705992,34.76931027984569,0 32.68492666697941,34.76931039255221,0 32.68467153748025,34.76932719689002,0 32.68446834640264,34.76935539811727,0 32.68416044792554,34.76947063448249,0 32.68383539009957,34.76950530913076,0 32.68349733937131,34.769496022917,0 32.68339963902807,34.76947351011114,0 32.68311600930659,34.76933289218367,0 32.68288087001696,34.76925107036139,0 32.6827520682535,34.76922472145421,0 32.68259187615235,34.76923110182835,0 32.68225387131955,34.7697580027507,0 32.68218624533551,34.76987461815403,0 32.68215873619467,34.76998049912942,0 32.6821623910485,34.77008290520708,0 32.68222811904518,34.77021127482192,0 32.68228945537142,34.77033230499286,0 32.68229333611045,34.77040546026394,0 32.68224814873514,34.77049660857607,0 32.68213142789156,34.7706348677866,0 32.68208075840354,34.77073312052686,0 32.68210214787361,34.77084294411732,0 32.68211863642145,34.77101124234911,0 32.68211192264533,34.77130372332432,0 32.68207464018432,34.77152289099153,0 32.68202939662187,34.77162134356331,0 32.68184613182294,34.7717372510111,0 32.68176981333357,34.7718282023794,0 32.68163395318602,34.77202421246978,0 32.68156137534996,34.77220659023587,0 32.68146115166692,34.77251311188122,0 32.68136092726199,34.77281962621304,0 32.68126557775136,34.77307132209566,0 32.68124727746636,34.77313702103618,0 32.68127280793413,34.77319543466984,0 32.68131224075589,34.77327245470034,0 32.68132949113957,34.77334202741507,0 32.6813152143514,34.77346259234265,0 32.68129181559379,34.77361235140314,0 32.6811047735858,34.77415122660385,0 32.68061771993186,34.77519150179556,0 32.6806126368401,34.77539130530573,0 32.68041708742026,34.77568231683495,0 32.68039395520696,34.77591648964004,0 32.6802828433577,34.77616636555292,0 32.6805059869003,34.77653287953729,0 32.68052053293875,34.77670826087522,0 32.68044656917765,34.7767907474191,0 32.68028781089624,34.77680904212111,0 32.67984679255395,34.77678442002203,0 32.6790479847097,34.77749585530314,0 32.67898107091207,34.77763733548829,0 32.67893286881592,34.77795590374123,0 32.67852284034012,34.77845932601296,0 32.67845970241415,34.77867583231335,0 32.67831929254837,34.77886642939662,0 32.67802901619636,34.77886171093498,0 32.67758835578258,34.77875734239881,0 32.67717061950843,34.77870730701679,0 32.67648516420561,34.77847389522957,0 32.67627620616079,34.77846641476403,0 32.67612859150557,34.77855810765835,0 32.67589941284563,34.77869720265576,0 32.67535057558526,34.77895955850088,0 32.67458364436055,34.77905116936721,0 32.67383507127604,34.77896469152418,0 32.67329242025266,34.77908937440029,0 32.67275169644778,34.77890791756693,0 32.67245637522378,34.7788840505779,0 32.67225946209746,34.77880965983319,0 32.67152788874608,34.77918946898315,0 32.67106139411788,34.7791031994113,0 32.67054350096684,34.77900742284009,0 32.66708836666077,34.77837334059028,0 32.66554870042174,34.77799296820324,0 32.66439280406695,34.77766184568515,0 32.66239533839147,34.77702273013369,0 32.66083869231978,34.77645167079294,0 32.65962035882323,34.7760774756353,0 32.65850675766994,34.77584324899374,0 32.65276899782319,34.77472487050952,0 32.65284018346808,34.77414947331135,0 32.65288862724022,34.77400110832182,0 32.65297686783449,34.77373086273708,0 32.65301960211637,34.77352109406835,0 32.65298352110998,34.77329999751919,0 32.6528876804866,34.77302762434371,0 32.6530031671045,34.77260969872166,0 32.6528545142024,34.77237100119319,0 32.65286556762207,34.7718443065229,0 32.65281802838176,34.77165256827232,0 32.65270727997003,34.77132658154049,0 32.65256276190178,34.77103547122415,0 32.65249705366951,34.77070523802963,0 32.65248082078963,34.77032847671956,0 32.65219804744751,34.76984926817591,0 32.65187877708217,34.76930715643837,0 32.65165807893327,34.76907821152304,0 32.65123459006969,34.76837408393203,0 32.65127947190526,34.76784810348578,0 32.65126161043017,34.76771529480589,0 32.65115037996795,34.76751096479604,0 32.65113768358074,34.76716060160629,0 32.65092289020431,34.76667626337163,0 32.65082811485149,34.7662653347559,0 32.65069055556913,34.76604674345305,0 32.65061494408213,34.76558043091151,0 32.65048502532397,34.76536989777047,0 32.65039272793543,34.76508407104414,0 32.65031457339644,34.76498799378549,0 32.65015030353842,34.76480649760602,0 32.65006544033906,34.76459625030109,0 32.65011459679291,34.76401111511935,0 32.65015059769618,34.76322628820618,0 32.65023806064037,34.76306022961951,0 32.650438951152,34.76277144051164,0 32.65064406130011,34.7626358252808,0 32.65089241335198,34.76253851401413,0 32.65103126419845,34.76253928343791,0 32.65112084301558,34.7626107156079,0 32.65126699198351,34.7626423679699,0 32.65141757124452,34.76257535119784,0 32.65189430579024,34.76213536419137,0 32.65225262179522,34.76187519162677,0 32.65258306152685,34.76185233460757,0 32.65257995467525,34.76175671174362,0 32.65244942981654,34.76163263403352,0 32.65218186298029,34.76159319298493,0 32.65207057378344,34.76140138290479,0 32.65175856865007,34.76147676961805,0 32.65146957094226,34.76148135329868,0 32.65139108308922,34.76143466658858,0 32.65130557626446,34.76131701681756,0 32.65131042738218,34.7611566929502,0 32.65194149327536,34.76096028594813,0 32.65177326392992,34.76031491742687,0 32.65157042601704,34.76034465140232,0 32.65109386914218,34.760345150128,0 32.65060400249367,34.76039466342294,0 32.65037756552262,34.7605845924461,0 32.65014096304591,34.76061721902116,0 32.64996842373385,34.76061011276588,0 32.6496168401783,34.76045404094764,0 32.64953801374453,34.76045977814133,0 32.64944851476381,34.76038221511076,0 32.64934386327536,34.76032615141515,0 32.64920722936494,34.76031603834906,0 32.64901899234214,34.76041058527603,0 32.64890625866695,34.7604377177757,0 32.64885380612762,34.76042818325232,0 32.64883569997905,34.76033559730924,0 32.64876507825606,34.76024272737761,0 32.64864890121194,34.76022668070262,0 32.64857335710661,34.76030025782723,0 32.64853140079094,34.76039868047553,0 32.64844399316826,34.76055851440311,0 32.64829874760547,34.76040974298932,0 32.64823171297639,34.76028481736168,0 32.64820711469897,34.76005039524816,0 32.64819262031651,34.7599689228954,0 32.64836173439681,34.75981847580957,0 32.64848003548758,34.75965408950176,0 32.64853200652258,34.75950957628375,0 32.64853290046918,34.75947209624947,0 32.64853674406066,34.75931078696341,0 32.64858543438793,34.7589747936962,0 32.64859059711534,34.75874160865413,0 32.64862133758628,34.75859534116527,0 32.64871173833252,34.75838431828354,0 32.64890799766003,34.75808167260747,0 32.64893501802781,34.7579896206009,0 32.64899036426561,34.7576428161632,0 32.64901897899298,34.75735281303496,0 32.64942008418905,34.75690485121284,0 32.64924943691035,34.7568822235915,0 32.64917374623818,34.75689808125199,0 32.64902163608473,34.75702199096517,0 32.64886051333622,34.75704009198811,0 32.64866419673623,34.75694139389679,0 32.64871491022005,34.75676269450874,0 32.64861702995643,34.75667809331158,0 32.64861255477317,34.75641773836262,0 32.64855817039619,34.75623575097853,0 32.64839594420673,34.75598266792458,0 32.64897371982913,34.75562516406099,0 32.64909630928002,34.7554956695102,0 32.6493468615309,34.75538585621968,0 32.64938010402962,34.75533722630798,0 32.64946840661155,34.75497704227645,0 32.64945078411501,34.75471661607805,0 32.6494797389353,34.75438322557103,0 32.64890716515791,34.75368587994794,0 32.6489074476065,34.75365062832008,0 32.64895709160866,34.7536048006523,0 32.6492438372486,34.75348705083946,0 32.64929437259305,34.75333004328792,0 32.64946277315983,34.75322249282731,0 32.64992359718137,34.75310840467994,0 32.65005499341368,34.75310912218761,0 32.65052749931007,34.75317678408584,0 32.65043658549344,34.75304341104066,0 32.65056767340609,34.7526726133889,0 32.65056494942297,34.75260209255881,0 32.65043283484086,34.75228138087725,0 32.6505816118541,34.75216287477135,0 32.65056561937431,34.75210855113909,0 32.65048800186382,34.7519562684984,0 32.64998889869268,34.75192913803502,0 32.64989019799926,34.75194758122261,0 32.64958255576293,34.75221436656978,0 32.64933879985339,34.75188762075356,0 32.64934883209094,34.75145650345276,0 32.64941161254102,34.75100126710244,0 32.64961970945937,34.75085867914603,0 32.64979119171425,34.75077555215575,0 32.6498832546407,34.75076520759667,0 32.65091381776011,34.75087930336962,0 32.65138585616413,34.7510039066597,0 32.65152044613948,34.75101548708945,0 32.65187881567044,34.75097676311064,0 32.65204591832909,34.75061971835581,0 32.65162837999046,34.75066354441937,0 32.65136093303219,34.75042345065329,0 32.65101103876577,34.74981410590003,0 32.65124730387982,34.74984522320807,0 32.65149707492738,34.74983031323666,0 32.65288524448354,34.74958838585613,0 32.65289786918896,34.74924134553977,0 32.65208050737269,34.74916910500481,0 32.65184141392591,34.74908102702243,0 32.65109242815218,34.74908508012716,0 32.6510663670964,34.74905782105002,0 32.65111571646609,34.74863776424418,0 32.65105049104687,34.74816827034012,0 32.65107830989775,34.74797588482508,0 32.65112953299639,34.74773210562098,0 32.65105688568921,34.74695885165976,0 32.65207112970099,34.74705386640288,0 32.65220917454095,34.74704377041378,0 32.65469339001588,34.74651762222359,0 32.6546864355369,34.74656639672686,0 32.6540665668327,34.74685861807055,0 32.6541698829208,34.74749644729683,0 32.65421546039107,34.74754821773536,0 32.65504452078408,34.74779948622452,0 32.65454972443082,34.74805984597749,0 32.65431180027922,34.74823753276578,0 32.65512580685971,34.74873006608167,0 32.65481465162185,34.74902938860302,0 32.65485897211208,34.74923843467448,0 32.65483797281486,34.74940102820105,0 32.65486070785897,34.7494336921148,0 32.65549021747936,34.74958354017358,0 32.65582272927919,34.74949042658146,0 32.6560564543889,34.74984151124701,0 32.65634220851653,34.74984577054199,0 32.65591662328453,34.75007667931965,0 32.655860262971,34.75014145669491,0 32.65601249011626,34.75124055385998,0 32.65605457047335,34.75131942239248,0 32.65619452720662,34.75148288706274,0 32.65648472248424,34.75175563476627,0 32.65670541189751,34.75168089780198,0 32.65662212885277,34.75182688418898,0 32.65661474413581,34.7519298902344,0 32.65608024762783,34.7522225830244,0 32.6557770441978,34.75234568329346,0 32.65538852701584,34.7524574732947,0 32.65530610221659,34.75249499402516,0 32.65518592845526,34.75273568863114,0 32.65506361019624,34.75283265111784,0 32.65482608215066,34.75295881696841,0 32.65447926728945,34.75319557159788,0 32.6546111644745,34.75354610665029,0 32.65467643078199,34.75360069749131,0 32.65499746893231,34.75371362091706,0 32.65529125851703,34.75394842653737,0 32.65537230407777,34.75408445168152,0 32.65514748124004,34.75426492460198,0 32.65518403319343,34.75462578739241,0 32.65516058493169,34.75468260844837,0 32.6549487937112,34.754876710074,0 32.6546347115797,34.75512720136953,0 32.65459980983814,34.75538463017422,0 32.65449665803609,34.75554949107125,0 32.65473999299305,34.75634536049488,0 32.65499056265087,34.75623282405421,0 32.6551953789437,34.75609021019638,0 32.65539720883838,34.75590961539934,0 32.65547641815255,34.75586394356757,0 32.65555534118001,34.75585352511525,0 32.65574230863185,34.7558897903463,0 32.65631606445958,34.7560339063887,0 32.65644746544103,34.7560346170262,0 32.65653959768215,34.75601613469566,0 32.65660227089747,34.75598393105785,0 32.65667252625101,34.75582431677586,0 32.6567054422997,34.75581636045131,0 32.65712381424089,34.75608437543156,0 32.65719213492535,34.75616880998859,0 32.65732505534545,34.75639189304853,0 32.65745576869941,34.75647937596457,0 32.65762616412788,34.75653452952879,0 32.65803962778019,34.7565937091932,0 32.65808857989923,34.75663465117142,0 32.65828995520338,34.7569258962321,0 32.65844014557356,34.75704331428938,0 32.65856141347763,34.75707922142191,0 32.6585077381088,34.75680504104722,0 32.65865834929422,34.75669627776557,0 32.658852515327,34.75655605913069,0 32.65886941500567,34.75649649211796,0 32.65875516725137,34.75640096536585,0 32.65870981080269,34.75631936713119,0 32.65869454000585,34.75617284902683,0 32.65904759465864,34.75566710110371,0 32.65945189821366,34.75555321982986,0 32.65956107585041,34.75545889537428,0 32.65902911163843,34.75500045215797,0 32.65934937275497,34.75471092728752,0 32.65980609260482,34.75480667603902,0 32.66002496837051,34.75496784884156,0 32.66029370721926,34.75505607007783,0 32.66054445276698,34.75534215584717,0 32.6608771553551,34.75565308549392,0 32.66093292019115,34.75608184654526,0 32.66106995664154,34.75620461277356,0 32.66117302481234,34.75646820846669,0 32.66138514537523,34.75665374626433,0 32.66165715786428,34.75674469599626,0 32.66205426158466,34.75680648489914,0 32.66221133421861,34.75730629542308,0 32.66230297011112,34.75735288545582,0 32.6624321177085,34.7572261234606,0 32.66238182117593,34.7570924879192,0 32.66261618466106,34.75680136236791,0 32.6626752402407,34.75681252557336,0 32.6626968124581,34.75699433110994,0 32.66291460875315,34.75687617965053,0 32.66310855320665,34.75683107551816,0 32.66335093433409,34.75696529243925,0 32.66344227445553,34.7570498466325,0 32.66354264017912,34.75724020825864,0 32.66383046521242,34.75740987703814,0 32.66414915077596,34.75753812800357,0 32.66401560163281,34.75768475503379,0 32.66423417669145,34.75788659772908,0 32.66449977210686,34.75795852337797,0 32.66468839114705,34.75820901466147,0 32.66484014286336,34.75836021940415,0 32.66477662759455,34.75868946994251,0 32.66487829805592,34.75871441730336,0 32.66515799671863,34.75866438776055,0 32.66526000186632,34.75832199229247,0 32.66575554943037,34.75830690912535,0 32.66589658675584,34.75834020301991,0 32.66632562530318,34.75852146741386,0 32.66669641338596,34.75858852464701,0 32.66708981907922,34.75870451245902,0 32.66724758170993,34.75869992976144,0 32.66752481496361,34.75854411990934,0 32.66762239550266,34.75867209142736,0 32.66759776377955,34.75888076953112,0 32.6676368556396,34.75892436620164,0 32.66786258563316,34.75905301716887,0 32.66809431366238,34.75925492305963,0 32.66814675712135,34.75927147163772,0 32.6682125996427,34.75925555101237,0 32.66861619026413,34.75905483330572,0 32.66880778172595,34.75920176404125,0 32.66914369688912,34.75910592187827,0 32.66954812845435,34.75907281244379,0 32.66977843294473,34.75903606906174,0 32.66988682080037,34.75904206557652,0 32.67023756024059,34.75915239620394,0 32.67056043446334,34.75904292171536,0 32.6709601718115,34.75919147484999,0 32.67137631448889,34.75934282039702,0 32.67146939954358,34.75941507557967,0 32.67149845352349,34.75948620151815,0 32.67152885919045,34.75955003829576,0 32.67161174960282,34.7595962416612,0 32.67169667602298,34.75964357998705,0 32.67178374748475,34.75967582009796,0 32.67185426354649,34.75967757418035,0 32.67190991278787,34.75964746938389,0 32.67196735085786,34.75960418735254,0 32.67196958779824,34.75959813197149,0 32.67202408799926,34.75945060003561,0 32.67212851356167,34.75933423792671,0 32.67229253439496,34.75926315593161,0 32.6727113083664,34.75936429366185,0 32.67294025751202,34.75935201075055,0 32.67315327550479,34.75928568367032,0 32.67373349937768,34.75894249487899,0 32.67390978506606,34.75891959136732,0 32.67404414616701,34.75893513708018,0 32.67412627215769,34.75896954381187,0 32.67456782444274,34.75923490977715,0 32.67466615163509,34.75926796759005,0 32.6748498029268,34.75931503469068,0 32.67490536857239,34.75935329041476,0 32.67509698255004,34.75961460914824,0 32.67511618084362,34.75964079185515,0 32.67522163683983,34.75969315224231,0 32.67542700283798,34.75972634704988,0 32.67562246598286,34.75974983166269,0 32.67579078072166,34.75975445818474,0 32.67602702815792,34.75980061424132,0 32.67613153389756,34.75981987786513,0 32.67620445259842,34.75980528966967,0 32.67630041037031,34.75975339000603,0 32.6763828075609,34.75969019050107,0 32.67645084300418,34.75962170178255,0 32.67658346255387,34.7594881991993,0 32.67668904941845,34.75943180578712,0 32.67679105518528,34.75941335869656,0 32.67724381242402,34.75950521931913,0 32.67739876910876,34.75943823689419,0 32.67792741236607,34.75948981509408,0 32.67801918937089,34.75952012596469,0 32.67809608683827,34.75961553954397,0 32.67809693606356,34.75963032300771,0 32.67810595173433,34.75978739537277,0 32.67814236020059,34.75993065857958,0 32.67821009643783,34.75999273175662,0 32.67832919026738,34.76002982593941,0 32.6784211941751,34.76004153099881,0 32.67853034123881,34.76004210316122,0 32.67870414504139,34.76006265359948,0 32.67894932468859,34.76011724357773,0 32.67902402020179,34.76016252334815,0 32.67907118885685,34.76023851984635,0 32.67917119262688,34.76045845442759,0 32.679208723627,34.76052470324463,0 32.67926768467356,34.76055282541562,0 32.67937346621593,34.76053947845259,0 32.67950897372497,34.76050890433935,0 32.67966551062673,34.76103815243295,0 32.67974483095436,34.76116720294635,0 32.68014021538517,34.76164103196869,0 32.68031532033913,34.76195833194095,0 32.68033348502155,34.7623745045564,0 32.68038717800466,34.76253818988824,0 32.68041114352443,34.76271909795916,0 32.68072482655899,34.76315884093366,0 32.68081795317888,34.76329390809044,0 32.68095273397088,34.76336069609697,0 32.68123417625636,34.76359864114906,0 32.68137324574472,34.76365850319565,0 32.68147878916487,34.76367994107087,0 32.68179472552936,34.76383464425547,0 32.6819721851484,34.76385299823404,0 32.6824238117914,34.76396325345249,0 32.68266498833019,34.76394718904913,0 32.68255975144633,34.76388402900609,0 32.68237872276922,34.7637787317436,0 32.68226112811082,34.76367378365878,0 32.68196299969603,34.76340096594498,0 32.68182890240227,34.76324377989791,0 32.68152621329773,34.76301614830729,0 32.68137892842039,34.762924954582,0 32.68128569020346,34.76283783431955,0 32.68123145274357,34.76274367113473,0 32.68118585959547,34.76262521732477,0 32.68122073404565,34.76248981402773,0 32.68132872496183,34.76219487357722,0 32.6813178174845,34.76196534903005,0 32.68121359449064,34.76136429016337,0 32.68142569725585,34.76072915198224,0 32.68159445001815,34.76032014722404,0 32.68171874024889,34.7601052254517,0 32.68187225270086,34.75993912898169,0 32.68213148156925,34.75977357876486,0 32.68241916297915,34.75975768847824,0 32.68253290715391,34.75981391429286,0 32.68264226370224,34.75989098201296,0 32.68273478793072,34.75995753082716,0 32.68281066569511,34.75998922187,0 32.68290793094473,34.75998972760574,0 32.68300923961706,34.76001459670008,0 32.68322813011793,34.76014787549556,0 32.68343075464927,34.76019761579062,0 32.68356754915791,34.7602823821536,0 32.68370639159474,34.76037699761211,0 32.68388737163627,34.76049270015854,0 32.68398438263132,34.76052798265565,0 32.68410267760269,34.76054598884812,0 32.68431435265327,34.76052275462695,0 32.6844199893096,34.76053721741264,0 32.68449998008197,34.76058632252744,0 32.68466812877286,34.76072282968889,0 32.68483649405172,34.76083151996297,0 32.68499268849686,34.76090790449199,0 32.68543131485433,34.76094549342476,0 32.68587686345772,34.76125275739983,0 32.68618429446208,34.76131296345184,0 32.68651263516256,34.76140811352295,0 32.68680298747442,34.76143656162667,0 32.68708492352201,34.76145723035787,0 32.68751406882756,34.76145315896675,0 32.68776009645176,34.76149087160965,0 32.6879974257695,34.7615513314145,0 32.68833745755575,34.76162753803082,0 32.68867965254382,34.76167208909651,0 32.688933249683,34.7616866070626,0 32.68931795924651,34.76170762869027,0 32.689604116156,34.76178355006454,0 32.68966776531894,34.76189375156748,0 32.68994857756016,34.76191264394934,0 32.69010683558265,34.76194694618194,0 32.69016567635376,34.76195970011631,0 32.69041304681659,34.762074998473,0 32.69046463132136,34.76212435106745,0 32.69057186867715,34.76225575702796,0 32.69064454650179,34.76231472041189,0 32.69085286882687,34.7623843219766,0 32.6911522655242,34.76249039016251,0 32.69124631480063,34.76252254843106,0 32.69145404416575,34.76253630480193,0 32.69155611617306,34.76252575762388,0 32.69182087981624,34.76251448820384,0 32.6920457841524,34.76254733215224,0 32.69241074168836,34.7626363244466,0 32.69247062579046,34.76260655629275,0 32.69260375684126,34.76256133904849,0 32.69266061991005,34.76255531300565,0 32.69325521449679,34.76268534595766,0 32.69345540945779,34.76267847709526,0 32.69352841373141,34.7626946915073,0 32.69363565589345,34.76276333342477,0 32.69378791932098,34.76282507422673,0 32.69396840998705,34.76287826513691,0 32.69436025337124,34.76297530969377,0 32.69470148143546,34.76303775070352,0 32.6951131201964,34.76306364886693,0 32.69534429619252,34.76303319118072,0 32.69559409477912,34.76297104556033,0 32.6958734342643,34.76293450342823,0 32.69598880225545,34.76294777073353,0 32.69615698715231,34.76309905957774,0 32.69639262467425,34.76347357875358,0 32.69603970495634,34.76356831326726,0 32.69588660825807,34.76370525108619,0 32.69573865165642,34.76390381534885,0 32.69563679319781,34.76413441981959,0 32.69522193898297,34.76438687134888,0 32.69471302885599,34.76465413099942,0 32.69414993300156,34.76495604148698,0 32.69392608835715,34.76503717997687,0 32.69341263710351,34.76511732594302,0 32.69310430373351,34.76517585521483,0 32.69252170838493,34.76525388047521,0 32.69183906267224,34.76532311025031,0 32.69154607612967,34.76538962977909,0 32.69138704678679,34.76545762314429,0 32.69118223835641,34.76556892434358,0 32.69096037864497,34.7658662933737,0 32.69074939493623,34.76603136906952,0 32.69046840403884,34.76604484400793,0 32.69016948615094,34.76599513094603,0 32.68987977141781,34.76588597049583,0 32.68956919117952,34.76561041278597,0 32.68925191407868,34.7653285765583,0 32.68881431486993,34.76503684052597,0 32.68858815860047,34.76491851023123,0 32.68816854127498,34.76468360432369,0 32.6879489311339,34.76461696660304,0 32.68772979438012,34.76458889679074,0 32.68761729723229,34.76458839998582,0 32.68732253234806,34.76463907248311,0 32.68702026437274,34.76466437957874,0 32.68667675639389,34.76469427370032,0 32.68639204480919,34.76468801297589,0 32.68625560791688,34.76466512863676,0 32.68582800088272,34.76458632124643,0 32.68559541443469,34.7645565938712,0 32.68542371812403,34.76453503103584,0 32.68525231218276,34.76455786282222,0 32.68509627535141,34.7645839424065,0 32.68496428624269,34.76461475897532,0 32.68482680833519,34.76464690256282,0 32.68463136227563,34.76471830220775,0 32.68426436067217,34.76477349479791,0 32.68433333963343,34.7648539773443,0 32.68440737087921,34.76488108679227,0 32.68452780379032,34.76490845254916,0 32.68458274635748,34.76500411609966,0 32.68459102128876,34.76513385285232,0 32.68459501248847,34.76521779164543,0 32.68464091095329,34.76528289214004,0 32.68481306928249,34.76541977179484,0</coordinates>
						</LinearRing>
					</outerBoundaryIs>
				</Polygon>
			</MultiGeometry>
		</Placemark>
	</Document>
</kml>