<?xml version='1.0' encoding='UTF-8'?>
<kml xmlns="http://www.opengis.net/kml/2.2">
	<Document>
		<name>MELANDRA</name>
		<Style id="PolyStyle70">
			<LabelStyle>
				<color>00000000</color>
				<scale>0.000000</scale>
			</LabelStyle>
			<LineStyle>
				<color>ff0055ff</color>
				<width>2.000000</width>
			</LineStyle>
			<PolyStyle>
				<color>00828282</color>
				<outline>1</outline>
			</PolyStyle>
		</Style>
		<Placemark id="ID_70076">
			<name>MELANDRA</name>
			<snippet />
			<description>&lt;html xmlns:fo="http://www.w3.org/1999/XSL/Format" xmlns:msxsl="urn:schemas-microsoft-com:xslt"&gt;

&lt;head&gt;

&lt;META http-equiv="Content-Type" content="text/html"&gt;

&lt;meta http-equiv="content-type" content="text/html; charset=UTF-8"&gt;

&lt;/head&gt;

&lt;body style="margin:0px 0px 0px 0px;overflow:auto;background:#FFFFFF;"&gt;

&lt;table style="font-family:Arial,Verdana,Times;font-size:12px;text-align:left;width:100%;border-collapse:collapse;padding:3px 3px 3px 3px"&gt;

&lt;tr style="text-align:center;font-weight:bold;background:#9CBCE2"&gt;

&lt;td&gt;6&lt;/td&gt;

&lt;/tr&gt;

&lt;tr&gt;

&lt;td&gt;

&lt;table style="font-family:Arial,Verdana,Times;font-size:12px;text-align:left;width:100%;border-spacing:0px; padding:3px 3px 3px 3px"&gt;

&lt;tr&gt;

&lt;td&gt;DIST_CODE&lt;/td&gt;

&lt;td&gt;6&lt;/td&gt;

&lt;/tr&gt;

&lt;tr bgcolor="#D4E4F3"&gt;

&lt;td&gt;VIL_CODE&lt;/td&gt;

&lt;td&gt;319&lt;/td&gt;

&lt;/tr&gt;

&lt;tr&gt;

&lt;td&gt;VIL_CCD&lt;/td&gt;

&lt;td&gt;6319&lt;/td&gt;

&lt;/tr&gt;

&lt;tr bgcolor="#D4E4F3"&gt;

&lt;td&gt;VIL_NM_E&lt;/td&gt;

&lt;td&gt;MELANDRA&lt;/td&gt;

&lt;/tr&gt;

&lt;tr&gt;

&lt;td&gt;VIL_NM_G&lt;/td&gt;

&lt;td&gt;ΜΕΛΑΝΔΡΑ&lt;/td&gt;

&lt;/tr&gt;

&lt;/table&gt;

&lt;/td&gt;

&lt;/tr&gt;

&lt;/table&gt;

&lt;/body&gt;&lt;script type="text/javascript"&gt;

				function changeImage(attElement, nameElement) {

				document.getElementById('imageAttachment').src = attElement;

				document.getElementById('imageName').innerHTML = nameElement;}

			&lt;/script&gt;&lt;/html&gt;

</description>
			<styleUrl>#PolyStyle70</styleUrl>
			<MultiGeometry>
				<Polygon>
					<extrude>0</extrude>
					<altitudeMode>clampToGround</altitudeMode>
					<outerBoundaryIs>
						<LinearRing>
							<coordinates> 32.51885492602375,34.9762655247815,0 32.51888797955748,34.97634950318432,0 32.51797590774545,34.97685661377803,0 32.51771703617628,34.97703610523675,0 32.51749181028316,34.9771396166006,0 32.51721231744846,34.97732405134359,0 32.51686226397912,34.97757237050588,0 32.51672543662895,34.9776815405832,0 32.5169958036942,34.9778018544034,0 32.51751438993837,34.97799322787597,0 32.51765951461006,34.97808901064414,0 32.51733729862657,34.97822405837389,0 32.51724353662728,34.97834705761399,0 32.51711977661297,34.97859347802228,0 32.51712961861303,34.97863926513534,0 32.51737538840577,34.97875094924876,0 32.51752304622802,34.97879764008352,0 32.51745961264114,34.97897502907897,0 32.51749408898693,34.97902605665624,0 32.51739683572153,34.97908468523497,0 32.51742450047858,34.97920171027242,0 32.51752857017139,34.97928875751068,0 32.51763816885985,34.97944188268564,0 32.51750007518707,34.97968143536387,0 32.51746861387269,34.97974388331384,0 32.51761571576024,34.97984814642345,0 32.5176508367907,34.98004480992353,0 32.51770167066515,34.98010610378348,0 32.5180276017318,34.98022508734825,0 32.51809750941802,34.98022893444008,0 32.51818254072306,34.98037004212842,0 32.51854527490075,34.98051297323345,0 32.51880715421333,34.98044864937118,0 32.5190021119169,34.98049734311108,0 32.51907820436945,34.98049953569514,0 32.519198782933,34.98058160794592,0 32.51936032189852,34.98068257643255,0 32.51937170362383,34.9809942333405,0 32.5194485216753,34.98134696011041,0 32.51956584993962,34.98155262812661,0 32.51974539628334,34.98170620750001,0 32.51986247676417,34.98193727444945,0 32.51986581315064,34.98194847876927,0 32.51993221481015,34.98217141814894,0 32.52001331757168,34.98229387304729,0 32.52021165701782,34.98241878785021,0 32.52040177211656,34.98254365001252,0 32.52051953272314,34.98249192650406,0 32.52056514803149,34.98245496993766,0 32.52079463853158,34.9825496073092,0 32.52100354526721,34.98264580363093,0 32.52124678378985,34.98280826492201,0 32.52179662760008,34.98274920366367,0 32.52223517767399,34.98271142805994,0 32.5224295391829,34.9828227662433,0 32.52249103734176,34.98284518304104,0 32.52245319385307,34.98292960360644,0 32.52245045235421,34.98321407368199,0 32.52246465846946,34.98344785416206,0 32.52248273123863,34.983493693022,0 32.52255673587108,34.98349925735237,0 32.52280948208526,34.98331632887286,0 32.52298330382403,34.98321077957517,0 32.523575274022,34.98326374826923,0 32.52361484793291,34.98321320499185,0 32.5236299956911,34.98313540789552,0 32.52359786654915,34.9830539169827,0 32.52346479064852,34.98298700700491,0 32.52333579687778,34.98292351035825,0 32.52323230415898,34.98277551185556,0 32.52340519459045,34.98255311263409,0 32.52383135438029,34.98273369575377,0 32.52393995605097,34.98277843180119,0 32.5240903342727,34.98275739714924,0 32.52425646847205,34.982809281307,0 32.52436559784319,34.98301319806836,0 32.52442087721355,34.9830406519034,0 32.52455876777704,34.98303477651627,0 32.52463773308918,34.98295231552257,0 32.5246744010459,34.98294128777785,0 32.52478216337367,34.98290887898003,0 32.52480252705778,34.98279934872628,0 32.52486670976917,34.98275208786102,0 32.52489563062116,34.9827570434572,0 32.52504696090418,34.98288517380144,0 32.52580591273737,34.98328743947116,0 32.52591677059425,34.98340735827642,0 32.525972863135,34.98339818718871,0 32.52608753421865,34.98312080279169,0 32.52605826778583,34.98295055546593,0 32.52618190011941,34.98294659127954,0 32.52630918166232,34.98296490086761,0 32.52636223025289,34.98307172956524,0 32.5266811296849,34.98304519316863,0 32.52689024389879,34.98298774668858,0 32.52708839639535,34.98306690971408,0 32.52718615350516,34.98294198764351,0 32.52742225742224,34.98309132651779,0 32.52753512455515,34.98320331106982,0 32.52770644154035,34.98326163690561,0 32.52780346201098,34.98341484099339,0 32.5277950698641,34.98348471617532,0 32.52762095402085,34.98351696236116,0 32.52757813734626,34.98355165007666,0 32.52754656916029,34.98362137466669,0 32.5275559186286,34.98385506538656,0 32.52722433262178,34.98419779527245,0 32.52729512817943,34.98426659504575,0 32.5272830666898,34.9845176286458,0 32.52720844986305,34.98484772286201,0 32.52710322631749,34.98494557683761,0 32.52737246629909,34.98526518779695,0 32.52759665400885,34.98544941263225,0 32.52746398438424,34.98559000188803,0 32.52807179753466,34.98604848873678,0 32.52816943485776,34.98573443773298,0 32.52841878945868,34.98530693830068,0 32.52850219418523,34.98506749179012,0 32.52855051304941,34.98486119300317,0 32.52867293339956,34.98478252093106,0 32.52874921853199,34.98468129914392,0 32.52900000090699,34.98450809810281,0 32.52925071078323,34.98474652871603,0 32.52951021895963,34.98446848926582,0 32.52973725985138,34.98415209427775,0 32.53000528629513,34.98419515086675,0 32.53018685325516,34.9841915564913,0 32.5304179765377,34.98425662356862,0 32.53063906351733,34.98436135805589,0 32.53069676850426,34.98438557060038,0 32.53088112356899,34.98449483472414,0 32.5309639636929,34.98451603074969,0 32.53103061933251,34.98481684234731,0 32.53100520026412,34.9854571731971,0 32.53087412492487,34.9858361726389,0 32.53087014756214,34.98605070507334,0 32.53076553976243,34.98628683786117,0 32.53073947976676,34.9863867956232,0 32.53109747996269,34.98671650822866,0 32.53124707837117,34.98682554649839,0 32.5313224000465,34.98702787695224,0 32.53140676387753,34.9870919942428,0 32.53146212554994,34.98736253460144,0 32.53159644257597,34.98785926896363,0 32.53194574774984,34.98768351959922,0 32.532342704165,34.98838537915183,0 32.53236771405421,34.98859850882788,0 32.53240948722477,34.98867347580558,0 32.5325284651053,34.9887537086813,0 32.53275892178655,34.98889028555442,0 32.53283428371532,34.98888600355922,0 32.53298036169569,34.98875662144741,0 32.53329165226797,34.98831361790794,0 32.53321587103488,34.9881589657074,0 32.5332707916801,34.98807031761814,0 32.53293403092773,34.98794259218342,0 32.53305532290923,34.98757624137927,0 32.53307836564566,34.98738726085069,0 32.53303013497712,34.98717875007922,0 32.53318173269822,34.987078010781,0 32.53290523436277,34.98690935091741,0 32.53293498877779,34.98682689894957,0 32.53310436956628,34.98688679442748,0 32.53332144246097,34.98680554841952,0 32.53316883979276,34.98660590035168,0 32.53326796356478,34.98653978731308,0 32.53344647062919,34.98665536744446,0 32.53364818641751,34.98656448605024,0 32.53384163045408,34.98673419914337,0 32.53423976037261,34.98670338504567,0 32.53431460723855,34.98675313484998,0 32.53458054816197,34.98661021768306,0 32.53505064015748,34.9859155286516,0 32.53512658729027,34.98584926582923,0 32.53524892405618,34.98577853191458,0 32.53532535488977,34.98586484605254,0 32.53541440110434,34.98604660027243,0 32.5354269375124,34.98614998611429,0 32.5353904306908,34.98633411286356,0 32.535408612068,34.98645342856074,0 32.53533175998439,34.98661504388014,0 32.53535018357604,34.98670893325843,0 32.53539586597308,34.98677915650595,0 32.53547075807034,34.98682413816393,0 32.53554996541843,34.98682146740313,0 32.53565842565546,34.98678878933207,0 32.53589943994724,34.98662663589032,0 32.53630229070038,34.98650525479687,0 32.53632671908102,34.98657692984012,0 32.53688320158446,34.98654712365329,0 32.5369865446181,34.98644289179536,0 32.53704810781888,34.98626369261002,0 32.53743256934565,34.98624867368695,0 32.53750036896237,34.98622685800171,0 32.53773214980442,34.9862235743341,0 32.53832442675637,34.98608432659933,0 32.53834227222118,34.98603517241566,0 32.53834570536004,34.98587626241564,0 32.53831380637558,34.98577752126288,0 32.53828512025764,34.98533868561918,0 32.53849874280163,34.98521290685246,0 32.53873652589493,34.98518740873887,0 32.53908103700622,34.98531198897308,0 32.5391912146892,34.98530156850484,0 32.53984999055692,34.98568721290376,0 32.53987552918706,34.98543626417922,0 32.54029878936391,34.98519738928225,0 32.54072249405704,34.98491083755226,0 32.54103254764131,34.9850034058914,0 32.54179156739396,34.98540875055222,0 32.5419610075862,34.9852572562822,0 32.54217023823471,34.98518706939061,0 32.54223267810725,34.98511912499388,0 32.54169421129554,34.98487729872009,0 32.5416375939372,34.9847370781918,0 32.54212837252961,34.98450498522052,0 32.542269351406,34.9842992708865,0 32.54245826962739,34.98433543761151,0 32.54266104875991,34.98433513971118,0 32.54275785711969,34.9843087375395,0 32.54285695398257,34.98424420570808,0 32.54310181294471,34.98428708488733,0 32.54327640198307,34.98420396102377,0 32.54363992961007,34.98394880257349,0 32.54412804452196,34.98399958335618,0 32.54428006999359,34.98385115283661,0 32.54437488380901,34.98383109329254,0 32.54474101637124,34.98391606170958,0 32.54506133157786,34.98415013351149,0 32.54522204344446,34.98410506329927,0 32.54537449302708,34.98411715527135,0 32.54546305687124,34.98414632419666,0 32.54564138312119,34.98428254727521,0 32.54582603872589,34.98436159412419,0 32.54603630369441,34.98438676569131,0 32.54618066000005,34.98443853757558,0 32.54622843255282,34.9844928770797,0 32.54637472115164,34.9845446613636,0 32.5464308995283,34.9847325578176,0 32.54694386311431,34.9858451492298,0 32.54741457949479,34.98693363101556,0 32.54806344271603,34.9883871902934,0 32.5483544317828,34.98928381588406,0 32.54887571411081,34.99096328188142,0 32.54972845368977,34.99371048314782,0 32.55061583329964,34.99658667790825,0 32.55066338736032,34.99678621174991,0 32.55097325052833,34.99777538097781,0 32.55155980140702,34.99964775225408,0 32.55174252614283,35.00030936250661,0 32.55152673694936,35.00030245657371,0 32.55148585490637,35.00034659853125,0 32.55128896078192,35.00048411423422,0 32.55112322680933,35.00047663991035,0 32.55105370617751,35.00051279652023,0 32.55098999829298,35.0004554722609,0 32.55094836400666,35.00045196137345,0 32.55051499230558,35.0004154130975,0 32.5502076324709,35.00046342807823,0 32.54974433677998,35.00059648431954,0 32.54960889433634,35.00065390701721,0 32.54935402396618,35.00086042705642,0 32.54916181540886,35.00085643941236,0 32.54887832084943,35.00087685078039,0 32.54875206524589,35.00103423067126,0 32.54850581912481,35.00103822688061,0 32.54807186223832,35.00127968851032,0 32.54792550030127,35.00142306575638,0 32.54766768640881,35.00158238831268,0 32.54754510961101,35.00170649035334,0 32.54727675985245,35.00191014780293,0 32.54702592418954,35.00204453743697,0 32.54688360254185,35.00211578799054,0 32.54674984370357,35.00235359469868,0 32.54648571868532,35.00246569920198,0 32.54641105846613,35.00251517851573,0 32.54617014745629,35.00302980887518,0 32.54609449992657,35.00318473125061,0 32.54609675268411,35.00330407386995,0 32.54602735573337,35.00351176242225,0 32.5459506443528,35.00341969946188,0 32.54586975178042,35.00341363769953,0 32.54569118829896,35.00339308065409,0 32.54556767642939,35.00325631855852,0 32.54537650267275,35.00314132999249,0 32.54524975246026,35.00299067360886,0 32.5451551645649,35.00300672412581,0 32.54516659860533,35.00322602602687,0 32.54509561909534,35.00324222624889,0 32.5450116180649,35.00320839220505,0 32.54494217168978,35.00306087357482,0 32.54458405500091,35.00312520243737,0 32.54453435132364,35.00303053565298,0 32.54460707520861,35.00282841857433,0 32.54449619534481,35.00278331476794,0 32.54412212920383,35.00275041319231,0 32.54398536406464,35.0025885916786,0 32.5436329406454,35.00240597409196,0 32.5436853230955,35.00221482975432,0 32.54364869641163,35.00216464534672,0 32.54358485120551,35.00213926476707,0 32.54328770428206,35.00217622575077,0 32.54306613258919,35.00206658988125,0 32.54275466254977,35.00219226096186,0 32.54290475914636,35.0023708175018,0 32.54291111251038,35.0024124824202,0 32.54292695908622,35.00252081047715,0 32.54286235839817,35.00257590074522,0 32.54281153317977,35.00260055150461,0 32.54210162399475,35.00241565680258,0 32.54189573883941,35.00243099554569,0 32.54156826334234,35.00246498486509,0 32.5412905387248,35.00223010975354,0 32.54105124302885,35.00221193319762,0 32.54080970235875,35.0020744161952,0 32.54077422747723,35.00190213734618,0 32.54066363881461,35.00182650553537,0 32.54036944552918,35.00190787799701,0 32.54017015160696,35.00193990689051,0 32.54008607560711,35.00191439555577,0 32.53996199917607,35.00183867685086,0 32.53939299275812,35.00137715934582,0 32.53923626809783,35.00118745252237,0 32.53918732965344,35.00101231327699,0 32.53901627590923,35.00091131889005,0 32.53882457189104,35.00085459196422,0 32.53873636182909,35.00090952815196,0 32.53859400964324,35.0009835443281,0 32.53847573740897,35.00100776201914,0 32.53821307357362,35.0009644559579,0 32.53802424387406,35.00096047254682,0 32.53751447405857,35.00101270847341,0 32.5374607248681,35.00099016114365,0 32.53715005255413,35.00067459221726,0 32.5368227884089,35.00068637035415,0 32.53658997489846,35.00034076974001,0 32.53656499614787,35.00012970745425,0 32.53650863544566,35.00002666934426,0 32.53636496451523,34.99988422040952,0 32.53615645052584,34.9998218317762,0 32.53598924733181,34.99967090658637,0 32.53584900180748,34.99952292821455,0 32.53574985210481,34.99930861375638,0 32.53557230025437,34.9991825951514,0 32.53548237868127,34.99906269242977,0 32.53547613259695,34.99900992566255,0 32.53530440369666,34.99898107025298,0 32.53506014135085,34.99877692291605,0 32.53506833404646,34.99862434963592,0 32.53494097440843,34.99854027961225,0 32.53482391559957,34.99843684860853,0 32.53463403603436,34.99818864915828,0 32.53418079639424,34.99797205694327,0 32.53398957421661,34.99786537396479,0 32.53375912426912,34.99762801289013,0 32.53366161713021,34.99759686034172,0 32.53347268646434,34.99760396955442,0 32.53335942539883,34.99745616229719,0 32.53322888028401,34.99735264455764,0 32.5332092538797,34.99728869190073,0 32.53325001277341,34.99725842936211,0 32.53334751935252,34.99728958223847,0 32.53339778763576,34.99732320725553,0 32.53351120661,34.99745436499269,0 32.53375098613711,34.99741983337587,0 32.53409957294276,34.99764685524026,0 32.53425164466272,34.9976145325032,0 32.5343324483657,34.99762892804596,0 32.53440081813488,34.99753224006348,0 32.53470148250685,34.99747867315669,0 32.53482027839459,34.997398960803,0 32.53493109230475,34.99744962411812,0 32.53495301237204,34.99744976217654,0 32.53517711571116,34.997290250956,0 32.53565761341854,34.9971212818642,0 32.5357940326159,34.99696120600741,0 32.53585584321534,34.99684505211724,0 32.53594388778911,34.99680676653998,0 32.53601897487629,34.99671289499273,0 32.5359867230391,34.9965572860733,0 32.5360833037693,34.9963303526316,0 32.53625871723325,34.99632592892016,0 32.53638733427063,34.996276805197,0 32.53664752132416,34.99586776673662,0 32.53664161826094,34.99577892473809,0 32.53671058551601,34.99561841545499,0 32.5364896444507,34.99544494233175,0 32.53650697467172,34.99503990107822,0 32.5367633676608,34.9950304421591,0 32.53689366851638,34.9948037241008,0 32.53718035083935,34.99444480876885,0 32.53710826092794,34.99422234231501,0 32.53702021528702,34.99426062876219,0 32.53683194845083,34.99419836897938,0 32.5367241446035,34.99418657903363,0 32.53656186036583,34.99422993805702,0 32.5363517286363,34.99433959196269,0 32.53627053635493,34.99436682289722,0 32.53614302235966,34.99429940271121,0 32.53600813226964,34.99429853659061,0 32.53588647298483,34.9943255080338,0 32.53577782158165,34.99440251095759,0 32.53564968093413,34.99440168827511,0 32.53567797124357,34.99426311592231,0 32.53577297241706,34.99420267313467,0 32.5359302543161,34.99397612956518,0 32.53573508292139,34.99393047917636,0 32.53564140354103,34.99385217701825,0 32.53549381185733,34.9937679751614,0 32.53528558038796,34.99367783774236,0 32.53521313314331,34.99349421903822,0 32.53501996444984,34.9932376729212,0 32.53545728595985,34.99264107178937,0 32.53541745688347,34.99257421438114,0 32.53551303445108,34.9924527298888,0 32.53558247487664,34.99224227083501,0 32.5359902837998,34.99191188261502,0 32.53614044312918,34.99172414277655,0 32.53642596062762,34.99148732268687,0 32.53649477270293,34.99134346111837,0 32.53631267920548,34.99134229253971,0 32.53625804302707,34.99141409372231,0 32.53617684815421,34.99144132190459,0 32.53585686110099,34.99104521161342,0 32.53572224475698,34.99101659875827,0 32.53553240832344,34.99112082938448,0 32.53540300535646,34.99125320072989,0 32.53509878188809,34.99132894702851,0 32.53497179992355,34.99120602996953,0 32.5347967682975,34.99117160397181,0 32.53469370964798,34.9913707462548,0 32.53455724439561,34.99153637181229,0 32.53446277328506,34.99154131354441,0 32.53432741646236,34.99159039411631,0 32.53417208795609,34.99161159544134,0 32.53397719219733,34.99153818950312,0 32.53408009490636,34.9913556982557,0 32.53422946720185,34.99125120921583,0 32.53412962326895,34.99111181288556,0 32.53414485294389,34.99092875885448,0 32.53409236887457,34.99086906830075,0 32.53399279800571,34.99075582757571,0 32.53398445827234,34.99065818359136,0 32.53389555067231,34.99065456202745,0 32.53379394403422,34.99062188667134,0 32.53362596606567,34.99074889237939,0 32.53329079515842,34.99072538621188,0 32.5331808654957,34.99078872184762,0 32.53294719655408,34.99080856389998,0 32.53289937066735,34.99077165969737,0 32.53264232528277,34.99071663400415,0 32.53253477079322,34.99072508898704,0 32.53229190157959,34.99054359125154,0 32.53219595786346,34.99050027619412,0 32.53185333401149,34.9904812922156,0 32.53176062189444,34.99029313753988,0 32.53167962135397,34.99023772046386,0 32.53148864273319,34.99025021195553,0 32.53118892394537,34.99020100753564,0 32.53088615665623,34.99008316376047,0 32.53084185621155,34.98987092382042,0 32.53077162276184,34.9898521715028,0 32.53062352150982,34.98983749090963,0 32.53049903129967,34.98987328265976,0 32.53049929698072,34.99003949274618,0 32.53028477437522,34.99018906564094,0 32.53009944386934,34.9901924418183,0 32.52993122389748,34.99015018382091,0 32.52989657691073,34.99028566996343,0 32.52986624563911,34.99035714230951,0 32.52980077017483,34.99042228669519,0 32.52958332531031,34.99048949788535,0 32.52936685915839,34.99045455016095,0 32.52893876888215,34.99045940357919,0 32.52867819569491,34.99038604799793,0 32.5285892591365,34.99038547193777,0 32.52845366191747,34.99041966440642,0 32.52822832366495,34.99053714168156,0 32.52812444486941,34.9905486673568,0 32.52823388527715,34.99083123407378,0 32.52836252733793,34.99116337398761,0 32.52822190664369,34.99140944318533,0 32.52807395944048,34.99136408299125,0 32.52808330721989,34.99144461962833,0 32.52802239287904,34.99146642522597,0 32.5280260869043,34.99178557967531,0 32.5279939271184,34.9919740747046,0 32.52789892290713,34.99203450869787,0 32.52794135484297,34.99218186183742,0 32.52781169823879,34.99233919872955,0 32.52771069486811,34.99232189253022,0 32.5276363511411,34.99233806139591,0 32.52759088839893,34.99250704381095,0 32.52756659227919,34.99257903751329,0 32.52769650958683,34.99274638386134,0 32.52768530790532,34.99286008758328,0 32.52765110601202,34.99290981468073,0 32.52756308326142,34.99294531978783,0 32.52750618145812,34.99290055024105,0 32.52739176909974,34.99287483093128,0 32.52729488126945,34.99277985075003,0 32.52720168473624,34.99265159638134,0 32.52700912987046,34.99268642082218,0 32.52676097106544,34.99254050654396,0 32.52673179321708,34.99241821363348,0 32.52664205238225,34.99228165491493,0 32.52614885230442,34.99201759569988,0 32.52612687205753,34.99184817662179,0 32.52598246055294,34.99178618749665,0 32.52591103127946,34.99184954783798,0 32.52568410073798,34.99160109405172,0 32.52540197643852,34.99183236279358,0 32.52526785129966,34.99210344301845,0 32.52513675140767,34.99241062139861,0 32.52482347448814,34.99272493536214,0 32.52461108963553,34.99256393266364,0 32.52458174075357,34.99257936630374,0 32.5243536581008,34.99269930355037,0 32.52412815959099,34.99288950073031,0 32.52402050998511,34.99301573160746,0 32.52384986287817,34.99311616462004,0 32.52377312014684,34.99307631477988,0 32.52361904420305,34.99289760625595,0 32.52349934248132,34.9926734260941,0 32.523390450916,34.99244804789596,0 32.52346238056929,34.99234697206614,0 32.523375805633,34.99220678255176,0 32.52316901735638,34.99189572124514,0 32.52314525417685,34.99164043453467,0 32.52304626798855,34.99134784637771,0 32.52289918633207,34.99124407136745,0 32.52278087183544,34.99103640088008,0 32.52280933390643,34.99096423611061,0 32.52263887605099,34.99079483757046,0 32.52254928622884,34.99070580371572,0 32.52239893112533,34.99045043717194,0 32.52240239149112,34.99026956400352,0 32.52226368836362,34.99023050066999,0 32.52218964164237,34.99025262936085,0 32.52193561817921,34.99024249078267,0 32.52186275691099,34.99031974298749,0 32.52175742424829,34.9902031686017,0 32.52156527725161,34.99000829825896,0 32.521450476466,34.98998352192638,0 32.5213651477099,34.98992926089194,0 32.52129486368104,34.98991749520587,0 32.5210423372942,34.98992997545703,0 32.52088913694836,34.98996995825875,0 32.52066082714039,34.98996422456435,0 32.52050212093554,34.98986284540038,0 32.5204958548115,34.98980062186403,0 32.52027475766919,34.98958153300749,0 32.52005631857767,34.98944301764731,0 32.51975421462994,34.9892559054157,0 32.51949744213503,34.98917508054965,0 32.51934863232139,34.98911616251205,0 32.51936031543651,34.98897350066013,0 32.51948937094816,34.98894466851687,0 32.51965997313369,34.9888807767771,0 32.5197922034441,34.98887881644585,0 32.519888991488,34.98881302878166,0 32.51973435265919,34.98864666518634,0 32.51952542476788,34.98859017954078,0 32.51926080349123,34.98861105723742,0 32.51893820226563,34.98859056929384,0 32.51868606570223,34.98856347662749,0 32.51815089920277,34.98850767437161,0 32.51776304363154,34.98848816917062,0 32.51710871612102,34.98850365541386,0 32.51696182172363,34.98848425846722,0 32.51710924027544,34.98841943524534,0 32.51715146373574,34.98826180982822,0 32.51731378418862,34.98815880472932,0 32.51736234456497,34.98809691977242,0 32.51719764758963,34.98784582377299,0 32.51722099081562,34.98768687837549,0 32.51723834594843,34.98754583657705,0 32.51668975061469,34.98731733747459,0 32.51653207952376,34.98724093735819,0 32.51636035135473,34.98696586961993,0 32.51619163698043,34.98682958527865,0 32.51589971221955,34.98666019075411,0 32.51574764668961,34.98660535948715,0 32.51551990946965,34.98656079523501,0 32.51543270289518,34.98656141714702,0 32.51537784290572,34.98637444311637,0 32.51535091813769,34.98630368783595,0 32.51511335567001,34.98637270024749,0 32.5149953205044,34.98625588716339,0 32.51482741176223,34.98618659489522,0 32.5146590358186,34.98616514964721,0 32.51449044036487,34.98616642986198,0 32.51436659282351,34.98604957850232,0 32.51432799615016,34.98598353039297,0 32.51462420953998,34.98586107629708,0 32.51475138233117,34.98593488441111,0 32.51491224632901,34.98598140223302,0 32.51508773806902,34.98601844575877,0 32.51520533180692,34.98603118276635,0 32.51550774024752,34.98586929072865,0 32.51591838295723,34.98593539544709,0 32.51603239706135,34.98586796049757,0 32.51624054489746,34.98583463975228,0 32.51638006256415,34.98568483255122,0 32.51628312263067,34.98549318508216,0 32.51588267184052,34.98555684095204,0 32.51589136106617,34.98554561507122,0 32.51623367620422,34.98546041980572,0 32.5165153732854,34.98543265409445,0 32.5165700087226,34.98546122217748,0 32.5167825062718,34.98539798979776,0 32.51688963287902,34.98529103364365,0 32.51691043161891,34.98524451663484,0 32.51682835378141,34.9851662217837,0 32.51679066389922,34.98515640407082,0 32.51679589394791,34.98506672105705,0 32.51671365257322,34.98485564282211,0 32.51690585501841,34.98466790112234,0 32.51693439575896,34.98457239031982,0 32.51697935885658,34.98428200029895,0 32.51695446909913,34.9841514478762,0 32.51682781707333,34.98387428391892,0 32.516604990847,34.98377353144708,0 32.51642727273561,34.98366709359359,0 32.51639725531498,34.98361545702016,0 32.51653458510379,34.98339146846065,0 32.51647519052288,34.98337193796647,0 32.51624234660115,34.98325556750522,0 32.51607053369058,34.98313959760856,0 32.51580203655985,34.98295361090002,0 32.5156967587909,34.98287037761939,0 32.51541586409574,34.98306231749755,0 32.51500266982237,34.98296150348219,0 32.51466493378685,34.98287195186911,0 32.51448627581942,34.98286240099327,0 32.51426718733807,34.98282626481372,0 32.51401938574486,34.98275405209306,0 32.5139654783929,34.98276805170069,0 32.51380881314576,34.98288783697911,0 32.5138654478728,34.98304132847343,0 32.51393680158399,34.98317577778673,0 32.51347283788239,34.98306505334516,0 32.51322926584761,34.98300602569876,0 32.51298369436115,34.98300320746203,0 32.51285572230474,34.98301193183807,0 32.51292998981041,34.98284734216126,0 32.512951244919,34.98275417649419,0 32.51307781842339,34.98244159956795,0 32.51322673813841,34.98207294643397,0 32.51331647758324,34.981922404038,0 32.51333754427973,34.98188706449347,0 32.51340512704253,34.98166261867743,0 32.51350455938387,34.98159987447631,0 32.51370482672411,34.98147918068586,0 32.51392468548521,34.98128684263795,0 32.51409934425673,34.98110975561484,0 32.51414613498177,34.981080158143,0 32.51431089638907,34.98102382594623,0 32.51440113288421,34.98086053682038,0 32.51445249249083,34.98080943700622,0 32.51451679111712,34.98077277736596,0 32.51468723791987,34.98072964073174,0 32.51490829766649,34.98071195844297,0 32.51518605429909,34.98069225670663,0 32.51525010809709,34.98068071556255,0 32.51540382396396,34.98056449792447,0 32.51580456074893,34.98030157224743,0 32.51598131777121,34.98020703745313,0 32.51605984356783,34.98020157234706,0 32.51601693513346,34.9801307110771,0 32.51601472501837,34.97990939376783,0 32.516042521465,34.97974090748342,0 32.51605045997321,34.97967157846465,0 32.51623400384369,34.97962613191999,0 32.51628423554435,34.97954153005264,0 32.51609204096529,34.9794302123087,0 32.51600441325932,34.97932556245487,0 32.51575174891521,34.97900689646852,0 32.51570744629817,34.97893004589275,0 32.51575530686171,34.97879040218185,0 32.51580896559756,34.97865199127464,0 32.51555551502177,34.97856419343912,0 32.51529687897255,34.97811270544442,0 32.51513674025683,34.9778436925925,0 32.51500896479794,34.97768375082796,0 32.51467903725775,34.97768995046187,0 32.51466386757921,34.97760611454298,0 32.51464829383573,34.97741461317916,0 32.5152500722827,34.97724751756851,0 32.51536103934401,34.97719322176162,0 32.51562866948893,34.97701794116393,0 32.51577225539439,34.97689687076852,0 32.51603219997678,34.9767646023413,0 32.51635496219828,34.97659805736271,0 32.5165793688639,34.97638421097374,0 32.51680732567723,34.97625207943236,0 32.51724969992395,34.97605593565773,0 32.51731968132494,34.97579947395331,0 32.51734137186664,34.97544779430068,0 32.51741503248638,34.97524690619928,0 32.51757184962933,34.97502573295099,0 32.51752565994418,34.97485877759088,0 32.51737768054053,34.97489368208427,0 32.51727007361298,34.97511517782335,0 32.51683562413071,34.97525582935089,0 32.51677000305146,34.97535261157046,0 32.51651802036758,34.97538220186414,0 32.51619124105051,34.97536732133597,0 32.51633535125884,34.97529651643001,0 32.51639002642153,34.97502375157375,0 32.51654481171182,34.9747227128992,0 32.51669442082287,34.97452001012824,0 32.51674673257094,34.9743455995993,0 32.51681237521547,34.97424650261033,0 32.51703252977112,34.97401880424469,0 32.51738413043559,34.97386603483333,0 32.51799278115671,34.97374041356787,0 32.51808885000487,34.97394696604423,0 32.5190789428942,34.97377977629915,0 32.51936760773131,34.97377489227814,0 32.51945848914523,34.97397338788593,0 32.51957260686327,34.97409565294534,0 32.51963762633161,34.97420602323996,0 32.52012496235108,34.97443337921434,0 32.52110903626102,34.97472371222458,0 32.52099599658968,34.97478083922785,0 32.52098957592066,34.97500878684658,0 32.52103176783257,34.97515372597027,0 32.52101125517941,34.97523923316465,0 32.52086035580648,34.97513987457033,0 32.5202542912488,34.97514285232664,0 32.52009713973795,34.97510826131251,0 32.51990870664751,34.97525516288215,0 32.51956244287418,34.97517699865318,0 32.51926922040558,34.9750630956752,0 32.51905585109384,34.97501827587377,0 32.5187303616424,34.97525669840658,0 32.51851460413281,34.97528439559866,0 32.51842745500912,34.97546302709045,0 32.5185710607638,34.97576240124592,0 32.51874577968957,34.97598821821629,0 32.51885492602375,34.9762655247815,0</coordinates>
						</LinearRing>
					</outerBoundaryIs>
				</Polygon>
			</MultiGeometry>
		</Placemark>
	</Document>
</kml>