<?xml version='1.0' encoding='UTF-8'?>
<kml xmlns="http://www.opengis.net/kml/2.2">
	<Document>
		<name>MESA CHORIO</name>
		<Style id="PolyStyle70">
			<LabelStyle>
				<color>00000000</color>
				<scale>0.000000</scale>
			</LabelStyle>
			<LineStyle>
				<color>ff0055ff</color>
				<width>2.000000</width>
			</LineStyle>
			<PolyStyle>
				<color>00828282</color>
				<outline>1</outline>
			</PolyStyle>
		</Style>
		<Placemark id="ID_70159">
			<name>MESA CHORIO</name>
			<snippet />
			<description>&lt;html xmlns:fo="http://www.w3.org/1999/XSL/Format" xmlns:msxsl="urn:schemas-microsoft-com:xslt"&gt;

&lt;head&gt;

&lt;META http-equiv="Content-Type" content="text/html"&gt;

&lt;meta http-equiv="content-type" content="text/html; charset=UTF-8"&gt;

&lt;/head&gt;

&lt;body style="margin:0px 0px 0px 0px;overflow:auto;background:#FFFFFF;"&gt;

&lt;table style="font-family:Arial,Verdana,Times;font-size:12px;text-align:left;width:100%;border-collapse:collapse;padding:3px 3px 3px 3px"&gt;

&lt;tr style="text-align:center;font-weight:bold;background:#9CBCE2"&gt;

&lt;td&gt;6&lt;/td&gt;

&lt;/tr&gt;

&lt;tr&gt;

&lt;td&gt;

&lt;table style="font-family:Arial,Verdana,Times;font-size:12px;text-align:left;width:100%;border-spacing:0px; padding:3px 3px 3px 3px"&gt;

&lt;tr&gt;

&lt;td&gt;DIST_CODE&lt;/td&gt;

&lt;td&gt;6&lt;/td&gt;

&lt;/tr&gt;

&lt;tr bgcolor="#D4E4F3"&gt;

&lt;td&gt;VIL_CODE&lt;/td&gt;

&lt;td&gt;24&lt;/td&gt;

&lt;/tr&gt;

&lt;tr&gt;

&lt;td&gt;VIL_CCD&lt;/td&gt;

&lt;td&gt;6024&lt;/td&gt;

&lt;/tr&gt;

&lt;tr bgcolor="#D4E4F3"&gt;

&lt;td&gt;VIL_NM_E&lt;/td&gt;

&lt;td&gt;MESA CHORIO&lt;/td&gt;

&lt;/tr&gt;

&lt;tr&gt;

&lt;td&gt;VIL_NM_G&lt;/td&gt;

&lt;td&gt;ΜΕΣΑ ΧΩΡΙΟ&lt;/td&gt;

&lt;/tr&gt;

&lt;/table&gt;

&lt;/td&gt;

&lt;/tr&gt;

&lt;/table&gt;

&lt;/body&gt;&lt;script type="text/javascript"&gt;

				function changeImage(attElement, nameElement) {

				document.getElementById('imageAttachment').src = attElement;

				document.getElementById('imageName').innerHTML = nameElement;}

			&lt;/script&gt;&lt;/html&gt;

</description>
			<styleUrl>#PolyStyle70</styleUrl>
			<MultiGeometry>
				<Polygon>
					<extrude>0</extrude>
					<altitudeMode>clampToGround</altitudeMode>
					<outerBoundaryIs>
						<LinearRing>
							<coordinates> 32.46587263686756,34.80185007505771,0 32.46595884991327,34.80173894031358,0 32.4660799429461,34.80171761973694,0 32.46634460210463,34.80157542125831,0 32.46675613948807,34.80152065686265,0 32.46699061574228,34.80144250751274,0 32.46708707333777,34.80146754926353,0 32.46749477843624,34.80186138352629,0 32.4674992031876,34.80186565770182,0 32.46772727515273,34.80203920439202,0 32.46779837719146,34.8020761941957,0 32.46793147128273,34.80237470332159,0 32.468218989257,34.80255076168056,0 32.46847613658285,34.8027013426284,0 32.46879896920628,34.80308539341597,0 32.46890818948958,34.80338934832847,0 32.46912049274468,34.80359857122954,0 32.46919156563703,34.80363836718728,0 32.46949522766573,34.80356748747341,0 32.46984135950078,34.80367095724686,0 32.46998358957683,34.80374213006664,0 32.47022821637987,34.80378593898462,0 32.47042121362148,34.80388553575269,0 32.4706910118442,34.80379757297075,0 32.47087394924775,34.80388306454989,0 32.47105456436415,34.80386185809917,0 32.47119494015777,34.80378141754945,0 32.4714229243019,34.80378861443411,0 32.471689946082,34.80363886593777,0 32.47199720763044,34.80354835133382,0 32.47230656223937,34.80358699037077,0 32.47250393766716,34.80359116517601,0 32.47261248312751,34.80362841092205,0 32.47285905616933,34.80381540561874,0 32.47289938738328,34.80386621801443,0 32.47319086580984,34.80398895149618,0 32.47326574708668,34.80398946943743,0 32.47331396766181,34.80393365611372,0 32.4734397007754,34.80395417620224,0 32.47362794823897,34.80396112760599,0 32.47366323965913,34.80396243048953,0 32.47377480231641,34.80401362637464,0 32.47389900284504,34.80422859701324,0 32.47398943013274,34.80474196618449,0 32.47436638541478,34.80495868392132,0 32.47462766982066,34.8051295252067,0 32.47488682836111,34.80517357321251,0 32.47530720504556,34.80515112046272,0 32.47570643133601,34.80519331682768,0 32.47610158375968,34.80530028020586,0 32.47641487922724,34.80539541025671,0 32.47664048081791,34.80538006095836,0 32.47691358796788,34.80539602877916,0 32.47719771162555,34.80533600563196,0 32.47743665981732,34.80535173718377,0 32.47758873943871,34.80551336815999,0 32.47785085902112,34.80560250828487,0 32.47793795905718,34.8054340703986,0 32.47814651134684,34.80541578398244,0 32.47840897207936,34.80547111752338,0 32.47859757174098,34.80539916479493,0 32.47884050768752,34.80535857584551,0 32.47913661098359,34.80512677614756,0 32.47946482241274,34.80509803980603,0 32.4798809854084,34.8051544250618,0 32.48024546210943,34.80525553144602,0 32.4804867200713,34.80538114658195,0 32.48061836665565,34.80553699935797,0 32.48079507050068,34.80562836293059,0 32.48097519205717,34.80571975164108,0 32.48113917973879,34.80605613152167,0 32.48153115690812,34.80614051865467,0 32.48190648087721,34.80618252976915,0 32.48232102106229,34.80606140819129,0 32.48262368179125,34.80619589088314,0 32.48283480100341,34.80626213214288,0 32.48307059457836,34.80625247531182,0 32.48341094257034,34.80637594453931,0 32.48372385397226,34.80651049505877,0 32.48375283918039,34.80668536382992,0 32.4836820363455,34.80693280005692,0 32.48359745823335,34.80719141246969,0 32.48361292284785,34.80735210276114,0 32.4837509496213,34.8078939621055,0 32.48388483692421,34.80816815244965,0 32.48411461749372,34.80841764309639,0 32.48444941200197,34.80875518415615,0 32.48470452067162,34.80886398180029,0 32.48498870399688,34.80913919667785,0 32.48523921105531,34.80936628729798,0 32.48540079676718,34.80960403957205,0 32.48553130208904,34.809875387738,0 32.48572512897223,34.80996404460685,0 32.4857935289691,34.81029695008754,0 32.48597064573757,34.81068975779193,0 32.48618892238694,34.81106594243003,0 32.48643893156334,34.81134373824266,0 32.48644648769803,34.81135441257285,0 32.48667135424255,34.81167212497044,0 32.48675099734104,34.81190650084453,0 32.48607628740179,34.81173850329843,0 32.48585050160778,34.81177077218819,0 32.48571990722485,34.81184876577299,0 32.48564552179724,34.81211308264756,0 32.48541984423883,34.81247497289482,0 32.48596390639207,34.81272660170649,0 32.48623811315705,34.81297638949274,0 32.48612420315116,34.81309393984386,0 32.48605769166297,34.81325406983203,0 32.48596532119873,34.81360841731593,0 32.48580931973387,34.81383555373612,0 32.48568380202605,34.81408825210658,0 32.48542509090692,34.81433722578066,0 32.48533765506824,34.81453947239581,0 32.48521521438406,34.81482599998176,0 32.48494097085956,34.81491991640624,0 32.48486937397148,34.8149053416781,0 32.4846377127901,34.81484178075491,0 32.48454138813766,34.81490873755646,0 32.48429452699612,34.81499720480848,0 32.4841049776685,34.8151621297372,0 32.4841463619571,34.8154638593955,0 32.48406061818036,34.81549708180379,0 32.48378042249098,34.81550361965767,0 32.48337732731645,34.81550086498344,0 32.48329245506805,34.81578764651012,0 32.48312704130516,34.81593019579937,0 32.48295261101711,34.81628961343362,0 32.48277504288391,34.81647175330969,0 32.48246888830474,34.8167857859743,0 32.48230536814462,34.81689469041814,0 32.48193546503113,34.81733703398059,0 32.48192860455642,34.81744222561552,0 32.48172530247206,34.81746953529646,0 32.4814448117319,34.81767330744071,0 32.48138603341785,34.81774944242832,0 32.48143133002301,34.81785977729645,0 32.48130869975613,34.81794025637816,0 32.48097357809944,34.81780880419635,0 32.48046366906346,34.81775268661094,0 32.4798541889534,34.81779155621562,0 32.47969762408008,34.81778569721271,0 32.4795251087126,34.81763622053799,0 32.47933968732845,34.81761581366101,0 32.47921768611039,34.81763410914453,0 32.47914174859206,34.81768620746148,0 32.47904662179698,34.81791516762837,0 32.47906310496533,34.81800616936092,0 32.47910941344603,34.81801605541541,0 32.47927259922375,34.81794063885096,0 32.47941640269029,34.81806121630265,0 32.47924543442445,34.81833270755136,0 32.47867128100696,34.81889322726416,0 32.47831493495104,34.81913952519664,0 32.47792252141803,34.81950994637803,0 32.47783169649223,34.81931319376899,0 32.47766009718247,34.81907283235552,0 32.47730844449621,34.81885514924907,0 32.47716962032316,34.81881592421312,0 32.47706579322421,34.81875780557804,0 32.47660813582294,34.81869724945491,0 32.47646448084006,34.81856231839583,0 32.47614710299901,34.8183974876158,0 32.47605589366139,34.8182389991223,0 32.47563440156554,34.81804474719166,0 32.4755779025906,34.81789606506621,0 32.47561425860341,34.81774324256657,0 32.47536789859561,34.81744017500051,0 32.47539216577317,34.81733510209439,0 32.47546825089363,34.81726865760779,0 32.47492813419663,34.81733189888988,0 32.47477766261846,34.81729737417167,0 32.47486578530933,34.8171879598077,0 32.47471560767125,34.8171247361742,0 32.47463566414385,34.81699980994698,0 32.47443386442002,34.8168788258282,0 32.47412746578436,34.81677625292618,0 32.47436118109807,34.81661044195077,0 32.4746869566419,34.81643666262226,0 32.47472600587433,34.81641642526029,0 32.47501275084257,34.81626782509748,0 32.47511900760838,34.81609344971886,0 32.47526838415796,34.81598746962251,0 32.47557736932348,34.81592984290533,0 32.47562098430922,34.81561744949671,0 32.47565830246656,34.81542731045948,0 32.47575316753451,34.81521255397397,0 32.47577422161881,34.81513070358185,0 32.47563899612712,34.81500469243595,0 32.4755701102856,34.81481798991556,0 32.47520776301135,34.81498642977234,0 32.47494159302235,34.81514302307909,0 32.47482588546868,34.81508663431267,0 32.47483325980109,34.81502414661504,0 32.47507229915536,34.81488404287104,0 32.47547093564391,34.81462691009325,0 32.47595197051595,34.8143870221149,0 32.47607295630265,34.81408905930731,0 32.47610084657448,34.81399752793772,0 32.47587058192691,34.81393757025066,0 32.47565532756818,34.81389300403782,0 32.4753739040073,34.81389245085747,0 32.47505968104833,34.81380272817637,0 32.47482993961655,34.81369135160387,0 32.47470015410164,34.81352785386116,0 32.47455283508705,34.81326556239934,0 32.47435249386915,34.8132461120761,0 32.47421554650185,34.81312425655975,0 32.47403964478257,34.81302158919199,0 32.47382280861628,34.81296727913298,0 32.47363733756132,34.81294091567289,0 32.47357004144732,34.81292042051902,0 32.47353697374726,34.81291034986823,0 32.47352944998357,34.81290805830114,0 32.47351638129904,34.8129040786796,0 32.47349700736574,34.81289817784405,0 32.47332878641579,34.81282074972083,0 32.47313376056951,34.8126878179764,0 32.47289013274408,34.81250731630785,0 32.47284066514693,34.81254408639439,0 32.47277359921472,34.81270219549867,0 32.47262780711108,34.81295760131895,0 32.4724913338681,34.81310173363708,0 32.4723085555454,34.81337375274263,0 32.47223302798601,34.81355879327373,0 32.47236369461642,34.81358331577484,0 32.47249834948006,34.81361798673566,0 32.47258903738,34.81355113675534,0 32.47267044236059,34.81359218698559,0 32.47259148104757,34.81371310047477,0 32.47248969485157,34.81406665383324,0 32.47261995028717,34.81413165985308,0 32.47269794945541,34.81410520882808,0 32.47275181936644,34.81403810362372,0 32.47286976865411,34.81410639860098,0 32.47295131162508,34.81413395374843,0 32.472906864591,34.81448115542513,0 32.47286124782161,34.81454156898388,0 32.4723700271073,34.81456853397172,0 32.47225558532065,34.81455761970372,0 32.47209383999495,34.81437093523248,0 32.47200858279623,34.81430623930121,0 32.47156020139977,34.81414456091139,0 32.47125084284522,34.81399059023057,0 32.47113722214909,34.81389870733756,0 32.47096100694898,34.81392785027047,0 32.47069011280718,34.8140136910972,0 32.47054514467693,34.81418812767419,0 32.47041708403232,34.81430869806639,0 32.47027816884484,34.8142908641269,0 32.47030089237577,34.81406834560686,0 32.47030574139006,34.81399415458934,0 32.47014956378919,34.81406392142271,0 32.46944883954838,34.81457525530784,0 32.46922321591722,34.81463441914003,0 32.46909171990169,34.81469086077394,0 32.46894317225902,34.81481465931016,0 32.46873848599186,34.81482673304404,0 32.46866633626275,34.81468115424401,0 32.46856378626617,34.81470743054555,0 32.46840510082192,34.81462197839718,0 32.46827855951852,34.81459410819689,0 32.46814435288095,34.81451557397136,0 32.46805913344249,34.81444750405997,0 32.4675509660939,34.81453168737656,0 32.46714523813642,34.81459971084602,0 32.46709479892586,34.81473094091369,0 32.46696402430839,34.8147165345753,0 32.46675618483382,34.81463748513563,0 32.46632823204197,34.81447930251646,0 32.46598538830072,34.81439931071644,0 32.46576094147361,34.81434376210417,0 32.46554918547324,34.81424781661727,0 32.46538558519192,34.81424329925295,0 32.46516398297825,34.81430922772377,0 32.46488011688908,34.81446244533456,0 32.46482207956647,34.81453626336,0 32.464746123762,34.81476178369478,0 32.46447830690499,34.81494547567159,0 32.46438188832862,34.81517085161013,0 32.46419595793471,34.81534836611974,0 32.46392799918611,34.81554554990729,0 32.46385233695072,34.81553508073102,0 32.46362743263976,34.81552626140876,0 32.46337780059645,34.81553030706781,0 32.46307818158876,34.81554442430888,0 32.46282844818038,34.81556390738234,0 32.46264144986608,34.815532203716,0 32.4623676605884,34.81541262690024,0 32.46223695541497,34.81536058511141,0 32.4620554952109,34.8154369797483,0 32.46198688893417,34.81543152918533,0 32.4619057025264,34.81544146374295,0 32.46189075367446,34.81544073056712,0 32.46167489075967,34.81543014924629,0 32.46141281161,34.81542898947622,0 32.46117569306883,34.81542793967708,0 32.46103247537683,34.81538098841897,0 32.4607831454822,34.81533871222919,0 32.46049053826689,34.81523448769759,0 32.46037258382429,34.81514132891006,0 32.46016723605148,34.81505292954452,0 32.46004324384019,34.81492886567429,0 32.46013134116755,34.8148160355283,0 32.45999470073981,34.81471764803659,0 32.45995239878344,34.81450645717217,0 32.45992237402784,34.81432619966115,0 32.45986064672987,34.8142229981668,0 32.4595985053718,34.81423212689042,0 32.45950919420709,34.81398618924278,0 32.45946178368255,34.81383078825645,0 32.45942520406736,34.8137670596965,0 32.45929879020444,34.81376904099339,0 32.45922480180919,34.81376871219431,0 32.45915116123393,34.8137149889037,0 32.45907747199031,34.81366889425259,0 32.45894487623799,34.81367338976646,0 32.45877850094371,34.81365739386277,0 32.45871112812303,34.81358844308843,0 32.45867478199629,34.81348911921546,0 32.45866019941663,34.81336192222388,0 32.45859314184377,34.8132446618224,0 32.45850425447637,34.81316544513784,0 32.45838792202832,34.81304033823457,0 32.45830808508613,34.8129916727864,0 32.4581509432499,34.81297825919991,0 32.45795725774919,34.81289603243674,0 32.45775717408534,34.81284937388474,0 32.45762487840243,34.81280810130742,0 32.4574805032177,34.81272863653634,0 32.4574160799273,34.81268003922524,0 32.45738571882883,34.81260870977901,0 32.45740476596634,34.81252488761957,0 32.45740823143894,34.81246642204177,0 32.45721476463425,34.81235114100945,0 32.45711963195417,34.81228460758553,0 32.45708002165078,34.81221323679517,0 32.45704677794681,34.81211138330098,0 32.45699465371843,34.81206792567647,0 32.45690785248622,34.81214127442948,0 32.45686757507829,34.81217160665709,0 32.45679660459286,34.81218146082563,0 32.45668294098172,34.81211992936855,0 32.45662171975885,34.81205354786832,0 32.45661297201502,34.81197722970651,0 32.45660179207938,34.81180173758114,0 32.45657776419149,34.81170501014312,0 32.45650122872998,34.81162330328514,0 32.4564246266223,34.81155176795019,0 32.45631709709235,34.81149534948658,0 32.45623391244786,34.81148734978886,0 32.4561448319194,34.8115556027856,0 32.45601396428616,34.81153213381225,0 32.45569823066367,34.81149258281852,0 32.45550166864529,34.81137982728701,0 32.45524853588691,34.81119689516168,0 32.45512751162381,34.8110832061344,0 32.45501896987307,34.81094668888979,0 32.45477337934713,34.81078921652259,0 32.45472208621261,34.81061990143874,0 32.45468247985711,34.81054852987998,0 32.45457066374152,34.81044123762649,0 32.45441588956966,34.8103032415695,0 32.45424690204841,34.81021730474223,0 32.45412224416058,34.81018750552543,0 32.4538248621955,34.810170915116,0 32.4536388686046,34.81009253001795,0 32.45358687331817,34.81003000151028,0 32.4535367726918,34.80991408638185,0 32.45350780586836,34.80986564622194,0 32.45350172779703,34.8098552460334,0 32.45340873376001,34.80969611599029,0 32.45333449146884,34.80950127115209,0 32.45323888109262,34.80927454631348,0 32.4531387647303,34.80903000307354,0 32.4531108650633,34.8088201103323,0 32.45305765754903,34.80870799502873,0 32.45298103591448,34.80864027053124,0 32.45285216123303,34.80854942704313,0 32.45279724409515,34.80846273091246,0 32.45276143779228,34.80828331363264,0 32.45263494667155,34.80806417206812,0 32.45261040399795,34.80791673447885,0 32.45254556333195,34.80768913604296,0 32.45260833733228,34.80761143917821,0 32.45262285751178,34.80739561269434,0 32.45267976108941,34.80703838549641,0 32.45243403320514,34.80667226444272,0 32.4523171004,34.80650948763108,0 32.45226701647719,34.80621223065339,0 32.4522897913185,34.80598971745798,0 32.45213201789701,34.80581990296873,0 32.45197047471272,34.805619698997,0 32.45171653770218,34.80525689103948,0 32.45149599931676,34.80483021714114,0 32.45121375296183,34.80443684420332,0 32.45085883014484,34.80395185628439,0 32.45066185238971,34.80361981691927,0 32.45056770046175,34.80323452543446,0 32.45036537107846,34.80302390737451,0 32.45014449139546,34.80263096769153,0 32.44988694075892,34.80222427078086,0 32.44973389132628,34.80209529542792,0 32.44947526881454,34.80188570768687,0 32.4494121517508,34.80187815111184,0 32.44937139128051,34.80182222778142,0 32.44935682959821,34.80180277366308,0 32.44932440067228,34.80174953014249,0 32.44977591991164,34.80173923613863,0 32.44976791160266,34.80161802617459,0 32.44989878247685,34.80137748272221,0 32.4499858941406,34.80131123187049,0 32.45038447547009,34.80101736919296,0 32.4505848720086,34.80092497108758,0 32.45066997428412,34.80093989552802,0 32.45091736723261,34.80107066741385,0 32.45099272582731,34.80100436280485,0 32.45150164268753,34.80112904195914,0 32.45155235730106,34.80101294469739,0 32.45128747212036,34.80086149545337,0 32.4510754141244,34.80071876649923,0 32.45117464529635,34.80037508180925,0 32.45126588107408,34.8003512588153,0 32.451666998315,34.80056027246596,0 32.45237746112498,34.80108451730429,0 32.45246585936828,34.80082318012607,0 32.45253324427831,34.80062960628365,0 32.45253544999414,34.80051813652789,0 32.45253804469906,34.80045708984518,0 32.45253656149455,34.80033679008137,0 32.4525463960431,34.80022781828189,0 32.45240831177632,34.80008998747448,0 32.4525030625281,34.79988929816184,0 32.45267835564988,34.79956867700081,0 32.45285417866307,34.7993401584192,0 32.4529754130573,34.79926927843159,0 32.45303539939049,34.7991567729604,0 32.4531465908697,34.79905389599895,0 32.4533879606786,34.79890555253632,0 32.45342296156625,34.7989536394828,0 32.45347643799582,34.79896421739077,0 32.45341071236125,34.79908327604493,0 32.45343724828303,34.79920556875302,0 32.45351199953561,34.79927262927889,0 32.45356982331349,34.79931517923176,0 32.45357128860957,34.79931603136469,0 32.45398067515999,34.79955385133479,0 32.45408154450152,34.79928834286908,0 32.45414584572809,34.79921250798961,0 32.45420394742073,34.79921276856962,0 32.45427660666005,34.7992516257003,0 32.45437266996522,34.79936953072841,0 32.45471879634998,34.79940303458346,0 32.4548209331282,34.79929071706841,0 32.45493090242477,34.79920004935688,0 32.45510313297891,34.79911851069216,0 32.45513963273945,34.79916982201274,0 32.45518184153885,34.79924087344973,0 32.45520113560934,34.79928347730635,0 32.45522189636218,34.79933835637144,0 32.4552840668188,34.79950057717422,0 32.45532367690085,34.79960207940829,0 32.45537888174999,34.79968942213092,0 32.45555452045473,34.79996256291174,0 32.45559894706372,34.79988853679608,0 32.45566248849827,34.79977852579994,0 32.45573395876204,34.79977599417855,0 32.4558450219555,34.79984609307016,0 32.45603111780646,34.79996380886782,0 32.45636547075849,34.80005797035022,0 32.45639952771813,34.800026779286,0 32.45644299352305,34.7999664955813,0 32.45647831598038,34.79991714335534,0 32.45654891019396,34.79989808208092,0 32.45690008967136,34.7999765663109,0 32.45699272527803,34.79999627055771,0 32.45720600565439,34.80004416285111,0 32.45741718058134,34.8000334885142,0 32.45758487980483,34.80002483309446,0 32.45774568279843,34.80004546256269,0 32.45786629820233,34.80006064386775,0 32.45787377074902,34.80009955911971,0 32.45793313090188,34.80012085781203,0 32.45803092523762,34.8001729226333,0 32.45815028490129,34.80023591964594,0 32.45816331287437,34.80025254978769,0 32.45817228907485,34.8002978458227,0 32.45835751548455,34.80033245282853,0 32.45849909194207,34.80025267948822,0 32.45860838092622,34.80029457171933,0 32.45866306969256,34.80027172361304,0 32.45860503919525,34.80014127628954,0 32.4586145386633,34.80004622706619,0 32.45858213814606,34.79998381661396,0 32.45876063135888,34.79995185118759,0 32.45886891244401,34.79990060335034,0 32.45912094640706,34.79985691927007,0 32.45921639732748,34.79997655485982,0 32.45931689219453,34.80005764631952,0 32.45938717645708,34.80010724137549,0 32.45955762280032,34.80028900106743,0 32.45967081944644,34.80035631418358,0 32.45978908503762,34.80041420797457,0 32.46005984949139,34.80045590600417,0 32.46012002182795,34.80048232653408,0 32.46018834843656,34.80051300195941,0 32.46028013256917,34.80055390459,0 32.46040446767551,34.80060520449955,0 32.46049634265474,34.80067043913616,0 32.46071602784772,34.80079345655573,0 32.4608895740002,34.80084436465073,0 32.46101996628268,34.80085907773147,0 32.46121304425571,34.80096534207777,0 32.46137970434206,34.80103552791151,0 32.46143177170215,34.80118498781911,0 32.46187578901417,34.80130128024118,0 32.46199537277832,34.80139322704841,0 32.46211108853679,34.80153760623475,0 32.46226447165033,34.80159665613974,0 32.46272934391035,34.80163578118406,0 32.4629059384194,34.80171707851709,0 32.46295139068698,34.80181750790933,0 32.46297214489088,34.80182979963156,0 32.46329240862781,34.80201947173325,0 32.46333558598574,34.8021236472626,0 32.46357360000083,34.80214777177269,0 32.46429600549763,34.80206860339208,0 32.46460269617629,34.80203425225137,0 32.46461414453382,34.80191361463901,0 32.46477084890882,34.80190067229173,0 32.46497211468588,34.80185716028618,0 32.46523277307087,34.80199654323322,0 32.46544747966558,34.80196996813411,0 32.46559766528958,34.80192890530074,0 32.46572281796978,34.80200557902015,0 32.46587263686756,34.80185007505771,0</coordinates>
						</LinearRing>
					</outerBoundaryIs>
				</Polygon>
			</MultiGeometry>
		</Placemark>
	</Document>
</kml>