<?xml version='1.0' encoding='UTF-8'?>
<kml xmlns="http://www.opengis.net/kml/2.2">
	<Document>
		<name>MILIOU</name>
		<Style id="PolyStyle70">
			<LabelStyle>
				<color>00000000</color>
				<scale>0.000000</scale>
			</LabelStyle>
			<LineStyle>
				<color>ff0055ff</color>
				<width>2.000000</width>
			</LineStyle>
			<PolyStyle>
				<color>00828282</color>
				<outline>1</outline>
			</PolyStyle>
		</Style>
		<Placemark id="ID_70145">
			<name>MILIOU</name>
			<snippet />
			<description>&lt;html xmlns:fo="http://www.w3.org/1999/XSL/Format" xmlns:msxsl="urn:schemas-microsoft-com:xslt"&gt;

&lt;head&gt;

&lt;META http-equiv="Content-Type" content="text/html"&gt;

&lt;meta http-equiv="content-type" content="text/html; charset=UTF-8"&gt;

&lt;/head&gt;

&lt;body style="margin:0px 0px 0px 0px;overflow:auto;background:#FFFFFF;"&gt;

&lt;table style="font-family:Arial,Verdana,Times;font-size:12px;text-align:left;width:100%;border-collapse:collapse;padding:3px 3px 3px 3px"&gt;

&lt;tr style="text-align:center;font-weight:bold;background:#9CBCE2"&gt;

&lt;td&gt;6&lt;/td&gt;

&lt;/tr&gt;

&lt;tr&gt;

&lt;td&gt;

&lt;table style="font-family:Arial,Verdana,Times;font-size:12px;text-align:left;width:100%;border-spacing:0px; padding:3px 3px 3px 3px"&gt;

&lt;tr&gt;

&lt;td&gt;DIST_CODE&lt;/td&gt;

&lt;td&gt;6&lt;/td&gt;

&lt;/tr&gt;

&lt;tr bgcolor="#D4E4F3"&gt;

&lt;td&gt;VIL_CODE&lt;/td&gt;

&lt;td&gt;333&lt;/td&gt;

&lt;/tr&gt;

&lt;tr&gt;

&lt;td&gt;VIL_CCD&lt;/td&gt;

&lt;td&gt;6333&lt;/td&gt;

&lt;/tr&gt;

&lt;tr bgcolor="#D4E4F3"&gt;

&lt;td&gt;VIL_NM_E&lt;/td&gt;

&lt;td&gt;MILIOU&lt;/td&gt;

&lt;/tr&gt;

&lt;tr&gt;

&lt;td&gt;VIL_NM_G&lt;/td&gt;

&lt;td&gt;ΜΗΛΙΟΥ&lt;/td&gt;

&lt;/tr&gt;

&lt;/table&gt;

&lt;/td&gt;

&lt;/tr&gt;

&lt;/table&gt;

&lt;/body&gt;&lt;script type="text/javascript"&gt;

				function changeImage(attElement, nameElement) {

				document.getElementById('imageAttachment').src = attElement;

				document.getElementById('imageName').innerHTML = nameElement;}

			&lt;/script&gt;&lt;/html&gt;

</description>
			<styleUrl>#PolyStyle70</styleUrl>
			<MultiGeometry>
				<Polygon>
					<extrude>0</extrude>
					<altitudeMode>clampToGround</altitudeMode>
					<outerBoundaryIs>
						<LinearRing>
							<coordinates> 32.4495445615843,34.93230604665329,0 32.44954313933657,34.93227759668734,0 32.44953271466915,34.93206901590518,0 32.44946842074204,34.93188884188385,0 32.44928508003611,34.9318020962891,0 32.44962060543845,34.93170579056865,0 32.44993100671646,34.93178754739657,0 32.45065751954828,34.93176473103324,0 32.4508705889678,34.93191650152986,0 32.45110566520009,34.93201687003182,0 32.45145908875517,34.93209009153935,0 32.45218697476265,34.93210704846913,0 32.45255810645795,34.9321980686201,0 32.4526915554029,34.93220245131862,0 32.45284422405469,34.93220746488766,0 32.45318323469064,34.93229089090825,0 32.45355165043181,34.93229939659319,0 32.45394574106932,34.93224768605929,0 32.45451947237456,34.93212359429798,0 32.45498437089977,34.93214309075914,0 32.45545838242028,34.93214644572603,0 32.45580310721834,34.93202514511524,0 32.45629302307968,34.93187540889888,0 32.4565903734952,34.93166538679662,0 32.45732303507953,34.93139509548659,0 32.45743309269504,34.93147689187365,0 32.45758262380868,34.93154718283833,0 32.45820934122736,34.93165913983346,0 32.45816208031538,34.93190333852399,0 32.45817394058478,34.9321391156351,0 32.45821187607535,34.93233905120897,0 32.45823473012559,34.93245950135005,0 32.45839343257836,34.93294483522918,0 32.45844571748881,34.93328537929474,0 32.45852659964683,34.93338095360365,0 32.45864860839126,34.93345843113929,0 32.45876552690368,34.93366765152236,0 32.45889497915223,34.93374518089924,0 32.45926148665157,34.93393164154953,0 32.45965267852757,34.93389149014385,0 32.46001979217779,34.93401972643331,0 32.46020640137511,34.93396894194458,0 32.46055214304128,34.93400508504537,0 32.4607378641447,34.93404010234507,0 32.4608745072169,34.93414219559283,0 32.46115961954725,34.93392354723725,0 32.46121143314735,34.93395149130797,0 32.46137965661867,34.93387912361081,0 32.46102167167361,34.9335885295577,0 32.46083630118687,34.93351980459511,0 32.46090366631839,34.93348350120281,0 32.4609780625413,34.93348709084137,0 32.46111492848106,34.93356773362513,0 32.4617212890187,34.93359344668705,0 32.46207217692893,34.93349171200301,0 32.46217433374756,34.93333000257108,0 32.46219389546513,34.93323820249118,0 32.46203789321827,34.93248933152946,0 32.46194953302786,34.93239677232546,0 32.46156274182619,34.9323726016054,0 32.46126010870309,34.93248693260433,0 32.46085327512609,34.93260052916166,0 32.46095934260129,34.93235839949558,0 32.46092825228209,34.93215999058348,0 32.46103915290304,34.93189136507166,0 32.46128536466684,34.93170809590969,0 32.46152019203078,34.93167505855209,0 32.46163314525284,34.93161457054129,0 32.46175735213905,34.93141656860345,0 32.46224032788476,34.93155524151248,0 32.4624601131988,34.93134750279442,0 32.4624155831031,34.93103731580535,0 32.4625046530791,34.93084253343431,0 32.46232944576774,34.93054183532917,0 32.46178057034689,34.93025932441584,0 32.46181854233657,34.92998209181204,0 32.46184894109589,34.92962271125877,0 32.46157566882679,34.92943694738504,0 32.46135969236958,34.92900646122025,0 32.46107869781401,34.9288888619852,0 32.4609390815152,34.92881272307136,0 32.46082010620636,34.92877719914673,0 32.46088688221437,34.92870135661232,0 32.46125370487546,34.92853049784572,0 32.46123980717749,34.9283812441016,0 32.46172996017742,34.92836734412365,0 32.46212060618291,34.92847183744416,0 32.46221181790796,34.92861238391843,0 32.46235116953377,34.92871395571007,0 32.4626525188244,34.92889991504931,0 32.46278096387388,34.92897019022053,0 32.46284494392984,34.92889317140417,0 32.46333662978522,34.92900299410149,0 32.46350778473239,34.92888047560182,0 32.46355018418159,34.92871774107591,0 32.46387716350248,34.92859747030126,0 32.4639809966211,34.92856997793313,0 32.46418816424623,34.92846017327442,0 32.46449076284605,34.9284417363714,0 32.46471508039176,34.9285513600572,0 32.46477988351566,34.9284962610804,0 32.46463626027246,34.9282169870392,0 32.46506404462696,34.92831751503267,0 32.46529369627945,34.92833467943525,0 32.46545646097585,34.92829616469888,0 32.46566206569539,34.92856475896379,0 32.46571143862621,34.92872882000051,0 32.4656605844788,34.92879321141178,0 32.46575970367277,34.9290636438952,0 32.46585242196277,34.92902482062492,0 32.46597873767641,34.92942229491815,0 32.46612017161182,34.92964906775617,0 32.46604669355091,34.92974566607196,0 32.46602824468411,34.92988324248872,0 32.46602902950618,34.92994337277922,0 32.46605920271546,34.93001295926538,0 32.46610540299123,34.93002599947886,0 32.46625209300891,34.92996111940259,0 32.46638463938639,34.92977010825212,0 32.46672336580747,34.92919087943872,0 32.46683123238656,34.92894188254608,0 32.46689403013984,34.92870644625827,0 32.46684336980528,34.92844477913844,0 32.46687733901577,34.92841842268753,0 32.4669821104315,34.92860646621746,0 32.46701633919678,34.928691111453,0 32.46702924828573,34.92893748338377,0 32.46706155140778,34.92907299027554,0 32.46687199296134,34.92934685532372,0 32.46685802426182,34.92961269546693,0 32.46685282422212,34.9299815023755,0 32.46691750041568,34.93038201700045,0 32.46707550567653,34.93085487015989,0 32.46717722313739,34.93106717453486,0 32.46728703128188,34.93117547185096,0 32.46745303547635,34.93128069274612,0 32.46752404343576,34.93133900073215,0 32.46774224554307,34.93155674136251,0 32.46781187556454,34.93161272738317,0 32.46806277392521,34.93165494551033,0 32.4681381978012,34.93169362772228,0 32.46822662775558,34.93183299375455,0 32.46832392049555,34.93192964122805,0 32.46838941346544,34.93225153629977,0 32.46845766407161,34.93241088858512,0 32.46847840037415,34.93245930287507,0 32.46867970493167,34.93258377139583,0 32.4687331138089,34.93284262727008,0 32.46876428012676,34.93296208331468,0 32.46891743032186,34.93304409200796,0 32.46907391013752,34.93312072634283,0 32.46913488372728,34.93324526046151,0 32.46923941746363,34.93327566609985,0 32.46926724094627,34.93343774118135,0 32.46936771921393,34.93354366386028,0 32.4694575444553,34.9337304536006,0 32.46950827193686,34.93389538518917,0 32.46944036772563,34.9341269431501,0 32.46956711476791,34.93422765204992,0 32.46965449154433,34.93433348393036,0 32.46974109452984,34.93451485443739,0 32.46970248500023,34.93476550183721,0 32.46959435058904,34.93508581425755,0 32.46941032436469,34.93513849400753,0 32.46915337051273,34.93559267010213,0 32.4686062125302,34.93590992400475,0 32.46816000379187,34.93628723575105,0 32.4681236905384,34.93663232938546,0 32.46803972913163,34.93683139822301,0 32.46802565829108,34.93724409772096,0 32.46812769980142,34.93751730905093,0 32.46815924247155,34.93763624218257,0 32.46793709065251,34.93789100519732,0 32.46798529420941,34.937983074086,0 32.46805679076987,34.93804023094393,0 32.46839503588945,34.93828541142481,0 32.46856010733724,34.93848351658966,0 32.46860156337916,34.93859442521541,0 32.46856916699614,34.93887749189985,0 32.46861120979347,34.93925011250682,0 32.46873641132496,34.93950190126749,0 32.46879775375841,34.93990972924105,0 32.4688988865888,34.94027196945621,0 32.46903872808638,34.94069383484479,0 32.46889973657544,34.94114613394247,0 32.46908575454688,34.94153864342084,0 32.46930003813385,34.94173169465786,0 32.46945604331153,34.94217525704379,0 32.46946498664485,34.94226165605241,0 32.46921667129881,34.94251084248298,0 32.4692877302895,34.94261116403683,0 32.46973342916088,34.94292453942847,0 32.46985969130371,34.94307380999656,0 32.46994552746487,34.9433307196575,0 32.46993462068736,34.94343586633754,0 32.46985198588828,34.94350543994243,0 32.46965855732379,34.9435148862901,0 32.46895845038676,34.943404787435,0 32.46869329788648,34.94337865862407,0 32.46844030755597,34.943444346414,0 32.46834676248895,34.94393743186266,0 32.46873731572889,34.94387809884434,0 32.46913681156076,34.94390516447411,0 32.46930014372912,34.94395486596041,0 32.46939322571251,34.94414437578141,0 32.46949757943796,34.94419366613347,0 32.46930254896741,34.94467795195308,0 32.46931952062226,34.94493977765374,0 32.4692518885458,34.94546272384655,0 32.4691495158668,34.94585861856199,0 32.46896450157801,34.94632408788661,0 32.46875268773262,34.94652766117068,0 32.46843975877178,34.94691539846455,0 32.46841691690455,34.94703593227185,0 32.46826687937079,34.9470237211637,0 32.46772598251164,34.94707145872848,0 32.4675959940926,34.94694755014793,0 32.46743176700374,34.94700010431534,0 32.46730970955286,34.94690751586865,0 32.46715479179193,34.94672426412349,0 32.46721180034888,34.94659785530835,0 32.46715967836633,34.94656781304251,0 32.46704402102244,34.94666143670276,0 32.46700050700942,34.94675016659806,0 32.46700015404146,34.94690535483494,0 32.4671334148866,34.94728694638638,0 32.46694933870595,34.94742660109313,0 32.46687823480608,34.94744177098085,0 32.46666663701775,34.94740449949024,0 32.46631531811938,34.94730814129437,0 32.46606799768438,34.94718118525226,0 32.46565703490835,34.94703968747219,0 32.46559692976868,34.94704598451735,0 32.46546810653748,34.94710772492344,0 32.46545415089561,34.94714341572345,0 32.46545612995695,34.94723065957452,0 32.46548013761928,34.9472956901578,0 32.46553666824692,34.94738778481242,0 32.46563147331013,34.94746199052749,0 32.46596798812021,34.94769246321938,0 32.4660789868001,34.94780059989959,0 32.46616246109005,34.94793539136423,0 32.46618931845577,34.94798702747453,0 32.46619382298892,34.94809891106068,0 32.46617925077234,34.94826605452704,0 32.46614204383865,34.94846714342234,0 32.46613232607075,34.94864605463864,0 32.46612491011247,34.94889090056772,0 32.46614619602311,34.94895593166394,0 32.46572832514632,34.94912421981518,0 32.46553689774035,34.94916093544333,0 32.46528563937468,34.94917038621217,0 32.46530189411555,34.94950165191361,0 32.46514490772099,34.9496594352542,0 32.46504710701017,34.94960281895064,0 32.4648252585699,34.94936857897293,0 32.46474121857525,34.94922577499744,0 32.46453870960171,34.94896707488925,0 32.46440861052528,34.94885878409972,0 32.46425387010767,34.94875927521777,0 32.46402994588012,34.94864903955708,0 32.46387146052233,34.94835487862127,0 32.46377937846168,34.94827147103295,0 32.46372323905069,34.94804150390082,0 32.46369099596605,34.94798312066862,0 32.46353914601845,34.94786799027189,0 32.46339772392489,34.94780885521722,0 32.46323162155996,34.94776297182064,0 32.46325958714382,34.94768711272157,0 32.46322188839405,34.94762869624282,0 32.46307437657063,34.94748764060411,0 32.46235598588306,34.94724112239913,0 32.46221436451932,34.94720659571446,0 32.46202635025754,34.94717174893117,0 32.46173234104408,34.94708696668482,0 32.46160185805822,34.94708312978334,0 32.46146335811483,34.94700613203563,0 32.461322271105,34.94691346225141,0 32.46126139346232,34.94686510590989,0 32.46098766970521,34.94671477928514,0 32.46062132138579,34.94633448012912,0 32.46050285726002,34.94638221079366,0 32.46051632987068,34.94666289956453,0 32.46038665161828,34.94685899584812,0 32.46039446115726,34.94690034181196,0 32.46048598495978,34.94703963314322,0 32.46050455904792,34.94709791054344,0 32.46049869393543,34.94714260043686,0 32.46047649117025,34.94718401591594,0 32.46040753071492,34.94726405425516,0 32.46047799857934,34.94731821911103,0 32.46059231598167,34.94735255987018,0 32.46058604515206,34.94744198103157,0 32.4605297119936,34.94763394468075,0 32.46035752779925,34.94765959243852,0 32.46016752476316,34.94766706742336,0 32.46006701502396,34.94761492776629,0 32.45986261566224,34.94758219796441,0 32.45969607755987,34.94758775375803,0 32.4595161399227,34.9475663774145,0 32.45939599833376,34.94757225460785,0 32.45871272139618,34.94778118928462,0 32.45868367635376,34.94767586302188,0 32.45809472799727,34.94783307448527,0 32.45806205288205,34.94789968981465,0 32.45798717530871,34.9480266644327,0 32.457896110866,34.94813339835272,0 32.45775758978871,34.94826155899585,0 32.45761466621972,34.94836793499137,0 32.45757607992706,34.94840793184675,0 32.4575231535169,34.94852164601448,0 32.45737233227822,34.94859665393066,0 32.45738819786703,34.94895123049862,0 32.4573846862863,34.9492477329388,0 32.45737324223416,34.94930358437685,0 32.45732077383018,34.94936809999216,0 32.45726576248757,34.94941246195743,0 32.45719452398294,34.94944104952305,0 32.45712754093194,34.94945800789611,0 32.45707725058296,34.94937893127957,0 32.45703212445324,34.94918960592536,0 32.45699906168756,34.94896513216017,0 32.45683230784496,34.94882302207719,0 32.45662126329387,34.94864234553626,0 32.45655257625033,34.9484656922422,0 32.45651503975662,34.9483020749225,0 32.45631111041494,34.94796114697822,0 32.4560322951337,34.9476869725702,0 32.45580252249549,34.94752884452599,0 32.45565249230721,34.94727800792983,0 32.45544667968984,34.94713887316755,0 32.45536984138638,34.94700064179878,0 32.45535587098635,34.9469437138682,0 32.45533599155493,34.9468627113096,0 32.45544308710375,34.94682406434183,0 32.4558794078246,34.94666660940182,0 32.45611592039424,34.94661162448321,0 32.45660505003219,34.94590010815689,0 32.45673645331899,34.94586865935303,0 32.45690042947405,34.94585632917094,0 32.45725391244076,34.94589659716507,0 32.45744412766379,34.94588175313154,0 32.4574513139897,34.9455067792119,0 32.4580584601042,34.94510366372008,0 32.45835025054125,34.94508953458551,0 32.45866293271519,34.94495683823044,0 32.4590073764029,34.94460582642098,0 32.45922666584492,34.94431598503002,0 32.45937920933982,34.94382602157064,0 32.45938403213376,34.94367766438535,0 32.45926792589611,34.94349877684181,0 32.45905411030655,34.94326254281283,0 32.4589977664779,34.94300853243732,0 32.45892661056849,34.94291899542544,0 32.45856809510072,34.94273300305848,0 32.45864990355269,34.94242870392919,0 32.4580593497183,34.94218441474344,0 32.45771923479874,34.9421199596463,0 32.45744000091469,34.94218813681399,0 32.45668284149328,34.94220976819459,0 32.45616218040738,34.94217640968085,0 32.45588336675945,34.94220411577938,0 32.45561307608725,34.94204302042529,0 32.45491698023695,34.9418654197101,0 32.45463381252294,34.94168264738887,0 32.45457805624667,34.9416876487578,0 32.45441516008928,34.94159746011307,0 32.45434583975183,34.94133256321939,0 32.45368884456545,34.94117681572796,0 32.4535064605642,34.94107030000124,0 32.45307695970778,34.94109423253641,0 32.45295982478672,34.94101515877485,0 32.45277894038914,34.94076565695054,0 32.45263564006206,34.94061920716688,0 32.45251309446764,34.94049396747581,0 32.45204702276553,34.93994295926088,0 32.45191921711437,34.93963177951447,0 32.45170571193466,34.93968152472642,0 32.45107039066566,34.93996029887523,0 32.45032115337738,34.94016541285992,0 32.44990105829578,34.94022987225053,0 32.44959409347027,34.94013055584141,0 32.4493911233893,34.9401129219019,0 32.44921750081367,34.94010898618959,0 32.44908556305931,34.94019168388476,0 32.44854970352358,34.9400475661626,0 32.44819977554147,34.93998301468204,0 32.44814774962694,34.93994487084237,0 32.44811469192415,34.93966134228797,0 32.44814249358795,34.93951045236795,0 32.44833634117462,34.93946057368233,0 32.44852830412787,34.93927847808797,0 32.44849473087871,34.93904351050291,0 32.44867435343367,34.9387884804183,0 32.44864838339067,34.93845374093741,0 32.44877780806171,34.93829817929451,0 32.44864298188461,34.93803281059677,0 32.4482895048666,34.93799521565897,0 32.44825061361284,34.93795446689888,0 32.44825847202281,34.93783041453284,0 32.44896715632307,34.93711779666776,0 32.4493408003301,34.93710697005617,0 32.44928259150571,34.93703370897491,0 32.44887306649487,34.93671781955819,0 32.44878636351618,34.93654992378682,0 32.4484770915298,34.93604858376963,0 32.44849110412802,34.93596234694013,0 32.44869591944957,34.93611489679329,0 32.44889358773797,34.9363240547972,0 32.44906822612717,34.93623086901226,0 32.44920449715629,34.93635864794268,0 32.44955753852614,34.93643670851203,0 32.44956793732712,34.93638282168186,0 32.44955633244371,34.93623974391019,0 32.44974501237547,34.93605762235949,0 32.44984576376606,34.93582361307452,0 32.4498689922276,34.9354838276334,0 32.44947141497133,34.93527864398158,0 32.4493825036166,34.93532117944777,0 32.44935415015345,34.93521305593404,0 32.44935461689199,34.93485692104819,0 32.44962058678981,34.93480215775627,0 32.44978039688881,34.93456047446264,0 32.44979613616281,34.93430967060682,0 32.44908504015546,34.93400782015372,0 32.44927866104748,34.93366655280322,0 32.44959467674612,34.93352580874775,0 32.44981060295815,34.93324405437995,0 32.45000839024669,34.93312944869756,0 32.45019832206719,34.93313889530755,0 32.45040221159361,34.93306750019138,0 32.45057282627947,34.93304443191911,0 32.45066877164805,34.9329560800485,0 32.45042297188315,34.93282716188855,0 32.4499274901199,34.93272147222015,0 32.4495445615843,34.93230604665329,0</coordinates>
						</LinearRing>
					</outerBoundaryIs>
				</Polygon>
			</MultiGeometry>
		</Placemark>
	</Document>
</kml>