<?xml version='1.0' encoding='UTF-8'?>
<kml xmlns="http://www.opengis.net/kml/2.2">
	<Document>
		<name>MITSERO</name>
		<Style id="PolyStyle70">
			<LabelStyle>
				<color>00000000</color>
				<scale>0.000000</scale>
			</LabelStyle>
			<LineStyle>
				<color>ff0055ff</color>
				<width>2.000000</width>
			</LineStyle>
			<PolyStyle>
				<color>00828282</color>
				<outline>1</outline>
			</PolyStyle>
		</Style>
		<Placemark id="ID_70331">
			<name>MITSERO</name>
			<snippet />
			<description>&lt;html xmlns:fo="http://www.w3.org/1999/XSL/Format" xmlns:msxsl="urn:schemas-microsoft-com:xslt"&gt;

&lt;head&gt;

&lt;META http-equiv="Content-Type" content="text/html"&gt;

&lt;meta http-equiv="content-type" content="text/html; charset=UTF-8"&gt;

&lt;/head&gt;

&lt;body style="margin:0px 0px 0px 0px;overflow:auto;background:#FFFFFF;"&gt;

&lt;table style="font-family:Arial,Verdana,Times;font-size:12px;text-align:left;width:100%;border-collapse:collapse;padding:3px 3px 3px 3px"&gt;

&lt;tr style="text-align:center;font-weight:bold;background:#9CBCE2"&gt;

&lt;td&gt;1&lt;/td&gt;

&lt;/tr&gt;

&lt;tr&gt;

&lt;td&gt;

&lt;table style="font-family:Arial,Verdana,Times;font-size:12px;text-align:left;width:100%;border-spacing:0px; padding:3px 3px 3px 3px"&gt;

&lt;tr&gt;

&lt;td&gt;DIST_CODE&lt;/td&gt;

&lt;td&gt;1&lt;/td&gt;

&lt;/tr&gt;

&lt;tr bgcolor="#D4E4F3"&gt;

&lt;td&gt;VIL_CODE&lt;/td&gt;

&lt;td&gt;213&lt;/td&gt;

&lt;/tr&gt;

&lt;tr&gt;

&lt;td&gt;VIL_CCD&lt;/td&gt;

&lt;td&gt;1213&lt;/td&gt;

&lt;/tr&gt;

&lt;tr bgcolor="#D4E4F3"&gt;

&lt;td&gt;VIL_NM_E&lt;/td&gt;

&lt;td&gt;MITSERO&lt;/td&gt;

&lt;/tr&gt;

&lt;tr&gt;

&lt;td&gt;VIL_NM_G&lt;/td&gt;

&lt;td&gt;ΜΙΤΣΕΡΟ&lt;/td&gt;

&lt;/tr&gt;

&lt;/table&gt;

&lt;/td&gt;

&lt;/tr&gt;

&lt;/table&gt;

&lt;/body&gt;&lt;script type="text/javascript"&gt;

				function changeImage(attElement, nameElement) {

				document.getElementById('imageAttachment').src = attElement;

				document.getElementById('imageName').innerHTML = nameElement;}

			&lt;/script&gt;&lt;/html&gt;

</description>
			<styleUrl>#PolyStyle70</styleUrl>
			<MultiGeometry>
				<Polygon>
					<extrude>0</extrude>
					<altitudeMode>clampToGround</altitudeMode>
					<outerBoundaryIs>
						<LinearRing>
							<coordinates> 33.13853369921694,35.01484792463039,0 33.13911296616337,35.01505112565474,0 33.1394695400523,35.01488874031398,0 33.1396280240679,35.01481972169064,0 33.13975182701626,35.01478725411123,0 33.13989048724827,35.01476697367505,0 33.14001924384311,35.01476294097132,0 33.14023221100705,35.01469392990776,0 33.14083438850786,35.01457435547774,0 33.14089802684828,35.01518393060132,0 33.14134400578789,35.01510565246265,0 33.14142893441662,35.01549757327314,0 33.14157760373764,35.01575019461286,0 33.14160945051408,35.01591568879101,0 33.14146274801178,35.01665975516707,0 33.14135136406974,35.0166420349245,0 33.14134417885796,35.01666266608466,0 33.14144837698289,35.01672163668725,0 33.14162085062221,35.01679242095023,0 33.14223890582853,35.01688398336629,0 33.14232155908108,35.01699307152712,0 33.14230719920776,35.01722297145442,0 33.14220657768526,35.01736737680559,0 33.14215627064835,35.01738798911745,0 33.14202330020613,35.0173849943054,0 33.14099450822415,35.01782468630663,0 33.14136950773055,35.01847687505887,0 33.14155188848208,35.0184797733062,0 33.14161382589327,35.01845439987601,0 33.14168952954313,35.018375384609,0 33.14179621226403,35.0182879237177,0 33.14194074136331,35.01825128675666,0 33.14203709909983,35.01825979164792,0 33.14186159776585,35.01862105251224,0 33.14211281192579,35.01864939237071,0 33.14228832693244,35.01844338254562,0 33.14249825809505,35.01859309900854,0 33.14266690703841,35.01868915136809,0 33.14244773871921,35.01908748857151,0 33.14180493355067,35.01909295935847,0 33.14160121549272,35.01925422943435,0 33.14156959359186,35.01926574055218,0 33.14155905560524,35.01929167239586,0 33.14121833544166,35.01964594952711,0 33.1413377517887,35.01970941230832,0 33.141601209524,35.01943001077006,0 33.14178034064824,35.01934364261982,0 33.14186464860045,35.0191909627301,0 33.14221942470294,35.01927469277646,0 33.14234939336114,35.01929204246466,0 33.14225806797037,35.01952254545478,0 33.14295367166882,35.01975631927189,0 33.14328396155148,35.01983327649185,0 33.14352611571965,35.02005342191898,0 33.14368058590624,35.02031010624854,0 33.14356976502808,35.0205536786701,0 33.14366487477334,35.02097280129173,0 33.14361738332634,35.02115145662362,0 33.14358570846882,35.02117743347603,0 33.14361345644491,35.02133339295402,0 33.14358969974567,35.02136261547869,0 33.14368467277262,35.02147248400387,0 33.14367628177295,35.02159675071049,0 33.14384461184314,35.02168661077512,0 33.14402983635613,35.02204232190235,0 33.1442360319707,35.02203209465969,0 33.14424361717044,35.02227118289061,0 33.14426421095946,35.02273137758642,0 33.14426339061154,35.02297676951948,0 33.14417484606785,35.02299475718037,0 33.14416339090287,35.02311288072108,0 33.14437363199759,35.02308606675001,0 33.14418484369448,35.02331286671266,0 33.14402933646482,35.02351246158184,0 33.14386271705678,35.02373019884909,0 33.1437405207387,35.02389349859173,0 33.14361881153322,35.02391140342858,0 33.14348541464963,35.02412010373849,0 33.14339592771614,35.02442884067261,0 33.14338462965658,35.02450150334164,0 33.14322954771285,35.02458292725182,0 33.1432400377253,35.02475558072189,0 33.14328271465534,35.02522811776495,0 33.14332533060603,35.02571879777334,0 33.14317046852678,35.02573660338949,0 33.14321418982252,35.02589114047954,0 33.14322515734993,35.02591841902602,0 33.14322491918607,35.0259910911453,0 33.14313562668109,35.02624523016792,0 33.14320140079057,35.02641797702774,0 33.14313488174061,35.02647231937094,0 33.14317869061635,35.0265995919077,0 33.14313413678566,35.02669940135413,0 33.14305480581864,35.02728959257171,0 33.14329786376763,35.02734468383697,0 33.14328725486759,35.02720841833009,0 33.14368517873739,35.02724572198161,0 33.14412832276889,35.02699247083518,0 33.14415025544074,35.02704702414791,0 33.14423641175114,35.02773754790387,0 33.1442901201824,35.02820996577285,0 33.14430105501623,35.02824632067651,0 33.14389155021811,35.02836335638248,0 33.14376938520314,35.02852651447731,0 33.14380243452236,35.02856292345002,0 33.14380210208183,35.02866281771715,0 33.14384611628228,35.02872649794879,0 33.14422125498174,35.02896356679092,0 33.14430837255185,35.02936335237594,0 33.14438558775424,35.02941803638249,0 33.14444686760176,35.02946258748578,0 33.14440733541063,35.02952706101524,0 33.14424087843494,35.0297082358025,0 33.14422973070891,35.02973544677604,0 33.14415166962426,35.02993500452244,0 33.14405137812905,35.03017081226921,0 33.14395102911124,35.03042476833296,0 33.14392804176513,35.03068799835503,0 33.14390553939455,35.03080596175194,0 33.143893940744,35.03096934570881,0 33.14390414967801,35.03122356718282,0 33.14389209808007,35.03152310791155,0 33.14385814934367,35.03175903326625,0 33.14385799763341,35.03180442006092,0 33.1437909776828,35.03201301289836,0 33.14373531439613,35.03213085958107,0 33.14366862982626,35.03223959599011,0 33.14363531762113,35.03228488592095,0 33.14361308899819,35.03232113047486,0 33.14354661631271,35.0323663271113,0 33.14348011448212,35.03242059926477,0 33.14341367290915,35.0324567175676,0 33.14331392426751,35.0325381229647,0 33.14325850912029,35.03258334694669,0 33.14319186249598,35.03268299400185,0 33.14311407484337,35.03280983564367,0 33.14304749047578,35.03289132699859,0 33.14279263305463,35.03309025733741,0 33.1427704687075,35.03310834431075,0 33.14258208505065,35.03326207709328,0 33.14250448740423,35.03333445238326,0 33.14244908331029,35.03337966516082,0 33.14240467219356,35.03344305841544,0 33.1423157924402,35.03358799056836,0 33.14213842064083,35.03375988240619,0 33.14195000755019,35.03393173281186,0 33.14163979304909,35.0341848729645,0 33.1416281917573,35.03435722577171,0 33.14128531856352,35.0344650803742,0 33.14126313513557,35.03449223088911,0 33.14120771775787,35.03454650059641,0 33.14115221449278,35.03462798610959,0 33.14110770403289,35.03472764680445,0 33.14106322280582,35.03481823283298,0 33.14101897189774,35.0348362432948,0 33.14073123778483,35.03498959640903,0 33.14045462402155,35.03512482910594,0 33.14020023264374,35.03522383890182,0 33.13990158274759,35.03534991931829,0 33.13960289372231,35.03549413114366,0 33.13908290864045,35.0357736975738,0 33.13921480488926,35.03598270232304,0 33.13931381668198,35.03610998031814,0 33.13941282987659,35.03623725732638,0 33.13960009060181,35.03640108636854,0 33.1399124069021,35.0367699895468,0 33.14002571030419,35.03690382182625,0 33.14020085490885,35.03709808868275,0 33.14029647276508,35.03729055787441,0 33.1408140386422,35.0378253603788,0 33.14088281750771,35.03805206285959,0 33.1410578983044,35.03826079902884,0 33.14133453071889,35.03863051151076,0 33.1415797172743,35.03884225620018,0 33.14185011936841,35.0390131545542,0 33.14200456249619,35.03916933263959,0 33.1421437517495,35.03938994936386,0 33.1422050605555,35.03955198641565,0 33.1424019175729,35.03973515960398,0 33.14228879041563,35.03983077174757,0 33.14238471045031,35.03996657911561,0 33.14274697122821,35.04032601160522,0 33.14296492492843,35.04057307970011,0 33.14336420457969,35.04072458006887,0 33.14342295953169,35.04075728179475,0 33.14344881985953,35.04079212720343,0 33.14344647653569,35.04081908516605,0 33.14344544066818,35.04112190795146,0 33.14345320311884,35.04116160726882,0 33.14327837416505,35.04120902666182,0 33.14308299454662,35.04121507047864,0 33.14290285284353,35.04119643135552,0 33.14264390422842,35.04112423746876,0 33.14177292977192,35.0409477360169,0 33.14132959438464,35.04062346670307,0 33.14088199457869,35.04056864808371,0 33.14042827214484,35.04047811608734,0 33.14015545409059,35.04039028425608,0 33.13998647129927,35.04041149686187,0 33.14055082416866,35.04064001905385,0 33.14063671237352,35.04092605581467,0 33.14065113553255,35.04141496172693,0 33.14067565206388,35.04165688009199,0 33.13993508559089,35.04203032163544,0 33.1400239218283,35.04222790074198,0 33.14003498636581,35.04238073829654,0 33.14016924416494,35.04247400111679,0 33.14020262596878,35.04266866222674,0 33.14021138913672,35.0428644560127,0 33.14016597345439,35.04306499707495,0 33.14017480843451,35.04327783212577,0 33.14024090111495,35.04355818140872,0 33.14028136175106,35.04382069232075,0 33.14038376224951,35.04448202366256,0 33.14046988865243,35.04498713950069,0 33.14066296827936,35.04635923900258,0 33.14056584589432,35.04651477533564,0 33.14008126627495,35.0470997165501,0 33.14016985829326,35.04729461934322,0 33.14002277849785,35.04759994781006,0 33.13994545872863,35.04781621827379,0 33.13968759070473,35.0479227252515,0 33.13956549009393,35.04803743805194,0 33.1392832367689,35.04860454912551,0 33.13935764855916,35.04900060165241,0 33.13943388422818,35.04902463785955,0 33.13912810418148,35.04909516172432,0 33.13906251192717,35.04912472867626,0 33.1390208707304,35.04945795287473,0 33.13884415813416,35.05019524073269,0 33.13880968528683,35.05040847764526,0 33.13881553523873,35.05057807485706,0 33.13884865663307,35.05063561333009,0 33.13901861455283,35.05092693418729,0 33.13928102258742,35.05127391681123,0 33.1394311653175,35.05125157483857,0 33.13950733644109,35.05122931776233,0 33.13977153725784,35.05121451884564,0 33.13994477264659,35.05121847919307,0 33.13998231741307,35.05127495127607,0 33.14002311964284,35.05133632330929,0 33.14011127821908,35.05140895616523,0 33.14015504548726,35.05150866930914,0 33.14020670724208,35.05225156579522,0 33.14023856886305,35.05252344841816,0 33.14023839075404,35.05255969198985,0 33.14029333098249,35.0526413628611,0 33.1402150468002,35.05280430737496,0 33.14026878540905,35.05313068701972,0 33.1405345517687,35.05311313980719,0 33.14060097260626,35.05311328459689,0 33.14062315617929,35.05310426993311,0 33.14091033818444,35.05324085778365,0 33.14097607440236,35.05338603609987,0 33.14118570979846,35.05354060835021,0 33.14190498221696,35.05364192337802,0 33.14190441788486,35.05376625316961,0 33.14190411781808,35.0538323284414,0 33.14184862548382,35.05385940706469,0 33.14177102555158,35.05387736930701,0 33.1414718267725,35.05392203955328,0 33.14122799831291,35.05396683391471,0 33.14089628278305,35.05386635352592,0 33.14071899144219,35.05389315927558,0 33.14025419052575,35.05384678676644,0 33.14031879563505,35.05421868624789,0 33.14032156660043,35.05424994155119,0 33.14037269413693,35.05429882585194,0 33.1403956405744,35.05435488468984,0 33.14049538589423,35.05433697340279,0 33.14051691598233,35.05446398635112,0 33.14040604847404,35.0544909409441,0 33.14042784159204,35.0545635439503,0 33.13993961857508,35.05476195965391,0 33.13993916490152,35.05485265915085,0 33.13990489984761,35.05506120678869,0 33.13983777210706,35.05519712170516,0 33.13982610539038,35.05531502902645,0 33.13980272377059,35.05555993452367,0 33.13974588444569,35.05585015772078,0 33.13968940348889,35.05606781535216,0 33.13961057908558,35.05632174291019,0 33.13955394762212,35.05656667305875,0 33.13952020622456,35.05666644032697,0 33.13947538607511,35.05676618426539,0 33.13937545145222,35.05681133039183,0 33.13939658450307,35.05701110465532,0 33.13939584036214,35.05715636732071,0 33.13936153276765,35.05736511759662,0 33.13911661199026,35.05759152136378,0 33.1391160458806,35.05770049360073,0 33.13943699975787,35.05777395129626,0 33.13939118871168,35.05806447434016,0 33.13930151159564,35.05826408108926,0 33.13926775178037,35.05836391949371,0 33.13914533431595,35.05846353510071,0 33.13894467514898,35.0586901419073,0 33.13887722875101,35.05887168097111,0 33.13852017274137,35.05932509068792,0 33.13820616776038,35.06000592948557,0 33.13802812390737,35.06013271835861,0 33.13762626822994,35.06064075899918,0 33.13736891841609,35.06106743678164,0 33.13707790388742,35.0615577578948,0 33.13701328125012,35.06169506818564,0 33.13698812255525,35.06174852724859,0 33.13687647029041,35.06188466553611,0 33.13695387618581,35.06192127128874,0 33.137219731325,35.06196750564694,0 33.13746281396238,35.06212285572762,0 33.13768374526521,35.06227815654409,0 33.13811477884813,35.06255237273717,0 33.13836919663058,35.06268050869481,0 33.13871218563862,35.0628453162044,0 33.13906631259303,35.06301017397038,0 33.13937652404082,35.06309299175376,0 33.1395427571676,35.06312988316283,0 33.13974205340887,35.06321239036278,0 33.14016242798874,35.06346853627491,0 33.14041592069191,35.06382441485201,0 33.14045978179185,35.06393382952228,0 33.14049263410244,35.0640250023179,0 33.14019064532462,35.0644977729295,0 33.14003417242256,35.06471594977327,0 33.14002257528133,35.06481613317877,0 33.1401110582268,35.06488017317015,0 33.14042164864522,35.0649266570787,0 33.14074327265028,35.06499139912112,0 33.1410759784001,35.06506529032974,0 33.141208863203,35.0651385895095,0 33.14128624166273,35.06521172514835,0 33.14120818019994,35.06528439817509,0 33.1412622896318,35.06558532654518,0 33.14127292390442,35.06568562298037,0 33.1412445905308,35.06578168035765,0 33.1412230259895,35.06585478787464,0 33.14121127883029,35.06592376718562,0 33.14119519370087,35.06657044371434,0 33.14122288291648,35.06660880734557,0 33.14127765212296,35.06662270291422,0 33.14205983535081,35.06661446445768,0 33.14232514983359,35.06657250616495,0 33.14285010764322,35.06641564733087,0 33.14310537143336,35.06636157961309,0 33.1433315055586,35.06637658262186,0 33.14362279009299,35.06645204275687,0 33.14383516093254,35.06658467893551,0 33.14398580097951,35.0667541297938,0 33.14404024319692,35.0669909828145,0 33.14404284920446,35.06726054218753,0 33.14404376976523,35.06735579924277,0 33.143944231579,35.06759144595758,0 33.1437971388567,35.06778883694303,0 33.14357238065071,35.0679157044962,0 33.14290279296849,35.06801050127712,0 33.14261065591526,35.06810327188908,0 33.1424674138524,35.06818511039604,0 33.14215256418758,35.06849689139555,0 33.1417720045421,35.06894683643273,0 33.14157722508347,35.06909177559402,0 33.14147117495495,35.06916733079184,0 33.14121402157581,35.0692822005247,0 33.14050908087516,35.06957172765868,0 33.14010378274106,35.06977453029366,0 33.13991393404741,35.06991538216378,0 33.13984765500747,35.06999477425638,0 33.13989146147872,35.0701586977477,0 33.14001914556795,35.0702654268859,0 33.14045363497334,35.07051238053287,0 33.14052700345552,35.07065182312493,0 33.1404611560428,35.07077579730465,0 33.14024452374596,35.07097150303705,0 33.14006918242834,35.07107173945059,0 33.13932763502478,35.07142628413878,0 33.13882035863686,35.0716113731254,0 33.1388488734777,35.07173483724699,0 33.13898658280154,35.07210697713118,0 33.13917274951631,35.07261057067461,0 33.13923746348509,35.07288176592085,0 33.1392487531916,35.07302152746915,0 33.13919542307319,35.07315555356292,0 33.13881642388527,35.07350813428629,0 33.13870739828771,35.07378834975881,0 33.13870920821108,35.07397476235055,0 33.13871150955494,35.07421182855077,0 33.13871160893397,35.07422195945261,0 33.13868498391117,35.07429302148764,0 33.13842365931674,35.07474424618655,0 33.13846623861814,35.07529312926636,0 33.13864081777411,35.07562652402858,0 33.13901395873472,35.07620604803559,0 33.13951006497751,35.07691862533698,0 33.1398490523225,35.07730582382831,0 33.14045177559652,35.07825889078385,0 33.1408249815325,35.07884645399433,0 33.1410626463667,35.07928480920506,0 33.14113804113833,35.0793775979124,0 33.14142846609438,35.07962320443087,0 33.14169384433766,35.07984665748174,0 33.14190656777809,35.08001771821473,0 33.14248206539123,35.08021317157275,0 33.14270475483475,35.08028855469959,0 33.14300615331972,35.08043801216513,0 33.14328715754313,35.08062611680732,0 33.14365845726029,35.08088229239176,0 33.14469431147942,35.08172273192526,0 33.14573755651524,35.08258379147743,0 33.1464264337728,35.08381459697648,0 33.14613843989352,35.08395215678652,0 33.14581336904322,35.08360120371682,0 33.14569699374595,35.08359344358853,0 33.14556410367135,35.08354495111924,0 33.14529359225374,35.08367870380562,0 33.14491123667607,35.08334519258251,0 33.144585583637,35.08326962807452,0 33.144375539846,35.08323824857403,0 33.14414686748908,35.08326935258042,0 33.14354919446382,35.08292875435203,0 33.14343251075332,35.08305863032946,0 33.14318855621303,35.08299235995369,0 33.14294822977357,35.08287150144231,0 33.14258493631542,35.08342281970975,0 33.14201308515971,35.08387597291706,0 33.14171409625975,35.08407603558516,0 33.14145461537443,35.08392653153365,0 33.14145830352665,35.08327493423454,0 33.14151820122057,35.08289738431107,0 33.14138766331191,35.08262434659273,0 33.14127579252441,35.08216949413341,0 33.14106513981675,35.08205720851279,0 33.13984846965624,35.08244836958615,0 33.13988667449064,35.08251568374858,0 33.13948739799189,35.08266367280427,0 33.13936256739199,35.08259510867657,0 33.13882524491172,35.08283414466695,0 33.13861569615627,35.08302733850938,0 33.13838686582147,35.08296130890135,0 33.13774494347099,35.08229867138893,0 33.13756086174268,35.08245984418599,0 33.13719155223903,35.08201967705705,0 33.13687164127139,35.08158634434358,0 33.135614489846,35.0822982411207,0 33.13582018212561,35.08251354825254,0 33.13544253904539,35.08258896922332,0 33.13485932836032,35.08325592338922,0 33.13458115177757,35.08307796591211,0 33.13379727477555,35.08376215616045,0 33.13368540599502,35.08390409460324,0 33.13346459240201,35.08382199808935,0 33.13390776102339,35.08310860945284,0 33.13304190449467,35.08266536770667,0 33.13248906057952,35.08221056998892,0 33.13190197118563,35.08174280855555,0 33.13039470079786,35.08083238397678,0 33.13122640493659,35.08027168639091,0 33.13173078620868,35.07994626590396,0 33.13171906572188,35.07983813854001,0 33.1321898419809,35.07949572668504,0 33.1324952529324,35.07943307766594,0 33.13252723512673,35.07942446665567,0 33.13273212229574,35.07878311897132,0 33.13265094287609,35.07861339733331,0 33.13272191591314,35.0782665793799,0 33.13249809913777,35.07815629703254,0 33.13227228001059,35.07806936492027,0 33.13242982180779,35.07792978186326,0 33.13224355949988,35.07783134950134,0 33.13226697684173,35.07762408399911,0 33.13206608926534,35.07746460901441,0 33.13195342546943,35.0775921737935,0 33.13154076805608,35.07796236383051,0 33.13090395132789,35.07833158670059,0 33.13023011186658,35.07862137266996,0 33.12980381007948,35.07871095624122,0 33.12865875250586,35.07889438579945,0 33.12826311490308,35.0790038382809,0 33.12805195253036,35.0790084395931,0 33.12783464818881,35.07889619831988,0 33.12771989242341,35.07871768209819,0 33.12770048369661,35.07853961166332,0 33.12779830857196,35.07810627385088,0 33.1278271690128,35.0778228140102,0 33.12779360131151,35.07773925840264,0 33.12752169286198,35.07766018035991,0 33.12709237660297,35.07771938528049,0 33.12667623990577,35.07785093335822,0 33.12593812117086,35.07829799026038,0 33.12570417279645,35.07869179733596,0 33.12518793893885,35.07956837649187,0 33.12512625572256,35.07962929650811,0 33.12504486774613,35.07957328536628,0 33.1245731663091,35.07877005428517,0 33.12443901974568,35.07844685151321,0 33.12459172818924,35.07799154201442,0 33.12425799337833,35.07730353357531,0 33.12421824389886,35.07688776378365,0 33.12405837371404,35.07588595671182,0 33.12398512653403,35.07549018105999,0 33.12370834120182,35.0745437144094,0 33.12361907811376,35.0741084069432,0 33.12363300732375,35.07399036219574,0 33.12366026757459,35.07384554080241,0 33.12362374697804,35.07339448313927,0 33.12356299080977,35.07317558018443,0 33.12356940810096,35.07301753461064,0 33.12364056814263,35.07283345144019,0 33.12363670850993,35.07260074388705,0 33.1235951844593,35.07236788451194,0 33.12351073756946,35.07211729109153,0 33.12335123882874,35.07182687725099,0 33.12350947512818,35.07148967022337,0 33.12348476761353,35.07115605851912,0 33.12345119628341,35.07079519246233,0 33.12328685026852,35.07013400811219,0 33.12317517146401,35.06967679130214,0 33.12311609279235,35.06942894088017,0 33.12311080873481,35.06920886257474,0 33.12332306411783,35.06873677315082,0 33.1232412327611,35.06794448810319,0 33.12326563253699,35.06759632785716,0 33.12320881828155,35.06727785896184,0 33.12301288697882,35.06683873945451,0 33.12313190985577,35.06665920688203,0 33.12303119112598,35.06578588422162,0 33.12302252174661,35.06575417393383,0 33.12301043003259,35.06573010753102,0 33.12281868999618,35.06534847575784,0 33.12217380310755,35.0644048288728,0 33.12173333120636,35.06420405272618,0 33.12151271577561,35.06391953226159,0 33.12112296261737,35.0637255736682,0 33.12104650198499,35.06358671445279,0 33.12086830023584,35.06337155963266,0 33.12053705268238,35.06283691840567,0 33.11990951643447,35.0623651558228,0 33.1199311041938,35.06230829195814,0 33.11999167097512,35.06213945594446,0 33.12021199087312,35.06190165463892,0 33.12020078617218,35.06171289255229,0 33.12018045642589,35.06137039901608,0 33.11997438663494,35.06113311804869,0 33.11996644080421,35.06097059568356,0 33.1199809804733,35.06063300014316,0 33.11986560317263,35.0600704596628,0 33.11967990486805,35.0592535495129,0 33.11950365851068,35.05890505635836,0 33.1195653945429,35.05863999377426,0 33.11951371161231,35.05829133810042,0 33.11916215813541,35.05806847012401,0 33.11874226943426,35.05768752671946,0 33.11874321567787,35.05687889809202,0 33.11871716192294,35.05664457269623,0 33.11858039279119,35.05642780522503,0 33.11857972172741,35.05611298799619,0 33.11854091448999,35.05589262986599,0 33.11829303833172,35.05552196129888,0 33.11831816383427,35.05531903095435,0 33.118225603449,35.05514739092497,0 33.11789680586187,35.05479793140107,0 33.11768707665105,35.0546490024328,0 33.11722599776001,35.05448871947159,0 33.11668051103144,35.05407618976014,0 33.11647783186215,35.05399027283161,0 33.11641444515392,35.05374948342575,0 33.116288221835,35.05351443857503,0 33.11602916394467,35.05321634471335,0 33.11594501973691,35.0530672717809,0 33.11586771137055,35.05285510731238,0 33.11585328266536,35.05265438577219,0 33.11572212765649,35.05267426014763,0 33.11546814329857,35.05286686778572,0 33.11541389390677,35.05313725241926,0 33.11527486174594,35.05341994716318,0 33.11512033555695,35.05347735025398,0 33.11501621778869,35.05375593443151,0 33.11487173269993,35.05384201084909,0 33.11480737451826,35.05405503841262,0 33.11456338982398,35.05426404319197,0 33.11453353999659,35.0543009204978,0 33.11443919909508,35.05449347787817,0 33.1142697960823,35.05459595676308,0 33.11410995569421,35.05452639685151,0 33.11386983180065,35.05446439569294,0 33.11325214880448,35.05437853678249,0 33.1129571216812,35.0542229519213,0 33.11267838987171,35.05413692455566,0 33.11194297686887,35.0538655083091,0 33.11178522197049,35.05374958700159,0 33.1114173089908,35.05356082386447,0 33.11117020258791,35.05325600658117,0 33.11130780106166,35.05307386938597,0 33.1112910747291,35.0528665618332,0 33.11119338151924,35.05265660982462,0 33.11105695110616,35.05249715647096,0 33.11089481278296,35.05241744621345,0 33.11044412813578,35.05223411104026,0 33.11034682114075,35.05218361912183,0 33.11039059280848,35.05193597823326,0 33.11020328885021,35.05174754806617,0 33.11000053902193,35.05161021597016,0 33.10959806106076,35.05145431549195,0 33.10953881957759,35.05143136746432,0 33.1093050098341,35.05133873930797,0 33.10913340948701,35.05122644707099,0 33.10907072053075,35.05122634840115,0 33.10881228035096,35.05094065368481,0 33.10864170840414,35.0508522068853,0 33.10852279183322,35.0508163574755,0 33.10829482801429,35.05066845156673,0 33.10817352966266,35.05065569921984,0 33.10812529038438,35.05063536381996,0 33.10805709288339,35.05060137704588,0 33.10747799263316,35.05018670459828,0 33.1073662404112,35.05007927585251,0 33.10721490029863,35.04996297325744,0 33.10712638436399,35.04989456515523,0 33.10686939774032,35.04954158655081,0 33.10674624061831,35.04911813926835,0 33.10632395839812,35.0488082195937,0 33.10622862731306,35.04867525707441,0 33.1061071600622,35.04870143965083,0 33.10602534978325,35.04871570583597,0 33.10594732831598,35.04873467677551,0 33.10587233540885,35.04873323776874,0 33.10567451285173,35.04874375943786,0 33.10564170186381,35.04875541092444,0 33.10561608655659,35.04877948942809,0 33.10550700655951,35.04893707236771,0 33.10548622217402,35.04896737816025,0 33.10541249027215,35.04901507779561,0 33.10535142100881,35.04905688732844,0 33.10472644268319,35.04887079745892,0 33.10440819049172,35.04871525584763,0 33.10428759363886,35.04864540574761,0 33.10387779948637,35.04836334591744,0 33.10307224081286,35.04843587254041,0 33.10247496193884,35.04867388561066,0 33.10228401093707,35.0482765537242,0 33.10240714880158,35.04820431368616,0 33.10268922303406,35.04809721098432,0 33.10289690935805,35.04807253622192,0 33.10306606749024,35.04809212563644,0 33.10315052797872,35.04820419235719,0 33.10368948259219,35.04801601035368,0 33.10397294775566,35.04776969982643,0 33.10422581075809,35.04764758919364,0 33.10416073086864,35.04736188037214,0 33.10387562448343,35.04728081216505,0 33.10402224511021,35.04711368487617,0 33.10437349406533,35.04646925332351,0 33.10417395900041,35.0462629255664,0 33.10400525363872,35.04602442819099,0 33.10412552299858,35.04591197827066,0 33.10392822896344,35.04561975268435,0 33.10420050566022,35.04542401181055,0 33.1041356412388,35.04522629397504,0 33.10407130475335,35.04520261566763,0 33.10360845363611,35.04552801725291,0 33.10336766231111,35.04547456465954,0 33.10332456908353,35.04550040183022,0 33.10294717134762,35.04532580913791,0 33.10236303701248,35.04573065637733,0 33.10216433226769,35.04579661585065,0 33.1021202359901,35.04586331213481,0 33.10168315937366,35.04559972880041,0 33.10203309333787,35.0454669469083,0 33.10220066707517,35.04544745597399,0 33.10226221538451,35.04538104422014,0 33.10218063722262,35.04525478603414,0 33.10231631425018,35.04501988041481,0 33.10217017327572,35.04498045011762,0 33.10198827745363,35.04487697129954,0 33.10196367174937,35.0447660595199,0 33.10178491837483,35.04463811228679,0 33.101579825,35.04437060270966,0 33.10148773182532,35.04446308263346,0 33.10142430477442,35.04440878539496,0 33.10134038877334,35.04437663241762,0 33.10132098488048,35.04425765113932,0 33.10102010769359,35.0442319401913,0 33.10089116655049,35.04410901613105,0 33.10090829706649,35.04402341827073,0 33.10072781023731,35.04396914855115,0 33.10054718350047,35.0438228580128,0 33.10026644597563,35.04369734749979,0 33.09992216889481,35.04303505904072,0 33.09969235829666,35.04355862851121,0 33.09943134148507,35.0434478308777,0 33.09914736336099,35.04326307271329,0 33.09896318561936,35.04326605173119,0 33.098915997635,35.04355954695497,0 33.09873232207742,35.04354410827887,0 33.09861148635866,35.04350319639143,0 33.09841368773799,35.04326072055737,0 33.09847965215189,35.04301049381641,0 33.09828777878724,35.04263122858413,0 33.0984877108174,35.04239344010237,0 33.09863866376761,35.04232443627553,0 33.098666183743,35.04212049888029,0 33.0985834382244,35.04194946104418,0 33.09839338803602,35.04199127719787,0 33.09823818234398,35.04193351277587,0 33.09811011540443,35.04178628989023,0 33.09789620615697,35.04179092199414,0 33.09750413450787,35.04186615752202,0 33.09739054836778,35.0418377160535,0 33.09709426222066,35.04186345110825,0 33.09698790808075,35.04184534458146,0 33.09652631784881,35.04203170834207,0 33.09644540107612,35.04159330870438,0 33.09609968077327,35.04112199535846,0 33.09597061935624,35.04112193434855,0 33.09612626052706,35.04035446974452,0 33.09607007963152,35.04011868070768,0 33.09608721962594,35.03992898458293,0 33.09613004062535,35.0397049473775,0 33.09622761746814,35.03947562947776,0 33.09617954809665,35.03911326449063,0 33.09619030126363,35.03868231954669,0 33.09614912863842,35.03824237626799,0 33.09614526201914,35.03799914143903,0 33.09604222937698,35.03765021137049,0 33.09609935917525,35.0369521085022,0 33.09599260404887,35.03675229543196,0 33.09572338193307,35.03679743588764,0 33.09569845756889,35.03669807555798,0 33.09570109010777,35.0366980806932,0 33.09577073400377,35.0366982006233,0 33.09577187744569,35.03664776515121,0 33.09561430606087,35.03663945841055,0 33.09541919080127,35.03621800421406,0 33.0955005345204,35.03621406861464,0 33.09536525316167,35.0359155806893,0 33.0953437643178,35.03575966053432,0 33.09508164452951,35.03563618385004,0 33.09495167027002,35.03551693910869,0 33.0947568785794,35.03529552987096,0 33.09447408555308,35.03551738668678,0 33.09420224531907,35.03525613415562,0 33.09317498619554,35.03443757392339,0 33.09297507983612,35.0345174788056,0 33.09286052907945,35.03434963420769,0 33.09285234204394,35.03416814084656,0 33.09256240300868,35.03405441352481,0 33.09237855724415,35.03429726795201,0 33.09226747651269,35.0343408857627,0 33.0920249221423,35.03421471574462,0 33.09212740520177,35.03397580517179,0 33.09213365371323,35.03390208929935,0 33.09190917930245,35.03381693536458,0 33.09203233074277,35.03370638170038,0 33.09186956068481,35.03361768245536,0 33.0915323444957,35.03361527628024,0 33.09142166537082,35.03367269289747,0 33.09133420481174,35.03375493875353,0 33.0909702768712,35.03379906182196,0 33.09093571234057,35.03367558201025,0 33.09034320270968,35.03359093387681,0 33.08998893223596,35.03358197555364,0 33.08996960671549,35.03368814141549,0 33.08988516798248,35.03368294599098,0 33.0898349150369,35.03359887776494,0 33.08978383208586,35.03358150549313,0 33.08981571503845,35.03323593953837,0 33.08988620474793,35.03314943639977,0 33.08996817879162,35.03316618177835,0 33.08996367958085,35.03310878702142,0 33.09004263668263,35.03311869459067,0 33.09034347733439,35.03312642695091,0 33.09035919081195,35.03289846076267,0 33.09021581257367,35.03280017714264,0 33.0901285461487,35.03241561569111,0 33.09009307229694,35.0319771169322,0 33.08985619116419,35.03194738515355,0 33.08990180933026,35.03149576010593,0 33.08970776102229,35.03129960803251,0 33.08977586744201,35.03103839107801,0 33.08961426579905,35.03051504241518,0 33.08936862165177,35.03047399066462,0 33.08936260715407,35.03036602984106,0 33.0887907873368,35.02993600376768,0 33.08890888637845,35.02974967064281,0 33.08914564537888,35.02930362956604,0 33.08689705183983,35.02932106153928,0 33.08653142331409,35.02217626047666,0 33.08651156783682,35.02208167374626,0 33.08642879468621,35.02200453022507,0 33.08650260119956,35.02183417873719,0 33.08647640700708,35.0215649653533,0 33.0868537869711,35.02107167075463,0 33.08682017408692,35.02089314603394,0 33.08686333640921,35.02062597075898,0 33.08692315910596,35.02047548015891,0 33.08706077152734,35.02019573165133,0 33.08734424567266,35.01974755505401,0 33.08734493160261,35.01963522712014,0 33.0872829930975,35.01955248032016,0 33.08721412730139,35.01886796437285,0 33.08714924949989,35.0186941928179,0 33.08688733575144,35.01841434302652,0 33.08680702479847,35.01830923034053,0 33.08652541638088,35.01783873973579,0 33.08652962612828,35.01771077133635,0 33.08648239729568,35.0174985238996,0 33.08644242373597,35.01721678581549,0 33.08668299232259,35.01699028982961,0 33.08675167571905,35.01679810739073,0 33.08708161760705,35.01670566794429,0 33.08746802100978,35.01644282657175,0 33.08754146086672,35.01633506773241,0 33.08798080930944,35.01604528618284,0 33.08839102772338,35.01585933689582,0 33.0886924717901,35.01561796589254,0 33.08917797951312,35.01560297911973,0 33.08948628080782,35.01565264520639,0 33.09003100899815,35.01596288706457,0 33.0904723008338,35.0157969752223,0 33.09090590797022,35.01576185172206,0 33.09111769625817,35.01571156285371,0 33.09119413472541,35.0156834485846,0 33.09160173088372,35.01566559091198,0 33.09185714627874,35.01586859897973,0 33.09237376142455,35.01586795180787,0 33.09274438665899,35.01593209224056,0 33.09306474589854,35.01603854423185,0 33.09367529118964,35.01598141007358,0 33.09397040905802,35.01590871817798,0 33.09408356608183,35.01592394843833,0 33.09505676252722,35.01611292216261,0 33.09516716283469,35.0162100823054,0 33.0955585215621,35.01628567752974,0 33.09591231310957,35.01656253894107,0 33.09634718203227,35.01691702069108,0 33.09673776370578,35.01713196221525,0 33.09698108840634,35.01733659794787,0 33.09693229479485,35.01738189657397,0 33.09713042653859,35.01791171026134,0 33.09717190601806,35.017934636353,0 33.09725533819513,35.01789517094902,0 33.09744707534996,35.01770827256031,0 33.0974821430067,35.01763732028422,0 33.09817650085407,35.01768820674818,0 33.09861665573059,35.01771849115715,0 33.09869994352634,35.01770462083832,0 33.09899608927137,35.01757420036975,0 33.09916370448534,35.01735876269279,0 33.0993746590411,35.01692621623505,0 33.09957314157398,35.01677063165967,0 33.09972929480913,35.01674568992723,0 33.09995735640985,35.0168831517356,0 33.10007971978892,35.01692081430288,0 33.10039884857794,35.01689086501661,0 33.10053109429531,35.01680041293147,0 33.10057034175514,35.01671378591945,0 33.10077334953385,35.01636483633538,0 33.10079518682855,35.01617723253165,0 33.10050492181495,35.0159009430275,0 33.10045348483687,35.01579834933399,0 33.10047522744242,35.01562781052946,0 33.10027677392185,35.01507101821498,0 33.10024342649844,35.0148319976742,0 33.10020995696645,35.01462295772284,0 33.09998379432263,35.0140459480002,0 33.10000413153672,35.01355572252712,0 33.10008824476537,35.01339113852469,0 33.1001177947515,35.01320495264257,0 33.10023594386413,35.01315426171922,0 33.10046538621637,35.01303863185927,0 33.10057704091144,35.01290828879699,0 33.10061214597839,35.01282881255382,0 33.10057564663033,35.01260258405628,0 33.10045550847903,35.0123859582656,0 33.10047020757706,35.01223530433774,0 33.10058972446483,35.01208423817253,0 33.10074239308239,35.01205928629446,0 33.10091590905287,35.01202589036581,0 33.10105869649801,35.01190705559763,0 33.1013362844946,35.01185987791604,0 33.10175028892441,35.01185991558682,0 33.10234553998111,35.01141027162561,0 33.1024678478674,35.01123163563801,0 33.10289755598487,35.01080459029373,0 33.10326456670384,35.00984992539109,0 33.1033752402148,35.00989588504731,0 33.10378848385484,35.0103952361306,0 33.10411838985672,35.01028571699629,0 33.10422048189585,35.01026302883101,0 33.10448143109452,35.0100849756842,0 33.10489048348056,35.01008099647023,0 33.10493543723501,35.0101010891643,0 33.10496672734232,35.01008415856978,0 33.1048813979117,35.00983925898294,0 33.10494938177278,35.00963060482091,0 33.10529056924926,35.00935621001264,0 33.10620568569237,35.00974200740056,0 33.10658311807984,35.00976772148546,0 33.10666439446856,35.00987683983042,0 33.1067768470644,35.01011170396581,0 33.10709450969353,35.01002222440879,0 33.10733203396256,35.01009983021628,0 33.10759773514707,35.0103868911624,0 33.10793604542955,35.01085658796883,0 33.10830095945308,35.0110336905878,0 33.1084900718672,35.01114625402644,0 33.10861743719961,35.01124573956388,0 33.10872673352898,35.0113534540425,0 33.10948509200039,35.01231063456964,0 33.10954586065613,35.01234069096407,0 33.10998410958678,35.01255744448455,0 33.11015743994759,35.01273331499086,0 33.11059476215208,35.01268374094802,0 33.11074218337527,35.01262017231812,0 33.11088927230922,35.01215632576298,0 33.11094796322636,35.01196185715008,0 33.11098087984483,35.01172754832171,0 33.11147628469148,35.01144685552153,0 33.11199630178827,35.01112919845569,0 33.11204946697391,35.01159645481531,0 33.11209526441059,35.01175763612547,0 33.11250879408416,35.01171062458329,0 33.11252722269636,35.01181936451087,0 33.11320078216293,35.01193919483266,0 33.11324202549388,35.01179767489847,0 33.1132645392993,35.01162082391774,0 33.11324108874472,35.01145824572431,0 33.11358166578498,35.01130768328012,0 33.1139098166717,35.01107700380208,0 33.11398854475746,35.0110084819315,0 33.11394662568003,35.01092065480952,0 33.11425829500575,35.01080368488477,0 33.11448492206973,35.01052485955305,0 33.11454921669581,35.01042898634054,0 33.11476524456933,35.01037270458164,0 33.11478996411092,35.01052490409257,0 33.11494466916604,35.01075707586492,0 33.11542460832125,35.0106634553747,0 33.11536451707115,35.01048755688044,0 33.11548629398477,35.01030850714557,0 33.11533912774948,35.01020238518444,0 33.11536170827218,35.01012417764923,0 33.11916613355232,35.01132469635122,0 33.1191801417138,35.01123738492801,0 33.11946936279205,35.01120548761229,0 33.11965995781285,35.01095910879011,0 33.11978584758709,35.01095426115184,0 33.12015281092258,35.01070937050331,0 33.1197424503314,35.01043073514597,0 33.12012990670405,35.01033010384558,0 33.12004670603473,35.01011778498911,0 33.12059647554337,35.0100164849627,0 33.12057295007551,35.00994681819738,0 33.12071187435613,35.00988335856064,0 33.12096944702097,35.009198424075,0 33.1211713272806,35.00913541676581,0 33.12106973820703,35.00899786317023,0 33.12138909754306,35.00893125065087,0 33.12157999490648,35.00905290355036,0 33.12173037424695,35.00917844046661,0 33.12186636749662,35.00910814332311,0 33.12212448159483,35.00914651722869,0 33.12240273989752,35.00938870251366,0 33.12239210506458,35.00950803769197,0 33.12267073300999,35.00968604045006,0 33.12277746016046,35.00987744588221,0 33.12317580465879,35.01018368304599,0 33.12310943587164,35.01091025987588,0 33.12328814109635,35.01088188100071,0 33.12371206844436,35.01086910916369,0 33.12404465997743,35.01083558014357,0 33.1243295219565,35.01087710764359,0 33.12497763832037,35.010876737735,0 33.12521591444985,35.01081099187482,0 33.1256040041386,35.01049931779578,0 33.12568991251194,35.01119216741471,0 33.12586889622961,35.01117984064658,0 33.12591210573804,35.01133419111157,0 33.12622524228912,35.01130659505782,0 33.12633479054486,35.01124458560156,0 33.12637432162185,35.01109962585874,0 33.12671385049598,35.01089627354176,0 33.12672562534956,35.01109454063823,0 33.12662576850964,35.01139615819574,0 33.12668610375025,35.01173270918012,0 33.12655382675486,35.01202212002341,0 33.12671905310464,35.01259733472386,0 33.12685962444462,35.01271164818233,0 33.12718614709087,35.01256227562311,0 33.12744329854836,35.0125330097494,0 33.12741609208926,35.01200787505425,0 33.12757201448876,35.01195565035226,0 33.1277190145969,35.01195400480874,0 33.127838198571,35.01163835967964,0 33.12807416410909,35.01160015731359,0 33.12916302525274,35.01245867768381,0 33.12948597145176,35.0123472094846,0 33.12993109960716,35.01265659879547,0 33.13028238076413,35.01248398421043,0 33.13044906815585,35.01208744121888,0 33.13051046045076,35.01199497100352,0 33.13040868034459,35.01178158318078,0 33.13067777488079,35.01123828315247,0 33.13136715775254,35.01150238415529,0 33.13125604361726,35.01187072495386,0 33.1312478344379,35.01211862853275,0 33.13141008653372,35.0121076250615,0 33.13141422126125,35.01194580931004,0 33.13150859214117,35.01189771791557,0 33.13197342893836,35.01181448328344,0 33.13195426467954,35.01191794990105,0 33.13195163680815,35.0120063176911,0 33.13203939712595,35.01245164539367,0 33.13216605065466,35.01295740727914,0 33.13209852016279,35.01301898413765,0 33.13226931845695,35.01395704927319,0 33.13243829734602,35.01408486467935,0 33.1325761276179,35.01411546092123,0 33.13258648222918,35.01422439584931,0 33.13264033618407,35.01424638045975,0 33.13305415256814,35.01466351991149,0 33.13316939388549,35.01449305664818,0 33.13336439271416,35.01449834304461,0 33.13337092606326,35.01434097319179,0 33.13350519469896,35.01434100316305,0 33.133316849944,35.01404719956818,0 33.13382520103884,35.01395812561499,0 33.13380095583633,35.01342854432833,0 33.13403236817337,35.01337234476251,0 33.13419525864217,35.01327395180149,0 33.13417255547661,35.01309820528915,0 33.13461251542296,35.01298578728832,0 33.13458116192118,35.01290142341121,0 33.13465265661004,35.01278896523337,0 33.13455558743959,35.01273037206274,0 33.13474541301662,35.01232020857114,0 33.13520697721938,35.01258247341342,0 33.1351926020721,35.01282140769172,0 33.13544818426003,35.0130982713586,0 33.13534156464289,35.01316819846129,0 33.13554384197683,35.01348879358067,0 33.13593331497096,35.01369220902032,0 33.13605252845305,35.01422574525061,0 33.13703741328307,35.01483408262636,0 33.13701823028983,35.01494787042063,0 33.13714258496852,35.01496359685894,0 33.13715223564223,35.01479879285491,0 33.13793464024904,35.01476656730212,0 33.13804842650684,35.01497371970247,0 33.13805813004196,35.01548953733413,0 33.13828589435215,35.01548147081159,0 33.13846416486184,35.01543683904799,0 33.138563234747,35.01531907382146,0 33.13861280740849,35.01518098022621,0 33.13861287976089,35.0149738471256,0 33.13853369921694,35.01484792463039,0</coordinates>
						</LinearRing>
					</outerBoundaryIs>
				</Polygon>
			</MultiGeometry>
		</Placemark>
	</Document>
</kml>