<?xml version='1.0' encoding='UTF-8'?>
<kml xmlns="http://www.opengis.net/kml/2.2">
	<Document>
		<name>MONAGRI</name>
		<Style id="PolyStyle70">
			<LabelStyle>
				<color>00000000</color>
				<scale>0.000000</scale>
			</LabelStyle>
			<LineStyle>
				<color>ff0055ff</color>
				<width>2.000000</width>
			</LineStyle>
			<PolyStyle>
				<color>00828282</color>
				<outline>1</outline>
			</PolyStyle>
		</Style>
		<Placemark id="ID_70511">
			<name>MONAGRI</name>
			<snippet />
			<description>&lt;html xmlns:fo="http://www.w3.org/1999/XSL/Format" xmlns:msxsl="urn:schemas-microsoft-com:xslt"&gt;

&lt;head&gt;

&lt;META http-equiv="Content-Type" content="text/html"&gt;

&lt;meta http-equiv="content-type" content="text/html; charset=UTF-8"&gt;

&lt;/head&gt;

&lt;body style="margin:0px 0px 0px 0px;overflow:auto;background:#FFFFFF;"&gt;

&lt;table style="font-family:Arial,Verdana,Times;font-size:12px;text-align:left;width:100%;border-collapse:collapse;padding:3px 3px 3px 3px"&gt;

&lt;tr style="text-align:center;font-weight:bold;background:#9CBCE2"&gt;

&lt;td&gt;5&lt;/td&gt;

&lt;/tr&gt;

&lt;tr&gt;

&lt;td&gt;

&lt;table style="font-family:Arial,Verdana,Times;font-size:12px;text-align:left;width:100%;border-spacing:0px; padding:3px 3px 3px 3px"&gt;

&lt;tr&gt;

&lt;td&gt;DIST_CODE&lt;/td&gt;

&lt;td&gt;5&lt;/td&gt;

&lt;/tr&gt;

&lt;tr bgcolor="#D4E4F3"&gt;

&lt;td&gt;VIL_CODE&lt;/td&gt;

&lt;td&gt;314&lt;/td&gt;

&lt;/tr&gt;

&lt;tr&gt;

&lt;td&gt;VIL_CCD&lt;/td&gt;

&lt;td&gt;5314&lt;/td&gt;

&lt;/tr&gt;

&lt;tr bgcolor="#D4E4F3"&gt;

&lt;td&gt;VIL_NM_E&lt;/td&gt;

&lt;td&gt;MONAGRI&lt;/td&gt;

&lt;/tr&gt;

&lt;tr&gt;

&lt;td&gt;VIL_NM_G&lt;/td&gt;

&lt;td&gt;ΜΟΝΑΓΡΙ&lt;/td&gt;

&lt;/tr&gt;

&lt;/table&gt;

&lt;/td&gt;

&lt;/tr&gt;

&lt;/table&gt;

&lt;/body&gt;&lt;script type="text/javascript"&gt;

				function changeImage(attElement, nameElement) {

				document.getElementById('imageAttachment').src = attElement;

				document.getElementById('imageName').innerHTML = nameElement;}

			&lt;/script&gt;&lt;/html&gt;

</description>
			<styleUrl>#PolyStyle70</styleUrl>
			<MultiGeometry>
				<Polygon>
					<extrude>0</extrude>
					<altitudeMode>clampToGround</altitudeMode>
					<outerBoundaryIs>
						<LinearRing>
							<coordinates> 32.92220909373491,34.77557551557756,0 32.92240217582043,34.77547946101708,0 32.92291643103014,34.77528241461194,0 32.92316748427164,34.77517114730916,0 32.92447556828529,34.77465543397924,0 32.92471848909577,34.7745011451941,0 32.92496593405827,34.77427451103015,0 32.92523980506758,34.77462682545411,0 32.92590715106007,34.77514311986481,0 32.9259214659945,34.77517998121085,0 32.92595125893397,34.77525669565284,0 32.92592947785465,34.77533466870894,0 32.92590938370822,34.77543326280895,0 32.92592341896466,34.77548484484318,0 32.92602967169275,34.775660413113,0 32.92614114618093,34.7758639757215,0 32.92622276713401,34.77596436684564,0 32.92629213108934,34.77601465449929,0 32.92638469468311,34.77606501564064,0 32.92647729332655,34.77610801359859,0 32.92645700682855,34.77624783688211,0 32.92645090711509,34.77640684911669,0 32.9263297348589,34.77636817619007,0 32.92622823372451,34.77632073213015,0 32.92612837910244,34.77630274332164,0 32.92594272573206,34.77631393033745,0 32.92585688620144,34.77635194047608,0 32.92578687278747,34.77644006791211,0 32.92571680168938,34.77653997376045,0 32.92568767474632,34.77666209853607,0 32.92568380834403,34.77672540487705,0 32.92575856666773,34.77676687352335,0 32.92594912620992,34.77685141591132,0 32.92610198124614,34.77698443010954,0 32.92616588770119,34.77705678768589,0 32.92618697849847,34.77712606242089,0 32.92623963911406,34.77731323942074,0 32.92631511414385,34.77758294992809,0 32.92635726024802,34.77772886244069,0 32.92637795888581,34.77788207010894,0 32.926368780134,34.77793652360598,0 32.92632121260385,34.77818522587681,0 32.92629571626177,34.77829410960297,0 32.92613294151273,34.77837310510481,0 32.92607920263761,34.77841563585334,0 32.92610926396365,34.77847463307128,0 32.92644991249758,34.77890274831586,0 32.92685613583586,34.77942973002096,0 32.92698742193524,34.77959654207496,0 32.92712405536776,34.77976484279142,0 32.9270394858482,34.77991182394643,0 32.92690810024614,34.78014700738002,0 32.92686309776669,34.78022932425473,0 32.92698847194582,34.78051539053704,0 32.92705559549414,34.78066432769383,0 32.926886632069,34.78092000578804,0 32.92672312251995,34.78115508494588,0 32.92651822998197,34.78146071332268,0 32.92635472509033,34.78169431988167,0 32.92628652465273,34.78177509090364,0 32.92620990742629,34.78174834052802,0 32.92601933068208,34.78166527068285,0 32.92588931591455,34.78160742692771,0 32.92549582297008,34.78140885285449,0 32.92537831625196,34.78134810448985,0 32.92520533552877,34.78169800739084,0 32.92525496225491,34.78177179174099,0 32.92548031106914,34.78205081644074,0 32.92554231912379,34.78214820036214,0 32.92571293367991,34.78230188726661,0 32.92593318802585,34.78252641203003,0 32.92601660058344,34.78262680968538,0 32.92608906888189,34.78277723707926,0 32.92616149679161,34.78293649961172,0 32.92620770001165,34.78297934968501,0 32.92632529987449,34.78302095568903,0 32.92633928707595,34.78308284577803,0 32.92629084943174,34.78313570060849,0 32.92617438587672,34.78323251444343,0 32.92590041420782,34.78342453833903,0 32.92575005192275,34.78351829680848,0 32.92560141356091,34.78362531481675,0 32.92556898337764,34.78369000178416,0 32.92561852692077,34.78378145542759,0 32.92569123839264,34.78388034671701,0 32.92588798449161,34.78417105946333,0 32.9259285645453,34.78427131928586,0 32.92593329623315,34.78440386019661,0 32.92585884030479,34.78467603589355,0 32.92581178010518,34.78481577404884,0 32.92602003141764,34.78493718499175,0 32.92622476221973,34.7850482771377,0 32.92626535665526,34.78514559267536,0 32.92634422914907,34.78545359798469,0 32.92642505687617,34.78572479691198,0 32.92649016259921,34.78592379469229,0 32.92655749485575,34.78602855699467,0 32.92670099449292,34.78625725273468,0 32.92683892688297,34.78653157953584,0 32.92693808221856,34.78670123427267,0 32.92688268471923,34.78671578211529,0 32.92676660220392,34.78673013748421,0 32.92666782268982,34.786860875274,0 32.92658699515509,34.78696958222466,0 32.92637402680008,34.78709112086562,0 32.92633981154234,34.78715580241393,0 32.92649631684169,34.78727557477344,0 32.92660296573827,34.78737015534248,0 32.92649544636943,34.78746110810899,0 32.92628232431964,34.78761504042727,0 32.92607128488134,34.78770566144073,0 32.92574751019198,34.78785776681103,0 32.92554879699983,34.78798376679367,0 32.9253334463634,34.78823193011434,0 32.92520227801267,34.78841704806775,0 32.92517872198856,34.78849207015267,0 32.92520158561302,34.78856429559364,0 32.92526145981911,34.78873677069565,0 32.92530888915282,34.78889889839108,0 32.92534244882693,34.7889741033762,0 32.92535245821057,34.78912285928415,0 32.92534850728435,34.78920383403056,0 32.9252766834083,34.78929489952691,0 32.9251437979136,34.78946528378422,0 32.92494538542051,34.78968226538688,0 32.92438304244632,34.79047396170463,0 32.92441941500164,34.79087442314328,0 32.92427576734932,34.79140707257072,0 32.92377314369842,34.79230913700295,0 32.92394413792279,34.79256477052861,0 32.92384218622639,34.79265570812,0 32.92362400493685,34.7930076883225,0 32.92328676693592,34.79326900827302,0 32.92308648618545,34.79336346740311,0 32.92282908396911,34.79349527438037,0 32.92272764201216,34.79362996813765,0 32.92258444734187,34.79372665681456,0 32.92252459190801,34.79381661762987,0 32.92243615467489,34.79391900393436,0 32.92224123054402,34.79431694913701,0 32.92203668304989,34.79450793465284,0 32.92194629291092,34.79457889540401,0 32.92184631739608,34.79460416492907,0 32.92175647286177,34.79460394584255,0 32.92170651169093,34.79459477472972,0 32.92154151947968,34.79450637334765,0 32.9214823334291,34.79451897092034,0 32.92126650550938,34.79462578861506,0 32.92105015886976,34.79484400959974,0 32.92107690020906,34.79502720866078,0 32.92119036697603,34.7953404199103,0 32.92097229374082,34.79557022515116,0 32.92061336944181,34.79577783264456,0 32.92058161488171,34.79568503115668,0 32.9202061370501,34.79588441525981,0 32.92010215107734,34.79597089152077,0 32.91991905773696,34.79610215959736,0 32.91974919733171,34.79627074476402,0 32.91964522795674,34.79657564661082,0 32.91956158569746,34.79660964122834,0 32.91950425105278,34.79678655590853,0 32.9194864942076,34.7969631190344,0 32.91951291147996,34.79722727808978,0 32.91932165534909,34.79791181947893,0 32.919257420317,34.79798456508634,0 32.91894747595367,34.7981679427336,0 32.91873717204768,34.7984066581333,0 32.91883765725284,34.79901770252217,0 32.91853915748881,34.79920785577156,0 32.9180000854784,34.79921983560731,0 32.91772027435774,34.79974585094306,0 32.91796960203671,34.79978491353698,0 32.91828696240111,34.79978699845962,0 32.91846383937386,34.80014536619528,0 32.91878128776475,34.80041567493267,0 32.9187230591878,34.80089993229854,0 32.91935053150107,34.80082721991464,0 32.91939799183127,34.80139727615087,0 32.91948267410673,34.80195426147983,0 32.91964224066285,34.80196179224981,0 32.91995713326273,34.80242146795832,0 32.92033316521857,34.8027373770237,0 32.92045680131399,34.80288667337676,0 32.92047114757461,34.80305834450794,0 32.92036515586308,34.80318150346514,0 32.92028726125997,34.80331534587199,0 32.92023453670028,34.80345238777067,0 32.92020493276129,34.80358849737436,0 32.92009721548904,34.80386105520881,0 32.91994646440902,34.80409469849025,0 32.91994728305183,34.80427661031291,0 32.91990979068196,34.80432825444413,0 32.91952204251671,34.80459285926298,0 32.91944666178193,34.80466530724625,0 32.91955714002471,34.80494912104491,0 32.91954894488784,34.80502057590366,0 32.91951435132344,34.80511726490924,0 32.9195802598064,34.80526467321135,0 32.91958592526462,34.80541335870894,0 32.91998006391669,34.8053987300588,0 32.92014159609441,34.80536386866498,0 32.92027101654477,34.8053618026504,0 32.9204071656167,34.80540674645511,0 32.92058744660175,34.80550157577706,0 32.92079744139108,34.80569868451106,0 32.92091296254277,34.80589131527963,0 32.92099259882952,34.80603310843512,0 32.92102737252019,34.80635571362431,0 32.92096379983719,34.80669328223097,0 32.92061706967187,34.8066734687928,0 32.92058482865249,34.80672342179851,0 32.92059252213938,34.80685745265959,0 32.92053450121257,34.80696879784,0 32.92070685672219,34.80716272880578,0 32.92046794059727,34.8072990849404,0 32.92022340826708,34.80733897027281,0 32.92006906341754,34.80746813332408,0 32.91995749559992,34.80753730175294,0 32.91979639720481,34.8077031934544,0 32.91978189359531,34.80777123753507,0 32.91972772429427,34.80785362737161,0 32.91967767829407,34.80798132980103,0 32.91938658322325,34.80793819193434,0 32.91919431837523,34.80862964720161,0 32.91937786958964,34.80864033852276,0 32.91983385699945,34.80862698812403,0 32.9200741261384,34.80903230834114,0 32.92006411814011,34.80926189632473,0 32.92009260961805,34.80964767512513,0 32.91957255445566,34.80966710324232,0 32.91960842655663,34.81000020321598,0 32.92012523418749,34.80997874814631,0 32.92014315650992,34.81016920960829,0 32.9200638388765,34.81028111835671,0 32.92021894647092,34.81051818135802,0 32.91988283075953,34.81081563928007,0 32.91815652904666,34.81052289560378,0 32.91792451592615,34.81048892482193,0 32.91799647480683,34.81060718935809,0 32.91825243253423,34.81062187682215,0 32.91819238680246,34.81091598421371,0 32.91809283181721,34.81116673830411,0 32.91779348040347,34.81148840842616,0 32.91754026083006,34.81171993735276,0 32.91738362556359,34.81175409183102,0 32.91722663889524,34.8117766468381,0 32.9171042384076,34.81190207769542,0 32.91698482449927,34.81193943283854,0 32.91681465947008,34.81192145248125,0 32.91653548963323,34.8118523549436,0 32.91635526203821,34.81182649282605,0 32.91608156668855,34.8118112049972,0 32.91579991680271,34.8117248673271,0 32.91556770172273,34.81166152158924,0 32.91538129422414,34.81162582246495,0 32.91530206726537,34.81145453583365,0 32.91506836573311,34.81139016495408,0 32.91487691392211,34.81138734303427,0 32.91473380793414,34.81128598502323,0 32.91446283754411,34.81123026337038,0 32.91445121386278,34.81143419242951,0 32.91426483177752,34.81203232131885,0 32.91386612196201,34.81254421525147,0 32.91352609239196,34.8124707181985,0 32.91344360466031,34.81248141211184,0 32.91309703166867,34.81266010942059,0 32.91324555593452,34.8127417484491,0 32.91330029153014,34.8129700215684,0 32.91212250230593,34.8129134901633,0 32.9121691329734,34.81316805518703,0 32.91226019776953,34.81358067645842,0 32.91186227617369,34.81338197133623,0 32.91157016528129,34.81329766172229,0 32.91149319699196,34.81326670206771,0 32.91144566172385,34.81319855621555,0 32.91132526183601,34.81280337953925,0 32.91101810772297,34.81253259786931,0 32.91069714685852,34.81236704030086,0 32.91034930551952,34.8122606119888,0 32.90999081587778,34.81215633919992,0 32.90932835143087,34.81221992733571,0 32.90899076994366,34.81219029057166,0 32.90865556969845,34.81221768253977,0 32.90828320681566,34.81223179057667,0 32.90790824619965,34.81223273065133,0 32.90774093195623,34.81218830548269,0 32.90736931905849,34.81204888890465,0 32.90704047933383,34.81186575262848,0 32.90684120162323,34.81183218507171,0 32.90669479548215,34.81186239876443,0 32.90649204658281,34.81199330936084,0 32.90635614556726,34.81204987575576,0 32.905840173897,34.81206568845835,0 32.90549781964618,34.81192636452479,0 32.9054528952619,34.81186919086606,0 32.90544948668898,34.81148317771909,0 32.90533295053858,34.81138847844242,0 32.9051390911475,34.81133518846288,0 32.90491830271377,34.81134979731097,0 32.90468734331971,34.81127101870631,0 32.90415858230946,34.8108672191022,0 32.90404755777342,34.81068519350301,0 32.90400508851405,34.810512332912,0 32.90402728310939,34.81040520338658,0 32.90417252029955,34.81024191095749,0 32.90434625278635,34.81015613620521,0 32.90515840339447,34.81020354303764,0 32.90541855446257,34.81016570769123,0 32.90557084663159,34.81003519149469,0 32.90566931813736,34.80983600465797,0 32.90572090834254,34.80962474968947,0 32.90557734269596,34.80872196814322,0 32.90474283109487,34.80881742648375,0 32.90504378777014,34.80855936569922,0 32.90511667680178,34.80842262749773,0 32.90520193941353,34.80797325317285,0 32.9040295693722,34.80776382381449,0 32.90407445897747,34.80744831979433,0 32.90405043016332,34.80719809536361,0 32.90429989950005,34.8071274679955,0 32.90448129031083,34.8069523854391,0 32.90459703387369,34.80691108586893,0 32.90477378153987,34.8069444384642,0 32.90478898947278,34.80678964056825,0 32.90505369959362,34.80655825784811,0 32.90514846897295,34.80637692447592,0 32.90506389883988,34.80595675820638,0 32.90475149167406,34.80561324667608,0 32.90418644253774,34.8052539918597,0 32.90389801721813,34.80517261441098,0 32.9036787193798,34.80498426828611,0 32.90337855785436,34.8050845012765,0 32.90316672151491,34.80484853169276,0 32.90310546323077,34.80482449968088,0 32.9028127629734,34.80487711056344,0 32.9028914855984,34.80429371191651,0 32.902815846297,34.80425772127539,0 32.902335946016,34.80420249246271,0 32.90215834099423,34.80411248628736,0 32.90191220761628,34.80398775100593,0 32.90206365330164,34.80373173847318,0 32.90215719580499,34.80323931001554,0 32.90229023798793,34.80288847705287,0 32.90233803271826,34.80268355386936,0 32.90222428677649,34.80229127288013,0 32.90220554018587,34.8019365399019,0 32.90234032604372,34.80156472949955,0 32.90240897248442,34.80129219205591,0 32.90257437265549,34.8010335207431,0 32.90237540472658,34.80078308794289,0 32.90283373126596,34.80069191265931,0 32.90294831409344,34.80075118745829,0 32.90313062252459,34.80055754825224,0 32.90292519141799,34.80045126411648,0 32.90291444529817,34.8003023203833,0 32.90288139864759,34.80018240650957,0 32.90319096108821,34.80030461040189,0 32.90353352285101,34.80039105271518,0 32.90370331436976,34.8004038102881,0 32.90394967903299,34.80019888017717,0 32.90446494398818,34.80004223746343,0 32.90505500229759,34.79986012346606,0 32.90562196508233,34.79970229558897,0 32.90566577397257,34.79963746518838,0 32.90563581012461,34.79955749621027,0 32.90539384725176,34.79920539650971,0 32.90509236280457,34.79877796648704,0 32.90491404442842,34.79849918046727,0 32.90464108087379,34.79811245524407,0 32.90450975305247,34.79778983237097,0 32.9043561690909,34.79748811558619,0 32.90421570692578,34.79718779806768,0 32.90356666835765,34.7971883122954,0 32.90350654295084,34.79706898375255,0 32.90348569165428,34.79697212361258,0 32.90354378584391,34.7968396571785,0 32.90350663147329,34.79655593084353,0 32.90393635652787,34.79627107656577,0 32.90432210404375,34.79591906273274,0 32.90422604916402,34.79559926619181,0 32.90398940506789,34.79533652649857,0 32.90341439183678,34.79497382153104,0 32.90293578984363,34.79518879369979,0 32.90293361679917,34.79513057761047,0 32.90298052981579,34.79460685435632,0 32.9030946717855,34.79442313707695,0 32.9032181927828,34.79433353396574,0 32.903221935673,34.79374604131257,0 32.90317569574893,34.79363961894171,0 32.90257114890272,34.79311436699239,0 32.90258846437808,34.79293235297553,0 32.90268449601299,34.79276075876886,0 32.90269587770565,34.79245215358495,0 32.90272063056484,34.79225933428344,0 32.90290019015414,34.79195468373483,0 32.90303679434459,34.79170809589243,0 32.90318302151379,34.79150621165986,0 32.90335745735027,34.79140662823586,0 32.90344059625837,34.79118693303633,0 32.90341545135502,34.79079833573008,0 32.90339303357332,34.79068658033217,0 32.90313530550176,34.79070736686599,0 32.90299117672217,34.78999280185782,0 32.90291019002368,34.7896096479359,0 32.90279197187012,34.78905035519426,0 32.90283338396177,34.78883957757836,0 32.90321833634136,34.7885467117798,0 32.90397638770987,34.78763345260677,0 32.90438357451973,34.78692437703702,0 32.90447210749435,34.78670820810476,0 32.90439274924634,34.78643041429748,0 32.90455616324981,34.78603688875909,0 32.9049351602188,34.78558303278545,0 32.90520646025116,34.78513991289311,0 32.90549291237001,34.78435272329735,0 32.90543348101396,34.78412495670985,0 32.90542821381649,34.78383076574995,0 32.90561907694855,34.7833263172732,0 32.90557401487906,34.78291543479491,0 32.90541447712138,34.78252637245877,0 32.90489035781172,34.7824024947206,0 32.90513495073616,34.78191488124954,0 32.90518956885879,34.78175410513659,0 32.90395900813315,34.78164449652338,0 32.90397307246998,34.78152243640645,0 32.90437357929117,34.7807966796518,0 32.90481479996295,34.77999890772111,0 32.90474242572729,34.77967119011674,0 32.90475670348236,34.77950472860533,0 32.90498545125499,34.77949994932835,0 32.90514810140962,34.77925627620857,0 32.90517097589328,34.77871241409667,0 32.90530553832521,34.7787073129093,0 32.90516748297004,34.77805744891494,0 32.90500247631564,34.77741859484222,0 32.90520408913797,34.77745812870757,0 32.90537851994365,34.77755307553642,0 32.90555943414616,34.77769799060015,0 32.90576706430981,34.77788185294751,0 32.90579361289365,34.77795409851914,0 32.90582472718303,34.77846484417507,0 32.90585059613423,34.77867584380588,0 32.90587692526518,34.77879249512383,0 32.90598444629284,34.77881505522513,0 32.90603189232922,34.77874305885554,0 32.90604570528536,34.77867094997322,0 32.90602716543513,34.77833786132427,0 32.90609575237089,34.77807167237849,0 32.90621828585136,34.77777791591787,0 32.90619190138218,34.77767236790232,0 32.90597188452538,34.77727199649812,0 32.90590546725404,34.77709970848964,0 32.90591273949138,34.77698872626416,0 32.90599343261519,34.77699454713387,0 32.90606712858173,34.77705584926291,0 32.90618011381501,34.77733375306175,0 32.90625364582167,34.77742835400484,0 32.90626772871342,34.77730074415687,0 32.90635053186042,34.77687918838691,0 32.90651364308093,34.77654116048581,0 32.90677784998174,34.77616461826272,0 32.90706603559948,34.77638204920204,0 32.90719400891618,34.77634917770053,0 32.90760434318476,34.77635055174333,0 32.90802156888338,34.77631864406914,0 32.90820975303442,34.77635257646342,0 32.90853209583167,34.77646466152703,0 32.90924431898776,34.77663354869369,0 32.90942564576826,34.77669520934057,0 32.90989348495329,34.77731841453475,0 32.91049971543887,34.77715391515731,0 32.91076219901635,34.77712703878638,0 32.91091010721906,34.77714417841691,0 32.91143439792015,34.77722917298416,0 32.91207933868034,34.77740337540539,0 32.91247590213675,34.77747129325734,0 32.91275835017422,34.77748887616227,0 32.91297990561993,34.7775784181739,0 32.91365800618301,34.77785262504428,0 32.91439732216288,34.77798826800717,0 32.91443873109688,34.77777194204554,0 32.91468130204808,34.77768947989679,0 32.91476280140333,34.77752878670761,0 32.91484451431331,34.77732369215844,0 32.91503404564284,34.77708009392963,0 32.91537604557826,34.77730323455575,0 32.91561690218657,34.77757599446686,0 32.91646398296693,34.7776842302255,0 32.91729293791183,34.77736502015852,0 32.91761622536131,34.77728281520228,0 32.91779109683251,34.77728893534486,0 32.91837535580353,34.77749620923863,0 32.91874769254243,34.77700343497808,0 32.91929408048934,34.77668883791795,0 32.92000818189513,34.77646913912523,0 32.92016994117114,34.77640305824125,0 32.92030389549926,34.77652560316793,0 32.92046718718823,34.77613760216499,0 32.92106550360553,34.77621724532717,0 32.9219328041059,34.7763144060531,0 32.92208400931364,34.77563774277211,0 32.92220909373491,34.77557551557756,0</coordinates>
						</LinearRing>
					</outerBoundaryIs>
				</Polygon>
			</MultiGeometry>
		</Placemark>
	</Document>
</kml>