<?xml version='1.0' encoding='UTF-8'?>
<kml xmlns="http://www.opengis.net/kml/2.2">
	<Document>
		<name>NEO CHORIO LEFKOSIAS</name>
		<Style id="PolyStyle70">
			<LabelStyle>
				<color>00000000</color>
				<scale>0.000000</scale>
			</LabelStyle>
			<LineStyle>
				<color>ff0055ff</color>
				<width>2.000000</width>
			</LineStyle>
			<PolyStyle>
				<color>00828282</color>
				<outline>1</outline>
			</PolyStyle>
		</Style>
		<Placemark id="ID_70396">
			<name>NEO CHORIO LEFKOSIAS</name>
			<snippet />
			<description>&lt;html xmlns:fo="http://www.w3.org/1999/XSL/Format" xmlns:msxsl="urn:schemas-microsoft-com:xslt"&gt;

&lt;head&gt;

&lt;META http-equiv="Content-Type" content="text/html"&gt;

&lt;meta http-equiv="content-type" content="text/html; charset=UTF-8"&gt;

&lt;/head&gt;

&lt;body style="margin:0px 0px 0px 0px;overflow:auto;background:#FFFFFF;"&gt;

&lt;table style="font-family:Arial,Verdana,Times;font-size:12px;text-align:left;width:100%;border-collapse:collapse;padding:3px 3px 3px 3px"&gt;

&lt;tr style="text-align:center;font-weight:bold;background:#9CBCE2"&gt;

&lt;td&gt;1&lt;/td&gt;

&lt;/tr&gt;

&lt;tr&gt;

&lt;td&gt;

&lt;table style="font-family:Arial,Verdana,Times;font-size:12px;text-align:left;width:100%;border-spacing:0px; padding:3px 3px 3px 3px"&gt;

&lt;tr&gt;

&lt;td&gt;DIST_CODE&lt;/td&gt;

&lt;td&gt;1&lt;/td&gt;

&lt;/tr&gt;

&lt;tr bgcolor="#D4E4F3"&gt;

&lt;td&gt;VIL_CODE&lt;/td&gt;

&lt;td&gt;138&lt;/td&gt;

&lt;/tr&gt;

&lt;tr&gt;

&lt;td&gt;VIL_CCD&lt;/td&gt;

&lt;td&gt;1138&lt;/td&gt;

&lt;/tr&gt;

&lt;tr bgcolor="#D4E4F3"&gt;

&lt;td&gt;VIL_NM_E&lt;/td&gt;

&lt;td&gt;NEO CHORIO LEFKOSIAS&lt;/td&gt;

&lt;/tr&gt;

&lt;tr&gt;

&lt;td&gt;VIL_NM_G&lt;/td&gt;

&lt;td&gt;ΝΕΟ ΧΩΡΙΟ ΛΕΥΚΩΣΙΑΣ&lt;/td&gt;

&lt;/tr&gt;

&lt;/table&gt;

&lt;/td&gt;

&lt;/tr&gt;

&lt;/table&gt;

&lt;/body&gt;&lt;script type="text/javascript"&gt;

				function changeImage(attElement, nameElement) {

				document.getElementById('imageAttachment').src = attElement;

				document.getElementById('imageName').innerHTML = nameElement;}

			&lt;/script&gt;&lt;/html&gt;

</description>
			<styleUrl>#PolyStyle70</styleUrl>
			<MultiGeometry>
				<Polygon>
					<extrude>0</extrude>
					<altitudeMode>clampToGround</altitudeMode>
					<outerBoundaryIs>
						<LinearRing>
							<coordinates> 33.4357907835587,35.21418390683916,0 33.43595936545735,35.21391522282079,0 33.43633911744296,35.21315991635932,0 33.43659314432773,35.21263583530448,0 33.4370657390209,35.21274853701773,0 33.43806174894865,35.21298605225845,0 33.43826336795489,35.21232939106732,0 33.43776792394868,35.2122102172391,0 33.43802725423132,35.21143558228521,0 33.43806153998464,35.21142410706747,0 33.43897718027844,35.21153053109775,0 33.43909776773765,35.21116962081238,0 33.43909819730822,35.21109988249773,0 33.43917105274677,35.21107428926463,0 33.43921068086796,35.21105026956248,0 33.43928129328388,35.21096000082116,0 33.4393042242142,35.21093625439391,0 33.43934899273688,35.21088989403098,0 33.43941025241728,35.21082645380101,0 33.43943979683521,35.21078714252109,0 33.43959021972147,35.21071049141676,0 33.4396103188564,35.2106732560303,0 33.43963729448975,35.21060241807837,0 33.43963597338374,35.21056210470459,0 33.43952923733821,35.21037252385371,0 33.43962833924001,35.21010003509522,0 33.43955245325217,35.20990060273432,0 33.43973073502895,35.20992057733559,0 33.43977292030021,35.20991019697462,0 33.43989470626731,35.20964388572767,0 33.44008100434413,35.2095511752398,0 33.44027928159157,35.20946672088555,0 33.44030630277802,35.20942586096574,0 33.44032501824218,35.2093090307275,0 33.44031291814164,35.20922169238747,0 33.44024529634531,35.20907342200398,0 33.4403793773607,35.20861172305014,0 33.44037789763414,35.20846906936195,0 33.44031970782849,35.20830993541916,0 33.4403510327662,35.20820032809367,0 33.44040262120426,35.20816202617292,0 33.44050965969861,35.20813813941645,0 33.44061041126012,35.20812149556173,0 33.44105207250976,35.20780264855284,0 33.44127461298736,35.20752641138565,0 33.4413196721707,35.20733925870686,0 33.44138876251093,35.20721410512036,0 33.44155597888049,35.20700615093011,0 33.44194231633071,35.20675765202277,0 33.44228115249523,35.20674592627607,0 33.44243747714326,35.20682639356836,0 33.44255844667148,35.20685107587723,0 33.44294494068345,35.20670491231025,0 33.44311753931222,35.20671920236896,0 33.44371214740631,35.20674441625724,0 33.44381159264942,35.20669986034367,0 33.44390972903444,35.20662429328332,0 33.44401787077564,35.20650323245017,0 33.44401399710078,35.2064432800064,0 33.44431060791948,35.20601810055908,0 33.44440584645879,35.20570477914787,0 33.44478439290289,35.20531879208671,0 33.44509032672168,35.20521715861021,0 33.44512803407372,35.20516439875321,0 33.4451543188501,35.20505892983238,0 33.44521973029884,35.20500303852655,0 33.44543746835264,35.20488805977567,0 33.4454789508242,35.20483426104192,0 33.44550780635861,35.20476083505049,0 33.44554403558659,35.20457265771789,0 33.44560311413097,35.20449506424266,0 33.44578818468074,35.20443387463663,0 33.44593552163217,35.20440787240234,0 33.44611053521012,35.20435909810796,0 33.4461910745196,35.20431145863676,0 33.44623001991112,35.20424732556075,0 33.44647646863363,35.20397208675189,0 33.44655427551157,35.20379213239194,0 33.44664152281283,35.20362994107159,0 33.44673216815693,35.20346143373937,0 33.44674235649596,35.20326557310802,0 33.44667107822641,35.2028025097329,0 33.44674885191409,35.20263983315807,0 33.44685222063061,35.20252886217964,0 33.44697377612291,35.20252872993405,0 33.4471146508168,35.20241155934389,0 33.44718073236216,35.20244228162876,0 33.44722888029273,35.20251982964739,0 33.44753367018554,35.20261311049228,0 33.44758891457615,35.20243937187518,0 33.44754374968893,35.20235073490868,0 33.44747322640896,35.20235573864679,0 33.44744754686024,35.20225230004377,0 33.44748346553822,35.20219190497642,0 33.44743979628533,35.20210080254994,0 33.44733003827928,35.20197158747642,0 33.44754571011754,35.20170898671794,0 33.44764461482045,35.20162265568995,0 33.4478441713292,35.20160272904879,0 33.44793558383601,35.20152379704914,0 33.44800876581879,35.20130815840884,0 33.44795002373707,35.2011751928343,0 33.44797397018342,35.20113575051563,0 33.44817491452604,35.20104684302868,0 33.44831244857048,35.20072520424959,0 33.44848927387873,35.20056980805236,0 33.4486242577318,35.20052408445931,0 33.44882375682452,35.20047089878172,0 33.44894528132096,35.20045352021376,0 33.44903081995056,35.20045465699297,0 33.44917795744141,35.20049883730527,0 33.4492198596574,35.20042858085885,0 33.44918364435989,35.20030667616874,0 33.44922557683415,35.20025489717619,0 33.44924038141318,35.20013170532561,0 33.44907891721505,35.19958621398585,0 33.44902473049661,35.19948650227001,0 33.44888069887318,35.19950390575802,0 33.44876962137345,35.19948555144092,0 33.44839128631727,35.19937757389686,0 33.44807760170966,35.19934589290293,0 33.44778773578781,35.19919470429416,0 33.44761967455189,35.19920104675739,0 33.44749817432507,35.19923197358332,0 33.44743064912312,35.19923451082597,0 33.44727324917689,35.19933691861692,0 33.44711865885025,35.19932107341489,0 33.44677183521117,35.19921059297262,0 33.44660372968404,35.19918860352991,0 33.44655714154076,35.19914677421367,0 33.44634544691167,35.1990804886339,0 33.44625078617551,35.1990042221358,0 33.44610036109811,35.19877774168524,0 33.44592310161785,35.19866214780131,0 33.44546977533155,35.19857518088194,0 33.44517089463212,35.19841290950026,0 33.44504181578099,35.19839580415486,0 33.44479273463473,35.19840838868923,0 33.44439046137219,35.19834107066432,0 33.44426891197072,35.19833996897309,0 33.44409945720567,35.19841282337442,0 33.44398989029578,35.19839815932312,0 33.44384124061191,35.19834165531523,0 33.44364295487987,35.19821130006687,0 33.44342822208424,35.19811914610664,0 33.44325093879234,35.19798507168565,0 33.44307512815649,35.19783128723823,0 33.44286657952386,35.19785244674951,0 33.44267598019466,35.19783909729541,0 33.44247317558887,35.1976951961245,0 33.44240102127833,35.19761520723539,0 33.44237543270379,35.19756596406092,0 33.44220423158772,35.19747992074524,0 33.44198529041563,35.19757253197781,0 33.44193101959323,35.19741246027893,0 33.44194141619579,35.19734223924382,0 33.4420222551873,35.19721897843297,0 33.44208801661541,35.19704521366752,0 33.44218107260859,35.19706114670149,0 33.44224388923696,35.1969280506819,0 33.44235324998971,35.19681091949226,0 33.44256160341254,35.1966653526873,0 33.44289145174921,35.19648640085897,0 33.44309213519651,35.19638145797917,0 33.44426121964784,35.19577010771995,0 33.44430077137996,35.19571312098005,0 33.44428751773211,35.19568737453573,0 33.44376503735339,35.19534355140757,0 33.44407328718788,35.19495274612744,0 33.4441078089447,35.1948496672906,0 33.44407789336283,35.19473174269605,0 33.4439353948142,35.19444445856968,0 33.44385101188362,35.19435099717868,0 33.44377825787667,35.19429955286967,0 33.44325779399469,35.19418079172031,0 33.4430133006478,35.19415122209086,0 33.44303950027594,35.19400612143607,0 33.44304557490901,35.19366715852572,0 33.44286186496332,35.19342601545485,0 33.44285504891995,35.1932917963483,0 33.44297727039983,35.19329166753329,0 33.44324818139397,35.19331714199483,0 33.44367767878229,35.19336007356971,0 33.44382969745186,35.19340194226078,0 33.44408753718409,35.1935169139913,0 33.44420154753553,35.19354662031424,0 33.44442784902811,35.19356129304343,0 33.44475002039082,35.19362467235837,0 33.44507717914903,35.19370567178468,0 33.44530692660554,35.1938098238053,0 33.4460785180468,35.19397440287717,0 33.44631307436547,35.19398770761265,0 33.44697528786218,35.19392190927438,0 33.44728076567689,35.19387276707005,0 33.44742116263367,35.19387532579007,0 33.44750871202243,35.19388336449484,0 33.44759464378086,35.19391038787833,0 33.44767895551235,35.19395774983996,0 33.44795347063693,35.19416624566392,0 33.44803786414802,35.19426241642481,0 33.44821992882698,35.19449677377596,0 33.4483108447202,35.19454141659203,0 33.44868429968543,35.19464947122968,0 33.44954336215808,35.19476512273413,0 33.44987209127179,35.19479187392389,0 33.45029121081083,35.19479003139272,0 33.45033477621106,35.19478983874787,0 33.45127919505136,35.19488476113093,0 33.45169546646871,35.19504517085988,0 33.45224657850733,35.19512954192955,0 33.45287529045632,35.19517891411462,0 33.45299732871687,35.19518484581729,0 33.45316922112857,35.19515277846285,0 33.4533576311813,35.19504784019929,0 33.45367376265322,35.19502926759861,0 33.4540621206412,35.19508194232417,0 33.45430800138674,35.19506800048462,0 33.45455568225302,35.1950267374879,0 33.45491629422708,35.19507033566793,0 33.45495702104845,35.19510064332091,0 33.45500149799445,35.19516130107182,0 33.45501081499147,35.19520378730528,0 33.45524036103483,35.19536743447486,0 33.45528659349694,35.19537345231173,0 33.4553106115908,35.19536431837215,0 33.45533820403735,35.19528081177791,0 33.45534734282483,35.19522009228052,0 33.45548228218701,35.19520172379226,0 33.45587589254077,35.19508288452016,0 33.45648017627246,35.19490460835027,0 33.45677775060879,35.1948481049402,0 33.45680192403738,35.19492699799763,0 33.45706250241789,35.1948614311512,0 33.45741161050485,35.19466978828514,0 33.45754828919899,35.19458918892468,0 33.45795515774736,35.19465397251872,0 33.45817704261816,35.19466433390014,0 33.45862808361313,35.19461523423508,0 33.45906610305159,35.19451909818535,0 33.45976467478925,35.19434524628701,0 33.46000312322417,35.19431308870998,0 33.46026936217587,35.1943127702794,0 33.46081487145867,35.19436220021851,0 33.46108127259612,35.19445294313119,0 33.46150511674219,35.19470285588299,0 33.46148986249829,35.19444486162005,0 33.46145621834227,35.19424152825511,0 33.46141511348277,35.19400177832973,0 33.46137002873352,35.19360418954356,0 33.46128231810893,35.1931489786148,0 33.46118516595516,35.1925845037576,0 33.46112868583889,35.19201694348819,0 33.46134460828061,35.19179813088238,0 33.46145896145852,35.19164622119199,0 33.46140140861154,35.1915112131058,0 33.46144299500892,35.19098906621579,0 33.46157631615097,35.19110425242628,0 33.4617336396238,35.19120119659448,0 33.46197418039668,35.1913101811928,0 33.4622091048012,35.19137971128793,0 33.4623200445615,35.19138564803282,0 33.46254738679728,35.19135198108037,0 33.4626249167126,35.19128510740353,0 33.46269882163289,35.19125769864552,0 33.46280976840453,35.19126818693307,0 33.46301329755725,35.19135596689141,0 33.4632204186675,35.19138606817148,0 33.46340905552452,35.19141770909256,0 33.46353727630017,35.19141126741662,0 33.46360110566007,35.19140806022298,0 33.46370814748843,35.19139118743394,0 33.46387881951902,35.19131773129019,0 33.46396532704907,35.19122344987484,0 33.46402380856413,35.1911396661007,0 33.46408213476042,35.19097007961854,0 33.46442595202989,35.19078339896056,0 33.46468246571261,35.19025360846225,0 33.46469499657371,35.19013639775127,0 33.46480194480398,35.19006929622087,0 33.46550560360793,35.19009563095781,0 33.46693582583035,35.19012733178197,0 33.46777221310389,35.19024347698764,0 33.46794821610168,35.19029557521569,0 33.46815736494248,35.19035181584471,0 33.46825935809743,35.19036215167356,0 33.46837149452677,35.19034526768986,0 33.46843773300031,35.19032216307969,0 33.46876864137243,35.19005386768311,0 33.46905918482901,35.19001164297968,0 33.46900560624196,35.19134272130991,0 33.46894553025412,35.19193086888268,0 33.46867239870249,35.1931010784195,0 33.46861445148447,35.19346738830413,0 33.46808674799936,35.19348061357137,0 33.4680394523288,35.1940917668474,0 33.46803257236125,35.1945019596505,0 33.46808455701717,35.19503346097096,0 33.46815939739548,35.19551679919734,0 33.46819122384426,35.19617389036564,0 33.46768126619254,35.19614314138136,0 33.46759970912701,35.19615789296688,0 33.46685520982404,35.19613371474679,0 33.46638597237695,35.19606314852012,0 33.46637425583648,35.19635463605029,0 33.46635564211969,35.19681771593341,0 33.46747358550989,35.19696097902918,0 33.46734242389953,35.19796352190447,0 33.4686272234142,35.1979460355117,0 33.4702336997801,35.19787585808803,0 33.47012321948978,35.19837438789468,0 33.47005511827087,35.19843794053216,0 33.4697949747401,35.19856333621784,0 33.46992744698868,35.19886649448392,0 33.4700711766525,35.1991108383816,0 33.47007262697421,35.19927603285468,0 33.47015138879803,35.19943739554448,0 33.47008259600352,35.19973614374803,0 33.47032397670142,35.19990756357566,0 33.47058454601625,35.20000522709016,0 33.47071762321807,35.20002745638496,0 33.4707137283788,35.19977360010827,0 33.47142331164548,35.19980908562808,0 33.47213511962909,35.19981749864736,0 33.47279572198825,35.19980637513704,0 33.47353711414117,35.19982594076429,0 33.47354610348373,35.19977086416357,0 33.47412274141656,35.19985037268619,0 33.47470841784165,35.19990093551809,0 33.47483240747519,35.19992690512259,0 33.47508841979634,35.20001709887887,0 33.47549356995449,35.20020042564886,0 33.47574960738024,35.20030275057656,0 33.47609093623208,35.20041056171648,0 33.47620361043876,35.20046454445637,0 33.47658568055083,35.20047430237101,0 33.47680710028563,35.20053296286599,0 33.47684569335819,35.20054318677014,0 33.477052540959,35.19971823060727,0 33.47723533314245,35.19906807308555,0 33.47764146238598,35.19919860447163,0 33.47824954844339,35.19939439975128,0 33.47879772646673,35.19957570918685,0 33.4791307164239,35.19972999955252,0 33.4794260264941,35.19989526384488,0 33.4793537339836,35.2003413808366,0 33.47930596565129,35.2008511819617,0 33.47955237364669,35.20096007649065,0 33.47978557692888,35.20111996293989,0 33.47985230545305,35.20121453710306,0 33.47989942443884,35.20148390485429,0 33.47994652149153,35.20174052974872,0 33.479953554462,35.20192984998973,0 33.47992507889685,35.20210647611069,0 33.47994294377339,35.20216652783276,0 33.48006076765144,35.20230108317317,0 33.4800742821153,35.20240301254197,0 33.48000138336029,35.20254875027452,0 33.47997495508324,35.20264163121011,0 33.47991084133374,35.20274366545967,0 33.47978239759488,35.20284214622178,0 33.47972048531428,35.20293689564912,0 33.47964758957541,35.20308445395036,0 33.47964322751199,35.20312086924049,0 33.47968327549163,35.20318271070834,0 33.47978329360296,35.20328634353433,0 33.47981450739801,35.20336640183795,0 33.47983016429495,35.20343191750705,0 33.47975375359331,35.20358947625673,0 33.47971550038036,35.20366835225043,0 33.47972450773894,35.20376525713315,0 33.47980965349634,35.20403708996577,0 33.47986978710384,35.2041426041898,0 33.48000231785211,35.20431600781107,0 33.48000444297277,35.2044953753798,0 33.47998023148624,35.20472396030782,0 33.47999093463562,35.20478759274872,0 33.48009700751257,35.20494946061134,0 33.48020309483264,35.20511856014392,0 33.4801962656516,35.20522705921052,0 33.48016133792785,35.20538622488008,0 33.47916506579015,35.20514166816704,0 33.47844741197946,35.20497050045676,0 33.47841540865465,35.20483022958906,0 33.47829903696484,35.20480434809385,0 33.47793051967662,35.20471949901518,0 33.4772040217942,35.20452808390739,0 33.47681485769145,35.20444951973862,0 33.47643894338956,35.20437362887751,0 33.47632534164005,35.20437766513691,0 33.47627968749079,35.20443082464725,0 33.47600183711027,35.20435996399954,0 33.47584716387156,35.20434074322262,0 33.47564678191402,35.20434748418288,0 33.47561203340816,35.20432939913531,0 33.47552507917007,35.20424403766376,0 33.47532767367019,35.20415882311539,0 33.47521400462562,35.20412789108369,0 33.47501828482716,35.20409706812688,0 33.47468508498224,35.20396281698075,0 33.47425395547669,35.20377689068703,0 33.47409606564165,35.20372529432053,0 33.47374078744464,35.20359749710125,0 33.47268501355215,35.20321771680139,0 33.47248076861158,35.20317746925328,0 33.47238503572818,35.20356246926726,0 33.47243552840083,35.20356884969903,0 33.47242966740136,35.20359920695488,0 33.47240526481908,35.20372559914701,0 33.47240346892804,35.20383249807116,0 33.47228775518155,35.20409248950842,0 33.47218593105965,35.20428174528352,0 33.47214617477918,35.20444625295166,0 33.47207228829418,35.2045762686821,0 33.4719065339466,35.20486428153671,0 33.47187281988039,35.20504522668659,0 33.4718712312777,35.2052623103388,0 33.47183535155708,35.20535938623053,0 33.47157133034514,35.20560476638647,0 33.47149747146059,35.20574958331892,0 33.47146771141336,35.20590421046364,0 33.4714760252702,35.20606043263398,0 33.4714301580609,35.20617396695097,0 33.47122200822369,35.2062992208763,0 33.47105581937738,35.20636192891817,0 33.47088151145076,35.20637202009453,0 33.47074542610102,35.20646100144662,0 33.47068159867048,35.20661402746154,0 33.47051983120839,35.20689545445221,0 33.47047198219108,35.20702214733434,0 33.47050828721444,35.20714708722009,0 33.47050854345664,35.2072819409161,0 33.4703865025202,35.20738077082114,0 33.47022252422104,35.20755365916988,0 33.47018476745141,35.20771980790021,0 33.47020895070391,35.20779213771718,0 33.47020508029248,35.20786450346243,0 33.47015119019206,35.2079764026652,0 33.47005319404136,35.20807520105738,0 33.46983091723348,35.20815113486165,0 33.46950447509978,35.20824364670128,0 33.46936433515486,35.20830960817602,0 33.46900418149851,35.20858964044594,0 33.4688823007013,35.20877563050395,0 33.46871811570779,35.20884326537505,0 33.46865811685876,35.20890418979665,0 33.46832766673411,35.20899834819659,0 33.46832386968723,35.20911018351207,0 33.46826825515347,35.20937338268781,0 33.46827661511216,35.20955756314315,0 33.46834525303821,35.20982718363739,0 33.46826945777024,35.21001475879385,0 33.46779070234503,35.21009923593885,0 33.46800428722234,35.21072883218623,0 33.46799710586846,35.21085713535326,0 33.46798348012202,35.21110054613784,0 33.46786306466071,35.21131939941001,0 33.46760872598357,35.2116165288559,0 33.46752129685043,35.21177489123463,0 33.46743168622213,35.21209422703254,0 33.46738135830554,35.21217647361652,0 33.46721768322712,35.21227719977774,0 33.46693805347525,35.21232781060303,0 33.46686708560635,35.21243792991603,0 33.46680761035662,35.21249777422475,0 33.46680787208029,35.21263904658439,0 33.4686517765263,35.21265574149791,0 33.47022765948181,35.2127338793893,0 33.47141926625892,35.21266850295295,0 33.47194561974248,35.21267054016082,0 33.472115720269,35.21333185755488,0 33.47237317564069,35.2137988105359,0 33.4724965824097,35.21427680530885,0 33.47279216474269,35.21477087632226,0 33.47285502447565,35.21475041816075,0 33.47295643938799,35.21498121213047,0 33.47305410488502,35.21498516082202,0 33.47307906085808,35.21505033084096,0 33.47340151042594,35.21488554467487,0 33.47473786329333,35.2143377166085,0 33.47483703467196,35.21426559182675,0 33.47485845388924,35.21421530244064,0 33.47512332259158,35.21423261190878,0 33.47514312475771,35.21420134264775,0 33.47591315699103,35.2143837071059,0 33.47678758130658,35.21462026152332,0 33.47678109513703,35.21468819024056,0 33.47667390606198,35.21489073358529,0 33.47665649262047,35.21529148240501,0 33.47679544119574,35.21608052362686,0 33.47683835110023,35.2163058911466,0 33.47685592554356,35.21639818957969,0 33.47697796032676,35.21666969734441,0 33.47702247489816,35.21679935117515,0 33.47706284596576,35.21696532820697,0 33.47711938471283,35.21731288232689,0 33.47718466135625,35.21781521574215,0 33.47715716093884,35.21809749460004,0 33.47713595496079,35.21831515538587,0 33.47698300213693,35.2184937590924,0 33.47689504855903,35.21876394508152,0 33.4768434137944,35.2188597502531,0 33.47669150347328,35.21914160311283,0 33.47667930428575,35.21925164984476,0 33.47661333730431,35.21938078506361,0 33.47659536321826,35.21950034700173,0 33.47647176997548,35.21978984990821,0 33.47645124683081,35.22029520009364,0 33.47643007432379,35.22047181960966,0 33.47644520211462,35.22058726260476,0 33.47634984493872,35.22092427075967,0 33.47626973284231,35.22101583492286,0 33.47606902952564,35.22124522539492,0 33.4759007202223,35.2215293536655,0 33.4758478164854,35.22156745853364,0 33.47580225554385,35.2219723204965,0 33.47594218891449,35.22240953680552,0 33.47602520203033,35.22252760725409,0 33.47624565905936,35.22265907872912,0 33.47650141090929,35.22305674650589,0 33.47660908231271,35.22308512908886,0 33.47658857522666,35.22359862927659,0 33.47653419565163,35.22372774940299,0 33.47604875993331,35.22439808254157,0 33.47577129301379,35.22474484153155,0 33.47540944107356,35.2251202374646,0 33.47519326356409,35.22535236966816,0 33.47508822937041,35.22546515566818,0 33.4749528223101,35.22563784954604,0 33.47479437905785,35.22588256766866,0 33.47457657171299,35.22624690301547,0 33.47448104476853,35.22649697163366,0 33.4746764166778,35.22651165631684,0 33.47498443531494,35.2265642273817,0 33.47523452707138,35.22662366648169,0 33.47548467464601,35.22671163003537,0 33.47577287634974,35.22678867738323,0 33.47589216971257,35.22683877880049,0 33.4763162072047,35.22695911153498,0 33.47660961223151,35.22704539722284,0 33.47685977280199,35.22711070068635,0 33.477894981986,35.22738093364885,0 33.47952639881389,35.22788841848143,0 33.47980810027394,35.22801520313472,0 33.47981689268843,35.22807114509499,0 33.47956922117834,35.22883448775055,0 33.47945999436174,35.22939112167767,0 33.47942832574719,35.22967296721802,0 33.47943036274162,35.23006871052214,0 33.4794561576355,35.23056310260851,0 33.47945033901481,35.2307523358697,0 33.47946327508583,35.23101886144255,0 33.47944560753177,35.231480758581,0 33.47940679518534,35.23191012829955,0 33.47938714204396,35.2320017163246,0 33.4799155334963,35.23209561168688,0 33.4806683144966,35.23217088549868,0 33.48107879800207,35.23220593023658,0 33.4811891954341,35.23222816029851,0 33.48126376833994,35.23231554943516,0 33.4813185573183,35.2324294159888,0 33.4813781842903,35.23248427048301,0 33.48144471067,35.23257857536192,0 33.48144671519903,35.23259617229377,0 33.481455151619,35.2326702332936,0 33.48161458274613,35.2326672833965,0 33.48161476751292,35.23259594092902,0 33.4816150311128,35.23249462717343,0 33.48164077662424,35.23235114719962,0 33.48167582996146,35.23190855589636,0 33.48177970315007,35.23116473695846,0 33.48181676005068,35.23109652514053,0 33.48184168487929,35.23055221329387,0 33.48187106124397,35.23036599863197,0 33.48182880374257,35.22970987257128,0 33.48176365441932,35.22937932698542,0 33.48164506377604,35.22898577909054,0 33.48160524022881,35.22891360243835,0 33.48172177655196,35.22890835599463,0 33.4818085775055,35.22891332328848,0 33.48183946039477,35.22885732632292,0 33.4818877878978,35.22884403414336,0 33.48193978076163,35.22880428617691,0 33.48199934633261,35.22882963837941,0 33.4820760808761,35.22876340564464,0 33.48217402102512,35.22875818414871,0 33.48219739153802,35.22866760840701,0 33.48217004171505,35.22863203880039,0 33.48220341123354,35.22858010879227,0 33.48223039043273,35.22843459107632,0 33.48227499203917,35.22841825248791,0 33.48231073150477,35.22831239947188,0 33.4824221879333,35.2282491712887,0 33.48249283856067,35.22823889967415,0 33.48251381088544,35.22818698654178,0 33.48264118512267,35.22802607039118,0 33.48264707028794,35.22787346076232,0 33.48278296832595,35.22763725037188,0 33.48300070520687,35.22740601254402,0 33.4830810490247,35.22728687158813,0 33.48318744368655,35.22717379927027,0 33.48326281358606,35.22704754449657,0 33.48341119483979,35.22685404337278,0 33.48345927239488,35.22672070441867,0 33.48365917791197,35.22626262322588,0 33.48367633796632,35.22616696925215,0 33.48367486760008,35.22605506385605,0 33.48363355863321,35.22586386156821,0 33.4837533740623,35.22564801795239,0 33.48377308226093,35.22558491535447,0 33.4838286287105,35.22546682663796,0 33.48393632767559,35.22538732406728,0 33.48397119457518,35.22534045154119,0 33.48403543788812,35.22525408820938,0 33.48402077198292,35.22513589162574,0 33.48405370555036,35.2251071743618,0 33.48406517434912,35.22502273735836,0 33.48417364566025,35.22492064371215,0 33.4841754542734,35.22485692758138,0 33.48415204100161,35.22479643111284,0 33.48416945823443,35.22477251444584,0 33.48411504359179,35.22473754745653,0 33.4841381183784,35.22463397993142,0 33.48410654813641,35.22438394695963,0 33.48404220345293,35.2242390877806,0 33.48405764079024,35.22419605889156,0 33.4840012672908,35.22415153779944,0 33.48401862799918,35.22410054290724,0 33.48398745000961,35.22404005761273,0 33.48400868980917,35.22398746348099,0 33.4839717116043,35.2239365443219,0 33.48399487078062,35.22387439055382,0 33.4839519374662,35.2237597655552,0 33.48400801705915,35.22366252450598,0 33.48408525058024,35.22347127464038,0 33.48412757004442,35.22328962978458,0 33.48418325017314,35.22299965362721,0 33.48418299908401,35.22287859786321,0 33.48422350265791,35.22275748455096,0 33.48423657513792,35.2225105747296,0 33.48425393536148,35.22245957979386,0 33.48426537954086,35.22236239996925,0 33.4842865902674,35.22229706302663,0 33.48434850787427,35.22220777749927,0 33.48443003034745,35.22221403501712,0 33.48473268863838,35.22217060450058,0 33.48513813871176,35.22209676508301,0 33.48533209301639,35.22204233639044,0 33.48630386820434,35.22179885325231,0 33.48763643927699,35.22147839251335,0 33.48808836939179,35.22136147085106,0 33.48936078049588,35.22104744784088,0 33.48967925774755,35.22097050959992,0 33.49010383610136,35.22086793833399,0 33.49176936323308,35.22046555594371,0 33.49162605517319,35.22134137908813,0 33.49165700096112,35.22140813339219,0 33.49162888455029,35.22163204315654,0 33.49168840468379,35.22168611791682,0 33.49161631277158,35.22192272919263,0 33.49156149825442,35.22200946749467,0 33.49148748404773,35.2223742641572,0 33.49147232592957,35.22248621986519,0 33.49146871703901,35.22285271909222,0 33.49153161247229,35.22345021176555,0 33.49155425113735,35.22374445762355,0 33.49153753986285,35.22415610979743,0 33.49148501721259,35.22428617454531,0 33.49142180592913,35.22456068518256,0 33.49141325447729,35.22467624299479,0 33.49122597611085,35.22503476935501,0 33.4910103300265,35.22533043533245,0 33.49064368027884,35.22583313161203,0 33.49045885517371,35.22610507705398,0 33.49037476549719,35.22626277128582,0 33.4903006682839,35.22644761881357,0 33.49021165132166,35.22662433854656,0 33.49016229441395,35.22676703987392,0 33.49013768640833,35.22687167111135,0 33.49011686007018,35.2269384118144,0 33.49008517107771,35.22703996283766,0 33.48999430069237,35.22723893783878,0 33.48997345727457,35.22734782364932,0 33.4899437604847,35.22737533417412,0 33.48986465498888,35.22748939083151,0 33.48973146502786,35.22782327109864,0 33.4897047014808,35.22806238467371,0 33.48972593550271,35.22813560283804,0 33.48985398855301,35.22829819266105,0 33.48992117214404,35.22840593348491,0 33.48995241431338,35.22852084873132,0 33.48995387004459,35.22862156246006,0 33.48989102988499,35.22880477497623,0 33.48985933450292,35.22905712097473,0 33.48990045511749,35.22915269133014,0 33.4898785772064,35.22935822573683,0 33.48983908540034,35.22944373928748,0 33.48985777460728,35.22948644057877,0 33.48986438741922,35.2296797261604,0 33.48984961896985,35.22973061399475,0 33.48985344774702,35.22978147614592,0 33.48980439095593,35.23003283051919,0 33.48974263916089,35.23014584334435,0 33.48968343762983,35.23029242592845,0 33.48967868146138,35.23038704617657,0 33.4896494722711,35.2306434571528,0 33.4896648041432,35.23085504246266,0 33.48963729427667,35.23132610988269,0 33.48964627943195,35.23146852441669,0 33.48963052121614,35.23163742610568,0 33.4896299042018,35.23192838583026,0 33.48959951021834,35.23221023402795,0 33.48954394178166,35.23258478212512,0 33.48949488953875,35.23291540741076,0 33.48951968759365,35.23302870101192,0 33.48951382784102,35.23315966670237,0 33.48947042447224,35.23343675494574,0 33.48945959653906,35.23363572475987,0 33.48939473713878,35.23392711541351,0 33.48934320470487,35.23423023861516,0 33.48927731355421,35.23451827209862,0 33.48926743236346,35.23468198318312,0 33.48922421956408,35.23504889501974,0 33.48903125497965,35.23524308972592,0 33.48901498077372,35.23528844450986,0 33.48897908790796,35.23524988057014,0 33.4885953292147,35.2352176915467,0 33.48802737152518,35.23517149300858,0 33.48781758693602,35.23515500238585,0 33.48735200545892,35.23513635791815,0 33.48678004197605,35.23513129340274,0 33.48623061597227,35.23513878654837,0 33.48565564662324,35.2351639422203,0 33.4854823657049,35.23513772479361,0 33.48541671726448,35.2351353118824,0 33.48531284783973,35.23510581512578,0 33.48510414297041,35.23507145548201,0 33.4850435783549,35.23506653057296,0 33.48495808350309,35.23506414556245,0 33.48483953186324,35.2350705741196,0 33.48463449638743,35.23508714418427,0 33.48456634507935,35.23510519229237,0 33.48445747198434,35.23511619860807,0 33.48436641076919,35.23512885158402,0 33.48426672483194,35.23515362292738,0 33.48418124848131,35.23515917035877,0 33.48406771813414,35.23517959907404,0 33.48393481448931,35.23523183199071,0 33.48381421922616,35.23529915788288,0 33.48356897671816,35.23545312228399,0 33.48332070860302,35.23562891622393,0 33.48322158456741,35.2356894963763,0 33.48314287794961,35.23572738197758,0 33.48303856902353,35.23575438906587,0 33.48300992355175,35.23575610783961,0 33.48293209351532,35.23572263729844,0 33.48275500825481,35.23568594537091,0 33.48242032799468,35.23563687896483,0 33.48230832853714,35.23564328884659,0 33.48202952087625,35.23565924525812,0 33.48185957136558,35.23560911013175,0 33.48157078697838,35.23548694494304,0 33.48134729813526,35.23577519095605,0 33.48086050566537,35.2363962266643,0 33.48036046242619,35.23704666106811,0 33.47986760686628,35.23771303375508,0 33.47956292958118,35.23783097388082,0 33.47930735033257,35.23794045134573,0 33.47922965762432,35.23797581463207,0 33.47909772098956,35.23800453578192,0 33.47903439887385,35.23806254426518,0 33.4789731491612,35.23813314312957,0 33.4788892733918,35.23814710752079,0 33.47884015081952,35.23814297613642,0 33.47877550644617,35.23805156221955,0 33.47874149694226,35.23793072407128,0 33.47867173314127,35.23783763664689,0 33.47863376175575,35.23778144322228,0 33.47861618738681,35.23769164312755,0 33.47859257903183,35.23765473925432,0 33.47850343660408,35.23759273769598,0 33.47843479479459,35.23754917753771,0 33.47837234566893,35.23753247297944,0 33.47832937090904,35.23753253104886,0 33.4782495747914,35.23753935434964,0 33.47798258145776,35.23756993468907,0 33.47785883106152,35.23759864289289,0 33.47765425931863,35.23763249684816,0 33.47745586237945,35.23768480984141,0 33.47720732333088,35.23773467105213,0 33.47711522621444,35.23773059662135,0 33.47701495334896,35.2377307313466,0 33.47694643364318,35.2377484512247,0 33.47688089202139,35.23775766380428,0 33.47678636517806,35.23777095030176,0 33.47655341837289,35.23781736496132,0 33.47641461647594,35.23783178725823,0 33.47614935365638,35.23783485197316,0 33.4758593457797,35.23786032350439,0 33.47543863374759,35.23781681126226,0 33.47527087025604,35.2378122871832,0 33.47487558669276,35.23767178806459,0 33.47479858463453,35.23759595400032,0 33.47464872896444,35.23745174100955,0 33.47461309406286,35.2374002603886,0 33.47457071039614,35.23727827756237,0 33.47452508358891,35.23718816588867,0 33.47437444229158,35.23706429171006,0 33.47426345851584,35.23693629767638,0 33.47423943251476,35.23690446395141,0 33.47423033886259,35.23690312046597,0 33.47422373968219,35.23690923065237,0 33.47421222708897,35.23693738266198,0 33.4742066105516,35.23702417172986,0 33.47422917390155,35.23715296026715,0 33.47415980690563,35.23717745938301,0 33.47397825249354,35.23688005990565,0 33.47391531579953,35.23681234391862,0 33.47372990028126,35.23665325916637,0 33.47366972090713,35.23672791732403,0 33.47354040662835,35.23694639830354,0 33.47345463367279,35.23703464927267,0 33.47335973521972,35.23710325058015,0 33.47324086901686,35.23717120368852,0 33.47296259581635,35.23728140100911,0 33.47274213781861,35.23737592941038,0 33.47249371132576,35.237537613215,0 33.47179424825691,35.2373554627646,0 33.47187711787831,35.23704687054165,0 33.47190410299957,35.23689835632271,0 33.47196395643809,35.23665352470812,0 33.47206563455528,35.23624253223777,0 33.47177799407505,35.23620764890187,0 33.4714374989609,35.23618978334501,0 33.47071525347845,35.23618664515388,0 33.47067708210126,35.23653653634379,0 33.4706718489502,35.23682536686697,0 33.47069043577083,35.23703890871801,0 33.47073636310649,35.23728902779036,0 33.47076633625211,35.23740628112279,0 33.47079395841295,35.23759065872004,0 33.47083468188721,35.23771128825513,0 33.47092746075043,35.23826101840671,0 33.47092504283456,35.23829356410916,0 33.47078002414035,35.23851545366145,0 33.47070684046243,35.23870673938873,0 33.47067891820906,35.23879830491964,0 33.47045226949582,35.23868401468314,0 33.47029761487955,35.23862048236398,0 33.47020171245401,35.23859890901226,0 33.4693742050418,35.2384426726836,0 33.46861781169457,35.23830871426419,0 33.46790108217824,35.2381719882768,0 33.46761919419448,35.23812284993605,0 33.46742655551164,35.23807427759834,0 33.46724378795381,35.23799992877168,0 33.46704360504458,35.23789305738426,0 33.46682890095469,35.23775366119792,0 33.46683295535294,35.23769734881241,0 33.46674937994509,35.23759278174843,0 33.46669521834155,35.2376417076205,0 33.46666283579531,35.23755182852632,0 33.46659081657586,35.23748411939633,0 33.4665750951394,35.23747363021862,0 33.46645476994857,35.23742581323312,0 33.46643656123472,35.2374109195521,0 33.46642246218562,35.23738347901055,0 33.46640128213203,35.23732587664649,0 33.46639090455209,35.23729944753398,0 33.46638055245141,35.23728725656223,0 33.46636525123827,35.23728049656018,0 33.46626024804976,35.23725164311974,0 33.46615749183065,35.23709685056618,0 33.46597947154788,35.23690723613927,0 33.46583126304117,35.23675148343133,0 33.46570332834732,35.2366099421535,0 33.46556877658392,35.23646468094227,0 33.46529186412679,35.23619721930684,0 33.4649959222407,35.2359152033855,0 33.46487546836227,35.23579670426022,0 33.46450954422684,35.23542833027032,0 33.46431456254494,35.23522280048849,0 33.46398424029211,35.23488997493924,0 33.46380293029648,35.23470375090206,0 33.46361570269955,35.234521743386,0 33.46327840614527,35.23419384879151,0 33.46305006570569,35.23402871838405,0 33.46265640727947,35.23382311375654,0 33.46188907731714,35.23349729442428,0 33.46100933709626,35.23314313431842,0 33.46026522567229,35.23285659491531,0 33.45971545616192,35.23265148490044,0 33.45962938000214,35.23262416454108,0 33.45930565089796,35.23252141155768,0 33.458961121329,35.23242401778054,0 33.45840618653553,35.23224129280759,0 33.45714392375277,35.23182575484315,0 33.45713393711866,35.23179452355331,0 33.45689208703284,35.23171466185804,0 33.45684052444351,35.23170414893303,0 33.45681921729605,35.23169980535467,0 33.4568558992374,35.23184918486136,0 33.45685450565571,35.23199996729804,0 33.45675574695072,35.23233152913513,0 33.456596384345,35.23262774458625,0 33.45643745658456,35.2329231487353,0 33.45634515644147,35.23306019428965,0 33.4561983477772,35.23321018267227,0 33.45610344321015,35.23327401665738,0 33.45601840064413,35.23330801096654,0 33.45578056747508,35.2333781113756,0 33.45549412749147,35.23352961791949,0 33.45529934992739,35.23365322283613,0 33.45506395810699,35.23370162626726,0 33.45497725502987,35.23373155453867,0 33.45489880347704,35.23375537190515,0 33.45488643628334,35.2337702993249,0 33.45478185136331,35.23397311513575,0 33.4547126582744,35.23409589565518,0 33.45457086270131,35.23428045021349,0 33.45437541126537,35.23449557184071,0 33.4543177636296,35.23460613740517,0 33.45427828097753,35.23470990233399,0 33.45424801495745,35.2348882275536,0 33.45423354153196,35.2351221223774,0 33.45414461263145,35.23530119229732,0 33.45402679847756,35.23550063269906,0 33.45390223858746,35.23562008607987,0 33.45385685973764,35.23565877956658,0 33.4536487208232,35.23570308223023,0 33.45361567807122,35.23570718657655,0 33.45328411430172,35.23556791655204,0 33.45310474493034,35.23552405709388,0 33.45291228156466,35.23555478176342,0 33.45272070071304,35.23561940025268,0 33.45258117409503,35.2356846386649,0 33.45229293750337,35.23575885702564,0 33.45215741782437,35.2357501971811,0 33.45188061986499,35.2357477993054,0 33.4516650149596,35.2357751587921,0 33.45150061126607,35.23578754602998,0 33.45139401485592,35.23578156451583,0 33.45124351425459,35.23570784176857,0 33.45116248871239,35.23567607168224,0 33.4511228374153,35.23568153943672,0 33.45107332900724,35.23572091339796,0 33.45096450891045,35.23586814073462,0 33.45092984752345,35.23589326252947,0 33.45073746859132,35.23597550470798,0 33.45054584343367,35.2360157167704,0 33.45035957135801,35.23605009288618,0 33.45028724808078,35.23606343923409,0 33.45023631780811,35.23608777765757,0 33.45009491690445,35.23608928515721,0 33.44998962904742,35.23605432797729,0 33.44973944036468,35.23589272487666,0 33.44954552814055,35.2359563437715,0 33.44926127547625,35.23607672070912,0 33.44889981290379,35.23623900113245,0 33.44854633732291,35.23625962640168,0 33.44824883337758,35.23632065881134,0 33.44794952110835,35.23628186625115,0 33.44765028313246,35.2362889386762,0 33.44752535520695,35.23630931040422,0 33.44734948988018,35.23635132140027,0 33.44712295046273,35.23657550417735,0 33.44707857790659,35.23658904281255,0 33.44683359153827,35.23659200712732,0 33.44653922049466,35.23655860114241,0 33.44644221658992,35.23656140442616,0 33.44636670725338,35.23663972920947,0 33.44642766128889,35.236712509265,0 33.44647869255081,35.23675022601623,0 33.44668097939272,35.23677833565653,0 33.44671063670562,35.23681607529984,0 33.44671234996441,35.23685924164202,0 33.44641985924795,35.23697287563352,0 33.44635574898809,35.23698238820932,0 33.4462965108448,35.23695412292958,0 33.44623718105823,35.23686919969365,0 33.44622873236015,35.23672756399466,0 33.44610359718572,35.23661977810815,0 33.44593576704268,35.2365457646936,0 33.4457761372405,35.23645825146801,0 33.44556564199631,35.23643689394709,0 33.44550646195952,35.23644505207299,0 33.44539804931289,35.23651127008992,0 33.44533400526448,35.23656260067251,0 33.44494009490572,35.23700549744534,0 33.44492535254668,35.23704058751577,0 33.44491402918064,35.23715796313812,0 33.4449158057122,35.2372402502213,0 33.44497033118301,35.23740746915212,0 33.44497040667392,35.23745468424408,0 33.44488684865435,35.23764228536879,0 33.44474231481109,35.23774361554401,0 33.44467506687744,35.23784890985213,0 33.44464396485369,35.2379352801999,0 33.44463751283307,35.23801487803212,0 33.44465908186814,35.23813626561945,0 33.44470035986108,35.23824414206401,0 33.44472019854398,35.23831157016965,0 33.44470892620662,35.23846132235172,0 33.44459230122592,35.23853564260008,0 33.44452328406691,35.23856269602604,0 33.44427665656132,35.23857105328922,0 33.44421924775758,35.23866014941483,0 33.44416195953689,35.23882478910617,0 33.44407663884892,35.2389395454089,0 33.44407841053911,35.23902048403158,0 33.44410161038119,35.23913377580178,0 33.44415771668114,35.23926052254738,0 33.4442218802869,35.23928338682019,0 33.44463457482571,35.23927080516344,0 33.44466590070201,35.23932338314202,0 33.44466927669059,35.23937868862816,0 33.44466120483991,35.23947312826052,0 33.44469927162663,35.23962822281596,0 33.44475364192201,35.23969696352883,0 33.44483594519117,35.23975218537036,0 33.44492476292434,35.23976962697144,0 33.44511558999709,35.23982473176891,0 33.44530277157449,35.23989264661268,0 33.44550873881963,35.23996737678323,0 33.44553779529152,35.24001828540638,0 33.44541874379546,35.24012029143627,0 33.44526660288635,35.24023863586771,0 33.44510453638716,35.24036310184649,0 33.44494895326677,35.24039994556444,0 33.44479163899098,35.24039060497049,0 33.44476462368743,35.240581487381,0 33.44477886169326,35.24068470921821,0 33.44487769722652,35.24088360750248,0 33.44496389741518,35.24094600074271,0 33.44485307171795,35.24101675656713,0 33.44470995060102,35.24108211178984,0 33.44458990268078,35.24107952327568,0 33.44444837519286,35.24110616334489,0 33.4443416441043,35.2411483875136,0 33.44426387941112,35.24118378816082,0 33.44419432718539,35.2411784287268,0 33.44409901787544,35.2411140069008,0 33.44400045690303,35.24108694392923,0 33.44394085589317,35.2410910826726,0 33.44382919113509,35.241155045113,0 33.44377051716893,35.24122166874955,0 33.44369523303062,35.24125706714808,0 33.44354780654324,35.24121782948253,0 33.44335065528357,35.24114536493266,0 33.44317761560421,35.24113875605519,0 33.44281838643077,35.24118667870793,0 33.44259661415746,35.24125279420029,0 33.44235156118364,35.24125441028128,0 33.44228868524029,35.24128232334225,0 33.44223577712899,35.24133196023773,0 33.4421896407417,35.24147599765013,0 33.44218148757749,35.24155683011515,0 33.44218997256698,35.24168994329968,0 33.44217437576303,35.24177485827875,0 33.442145488679,35.24183261987175,0 33.44206112031302,35.24188161084606,0 33.44186004043127,35.24194498672509,0 33.44172760470138,35.24196414229766,0 33.44168046873901,35.24199883097902,0 33.44165160510495,35.24207153459326,0 33.44165009977828,35.24216798175207,0 33.44171607230987,35.24253467685188,0 33.44170299684729,35.24264539996693,0 33.44165761442617,35.24274257150552,0 33.44161214273037,35.24278337086844,0 33.441518635546,35.24281403183564,0 33.44144326615679,35.24279441414308,0 33.44125019633471,35.24268594450076,0 33.44118061882565,35.2426649615655,0 33.44109286536298,35.24266777013267,0 33.44095383931757,35.24270866589737,0 33.44091664021092,35.24274470169868,0 33.44092085000611,35.24279088223482,0 33.44095733984615,35.24283023797618,0 33.44101950973855,35.24288043390749,0 33.44104689604368,35.24292251522358,0 33.44104942040677,35.242949001272,0 33.44103455068837,35.24296939245838,0 33.44097166147122,35.24299051296241,0 33.44088390468691,35.24299196210595,0 33.44076713778384,35.24297102823814,0 33.44052610301259,35.24289724606245,0 33.4403612610841,35.2428396851162,0 33.44028675140364,35.24284044113772,0 33.44026782940817,35.24291856792713,0 33.44029277618577,35.24299053642743,0 33.44034756737953,35.24308760531506,0 33.44037832005203,35.24316568027179,0 33.44042640400593,35.24320774049759,0 33.4407626386858,35.24327463306602,0 33.44078338849576,35.24330857027663,0 33.4407238701895,35.24336772213771,0 33.44068172110941,35.24341598872499,0 33.44061468030291,35.24342896304014,0 33.44042342372137,35.24342304753092,0 33.44039616288573,35.24346246955476,0 33.44038724067192,35.2435826960073,0 33.44040310769648,35.243672333068,0 33.44035514468185,35.24370837991833,0 33.44020196708894,35.24369970879316,0 33.44014239015546,35.24372150457422,0 33.44011180531332,35.24375277930446,0 33.44011600732708,35.24379352635545,0 33.44016327672318,35.24384441688397,0 33.44033311382479,35.24391895277706,0 33.44037872393044,35.24396712888351,0 33.44038791382545,35.24402077548954,0 33.44037473135455,35.24406289910004,0 33.44032511119477,35.24409894745985,0 33.44022167861858,35.24413641021597,0 33.44016465943474,35.24420642608695,0 33.44014899181131,35.24424719401694,0 33.4401317454659,35.2443382233761,0 33.44008053339745,35.24441706245422,0 33.44000031667031,35.24447623513262,0 33.43991919845404,35.24448854454432,0 33.43982315250203,35.24448456788626,0 33.43976196468862,35.24453557052669,0 33.43971079919658,35.24464429371885,0 33.43967449954182,35.24472855163854,0 33.43959765777375,35.24483050943579,0 33.43948729751557,35.24489386280303,0 33.43943883411593,35.24492168418497,0 33.43930886074727,35.24492860993898,0 33.43927496238921,35.24495988746809,0 33.43927504556396,35.24501422251048,0 33.43930574518475,35.24505765957792,0 33.43941093092208,35.24508336103355,0 33.43948833685521,35.24508648359126,0 33.43960799058856,35.24509130949677,0 33.43966267323301,35.24511706166338,0 33.43948993981904,35.24538355724177,0 33.43946443769809,35.24542290325405,0 33.43944223753348,35.24552480493759,0 33.43942911340426,35.24560496296252,0 33.43937784118938,35.24564440883058,0 33.43924458979292,35.24567510956709,0 33.4390733206131,35.24574999594894,0 33.43902372884058,35.24580506103625,0 33.43900973336985,35.24585737306079,0 33.43903554903995,35.24595583026569,0 33.43903069086639,35.24602850923243,0 33.43900258539264,35.24605706332254,0 33.43895126005837,35.24606187087588,0 33.43881212272574,35.24603280739076,0 33.43867379754811,35.24599355517919,0 33.43857695711208,35.24601335077694,0 33.43853646780425,35.24606569024812,0 33.43854157267446,35.24615669695898,0 33.43857070103045,35.24625582910954,0 33.43863542059191,35.24634813318696,0 33.43872996425711,35.24645263298503,0 33.43875324874409,35.24651916974779,0 33.43874751729428,35.24656196472698,0 33.43868383416871,35.24660685637414,0 33.43862010722618,35.24662322209765,0 33.43846856705416,35.24660639707479,0 33.43820681824317,35.24652855526633,0 33.43816050153935,35.24655984589464,0 33.43813664468684,35.24666174881773,0 33.43812351146261,35.24673783157451,0 33.43805900082891,35.2467834028272,0 33.43797126637147,35.24680183093526,0 33.4374636759869,35.24676295133865,0 33.43738421275171,35.24677661506286,0 33.4373378908892,35.24680518862873,0 33.4372404806113,35.24699681845244,0 33.43722736018591,35.24708240974766,0 33.43729828589867,35.24715321487144,0 33.437391407636,35.24724617773967,0 33.43740645259223,35.24731252279436,0 33.43740737039507,35.24734388307598,0 33.43736433354911,35.24748211596618,0 33.43732770252349,35.24769585251359,0 33.43730154181472,35.24787808215238,0 33.43729678615656,35.24808168733536,0 33.43731161675849,35.24823108021539,0 33.43731822928547,35.24823740926271,0 33.43733143089787,35.24823649352619,0 33.43736149207575,35.24822832563308,0 33.43742093496351,35.24820107473899,0 33.43749868893677,35.24813876596394,0 33.43752062498046,35.24813397603875,0 33.43754184974873,35.24813607524131,0 33.43755537299614,35.24814717103843,0 33.43758714444927,35.2482055766018,0 33.4376740819658,35.24839963718146,0 33.43772604630709,35.2485019814628,0 33.43777996979802,35.24855380697988,0 33.43794474914954,35.24868842713151,0 33.43797161366967,35.24874701169121,0 33.43796107964902,35.24881633004208,0 33.43791032273951,35.2489950261291,0 33.4379126762033,35.24904219324683,0 33.43794484224518,35.24913095131854,0 33.43799990936211,35.24920653121969,0 33.43803236251156,35.24923873010888,0 33.43816360042153,35.24932768023167,0 33.43821143623747,35.24937645297322,0 33.43822752203567,35.24942590132968,0 33.43817993479083,35.24946805730899,0 33.43800280938036,35.24958146860148,0 33.43798332008384,35.24960914666448,0 33.43798516895765,35.24969323891187,0 33.43800948430993,35.24975095743603,0 33.43805658101093,35.2498520680474,0 33.43808745836859,35.24994813372869,0 33.43807858988664,35.25002700790645,0 33.43806597297146,35.25007232458338,0 33.43802804406505,35.25015331042202,0 33.4380016693033,35.25019997577863,0 33.43793568598702,35.25028055113602,0 33.43793840582911,35.25029408004951,0 33.4379550438327,35.25031033034445,0 33.43800045349182,35.25036086873315,0 33.43802136019607,35.25040689063419,0 33.43802590668661,35.25055899318281,0 33.4380403634303,35.25059155916037,0 33.4380715447145,35.25061048347612,0 33.43811163531786,35.25063082585378,0 33.43822825831345,35.2506455585297,0 33.43848189202702,35.25065947204808,0 33.43859354921458,35.25067293068377,0 33.43871673911617,35.25072643636346,0 33.43880596265437,35.25078192102721,0 33.43890337333066,35.25085281930545,0 33.43907331481736,35.25099780123838,0 33.43903603480928,35.25100337633,0 33.43712223888638,35.25052733659768,0 33.42781655438574,35.24821159858633,0 33.42786284418398,35.24812112451672,0 33.42793963532576,35.24806156095685,0 33.42797771673455,35.24802668250015,0 33.42805407629682,35.24795674638087,0 33.42810038657003,35.24788174167452,0 33.42812198953722,35.24777106470297,0 33.42810739156545,35.24770325574953,0 33.42801729109114,35.24757840483498,0 33.42796066659722,35.24753800139908,0 33.42788945185353,35.24743455002876,0 33.42788934995576,35.24736077852325,0 33.42800812500317,35.24724346721158,0 33.42805295922496,35.24716218690103,0 33.42817811079529,35.24693529700272,0 33.42819926181155,35.24686098338206,0 33.42819262999501,35.24674424171897,0 33.42810097848464,35.24662682102171,0 33.42810092263144,35.2465858840168,0 33.42817940138163,35.24653350105126,0 33.42831608419959,35.24647120957442,0 33.42835943703134,35.24641279435579,0 33.4283868927925,35.24621945240752,0 33.42837103279496,35.24611181672709,0 33.42829508065492,35.24598680052561,0 33.42831715400747,35.24591096928666,0 33.4283882718841,35.24588209596245,0 33.42851483044089,35.24584862035039,0 33.42858130950282,35.24580686274501,0 33.42859966722978,35.24571738956119,0 33.42856808421694,35.24560067045693,0 33.42840585591542,35.24523541673047,0 33.42840669432262,35.2451740097484,0 33.42845463218248,35.24508981492585,0 33.42854331198131,35.24506471472068,0 33.42873184843837,35.24507742621228,0 33.42868364416162,35.2449698203974,0 33.4286973876969,35.24488490019208,0 33.42871767450904,35.244853040156,0 33.42881278979864,35.24480443232238,0 33.42892547827702,35.24476642189119,0 33.42894207723671,35.2447413893432,0 33.42888460690924,35.24461559768789,0 33.42885960692034,35.24458074866918,0 33.42881985013324,35.24456562371655,0 33.42865822034111,35.24463021341973,0 33.42849192283823,35.24465993590731,0 33.42838562763847,35.2446433571787,0 33.42833936342303,35.24460094679882,0 33.42832636858154,35.24456002132119,0 33.42834385409426,35.24450693737752,0 33.42844264497842,35.24444316457339,0 33.42854053527343,35.24439682852866,0 33.42858022700548,35.24436495118056,0 33.42857649200469,35.24433690434959,0 33.42851909694489,35.24426493833827,0 33.42865477121154,35.24414351479852,0 33.42858412373237,35.24384488796171,0 33.42862194595639,35.243797092481,0 33.42866995551416,35.24376596534013,0 33.42873831587651,35.2437492233756,0 33.42884831389217,35.24377186310191,0 33.42908407771819,35.24385730697257,0 33.42910068891268,35.24383985498923,0 33.42908124218567,35.24381106525066,0 33.42896379465785,35.24374901121644,0 33.42887956891687,35.24365356929088,0 33.4288185397984,35.24362633481451,0 33.42871023741875,35.24349452703427,0 33.42871848169422,35.24344220948895,0 33.42879321773263,35.24335950601807,0 33.42890402002011,35.24329647988753,0 33.42901950258861,35.24327514406988,0 33.42912948059067,35.24328262144723,0 33.42926821871723,35.24337194778349,0 33.4293810976253,35.24347115202123,0 33.42964019650062,35.24372184012658,0 33.42966421619793,35.24371726867223,0 33.42978043560655,35.24356250586967,0 33.42985983080465,35.24350860512585,0 33.42995407555794,35.24349866071201,0 33.43002803181717,35.24351905946614,0 33.43008355989273,35.24357813891835,0 33.43010490327532,35.24364104091219,0 33.43013933387587,35.24381006580636,0 33.43020968200701,35.24389263214579,0 33.43033917547636,35.24397741648033,0 33.43043454129503,35.24410696124932,0 33.4305068119871,35.24424259310713,0 33.43061411234476,35.24431526848009,0 33.43068341834754,35.24431444408404,0 33.43077387345414,35.24423930556326,0 33.43080234180743,35.24411419141303,0 33.43078828400904,35.24397471455848,0 33.43079179344651,35.24384280087209,0 33.43076310177394,35.24381098772213,0 33.43063096103625,35.2438149039522,0 33.4305265347004,35.24381272905929,0 33.43045903270804,35.24378246996088,0 33.43044414940782,35.24371349677561,0 33.43046254196398,35.24364979821539,0 33.4305142238747,35.24360350503229,0 33.43062965903283,35.24354805319872,0 33.43104505739189,35.24323607590029,0 33.43132104362799,35.24301217157796,0 33.43146872835074,35.24289300691494,0 33.43155928364312,35.24288988706071,0 33.43162122842161,35.24291257121582,0 33.43166106646453,35.24298455241471,0 33.43167870354711,35.24303911874072,0 33.43182018853768,35.24310872901381,0 33.43188949858434,35.24311093616925,0 33.43206868262615,35.24304859874693,0 33.43224602343536,35.24298929538875,0 33.43232550538611,35.24299604138751,0 33.43243555333196,35.24305355039048,0 33.43251974534498,35.24312169787889,0 33.4326149104103,35.24311099274712,0 33.43277295095334,35.24312600183191,0 33.43278954546526,35.24309793561645,0 33.43279402141854,35.24299861963543,0 33.43283267729921,35.2428909319624,0 33.43287418463031,35.24283706558317,0 33.43297388624615,35.24276873924846,0 33.43310320132357,35.24272843452678,0 33.43320208692506,35.24273440292778,0 33.43334538100336,35.24277671646865,0 33.43342114832674,35.24277133612126,0 33.4334497755091,35.24275766147417,0 33.43348373664865,35.24259918484296,0 33.43352613393085,35.24252333392108,0 33.43363879562988,35.24247015613354,0 33.43373486977693,35.24244959294475,0 33.43395292382174,35.24242891057181,0 33.43401937732285,35.2423735040269,0 33.43405227446514,35.24211950695646,0 33.43410940383732,35.24200801007152,0 33.43415458486704,35.24194049484846,0 33.43436231861337,35.24181520266939,0 33.43446018265811,35.2417544578291,0 33.4346889346505,35.24146994320384,0 33.43481081190929,35.24140083623212,0 33.43492354983426,35.24140148307921,0 33.43501044307106,35.24142338178666,0 33.43505294943299,35.24142182374693,0 33.43508702778617,35.24134522157547,0 33.43506170392799,35.24109203920986,0 33.43522875166333,35.24094934995964,0 33.43522951096998,35.24083790829927,0 33.43526258573118,35.24070823983158,0 33.43535210634276,35.24063082524163,0 33.43559398396218,35.24047744720696,0 33.43560959303466,35.24040920227348,0 33.43548462368594,35.24025997996497,0 33.43549720818359,35.24002116540891,0 33.43540367674424,35.23993735866226,0 33.43541054163543,35.23990287227151,0 33.43542047628259,35.23985297199491,0 33.43541268221662,35.23982194106121,0 33.43536012115148,35.2397909548836,0 33.43530503862614,35.23980088524115,0 33.43529822474616,35.23985027131312,0 33.43529873822749,35.23990298327709,0 33.4352993909888,35.23997435878694,0 33.43524976831543,35.24016165995524,0 33.43518344250976,35.24030197434745,0 33.43491176082413,35.24029617879715,0 33.43459389595407,35.24030407373479,0 33.43450612868421,35.24031704787819,0 33.43432404635212,35.24028766100259,0 33.43404387311936,35.24016209108896,0 33.43396436755778,35.24013639380022,0 33.43387922797358,35.24005005354184,0 33.43384213374905,35.23995987508723,0 33.4338955784735,35.2399043673967,0 33.4339741397633,35.23982277011967,0 33.43403949631802,35.23974911716699,0 33.43407326396857,35.2396277608736,0 33.43401006107574,35.23951644400478,0 33.43388372584607,35.23933955422749,0 33.43375258509986,35.23919250471399,0 33.43368943043731,35.23911300994489,0 33.43363838240418,35.23902157079765,0 33.43362356089351,35.23883263888069,0 33.43367905099784,35.23864363712494,0 33.43380747997961,35.23859378916898,0 33.43400383796661,35.23857370729064,0 33.43405471868414,35.23854978959707,0 33.43399644570381,35.23849216938074,0 33.43389678801597,35.2383192320364,0 33.43376307742441,35.23807074907507,0 33.43350836220518,35.23797553175039,0 33.43342096352112,35.23789606055452,0 33.43339901591003,35.23780857059867,0 33.43344976624863,35.23769515250983,0 33.43352721812522,35.23760358746167,0 33.43365555869443,35.23749407196851,0 33.43364806554705,35.23734292230105,0 33.43351932606046,35.23717796869342,0 33.43342910578615,35.23682403074559,0 33.43350636421196,35.23659920847409,0 33.43358598504652,35.23633261655718,0 33.43365554201307,35.23616348944623,0 33.43368745431639,35.23608589302699,0 33.43341590772576,35.23608218028368,0 33.43330676050086,35.23605046466278,0 33.43322670738726,35.23601872052887,0 33.4331998823008,35.23591134540132,0 33.4332191488542,35.23582182577962,0 33.43324811764676,35.23573627447354,0 33.43333045878011,35.23567254930721,0 33.43337876302353,35.23554521087895,0 33.43332523122005,35.23541200667655,0 33.4331769908093,35.23517149360217,0 33.43315751788257,35.235117811038,0 33.43315012571816,35.23503627302549,0 33.43323484074675,35.23493873480676,0 33.43324932409827,35.23489496492398,0 33.43319833115224,35.23483932470084,0 33.43307466658579,35.23482751110012,0 33.43292430831304,35.23479782375234,0 33.43283455798414,35.23476608789056,0 33.4327981150628,35.23471242358075,0 33.43271551819568,35.23459714698235,0 33.43264745969542,35.23447588995463,0 33.43264238655155,35.23432075999209,0 33.4326907036823,35.23420137828388,0 33.43271243127061,35.23413771154215,0 33.43263470158097,35.23403436262307,0 33.43253031667328,35.23394098537361,0 33.43241868215571,35.23386352624176,0 33.43223918226494,35.23379806612702,0 33.43218823534433,35.23377424868121,0 33.43215666143147,35.23373450038412,0 33.4321178137049,35.23369476001804,0 33.43210801063599,35.23362117983606,0 33.43215881739503,35.23354754101594,0 33.4322799208128,35.23346587850622,0 33.4325269556314,35.23329061505918,0 33.43275697740913,35.23308553553883,0 33.43278829673393,35.23294826977395,0 33.43273950481881,35.23273749315948,0 33.43278022488837,35.23265321503258,0 33.43288559592175,35.23243512228702,0 33.43314434919298,35.23226395842211,0 33.43316510932326,35.23213914600268,0 33.43320899489253,35.23200074536791,0 33.43315919948777,35.23186334070031,0 33.43287476640153,35.23180483795777,0 33.4328548260759,35.23173432181825,0 33.43298121056804,35.23148461345875,0 33.43307473475564,35.23137691132971,0 33.43308121238746,35.23128376157371,0 33.43302047981778,35.23120333824909,0 33.4329916598616,35.23108942426236,0 33.4330135938322,35.23101434696898,0 33.43309507824588,35.23096453156158,0 33.43350173803405,35.23095057007642,0 33.43359978223739,35.2309206318561,0 33.43362834385744,35.23085639961023,0 33.43356874835369,35.23080039100102,0 33.43345831489364,35.23064676865462,0 33.43337765298073,35.23050306391997,0 33.43336432285057,35.23043073313163,0 33.43340278891132,35.23035654302812,0 33.43344348903531,35.23030314978016,0 33.43357122127343,35.23022615933809,0 33.4337176231688,35.2301039370699,0 33.43379125024857,35.22995646444174,0 33.43393392677507,35.22954758144517,0 33.43402740653732,35.22941094064907,0 33.43414957335678,35.22929778344044,0 33.43426965650646,35.22926782422203,0 33.43435563577745,35.22927859105779,0 33.43447140242026,35.22931103109248,0 33.43456067379195,35.22931184819512,0 33.43463327872091,35.22922134625463,0 33.43482806969079,35.22903125215384,0 33.43490064590921,35.22892085568165,0 33.43430570632083,35.22904804444772,0 33.43414585377458,35.229013837916,0 33.43407634902562,35.22896417026463,0 33.43399446060246,35.2287354633597,0 33.43407352204174,35.22853734474591,0 33.43433790636482,35.2284584103576,0 33.43449994807001,35.22848266740673,0 33.43498592053368,35.2284532504581,0 33.43512273061228,35.22855620443961,0 33.4352241563129,35.22857961565588,0 33.43525937390535,35.22854702564138,0 33.43513791444514,35.22838889422351,0 33.43523410948058,35.22785435953392,0 33.43520096883695,35.22780103825232,0 33.43513255121731,35.2277405182137,0 33.43494482799591,35.22748750064729,0 33.43495020404792,35.22739525698536,0 33.43498097706103,35.22733825547198,0 33.43511426040364,35.22729290910887,0 33.43525096487227,35.22732623223069,0 33.43539100032613,35.22737582944821,0 33.43546384044599,35.22744538875325,0 33.43581548812163,35.22750562658141,0 33.43589334747806,35.22724420679165,0 33.43606176988746,35.22711472463395,0 33.43628960887332,35.22692007247568,0 33.43641954182453,35.22684669465195,0 33.43650327426067,35.22683033276824,0 33.43662234677255,35.22686457784357,0 33.43665562109064,35.22700651886699,0 33.43666353246859,35.22713853787954,0 33.43670434456227,35.22716291374521,0 33.43673736818248,35.22713665533208,0 33.4368306528117,35.22687521894418,0 33.43689767168807,35.22673679469892,0 33.43689427238581,35.22667440135008,0 33.43675289776904,35.22646565126349,0 33.43670747802948,35.22630744440059,0 33.43672721238135,35.22623869754679,0 33.43680872613535,35.22621329625068,0 33.43695538535436,35.22627102350575,0 33.43704506709171,35.22633239598953,0 33.43708606535354,35.22634893441337,0 33.43724965455034,35.22641492717811,0 33.43730230119094,35.22636220426143,0 33.43726317441033,35.22625878452056,0 33.43708582412809,35.22618718796879,0 33.43706985461544,35.22618074123039,0 33.43695736220342,35.22611909956199,0 33.43696279276548,35.22606573957044,0 33.43708548340972,35.22595936220763,0 33.43709205486287,35.22595366425833,0 33.43723053696874,35.22589576933983,0 33.43739094243667,35.22585234341491,0 33.43746874746815,35.22576009209849,0 33.43754013205873,35.22554575864327,0 33.43756649087645,35.22539624158276,0 33.43758748746205,35.22527714042215,0 33.43771857201773,35.22523665310328,0 33.43780399223088,35.22509332495648,0 33.43779069677541,35.22501225824725,0 33.43764228584713,35.22488267985393,0 33.43771129095678,35.22477450385508,0 33.43779021641343,35.22469334342603,0 33.43780650992196,35.2245771121094,0 33.43773068208889,35.22452854112957,0 33.43775992346032,35.22426094647072,0 33.43777860076867,35.22353931418189,0 33.43786076212524,35.22342031353215,0 33.4379858780193,35.22339315917762,0 33.43825294051539,35.22357937264229,0 33.43827594242133,35.22354421464326,0 33.4382823027453,35.22339285884711,0 33.43841395208554,35.22333056330483,0 33.43877953659308,35.22332748829658,0 33.43893088665469,35.22322463233598,0 33.43888439077548,35.22297062811926,0 33.43883148877864,35.22283554891313,0 33.43900924773517,35.22277320545415,0 33.43936612433248,35.22242426242196,0 33.43941046598651,35.22238090706809,0 33.43952570748242,35.2223591673386,0 33.43983204102647,35.2223804740348,0 33.43998012336566,35.22229653880584,0 33.44003244291441,35.22205054159144,0 33.44018721993457,35.22203686824754,0 33.44054593699854,35.22185541869427,0 33.44064120054674,35.22169315962532,0 33.44067057589321,35.22152015784607,0 33.44068679427942,35.22135798002017,0 33.44074265119112,35.22127143741277,0 33.44082492186933,35.2212281093006,0 33.44096647963266,35.22118742168677,0 33.441190160022,35.22100611047232,0 33.4413050634803,35.22076815569933,0 33.44140028228126,35.22057886901503,0 33.44150544708309,35.22043281522033,0 33.44076333413449,35.21973089221066,0 33.44019913011461,35.21906391441853,0 33.43983594912929,35.21847240334619,0 33.43967227502299,35.21814182844646,0 33.43958086383456,35.21795720216565,0 33.43949702672047,35.21781561386319,0 33.43937024454235,35.21763359011544,0 33.43934012851008,35.21760050674426,0 33.43915976762684,35.21740237470634,0 33.43886987791999,35.21711756101276,0 33.43838896471674,35.21670270671309,0 33.43792200614191,35.21629487586924,0 33.4370698069876,35.21547081921001,0 33.4367417348156,35.21515357640272,0 33.43614798518311,35.2144982864205,0 33.4357907835587,35.21418390683916,0</coordinates>
						</LinearRing>
					</outerBoundaryIs>
				</Polygon>
			</MultiGeometry>
		</Placemark>
	</Document>
</kml>