<?xml version='1.0' encoding='UTF-8'?>
<kml xmlns="http://www.opengis.net/kml/2.2">
	<Document>
		<name>NETA</name>
		<Style id="PolyStyle70">
			<LabelStyle>
				<color>00000000</color>
				<scale>0.000000</scale>
			</LabelStyle>
			<LineStyle>
				<color>ff0055ff</color>
				<width>2.000000</width>
			</LineStyle>
			<PolyStyle>
				<color>00828282</color>
				<outline>1</outline>
			</PolyStyle>
		</Style>
		<Placemark id="ID_70227">
			<name>NETA</name>
			<snippet />
			<description>&lt;html xmlns:fo="http://www.w3.org/1999/XSL/Format" xmlns:msxsl="urn:schemas-microsoft-com:xslt"&gt;

&lt;head&gt;

&lt;META http-equiv="Content-Type" content="text/html"&gt;

&lt;meta http-equiv="content-type" content="text/html; charset=UTF-8"&gt;

&lt;/head&gt;

&lt;body style="margin:0px 0px 0px 0px;overflow:auto;background:#FFFFFF;"&gt;

&lt;table style="font-family:Arial,Verdana,Times;font-size:12px;text-align:left;width:100%;border-collapse:collapse;padding:3px 3px 3px 3px"&gt;

&lt;tr style="text-align:center;font-weight:bold;background:#9CBCE2"&gt;

&lt;td&gt;3&lt;/td&gt;

&lt;/tr&gt;

&lt;tr&gt;

&lt;td&gt;

&lt;table style="font-family:Arial,Verdana,Times;font-size:12px;text-align:left;width:100%;border-spacing:0px; padding:3px 3px 3px 3px"&gt;

&lt;tr&gt;

&lt;td&gt;DIST_CODE&lt;/td&gt;

&lt;td&gt;3&lt;/td&gt;

&lt;/tr&gt;

&lt;tr bgcolor="#D4E4F3"&gt;

&lt;td&gt;VIL_CODE&lt;/td&gt;

&lt;td&gt;341&lt;/td&gt;

&lt;/tr&gt;

&lt;tr&gt;

&lt;td&gt;VIL_CCD&lt;/td&gt;

&lt;td&gt;3341&lt;/td&gt;

&lt;/tr&gt;

&lt;tr bgcolor="#D4E4F3"&gt;

&lt;td&gt;VIL_NM_E&lt;/td&gt;

&lt;td&gt;NETA&lt;/td&gt;

&lt;/tr&gt;

&lt;tr&gt;

&lt;td&gt;VIL_NM_G&lt;/td&gt;

&lt;td&gt;ΝΕΤΑ&lt;/td&gt;

&lt;/tr&gt;

&lt;/table&gt;

&lt;/td&gt;

&lt;/tr&gt;

&lt;/table&gt;

&lt;/body&gt;&lt;script type="text/javascript"&gt;

				function changeImage(attElement, nameElement) {

				document.getElementById('imageAttachment').src = attElement;

				document.getElementById('imageName').innerHTML = nameElement;}

			&lt;/script&gt;&lt;/html&gt;

</description>
			<styleUrl>#PolyStyle70</styleUrl>
			<MultiGeometry>
				<Polygon>
					<extrude>0</extrude>
					<altitudeMode>clampToGround</altitudeMode>
					<outerBoundaryIs>
						<LinearRing>
							<coordinates> 34.21544431410113,35.48314466338866,0 34.21546858584689,35.48312020215277,0 34.21545348074187,35.48303655604193,0 34.21537256293296,35.48286211451688,0 34.21531148496103,35.4826369170823,0 34.21527425234499,35.48262718051812,0 34.21526722992261,35.48270813925851,0 34.21517272548567,35.48272594334323,0 34.21476490215023,35.48273341970256,0 34.2145395718452,35.48281994683934,0 34.21441177660075,35.48284335886243,0 34.21427127391451,35.4828220090111,0 34.21417676320116,35.48280674587541,0 34.21412686710718,35.48277691505383,0 34.21396146144294,35.48273813572131,0 34.21345376161783,35.48263267232615,0 34.21312288404165,35.48259827499593,0 34.21290579332805,35.48268471535454,0 34.21286113217973,35.48272897867297,0 34.21242745404316,35.48293555763814,0 34.21234682639853,35.48305432945102,0 34.21203282651904,35.48327318507986,0 34.21150415901811,35.48374023040446,0 34.21131147019295,35.4838203572345,0 34.21101256112424,35.4838604411652,0 34.21057818428616,35.48386391403763,0 34.2097082712921,35.48392108657846,0 34.20900430509325,35.48400071232711,0 34.20848755747033,35.4838130931407,0 34.2081410743519,35.48369643263197,0 34.20802325878586,35.48380883410838,0 34.20791950264582,35.48375931768317,0 34.20781631061705,35.48366280226004,0 34.20782965349156,35.48353625556391,0 34.20788363765915,35.48334903456938,0 34.2079116362133,35.4832336234969,0 34.20802115947154,35.48301602094723,0 34.20802219979686,35.48289703663671,0 34.20797324060847,35.48278489977298,0 34.20789063292359,35.48269916503868,0 34.20769757054665,35.48269651266783,0 34.20768759429614,35.4825055597335,0 34.20762311609695,35.48230611052817,0 34.20744729347829,35.48223689526672,0 34.20680941098502,35.48208764009391,0 34.20653265013655,35.48194984073474,0 34.20655002598034,35.48173396476486,0 34.20632297816044,35.48170590192915,0 34.20610964915147,35.4817687003289,0 34.20591048404301,35.48167632131974,0 34.20591806953512,35.48163243107582,0 34.20571137031811,35.48149387640096,0 34.2056354000321,35.48146673964875,0 34.2056305760625,35.48141960258366,0 34.2061572164888,35.48136715509906,0 34.20624886097416,35.48143364560531,0 34.20642300513647,35.48150605197365,0 34.20646046760066,35.48097990419588,0 34.20648448202876,35.4809324797254,0 34.20663824356888,35.48088088545158,0 34.20672199605497,35.48084394671616,0 34.20676828854235,35.4806229406671,0 34.20694387949111,35.4805167041646,0 34.20712718103004,35.48037001426002,0 34.20753095093987,35.48037264657604,0 34.2074261888058,35.48114552941013,0 34.20804331864509,35.48129436097401,0 34.20846556347396,35.48142494699432,0 34.20968984727288,35.48173286097062,0 34.21147245269637,35.48217671288131,0 34.211757131223,35.48220081732711,0 34.21182393218275,35.48213489578614,0 34.21197563297883,35.48165936853152,0 34.21208204197006,35.48161111536477,0 34.21208760024365,35.48143243199718,0 34.21225087964005,35.48111220829424,0 34.21225337252451,35.48101984970615,0 34.21220272617994,35.48076029040502,0 34.21214350508755,35.48065446281074,0 34.21208379837253,35.48063032937997,0 34.21205521158668,35.48064746885042,0 34.21197241020056,35.48062133755081,0 34.21124623051672,35.48028148466969,0 34.21111710067584,35.48018841122398,0 34.21083604221679,35.48013056601794,0 34.21028211784785,35.48001142063121,0 34.21028224732951,35.47974516196371,0 34.21001876035038,35.47948491877613,0 34.20939844991497,35.47905973391411,0 34.20934600341906,35.47913440691543,0 34.20939222945876,35.47919460948528,0 34.20936882409426,35.47928247292977,0 34.20924889552531,35.47925334190229,0 34.20927210021555,35.47915199898748,0 34.20920788088898,35.47899086630737,0 34.20879669485088,35.47877254396435,0 34.20876997583224,35.47891436561471,0 34.20864554154789,35.47913468424044,0 34.20864771083051,35.47927958732782,0 34.20861601451863,35.47936416285145,0 34.20864535725462,35.47939757270728,0 34.2086132562253,35.47945519017725,0 34.20846595327474,35.47952407210248,0 34.20842149310125,35.47958181329666,0 34.20839611836335,35.47953825297336,0 34.20813104010556,35.4794465376248,0 34.20814650978,35.47937897611974,0 34.20796367644844,35.47927632533382,0 34.20791313046558,35.47920268394591,0 34.20763685318386,35.47918859780188,0 34.20771617351873,35.47898221323221,0 34.20729097821963,35.47888688717831,0 34.2073270592102,35.47875797057561,0 34.20724645760204,35.47870717539462,0 34.20738530699327,35.4783485298308,0 34.20716876302291,35.47819566078174,0 34.20674628538689,35.47804822176229,0 34.20655019056127,35.47788503549071,0 34.20690971362495,35.47795558756037,0 34.20699267592363,35.47793056621202,0 34.20701128211339,35.47764793084878,0 34.20720259291075,35.47742348205232,0 34.20724392907209,35.47716021421092,0 34.20712425629735,35.47714793080291,0 34.20703809652756,35.47717238486162,0 34.20674037205108,35.47710121514592,0 34.20671042549516,35.47702736720291,0 34.20685688851695,35.47607546575988,0 34.20652565819333,35.47596755683799,0 34.20664019149098,35.47563611813812,0 34.20688124078156,35.47565025168289,0 34.20726094702832,35.47333807690104,0 34.20718637388955,35.47331900982606,0 34.20705580210358,35.47363368057958,0 34.20699456162858,35.47381843688964,0 34.20653524158863,35.47374069263967,0 34.20694840095485,35.47259695899039,0 34.20729224718836,35.47272171925728,0 34.20750083430481,35.47229761151213,0 34.20804274820362,35.47244385364603,0 34.20828833592791,35.47206054606909,0 34.20704941496334,35.47159753913564,0 34.20733031975457,35.47142817853803,0 34.20772284335354,35.47104992459601,0 34.20715742478695,35.47081892508977,0 34.20765365467555,35.46992592187293,0 34.2079248470866,35.46951957495185,0 34.20761781510085,35.46933831094405,0 34.20720174514826,35.46915550783923,0 34.20696935511564,35.46898988005567,0 34.20758130988757,35.46886242537205,0 34.20802307919805,35.46863973458991,0 34.20809833158724,35.46858656935863,0 34.20834354284896,35.46831554108549,0 34.20837695441761,35.46820616822416,0 34.2084042625961,35.46794673634077,0 34.2084922055628,35.46785069821144,0 34.20856359004551,35.46780939637888,0 34.20885393060927,35.46780803960286,0 34.20884388587992,35.46761286896041,0 34.20904585720248,35.46734270499844,0 34.20906994235291,35.46726923010939,0 34.20900460107677,35.46706526343179,0 34.20885619772903,35.46695200379966,0 34.20868092033349,35.4666337311842,0 34.20880237645549,35.46649095955534,0 34.20890996106005,35.46624721707563,0 34.20806267453945,35.46593719809192,0 34.20822091557203,35.46568082312614,0 34.20817560805811,35.46549788529792,0 34.20809086981861,35.46544012160724,0 34.20787303815974,35.46534599069533,0 34.20789707452646,35.46520195430133,0 34.2079680756993,35.46515563375624,0 34.2080524425698,35.46518409843144,0 34.2083105371832,35.46522175110414,0 34.20830399096735,35.4651208493416,0 34.20835978141437,35.46504023795743,0 34.20825651394379,35.46497639951483,0 34.20834698169912,35.46496538307227,0 34.20842006562243,35.46489387371625,0 34.20852361629654,35.46483695309924,0 34.20852471849278,35.46469325078208,0 34.20811916005706,35.46460703681623,0 34.20814317345252,35.46455225470756,0 34.20803301082491,35.4645009715932,0 34.20781980406832,35.46462351009094,0 34.20769463907339,35.46460347410909,0 34.20775244233004,35.46451555410077,0 34.20770531402169,35.46438468392371,0 34.2075364392618,35.46434840403087,0 34.20749868576131,35.46443798811683,0 34.20742489621815,35.46446231860207,0 34.20741999618105,35.46444095651261,0 34.20743954072814,35.46434719777471,0 34.20738409169866,35.46416846102756,0 34.20729972069267,35.46414405533198,0 34.20728391372669,35.46409833314122,0 34.20717678840311,35.46409290096312,0 34.20705476510848,35.46412925832228,0 34.20699406948583,35.46419845102792,0 34.20663714727109,35.46412642137315,0 34.20674676970067,35.46394598877121,0 34.20682862953078,35.46397672811744,0 34.20696537136933,35.46386947230061,0 34.20686030949224,35.46362200852585,0 34.20686038862164,35.46357037806802,0 34.20710015811087,35.46340727788087,0 34.20713666545764,35.46339966184086,0 34.20717841461855,35.46322846997237,0 34.2071889340456,35.46302019401039,0 34.20708492093315,35.46293895169055,0 34.20720923353723,35.46275343805834,0 34.20729147476891,35.46255294565641,0 34.20720174626661,35.4625076942766,0 34.2072107657258,35.4623890263354,0 34.20726049697377,35.4622720331531,0 34.20710708816559,35.46221281320734,0 34.20703351698234,35.4622612905076,0 34.20689808197397,35.46223306897261,0 34.20686341025306,35.46234162403334,0 34.20666131353374,35.46228062902129,0 34.20611959190978,35.46243255628039,0 34.20591551031634,35.46217163515184,0 34.20598934242698,35.46217100017182,0 34.2060309565119,35.46224573688163,0 34.20622408481105,35.4621798664233,0 34.20647187739799,35.46221338192047,0 34.20656138733548,35.46208811857293,0 34.20668898099824,35.46198059129772,0 34.20670956883277,35.4620012017261,0 34.20688795223989,35.46198115877982,0 34.20691526018796,35.46206098813804,0 34.2071556405059,35.46197924778236,0 34.20711893950249,35.46190728517792,0 34.20696030746517,35.46176731723919,0 34.20698964533348,35.46170149442408,0 34.20714462382077,35.46163168231664,0 34.20726354155221,35.46154736118864,0 34.20722720374054,35.46147898032279,0 34.20689942044732,35.46155222320321,0 34.20671428577132,35.4614515846939,0 34.20670094614743,35.4613871223744,0 34.20654127140683,35.46123851547014,0 34.20646864448946,35.46111833567949,0 34.20650155280671,35.4610805381519,0 34.20660843719651,35.46106516702325,0 34.20692639928584,35.46098169613684,0 34.20690462113649,35.46084850357101,0 34.20696897148287,35.46064619387669,0 34.20685956917558,35.4606719463582,0 34.20680820826361,35.46038512036908,0 34.20683331459227,35.45988456132751,0 34.20688504478817,35.4595114051598,0 34.20617977183434,35.45942935619978,0 34.20608295686473,35.45923639322607,0 34.20605545265306,35.45903783546414,0 34.20638021015667,35.45887006415273,0 34.20664889241329,35.45884496677642,0 34.20663899406534,35.45873384429003,0 34.206557205445,35.45868132155872,0 34.20642125869201,35.4585447104368,0 34.20626815014077,35.45845107131141,0 34.20645861070159,35.45824020631875,0 34.20663853430238,35.45837953680714,0 34.20672800970237,35.45835993682103,0 34.20673145777297,35.45832136933628,0 34.20690350435294,35.45827152452114,0 34.20691899951957,35.45817493745778,0 34.20706134175407,35.45805218096002,0 34.20705111272667,35.45795552666863,0 34.20707452353728,35.45788525931613,0 34.20680148808314,35.45771993882904,0 34.20665217454916,35.45768553401044,0 34.20680173821756,35.45721893050835,0 34.20655607059535,35.45704275729658,0 34.2066297363982,35.45693857667552,0 34.2068445735616,35.45669851420656,0 34.20685034740349,35.45665363602808,0 34.20680030575999,35.45644631239882,0 34.20682736695299,35.45636793208632,0 34.20686635310015,35.45632219456969,0 34.20696914050052,35.45630877668309,0 34.20709272861579,35.45615341589861,0 34.2073206992972,35.45597364939979,0 34.20736328353587,35.45590268456645,0 34.20739256673155,35.4558128634071,0 34.20734352201738,35.45570283822418,0 34.20730049518609,35.45566285367492,0 34.20728753112378,35.45559414250474,0 34.20750676199171,35.45540314552565,0 34.20741454605764,35.45515336675855,0 34.20744803018773,35.45498466375231,0 34.20742542371816,35.45485007611743,0 34.20741902780581,35.45468152237839,0 34.20749477333615,35.45452919851849,0 34.20766980508056,35.45438926368291,0 34.20792083272984,35.45437327026632,0 34.20806864619067,35.45434145790131,0 34.20826313985416,35.45401619529495,0 34.20839554303726,35.45388992884398,0 34.20880346632592,35.45355321992999,0 34.2088942958589,35.4534359559019,0 34.20905241268477,35.45339970483205,0 34.20923337360237,35.45338104058601,0 34.20938062884165,35.4533121574884,0 34.20957491840693,35.45322089694061,0 34.20974332405065,35.45312087084364,0 34.20985221563204,35.45295020456128,0 34.20986351913587,35.45290207301434,0 34.20982344677606,35.45286620388183,0 34.20983222867221,35.45276500507408,0 34.2098528046875,35.45275712251654,0 34.2098649561059,35.45274414556129,0 34.20990648816547,35.4527438329165,0 34.20994087407775,35.452738914173,0 34.20997691520756,35.45274971632522,0 34.21009028260766,35.4528436726994,0 34.21011280976292,35.4528528077006,0 34.21013204897193,35.45285091227513,0 34.21014142651219,35.45283004793671,0 34.21015374781223,35.45280223124406,0 34.21021224580879,35.45277091061857,0 34.21029987411209,35.45277716665779,0 34.21046882378673,35.45283389348766,0 34.210582276049,35.45291310066528,0 34.21065060350813,35.4530034478792,0 34.2107746051969,35.45307095391269,0 34.21097256113784,35.45321517510122,0 34.21111616454546,35.45329949063581,0 34.21116412013229,35.45335586488083,0 34.21122963400029,35.45351630657306,0 34.21128831450124,35.45357968345105,0 34.21156981140221,35.45375656363926,0 34.21159601413668,35.4537921063274,0 34.21162911900658,35.45387606212427,0 34.21169394207826,35.45396690715611,0 34.21210792583348,35.4543353617038,0 34.2122044834836,35.4544382282748,0 34.21228239270562,35.45448442665378,0 34.21248495552925,35.45458824267455,0 34.21259783343557,35.45461727864469,0 34.21282537867665,35.45470223229368,0 34.21294281680385,35.45475641237044,0 34.2131175261466,35.4548094948935,0 34.21323287248561,35.45486306660408,0 34.21339533235889,35.45489108069061,0 34.21363891826192,35.45487413262334,0 34.21372050787313,35.45485777483145,0 34.21400771854839,35.4547573701082,0 34.21409396134275,35.45471047270446,0 34.21413630200475,35.45464925006223,0 34.21413604993838,35.45462235619846,0 34.21408706316574,35.45454196596334,0 34.21405252306305,35.45445981618354,0 34.21405645418643,35.45442460727029,0 34.21408190087084,35.45439287724984,0 34.21413192771763,35.45437790738756,0 34.21422024206601,35.45438658174152,0 34.21428697654582,35.45438845024947,0 34.21435253703073,35.45441371729446,0 34.21438356444035,35.45443626193676,0 34.21442246600865,35.45445414246762,0 34.2145589327974,35.45454204428327,0 34.2146312192754,35.45460115736283,0 34.21467809739605,35.45462894567475,0 34.21473934906886,35.45465128610485,0 34.214792811439,35.45469646165419,0 34.21482006332296,35.45475727433971,0 34.21481271942357,35.45480754127983,0 34.21478026692063,35.45485112727113,0 34.21472250636955,35.45488722403832,0 34.21467726411774,35.45488766581802,0 34.21455971489528,35.45487909671065,0 34.21455453766401,35.45493384199159,0 34.21453424122836,35.45497901985804,0 34.21451710711639,35.455061051332,0 34.21451964783314,35.45509854030015,0 34.2145299080568,35.45511418355618,0 34.21463415841493,35.45519242309966,0 34.21485220527651,35.45527216074765,0 34.21498013282151,35.45530212905241,0 34.21517394082343,35.45532245800329,0 34.21522398035582,35.4553127024417,0 34.2152944942176,35.45526244299236,0 34.21532282016999,35.45522537150412,0 34.21532675795561,35.45519078708794,0 34.21532597673591,35.45511855629992,0 34.21530209466401,35.45496198975841,0 34.21553436547235,35.45496430968212,0 34.21567742598555,35.45500015540665,0 34.2158597662407,35.45502230310683,0 34.21600024101556,35.45507391557801,0 34.21633791309443,35.45513457718531,0 34.21645160277028,35.45517700627845,0 34.21657219164013,35.45518842162904,0 34.21676202900269,35.45523730225773,0 34.21742942255802,35.45548230644478,0 34.21774218144971,35.45561868873726,0 34.21799254591915,35.45570278403628,0 34.21804789362412,35.45570997843298,0 34.21829437521588,35.45581705378994,0 34.21856360168745,35.45591634888145,0 34.21866458328554,35.45596538174929,0 34.21915067099126,35.45608819063495,0 34.2194258745899,35.45613758282329,0 34.21968304694281,35.45624446437773,0 34.21981735644145,35.45632592146835,0 34.21988644159507,35.45635007550408,0 34.22014355341797,35.45651202564581,0 34.2202135395439,35.45649100300995,0 34.22035152967865,35.45651231959379,0 34.22051798448296,35.45658536448041,0 34.22078581537625,35.45667702750329,0 34.22108678669643,35.45680516794307,0 34.22119046080789,35.45687919220131,0 34.22144359980833,35.45695993361769,0 34.22159309000365,35.45704826514718,0 34.22287448167041,35.45758455755821,0 34.22304170067934,35.45768486966804,0 34.22341295789562,35.45795497100413,0 34.22377951637609,35.45816734599355,0 34.22470571105552,35.45860019016914,0 34.22481484397036,35.45862998173663,0 34.22497301650586,35.4587203127777,0 34.22514388446351,35.45875480229916,0 34.22522571819836,35.45883428120072,0 34.22573832736189,35.45913848264582,0 34.22581152190775,35.45913712551118,0 34.22599769677004,35.4592503186495,0 34.22619659619922,35.45933538991015,0 34.22629084702008,35.45935857884047,0 34.22697060546442,35.45963772680768,0 34.22732509642315,35.45985656126923,0 34.22754197648291,35.45992210211687,0 34.22780748653567,35.46022601076326,0 34.22817415093495,35.46032058039567,0 34.22835875772773,35.46047783185922,0 34.22849778756415,35.46054658321646,0 34.22868140794959,35.46071249299778,0 34.22922062260621,35.46097453177727,0 34.22971861920973,35.46132370666525,0 34.23004351426045,35.46146561639542,0 34.23052819142961,35.4617738797205,0 34.23063660577913,35.46175550198944,0 34.23104327908408,35.46198314315856,0 34.23114859529703,35.46206557256367,0 34.23139197204616,35.46214022302723,0 34.23177736298612,35.46233242105352,0 34.23220817817118,35.46258649451809,0 34.23217945124647,35.46291392463884,0 34.23208275724286,35.46321710900786,0 34.23207049835184,35.46335884127048,0 34.23212643226288,35.46341719300104,0 34.23545606490602,35.46514946442763,0 34.23579119675266,35.46526357314,0 34.23637555337597,35.46538858062966,0 34.2368361698443,35.4655145713587,0 34.23688562925529,35.4655528190137,0 34.23714568608426,35.46564065464176,0 34.23717455607358,35.46565658190229,0 34.23761531900163,35.46591209643405,0 34.23800172297338,35.46615293966727,0 34.23817183343713,35.46624638058822,0 34.23840255531687,35.46643951820264,0 34.23891000812322,35.46674376932233,0 34.2390275004478,35.46680746764861,0 34.23917264332474,35.46685637299964,0 34.24157561069802,35.4675418596034,0 34.24158834857213,35.46755669265111,0 34.24167309457022,35.467600807673,0 34.24170829428597,35.46764002108875,0 34.24174617478753,35.46762142440137,0 34.24178862049289,35.46762459551559,0 34.24218572151484,35.46780424910612,0 34.24295103793701,35.46809020463284,0 34.24303067093575,35.46810417277814,0 34.24321290616519,35.46817072953662,0 34.24333431532555,35.46819021922261,0 34.24354617628659,35.46825349689853,0 34.24379803909462,35.46831987965837,0 34.24399223273956,35.46840641791366,0 34.24502897570684,35.468744134915,0 34.24547905596052,35.46894101603792,0 34.24581571807513,35.46904827240906,0 34.24637184015451,35.46929600113565,0 34.24701449727871,35.46952607005202,0 34.24712951612918,35.46959765144969,0 34.24739884449059,35.46969352190729,0 34.24757959361232,35.46974521879939,0 34.24780203928881,35.46977538515139,0 34.2478848660887,35.46979788467925,0 34.24816576054136,35.46990021771149,0 34.24889535502113,35.47013272826295,0 34.24915143294503,35.47012187345737,0 34.24928676311195,35.47009332941191,0 34.24951464418273,35.47013524949254,0 34.25052110393025,35.47042413467228,0 34.25079446893379,35.47048641333674,0 34.25098313745809,35.47059312769172,0 34.25106230497543,35.47070972757575,0 34.25108293806474,35.47073999700311,0 34.25144213920078,35.47091700678232,0 34.25166884641138,35.47097381697576,0 34.25188551389928,35.47107691012638,0 34.25210598780912,35.47123353858106,0 34.25214558966806,35.47133432596984,0 34.2521444688643,35.4714627781817,0 34.25218813479015,35.47152104303193,0 34.25284735222955,35.47169386436899,0 34.25373246400632,35.47197537122745,0 34.25472721556349,35.47236849693861,0 34.25591164077095,35.47277715066081,0 34.25629378811063,35.47292850777902,0 34.2565329341912,35.47305610232808,0 34.25671491964928,35.47312267435801,0 34.25680270338978,35.47315541866906,0 34.25691863748374,35.47320386483468,0 34.25710887602794,35.47326152580845,0 34.25733982984129,35.4733534906134,0 34.25748463620985,35.47337600642914,0 34.25759514409197,35.47341231317928,0 34.25777983403319,35.47344225327588,0 34.2581193744067,35.47351682373436,0 34.25860861247815,35.47369288682186,0 34.25893956524279,35.47378541611134,0 34.25903605183278,35.47380235857386,0 34.26000411738017,35.47409825086134,0 34.26017081912453,35.47413881648257,0 34.26117698485123,35.4744325015094,0 34.26179866013445,35.47460715108048,0 34.26202521758071,35.47468047453548,0 34.26207549684202,35.47468997458797,0 34.26213514152614,35.47470124412809,0 34.26151490506965,35.47563347399696,0 34.26133324792802,35.47540331272476,0 34.2606853544218,35.4750885171912,0 34.26045416094819,35.47506102404316,0 34.26011131335733,35.47490068341502,0 34.26001814141846,35.47491225093046,0 34.25958535465664,35.47474190896477,0 34.25934537414388,35.47466041564492,0 34.25893833795117,35.47455748643132,0 34.25878847312676,35.4745163955839,0 34.25858200117638,35.47457630358559,0 34.25836227689658,35.47451823864866,0 34.25822026009923,35.47458997201448,0 34.25750544905219,35.47444130771316,0 34.25749453048086,35.47435295578607,0 34.25670210174127,35.47412183379128,0 34.25665565250742,35.47420297718973,0 34.25650405308287,35.47427220542474,0 34.25639069769159,35.47434624022499,0 34.25625943951367,35.47429106187295,0 34.25617097551898,35.47433031357816,0 34.25621047441626,35.474415766109,0 34.25618114053278,35.47457478882444,0 34.25611167782318,35.47481228691486,0 34.25607136218997,35.47508330683153,0 34.25588192490736,35.4751231577706,0 34.25569551283861,35.47545929358809,0 34.25549894053695,35.47550036731965,0 34.25535542177563,35.47547584121989,0 34.25529219084225,35.47509141467943,0 34.25520426088737,35.47495963120471,0 34.25511760567161,35.47492855130837,0 34.25501081558965,35.47479251780371,0 34.25500122013916,35.47458446378615,0 34.25292386523667,35.47429756268283,0 34.2492245340836,35.47384040854485,0 34.24904827881963,35.47371513174755,0 34.24890170656364,35.47365249516645,0 34.24831167905849,35.47350549580793,0 34.24824357815186,35.47352569599276,0 34.24820436023169,35.4736896455771,0 34.24768795468557,35.47361692818747,0 34.24730536133611,35.47355843674732,0 34.24682108103384,35.47350619880034,0 34.24675819928441,35.47355368386906,0 34.2465328444791,35.47348446054291,0 34.24645325036937,35.47361550968085,0 34.24613495298039,35.47356532450281,0 34.2460701398263,35.47368988200557,0 34.2457529207937,35.47362025653813,0 34.24524551090213,35.47352119932614,0 34.24455458530058,35.47338909164554,0 34.24449846388489,35.47346252419259,0 34.24444161962269,35.47348912967001,0 34.24379165647657,35.47342554366893,0 34.2437378571102,35.47348196446929,0 34.24314510026784,35.47331510257655,0 34.24307169133022,35.4733179389547,0 34.24276400770392,35.47319418688123,0 34.2426227971966,35.47311237918913,0 34.24243008780691,35.47306187962514,0 34.24222214984623,35.47302892685918,0 34.24212622145921,35.47303352846241,0 34.24190237764537,35.47292601940398,0 34.24176492245519,35.47276834940565,0 34.23996937669957,35.47252592012156,0 34.2398071410898,35.47257180870872,0 34.23960887790643,35.47236315315562,0 34.23943642867948,35.47232883778344,0 34.23928606928389,35.47243217076747,0 34.23907239275121,35.47242219122884,0 34.2389678020354,35.47238789674162,0 34.23889884436042,35.47245267457194,0 34.23874751542669,35.47239855729446,0 34.23412734223911,35.47074290890127,0 34.2341454792894,35.46966145870547,0 34.23399602782266,35.46953274620058,0 34.23411170994886,35.46943253682364,0 34.23453392178862,35.4689484487313,0 34.23473220772576,35.46874469903923,0 34.23485510510739,35.4685138417688,0 34.23459950765113,35.46843839888918,0 34.23438688988068,35.468734782556,0 34.23405096839259,35.4691586279928,0 34.23393289814982,35.46927391686489,0 34.23361040226175,35.46947877818339,0 34.23351695834935,35.46951012571148,0 34.23335528034089,35.46954902394105,0 34.23333258271774,35.46958028188747,0 34.23329772089335,35.46966911772316,0 34.23324956002712,35.46970009509985,0 34.23307859176513,35.46974116447072,0 34.23284893533197,35.46975793865263,0 34.23273751533901,35.46982158215584,0 34.23268840198572,35.46988422952827,0 34.23264520235591,35.47005758672408,0 34.23251922761757,35.47026625281905,0 34.23236795740449,35.47040698826432,0 34.23207874663647,35.47060100831102,0 34.231895368553,35.47069859818959,0 34.23176089554139,35.47081229037926,0 34.23164055095429,35.47095552489113,0 34.23127188573217,35.47130484839283,0 34.23087368073869,35.47124774099237,0 34.23059792045638,35.47115762319238,0 34.23056452286588,35.47111691092817,0 34.23039960201506,35.47121495566714,0 34.23016797589982,35.4713853263699,0 34.23004932124858,35.47140936641062,0 34.22976084394922,35.47142070196799,0 34.22972162472065,35.47143445602582,0 34.22972629933822,35.47153537983401,0 34.22942288865411,35.47176226319441,0 34.2292694944417,35.47204700642042,0 34.22923375127656,35.4721440238723,0 34.2292252338073,35.47244869953653,0 34.22933240388799,35.47251068997825,0 34.22944337680333,35.4727095582232,0 34.2290948843436,35.47291584233077,0 34.22900451584416,35.47314341440448,0 34.22874132218909,35.47317065921151,0 34.22843461136245,35.47297368117258,0 34.22827978226647,35.47304639142823,0 34.22812685884078,35.47316683420084,0 34.2279828994001,35.47330867140016,0 34.22779364601802,35.47333543120082,0 34.22773163103442,35.47356842443322,0 34.22771682178713,35.4738264051075,0 34.22780130383976,35.47387799249753,0 34.22796130041945,35.47390361949601,0 34.2280713779267,35.47385301944535,0 34.22852070403898,35.4739506133799,0 34.22881139857147,35.47406996486659,0 34.22891114501642,35.47414017528989,0 34.22956226101282,35.47466140155029,0 34.22966928939876,35.47460838591829,0 34.22972620559433,35.47461195455917,0 34.2297403325073,35.47453849525373,0 34.23034501803134,35.47461688602699,0 34.230490641233,35.47470387352666,0 34.23070771671531,35.47474046753383,0 34.23086233224696,35.47481111172978,0 34.23102761313721,35.4748588920879,0 34.23110195133148,35.47490155780533,0 34.23105276646888,35.47496716506644,0 34.23113502794475,35.47507097086513,0 34.23108761119149,35.47527047446856,0 34.23136592714989,35.47533849501252,0 34.23154510832893,35.4754636138753,0 34.23147335619257,35.4755506823678,0 34.23101562710355,35.47573384116384,0 34.23103423419125,35.4757858476701,0 34.2309375634365,35.47587399202793,0 34.23086287443442,35.47588758553096,0 34.2307082652958,35.47596720684012,0 34.23079292736404,35.47603018613254,0 34.23064172307176,35.47615068842686,0 34.23042544176809,35.47617441219739,0 34.23031269969761,35.47633037966368,0 34.23006232433146,35.47626458741259,0 34.23000878320653,35.47621112885973,0 34.23003786265271,35.47614155579942,0 34.23002920802692,35.47609260310122,0 34.22992253102821,35.4760174756638,0 34.22979835318854,35.47598497628171,0 34.22951651998419,35.47596186674383,0 34.22923701407902,35.4759554823884,0 34.22898374616582,35.47582004591385,0 34.22879626029442,35.47581655469669,0 34.22860993512397,35.47584249377253,0 34.22846520421968,35.47575962914644,0 34.22827641794466,35.47575046142252,0 34.22821463066062,35.47565886412861,0 34.22815924039984,35.47571879127744,0 34.22807975124203,35.47575040451687,0 34.22794052410264,35.47570496334092,0 34.22787183677647,35.47571126829001,0 34.22779927504838,35.47574037196913,0 34.22764871466561,35.47583783156573,0 34.22744175126554,35.47588764394521,0 34.22719561046806,35.47584627893384,0 34.22684171473696,35.47579030402149,0 34.22684174881944,35.47574048041715,0 34.22701771313226,35.47559818665484,0 34.22685059602559,35.47562051271757,0 34.22678926484166,35.47566665945279,0 34.2266547546466,35.47601295917838,0 34.22655921789878,35.47603661033006,0 34.22653176367535,35.4763120150642,0 34.22637772147015,35.47637438705171,0 34.22613505274536,35.47636567886151,0 34.22591638055564,35.47643838048439,0 34.22588736580806,35.47652602727842,0 34.22556081451273,35.47651790869073,0 34.22525176329622,35.47654483841436,0 34.22509499084281,35.4764628013113,0 34.22512664240438,35.47635317793256,0 34.22511031489807,35.4762300491448,0 34.22503674401962,35.47617182109114,0 34.22495464619315,35.47615288202426,0 34.2246342975065,35.47615950883383,0 34.22441320619807,35.4761244714463,0 34.22427945859559,35.47611644874562,0 34.22420935676475,35.47619141536696,0 34.2235058438626,35.47612338200312,0 34.22336620623265,35.47613348345258,0 34.22333617783543,35.47629701408265,0 34.2229021504839,35.47631184849068,0 34.22279371966911,35.47617150254088,0 34.22258362263003,35.47612893998227,0 34.22242159246402,35.47620213935758,0 34.22241603175058,35.47623643116846,0 34.22212493484689,35.47634970560599,0 34.22193765506045,35.47646634714365,0 34.22191662378028,35.47630161241473,0 34.2217402466719,35.47615102897268,0 34.22165939956263,35.47614923554512,0 34.22154930063968,35.47622118156297,0 34.2214186289209,35.47614618847904,0 34.22120951286232,35.47607606206751,0 34.22108416584791,35.47602657890677,0 34.22100322637462,35.47611448321852,0 34.22096912449564,35.47629865800457,0 34.22102119103373,35.47635270065748,0 34.22084598491885,35.47656949041885,0 34.2207428376008,35.47661566059902,0 34.22072721641982,35.47665563669902,0 34.22083481210753,35.47668905677033,0 34.22101283473186,35.4768730726339,0 34.22072843099871,35.47716529373647,0 34.22047875000732,35.47753056490484,0 34.21996533645915,35.47832727441852,0 34.21999947118374,35.47856880384167,0 34.21999970693053,35.47861138467785,0 34.2198595717166,35.47899412162663,0 34.21987876397582,35.47905377321774,0 34.22000726979649,35.47908488980148,0 34.21975887897745,35.47930167522586,0 34.2194418273665,35.47938673571099,0 34.21923449648636,35.47934610966963,0 34.21886023984344,35.47923362699112,0 34.21839803107537,35.47991654130374,0 34.21832246877042,35.47995969459491,0 34.21822493220361,35.47996067934598,0 34.21814056391253,35.48022834067903,0 34.21813815369239,35.48047273339198,0 34.21781189851473,35.48046854584819,0 34.21770604330106,35.48052447292089,0 34.2178380504886,35.48058547926551,0 34.21778363185989,35.48068987864617,0 34.21784301706617,35.48071260016247,0 34.21779842395672,35.48078785723472,0 34.21769313240062,35.48088118121416,0 34.21761971589167,35.48086446680583,0 34.21747427013224,35.48112526417745,0 34.2173842931477,35.48122342020285,0 34.21732969029829,35.48124142634875,0 34.21717623356329,35.48117315422754,0 34.21692722989057,35.48123800521905,0 34.21660484556308,35.48128863328139,0 34.21638838763586,35.481490299717,0 34.21626270124908,35.48144418949037,0 34.21618908451619,35.48181896389014,0 34.21629667045806,35.48187772507696,0 34.2163508175291,35.48203177921629,0 34.2162822882707,35.48213719892323,0 34.21601743311673,35.48236428850144,0 34.2159929731213,35.4823595481685,0 34.21593058331145,35.48226542164404,0 34.21553161563305,35.48229188351741,0 34.21552077411467,35.48238176024929,0 34.21577161643665,35.48264105581641,0 34.21578449740599,35.4829014175508,0 34.21556661753604,35.48319918419545,0 34.21544431410113,35.48314466338866,0</coordinates>
						</LinearRing>
					</outerBoundaryIs>
				</Polygon>
			</MultiGeometry>
		</Placemark>
	</Document>
</kml>