<?xml version='1.0' encoding='UTF-8'?>
<kml xmlns="http://www.opengis.net/kml/2.2">
	<Document>
		<name>NIKITAS</name>
		<Style id="PolyStyle70">
			<LabelStyle>
				<color>00000000</color>
				<scale>0.000000</scale>
			</LabelStyle>
			<LineStyle>
				<color>ff0055ff</color>
				<width>2.000000</width>
			</LineStyle>
			<PolyStyle>
				<color>00828282</color>
				<outline>1</outline>
			</PolyStyle>
		</Style>
		<Placemark id="ID_70374">
			<name>NIKITAS</name>
			<snippet />
			<description>&lt;html xmlns:fo="http://www.w3.org/1999/XSL/Format" xmlns:msxsl="urn:schemas-microsoft-com:xslt"&gt;

&lt;head&gt;

&lt;META http-equiv="Content-Type" content="text/html"&gt;

&lt;meta http-equiv="content-type" content="text/html; charset=UTF-8"&gt;

&lt;/head&gt;

&lt;body style="margin:0px 0px 0px 0px;overflow:auto;background:#FFFFFF;"&gt;

&lt;table style="font-family:Arial,Verdana,Times;font-size:12px;text-align:left;width:100%;border-collapse:collapse;padding:3px 3px 3px 3px"&gt;

&lt;tr style="text-align:center;font-weight:bold;background:#9CBCE2"&gt;

&lt;td&gt;1&lt;/td&gt;

&lt;/tr&gt;

&lt;tr&gt;

&lt;td&gt;

&lt;table style="font-family:Arial,Verdana,Times;font-size:12px;text-align:left;width:100%;border-spacing:0px; padding:3px 3px 3px 3px"&gt;

&lt;tr&gt;

&lt;td&gt;DIST_CODE&lt;/td&gt;

&lt;td&gt;1&lt;/td&gt;

&lt;/tr&gt;

&lt;tr bgcolor="#D4E4F3"&gt;

&lt;td&gt;VIL_CODE&lt;/td&gt;

&lt;td&gt;354&lt;/td&gt;

&lt;/tr&gt;

&lt;tr&gt;

&lt;td&gt;VIL_CCD&lt;/td&gt;

&lt;td&gt;1354&lt;/td&gt;

&lt;/tr&gt;

&lt;tr bgcolor="#D4E4F3"&gt;

&lt;td&gt;VIL_NM_E&lt;/td&gt;

&lt;td&gt;NIKITAS&lt;/td&gt;

&lt;/tr&gt;

&lt;tr&gt;

&lt;td&gt;VIL_NM_G&lt;/td&gt;

&lt;td&gt;ΝΙΚΗΤΑΣ&lt;/td&gt;

&lt;/tr&gt;

&lt;/table&gt;

&lt;/td&gt;

&lt;/tr&gt;

&lt;/table&gt;

&lt;/body&gt;&lt;script type="text/javascript"&gt;

				function changeImage(attElement, nameElement) {

				document.getElementById('imageAttachment').src = attElement;

				document.getElementById('imageName').innerHTML = nameElement;}

			&lt;/script&gt;&lt;/html&gt;

</description>
			<styleUrl>#PolyStyle70</styleUrl>
			<MultiGeometry>
				<Polygon>
					<extrude>0</extrude>
					<altitudeMode>clampToGround</altitudeMode>
					<outerBoundaryIs>
						<LinearRing>
							<coordinates> 32.94657855074678,35.17413110447798,0 32.94638552508933,35.17404885640007,0 32.94631447677488,35.17403362549008,0 32.94613602897062,35.17395383438597,0 32.94610511208095,35.17382610999638,0 32.94652578451279,35.17336108374521,0 32.94658932549556,35.17323865269939,0 32.94677235968928,35.173007197317,0 32.9468040270588,35.17298670252712,0 32.94694148241236,35.17289774214248,0 32.94703503975142,35.17294422062369,0 32.94769844309315,35.17257228026979,0 32.94773050247071,35.17259217453441,0 32.94782722235664,35.1725308758123,0 32.94811464924851,35.17243602302867,0 32.94811223249029,35.17226405157062,0 32.94816777605678,35.17220573479382,0 32.94814556572936,35.17204638801144,0 32.94814913393684,35.17198179414865,0 32.94815487547763,35.17187786852516,0 32.9481108676626,35.17177379630304,0 32.9488959464144,35.17141098660991,0 32.94927801925508,35.17127449369836,0 32.94935847851826,35.17126069083658,0 32.94982110835493,35.17108792227166,0 32.94986885249597,35.17073973387112,0 32.94999483433442,35.17049150543852,0 32.95005728707553,35.17029645777693,0 32.95012819172499,35.1701239107628,0 32.95001063965882,35.16963476664937,0 32.95000273962298,35.16948866764884,0 32.95004978513127,35.16929638451001,0 32.95003069554847,35.16897468042151,0 32.95013979541059,35.16867583734137,0 32.95012358915615,35.16847493592373,0 32.95021125768233,35.16837828481631,0 32.9491944322931,35.16740606372203,0 32.94990464358646,35.16694470234705,0 32.94983563244649,35.16688872910764,0 32.94893093025695,35.16615494605531,0 32.94860414399711,35.16640133349737,0 32.94818495155685,35.16667641277969,0 32.94788472124282,35.16644818392778,0 32.94793451524563,35.16623884544556,0 32.94802971417946,35.16619233245788,0 32.94814734662609,35.1659854279081,0 32.94822917480823,35.16589430219816,0 32.94813726118968,35.16581379371475,0 32.94872917785588,35.16514923012409,0 32.94904253835428,35.16486937204448,0 32.94929573143366,35.16469184773647,0 32.94955417302005,35.16455445375694,0 32.94978005449494,35.16441473272737,0 32.95017960670916,35.16427999186617,0 32.95023228508295,35.16403054559893,0 32.95041080781009,35.16355638770526,0 32.9505987635747,35.16279253844483,0 32.95072186097309,35.16257450387081,0 32.95086335853458,35.16249024223969,0 32.9510104029375,35.16237925335992,0 32.95033201643511,35.16175319916968,0 32.95037839958771,35.16169762319424,0 32.95044614607046,35.16172011300775,0 32.95082682655917,35.16155411325693,0 32.95110165618424,35.16139002116445,0 32.95117570284437,35.16121641179193,0 32.95125181851746,35.16118766873022,0 32.95134411765109,35.16118125989698,0 32.95150974931614,35.1611617000404,0 32.95161079259714,35.16101937180265,0 32.95197313469568,35.1607039948546,0 32.95216207883131,35.16093410881278,0 32.95260523215449,35.16136555971394,0 32.9529536422292,35.16174323772157,0 32.95311837455086,35.16192647676078,0 32.95338602654415,35.16215682472052,0 32.95393252562736,35.16254177724228,0 32.95423539389036,35.16278782832661,0 32.95459750497709,35.16313879991117,0 32.95480189914632,35.16294551894823,0 32.95492195837583,35.16279878721884,0 32.95523581323262,35.16301589580915,0 32.95582984481793,35.16246941972011,0 32.95659254633491,35.16306449206758,0 32.95600965329059,35.16354637499693,0 32.95552202542577,35.16396390825098,0 32.95580039823111,35.16422771123249,0 32.95610603066633,35.16446485091574,0 32.95624946676981,35.16455664945148,0 32.95636426285377,35.16437201402038,0 32.95678370041326,35.16403227757275,0 32.9573776815249,35.16349693711842,0 32.95743170511182,35.16355504076019,0 32.95726723258227,35.16392896257558,0 32.95735909451632,35.1640228364632,0 32.95710265902797,35.16432516950671,0 32.95745681451625,35.16463822292646,0 32.95762690251262,35.16484152918409,0 32.95817791389526,35.16544488121725,0 32.9577644273708,35.16566429526178,0 32.9571624416515,35.16492707396597,0 32.95687085431036,35.16458077569924,0 32.95636265708427,35.16473750279442,0 32.95624845799159,35.16478619417524,0 32.95608829698138,35.164794633753,0 32.9559355540772,35.16496801371002,0 32.95603749651102,35.16523797869203,0 32.95621515730652,35.16557056892117,0 32.95632818269722,35.1657893081862,0 32.95637875881656,35.16601454832102,0 32.95648362470959,35.16623772029195,0 32.95671250251824,35.16665069272405,0 32.9569361726676,35.16690993846373,0 32.95703486558065,35.16702432911169,0 32.95709948545962,35.16700284543855,0 32.95743781179596,35.16743494147091,0 32.95758094237406,35.16756782332793,0 32.95768594819342,35.1677005943497,0 32.95809099222156,35.16763194639733,0 32.95866589605873,35.167621597523,0 32.95962242908362,35.16753048272793,0 32.95961637344605,35.16757381565917,0 32.9593432235531,35.16833646352293,0 32.95973931376755,35.16830391095213,0 32.95982501930997,35.16882918595632,0 32.95974863719982,35.16885786036303,0 32.96006812112037,35.16945679140844,0 32.96019572494522,35.16969600439332,0 32.96080750656441,35.16947576675553,0 32.96155170175006,35.16922396674356,0 32.96169999164181,35.16912057324657,0 32.96212901459695,35.16887583575847,0 32.96261849606345,35.16949542819352,0 32.96297824459675,35.16997727082158,0 32.96317170642157,35.17022541924314,0 32.96360299083526,35.17081129452959,0 32.96345811662975,35.17102491666045,0 32.96406189919951,35.17130779876507,0 32.96385223097276,35.17166020095507,0 32.9636228607792,35.1720700486264,0 32.96394562205356,35.17210932188108,0 32.96468369851706,35.17237981040147,0 32.96458601204169,35.17247696476592,0 32.96449630668073,35.17252781995974,0 32.964114394882,35.17267207059106,0 32.9637444733797,35.17274128006389,0 32.96328240644499,35.17297634285629,0 32.9631241986868,35.17312283755276,0 32.96304500066364,35.17344367112409,0 32.96308679192562,35.17367700279564,0 32.96298802956846,35.17402333550743,0 32.96316570602166,35.17418045086639,0 32.96346491752335,35.17444503447796,0 32.96359613080364,35.17453730093185,0 32.96395563014102,35.17487353042591,0 32.96413014251549,35.17497692255741,0 32.96432664102906,35.17509914218532,0 32.96417048843715,35.17514789799159,0 32.96403690124348,35.1752173654998,0 32.96388592875623,35.17532110708922,0 32.96371491528046,35.17550308687107,0 32.96366547349861,35.17556400501057,0 32.96364994816356,35.17558313531021,0 32.96358033255606,35.17564375890926,0 32.96352818823031,35.17567402040418,0 32.96348001463204,35.17569717461912,0 32.96337584118592,35.17573052117116,0 32.96320546197745,35.17576496798117,0 32.96315651600972,35.17578423859344,0 32.96313513468882,35.17580811833372,0 32.96297287411243,35.17597006335775,0 32.96283830647693,35.17610685222723,0 32.96253839168355,35.17639004606065,0 32.96236362822425,35.17652671829236,0 32.9622568891123,35.17660664481429,0 32.962610783203,35.17696421622091,0 32.96208728179772,35.17737358546378,0 32.96151879501937,35.17779576236924,0 32.96086689373499,35.17836910982467,0 32.96012359516803,35.17802851081777,0 32.96012778782114,35.1779702861708,0 32.96003124504673,35.1779356207025,0 32.9598376317635,35.1778660991638,0 32.95975862863793,35.17796532084786,0 32.95903895559103,35.17858546280787,0 32.95904772154887,35.17882740279603,0 32.95988641619569,35.17906909227314,0 32.96002622118976,35.17909045844016,0 32.96020083976071,35.1791171460459,0 32.96085674329145,35.17917182697958,0 32.96121496698099,35.17923812941813,0 32.96157970895655,35.17936137708688,0 32.96173661709025,35.17944513989546,0 32.96219226331658,35.17966445058952,0 32.96235749202848,35.17978017166266,0 32.96288322057192,35.18021905578771,0 32.96342026050349,35.18078153842774,0 32.96248119521428,35.18128697047661,0 32.96253842986894,35.18134822667188,0 32.96235990959385,35.18143036196165,0 32.96181024850257,35.18168325188595,0 32.96157930751988,35.1814671373769,0 32.96154319246307,35.18142797987391,0 32.96143896147147,35.18131496783953,0 32.9612158498797,35.18106111706313,0 32.96103902162814,35.18086312436083,0 32.96070557648664,35.18030352239361,0 32.9606819287689,35.1802603105631,0 32.96110272458295,35.18016458333139,0 32.96091812653567,35.17976019590182,0 32.96077839365771,35.17975267090355,0 32.96058544875647,35.17977345406986,0 32.96043884342658,35.17985130445976,0 32.9603257005195,35.17995860539968,0 32.96012156000297,35.18006208320743,0 32.96002171188029,35.18012689618656,0 32.9599511835322,35.18017267758398,0 32.9599508903662,35.18023987423706,0 32.95966545467199,35.18037880981836,0 32.95947865537894,35.1804212674548,0 32.95932318028744,35.18041274667321,0 32.95917938210228,35.18035453448417,0 32.95905496860089,35.18035551197157,0 32.95870745524449,35.18046469427852,0 32.9585565466883,35.18053548113974,0 32.95820595701148,35.18059895811474,0 32.95732926216056,35.18080871670945,0 32.95726525035855,35.1808475030594,0 32.95714076393949,35.18086460642161,0 32.95685325987445,35.18110029371368,0 32.95663157477178,35.18125822471614,0 32.9564051640435,35.18141286709974,0 32.95635826924738,35.18144489591512,0 32.95621038886384,35.18167407870479,0 32.95603775244371,35.18210986150775,0 32.9558870740774,35.18256153200981,0 32.95579745966326,35.18290261641653,0 32.95559214864639,35.18325465996434,0 32.95560212619879,35.18348979037406,0 32.95551938496237,35.18414511789224,0 32.95551039723426,35.18431011415198,0 32.95418275939055,35.18377944510963,0 32.953391061182,35.18347868455831,0 32.95286001266809,35.18339119369305,0 32.95273526132179,35.18358070961978,0 32.95192798000213,35.18430846120311,0 32.95163765828427,35.18457660149296,0 32.95107747472564,35.18484618907994,0 32.95064699759894,35.18505060887015,0 32.9503293058695,35.18528023241758,0 32.95010247908554,35.18551012785931,0 32.94962787693339,35.18603179436145,0 32.94910673354755,35.18649952215718,0 32.94892437468827,35.1866368665401,0 32.94868976766867,35.18675822923079,0 32.94835600673266,35.18688381013985,0 32.94806879610466,35.18706830757631,0 32.94784239561396,35.18720099642326,0 32.94763553573434,35.18727496888613,0 32.9471777886021,35.18741599513901,0 32.94673831205496,35.18754801189207,0 32.94657154835851,35.18759810584994,0 32.94629794519281,35.18782781297589,0 32.94598253981806,35.18816814136261,0 32.94567595469803,35.18838418515051,0 32.94524935734337,35.18863154537333,0 32.94508007447379,35.18872970146956,0 32.94495564506528,35.18880185070557,0 32.94460337028323,35.18896033733544,0 32.94416937289797,35.18924899788572,0 32.94390131175196,35.18947156660403,0 32.94353827821648,35.18976460697148,0 32.94344761936672,35.18983942140103,0 32.94453728215451,35.19085825445337,0 32.94397725514667,35.19135465694102,0 32.94339227895571,35.19101847120206,0 32.94329532670602,35.19152322843937,0 32.94311591818028,35.19194725629082,0 32.94288171359693,35.19215605164456,0 32.94244767261664,35.19244886850247,0 32.94240614029189,35.19229056395232,0 32.94180657220593,35.1929269725252,0 32.94143078330395,35.1926788362757,0 32.94105967849152,35.19325212094532,0 32.94136599213302,35.19353889472362,0 32.9415260201516,35.1932896361042,0 32.94193092867037,35.19345461210722,0 32.94191889401657,35.19349897500062,0 32.9414975527778,35.19433850827807,0 32.94097990708418,35.1940607947735,0 32.94049775892752,35.19451995769258,0 32.94003326655641,35.19481405963661,0 32.93972373359448,35.19449258520026,0 32.94012915487688,35.19417887594971,0 32.94005672758923,35.19412315169156,0 32.93992958065363,35.1942046202214,0 32.93983491494703,35.19420710255,0 32.93943691018294,35.19401161606587,0 32.9383465315487,35.19477552151498,0 32.93818896136973,35.19485550794065,0 32.9375921834261,35.19524353888251,0 32.93722101558759,35.195457444556,0 32.93749372009385,35.1958598257923,0 32.93752262700403,35.19590247776938,0 32.93711907446644,35.19606414476277,0 32.93709602732439,35.19599858308206,0 32.93648206959542,35.1962123033078,0 32.93559499820911,35.19657211746404,0 32.93532996796338,35.19665434781653,0 32.93529161476658,35.19653283051912,0 32.93512424498099,35.1965370983263,0 32.93505295421913,35.19638512757672,0 32.93447147101671,35.19630982335156,0 32.93398905932951,35.19627156738552,0 32.93396086943439,35.19605743739205,0 32.93422950798627,35.19603591938342,0 32.93431936955348,35.19596112863325,0 32.9342864906595,35.19584977814514,0 32.93427484841995,35.1958103527613,0 32.93446164118276,35.19580747127342,0 32.93456154760427,35.19585064370936,0 32.93459344211455,35.19586442529856,0 32.93468881697348,35.19586207905571,0 32.93473675155646,35.19585119437001,0 32.93483552570818,35.19582876577969,0 32.93508773461357,35.19575324414354,0 32.93499556387179,35.19558229130902,0 32.93469805378491,35.19558551959462,0 32.93459006128759,35.19554494163452,0 32.93425536738736,35.19554805139069,0 32.93383407108362,35.19563552621775,0 32.933776834554,35.1955853960915,0 32.9336318416261,35.19563422299972,0 32.93363659281613,35.19557385352403,0 32.93359801460923,35.19550990698186,0 32.93349202617425,35.19540273470477,0 32.93345030462979,35.19542319967479,0 32.933164006319,35.19556363495612,0 32.93278733622814,35.19571592239951,0 32.93262744334718,35.1958445478678,0 32.93206747529787,35.19629500915326,0 32.93166046490938,35.19668781064237,0 32.93149689784642,35.19716895775013,0 32.9322267012155,35.19863190256056,0 32.93227278110115,35.19882700804587,0 32.93265007901933,35.20070898702726,0 32.93279390399167,35.20145904530031,0 32.93094288894856,35.20207246861137,0 32.9302193766835,35.20250491940572,0 32.92956720948639,35.20262169645679,0 32.92940780381095,35.20275463729691,0 32.92825414894696,35.20281872192916,0 32.92685451991619,35.20145473685184,0 32.9264671017553,35.20172351805352,0 32.92656249276606,35.2019636136529,0 32.92658952335461,35.20215553220473,0 32.926379301638,35.20228934865844,0 32.9260914306124,35.20192561075662,0 32.92578018203334,35.20167022476271,0 32.9262852634186,35.20123292901462,0 32.92589551094143,35.20119205880472,0 32.92539938523711,35.20134997471439,0 32.9251415606258,35.20134497418766,0 32.92497596508284,35.20144348461657,0 32.92495369770501,35.20185001201776,0 32.92499299555963,35.20213163120435,0 32.92456915141706,35.20151723753225,0 32.92427037539602,35.20157569868226,0 32.9242689507009,35.20160801380191,0 32.92412288989128,35.20160545703968,0 32.92378393451005,35.20156682929468,0 32.9235625650196,35.20164117765771,0 32.92354365737668,35.20161088236204,0 32.92317087169496,35.20173999607543,0 32.92341179328965,35.20261965771689,0 32.92354409081211,35.20306772599587,0 32.92356062016648,35.20312370871086,0 32.92362229564284,35.20332173778886,0 32.92323133355539,35.20341690436821,0 32.92248817923651,35.20345334674741,0 32.92267747646347,35.20556921761093,0 32.92111980602341,35.207457411147,0 32.92111708496859,35.20749555829166,0 32.9206888097255,35.20761071499307,0 32.92031767580411,35.20762060481707,0 32.92030003479913,35.20759765265689,0 32.92013847479422,35.20769577682038,0 32.92003872448131,35.20775636056719,0 32.9191019673875,35.2082440447461,0 32.91881858540307,35.20822467515122,0 32.91865202818128,35.20817447815286,0 32.91862977566262,35.20812971876769,0 32.91889023377167,35.20788656958938,0 32.91889438602848,35.20774330256364,0 32.91887687220805,35.20761273251765,0 32.91875965124743,35.20736976533479,0 32.91862375238148,35.20705793407875,0 32.91882966999324,35.20701108428293,0 32.91859816602939,35.20663226463248,0 32.91854482636711,35.20658243829638,0 32.91846971108951,35.20656729655164,0 32.91846894930817,35.20654601495771,0 32.91852535854212,35.20649796700614,0 32.91857028598633,35.20632291438564,0 32.91836850342704,35.20623075308883,0 32.91809205189032,35.2062092753925,0 32.91824319184413,35.20587497816871,0 32.91816055319364,35.20545266827873,0 32.91800079707765,35.20524928161611,0 32.91792118971929,35.20526959023939,0 32.91777967678092,35.20504711233441,0 32.91784082392508,35.20491325399171,0 32.91761529067518,35.20437556602116,0 32.91753305253837,35.20440366788638,0 32.91742992314671,35.20446291224766,0 32.91739252709386,35.20451102225562,0 32.91735204325606,35.20466055355953,0 32.91727307885878,35.20472625926673,0 32.91698091504027,35.2047380659094,0 32.91684819032322,35.20466315165322,0 32.91700139985942,35.20461329502672,0 32.91693169466595,35.20419882892691,0 32.917474312345,35.20404385586252,0 32.91738554976909,35.20381516671158,0 32.91789130140915,35.2035990698916,0 32.91784130176943,35.20321871566751,0 32.91733682903675,35.20317308250412,0 32.91696035650837,35.20328462432804,0 32.9166681105072,35.20331416335777,0 32.91607863370891,35.20333208164477,0 32.91605424981441,35.20319368671442,0 32.91601021145163,35.20318644769987,0 32.91588112113901,35.20307607932003,0 32.91579250650864,35.20304240281141,0 32.91576380408733,35.203031494867,0 32.91555302913272,35.20299192002426,0 32.91550040279449,35.20276008173376,0 32.91535773933558,35.20264620589389,0 32.91524751761824,35.20255822540933,0 32.9153154092972,35.20253821230832,0 32.91897285880647,35.20145995456744,0 32.91925094648701,35.2013934486212,0 32.91997236600076,35.20044218037008,0 32.92017398536284,35.19991619993232,0 32.92017616794325,35.19991341424862,0 32.9203606619658,35.19967794184475,0 32.92081363872749,35.19865413801718,0 32.92088484631788,35.19801154532749,0 32.92154696968203,35.19783571038753,0 32.92281042208018,35.19708225115058,0 32.9243649749891,35.19615908502641,0 32.92532620170254,35.19676381871189,0 32.92667758134446,35.19748012231513,0 32.92714561747292,35.19741542931206,0 32.9271687329469,35.19745374814174,0 32.92772359132299,35.19722016680522,0 32.927605847505,35.19710799495537,0 32.92782605895508,35.1971528294599,0 32.92814932797319,35.19700529241465,0 32.92842912945253,35.1969547021682,0 32.92864952831458,35.19695981876939,0 32.92907801116327,35.19692146809398,0 32.92916535688529,35.19664078857227,0 32.92945116271567,35.19683586932693,0 32.9304977055187,35.19683919945188,0 32.9305222297035,35.19657891216795,0 32.9307970054187,35.19645327844171,0 32.93119340128695,35.19637804554984,0 32.93145882032719,35.19633622875862,0 32.93156934382993,35.19607915469642,0 32.93170630269835,35.19591630871947,0 32.93166773492946,35.19584151233844,0 32.93160317225441,35.195716302262,0 32.93165881240361,35.19542767787033,0 32.93148646729919,35.19530996056834,0 32.93114517668939,35.19520656043996,0 32.93105876778951,35.19519803452292,0 32.9308832285087,35.1949053755725,0 32.93143541485595,35.1946232767261,0 32.93172758773203,35.19405485110716,0 32.93220249178375,35.19353156106379,0 32.93258109407502,35.19339413331382,0 32.93324143217138,35.19319653208487,0 32.93309863194829,35.19278020700867,0 32.93346372185051,35.19255534681712,0 32.93383806843783,35.19233880868492,0 32.93346765282004,35.19171504299054,0 32.93339170164376,35.1915871431579,0 32.93346863294433,35.19150546638939,0 32.93365527486504,35.19130730960821,0 32.93347036567609,35.19113505260577,0 32.93334611094955,35.19101929868351,0 32.93278803684882,35.19170570959542,0 32.93266072158232,35.19184723336809,0 32.93256203680757,35.19188487857508,0 32.93224197069348,35.19154555564752,0 32.93223046629017,35.19142669790834,0 32.93275687743525,35.19106199672796,0 32.93268460124969,35.19061288840255,0 32.93280372814143,35.1905026944796,0 32.93342851066054,35.19008339841839,0 32.93347542943393,35.19005254946457,0 32.93417287660636,35.18959397217507,0 32.93591965218579,35.19123811075824,0 32.93651463279675,35.19196148069356,0 32.93535946096977,35.19248372981475,0 32.9357274646938,35.19294831210895,0 32.93611774318652,35.19334913823249,0 32.93646781728638,35.19367213773261,0 32.93796258099076,35.19281932024345,0 32.93888631072873,35.19226857622324,0 32.9392997454792,35.19204785841728,0 32.93940454710825,35.19204679677393,0 32.93958106133791,35.19225547146131,0 32.93981326999639,35.19248235570153,0 32.94028782647683,35.1922021608237,0 32.94041340570021,35.19209293613284,0 32.94108772927995,35.19174259198494,0 32.94208403835151,35.19120592328087,0 32.94223748006308,35.19091640667648,0 32.94239999420273,35.19049093969689,0 32.94234180133454,35.19027985831769,0 32.94227657541754,35.19012841825959,0 32.94202274870428,35.18945469098584,0 32.94185204645077,35.18908369939259,0 32.94160553253192,35.18862035865308,0 32.9415981385819,35.18860646271397,0 32.94249683662348,35.18819701635778,0 32.942990170684,35.18808552379095,0 32.94351499260811,35.18770968313739,0 32.94384655578171,35.18745077858749,0 32.94390512197216,35.1872859649101,0 32.94395789540148,35.18718441778688,0 32.94432865410293,35.18678098060806,0 32.94456594651229,35.18666643587274,0 32.94508161089987,35.18644631544009,0 32.9452914328171,35.186356748135,0 32.94551202969397,35.18628057471119,0 32.94566659434435,35.18619516077062,0 32.94619081756372,35.18594587553257,0 32.94599050318123,35.18519036155911,0 32.94573423030228,35.18524156552296,0 32.94557843135548,35.18499246754493,0 32.94545408524305,35.18448580475432,0 32.94523812994422,35.18414611639603,0 32.94508337815867,35.18381955455474,0 32.94507723727442,35.18380659684169,0 32.94508043180468,35.18370941649589,0 32.94508345458721,35.1837059474745,0 32.94514131593981,35.18363953777294,0 32.94632614831763,35.18341487175965,0 32.94583360040743,35.18264415502768,0 32.94584785582404,35.18264268851373,0 32.94592283331138,35.182500526052,0 32.94640308707053,35.18222850569317,0 32.94676302461619,35.1820734261036,0 32.94685417675775,35.18203415334381,0 32.94710544549078,35.18197281665335,0 32.94719677783827,35.18192440170655,0 32.94731033020757,35.1819042814157,0 32.947483487947,35.18181871453098,0 32.94764395492081,35.18168794296891,0 32.94769417026765,35.18160764714517,0 32.94772132859687,35.18149411390971,0 32.94781109235139,35.1813871013516,0 32.94790393017168,35.18127642134558,0 32.9480418232402,35.18119082676069,0 32.94823043379546,35.18111075946414,0 32.94807931547176,35.18086166833638,0 32.94800076596363,35.1808560540638,0 32.9478497745348,35.18094295450601,0 32.94693490633308,35.1808985128649,0 32.94676848018289,35.18086448586052,0 32.94660518941487,35.18081425191859,0 32.94642885059821,35.18078688593697,0 32.94637356318948,35.18072858859997,0 32.94638375322199,35.18064276621526,0 32.94618078356144,35.18048296145329,0 32.94610063402649,35.18014109289793,0 32.94615013038167,35.18003482169871,0 32.94614616829383,35.17970659995854,0 32.94611822758596,35.17962244984682,0 32.94605688782644,35.17921624936518,0 32.94610347244547,35.17903127012111,0 32.9464567592924,35.17822568402008,0 32.94657428185631,35.1780096195268,0 32.94678177474756,35.17791863417811,0 32.94708716579546,35.17780785684346,0 32.94745290715992,35.1776503798886,0 32.9477493159286,35.17762171285251,0 32.94790338936428,35.17757648650235,0 32.94801192468397,35.17746526594203,0 32.94837667226378,35.17716397886606,0 32.94845410637654,35.1770526653182,0 32.94845638323348,35.17691021058715,0 32.94836260210662,35.17665188663506,0 32.94813351517442,35.17627085010936,0 32.94804769753765,35.17606227495244,0 32.94786273642354,35.17569749915569,0 32.94782240070126,35.17556701289558,0 32.94781808890276,35.17543394700876,0 32.94773722469183,35.17521597932789,0 32.94757461957858,35.17497625965968,0 32.94734929998311,35.17485058763161,0 32.94716683548588,35.17465919013546,0 32.94692686406673,35.17451600029008,0 32.9469078952197,35.17436676218272,0 32.94679825193262,35.17426672786463,0 32.94676780408938,35.17422774688028,0 32.94668090797363,35.17417471884352,0 32.94657855074678,35.17413110447798,0</coordinates>
						</LinearRing>
					</outerBoundaryIs>
				</Polygon>
			</MultiGeometry>
		</Placemark>
	</Document>
</kml>