<?xml version='1.0' encoding='UTF-8'?>
<kml xmlns="http://www.opengis.net/kml/2.2">
	<Document>
		<name>NOTIA L/SIA - IDALION, NISOU</name>
		<Style id="PolyStyle70">
			<LabelStyle>
				<color>00000000</color>
				<scale>0.000000</scale>
			</LabelStyle>
			<LineStyle>
				<color>ff0055ff</color>
				<width>2.000000</width>
			</LineStyle>
			<PolyStyle>
				<color>00828282</color>
				<outline>1</outline>
			</PolyStyle>
		</Style>
		<Placemark id="ID_70613">
			<name>NOTIA L/SIA - IDALION, NISOU</name>
			<snippet />
			<description>&lt;html xmlns:fo="http://www.w3.org/1999/XSL/Format" xmlns:msxsl="urn:schemas-microsoft-com:xslt"&gt;

&lt;head&gt;

&lt;META http-equiv="Content-Type" content="text/html"&gt;

&lt;meta http-equiv="content-type" content="text/html; charset=UTF-8"&gt;

&lt;/head&gt;

&lt;body style="margin:0px 0px 0px 0px;overflow:auto;background:#FFFFFF;"&gt;

&lt;table style="font-family:Arial,Verdana,Times;font-size:12px;text-align:left;width:100%;border-collapse:collapse;padding:3px 3px 3px 3px"&gt;

&lt;tr style="text-align:center;font-weight:bold;background:#9CBCE2"&gt;

&lt;td&gt;1&lt;/td&gt;

&lt;/tr&gt;

&lt;tr&gt;

&lt;td&gt;

&lt;table style="font-family:Arial,Verdana,Times;font-size:12px;text-align:left;width:100%;border-spacing:0px; padding:3px 3px 3px 3px"&gt;

&lt;tr&gt;

&lt;td&gt;DIST_CODE&lt;/td&gt;

&lt;td&gt;1&lt;/td&gt;

&lt;/tr&gt;

&lt;tr bgcolor="#D4E4F3"&gt;

&lt;td&gt;VIL_CODE&lt;/td&gt;

&lt;td&gt;105&lt;/td&gt;

&lt;/tr&gt;

&lt;tr&gt;

&lt;td&gt;VIL_CCD&lt;/td&gt;

&lt;td&gt;1105&lt;/td&gt;

&lt;/tr&gt;

&lt;tr bgcolor="#D4E4F3"&gt;

&lt;td&gt;VIL_NM_E&lt;/td&gt;

&lt;td&gt;NOTIA L/SIA - IDALION, NISOU&lt;/td&gt;

&lt;/tr&gt;

&lt;tr&gt;

&lt;td&gt;VIL_NM_G&lt;/td&gt;

&lt;td&gt;ΝΟΤΙΑ Λ/ΣΙΑ - ΙΔΑΛΙΟΝ, ΝΗΣΟΥ&lt;/td&gt;

&lt;/tr&gt;

&lt;/table&gt;

&lt;/td&gt;

&lt;/tr&gt;

&lt;/table&gt;

&lt;/body&gt;&lt;script type="text/javascript"&gt;

				function changeImage(attElement, nameElement) {

				document.getElementById('imageAttachment').src = attElement;

				document.getElementById('imageName').innerHTML = nameElement;}

			&lt;/script&gt;&lt;/html&gt;

</description>
			<styleUrl>#PolyStyle70</styleUrl>
			<MultiGeometry>
				<Polygon>
					<extrude>0</extrude>
					<altitudeMode>clampToGround</altitudeMode>
					<outerBoundaryIs>
						<LinearRing>
							<coordinates> 33.36862182294292,35.06930092532392,0 33.36862413700901,35.0694573771567,0 33.368602085702,35.06944997417709,0 33.36810333624268,35.06922630638044,0 33.36771308935682,35.0691796513016,0 33.36757403805586,35.06918281036469,0 33.36650199768009,35.06934783707807,0 33.36638268762423,35.06934823539572,0 33.36600552030205,35.0693905271549,0 33.3654296075953,35.06934437166631,0 33.36475732143425,35.06922917304129,0 33.36478440774853,35.06919337044745,0 33.36485861555257,35.06904407090895,0 33.36495006795496,35.06870231945319,0 33.36497816452579,35.06858466740672,0 33.36497636377756,35.06848678493629,0 33.36497301865095,35.0683414649172,0 33.36493058133704,35.06818249705979,0 33.36490539665899,35.06802174296401,0 33.36478523613921,35.06742888896564,0 33.36481846050921,35.06723662698212,0 33.36483926274722,35.06717838729666,0 33.36484671375403,35.06711088609943,0 33.3647993881155,35.06682268122543,0 33.36478004535383,35.06648641271592,0 33.36481061806908,35.06630418688791,0 33.36481830347948,35.06622457360728,0 33.36491898240116,35.06597870540975,0 33.36494302658985,35.06594371056813,0 33.36498919523489,35.06589614566394,0 33.36502610906953,35.06582460218978,0 33.36523956404536,35.06531971155935,0 33.3657113442095,35.0648107887499,0 33.3659468269358,35.06455090723502,0 33.36607748456283,35.06439868813324,0 33.36615192471483,35.06429995893242,0 33.36618365255471,35.06424665008984,0 33.36620819947873,35.06419803313501,0 33.3662799404864,35.06405496162084,0 33.3663570995926,35.06391146085083,0 33.36637120104883,35.06380089159967,0 33.36637961209988,35.06376016022093,0 33.36638793653054,35.06353024700804,0 33.36650199318605,35.06308559181319,0 33.36675576375634,35.06267640747489,0 33.36677832776694,35.06263956162454,0 33.36679244230276,35.06261101358141,0 33.36686010075453,35.06236581860333,0 33.36688304357218,35.06229923579296,0 33.36683758303922,35.0621206096718,0 33.36684515585596,35.06208790786381,0 33.36686812853,35.06206648753103,0 33.36690820103298,35.06203004120822,0 33.36694110107474,35.06200379802311,0 33.36695159786801,35.06198167174828,0 33.36696497263492,35.06195664503474,0 33.36697315696645,35.06188838425091,0 33.36718309934903,35.06183721574945,0 33.36749768935255,35.06178536842277,0 33.36793812083656,35.06172607787563,0 33.36815384081743,35.06169273994092,0 33.36843692601857,35.06157811137164,0 33.36874687941436,35.06131202806882,0 33.36885646762591,35.06121164440346,0 33.36918258962182,35.06091291393267,0 33.36949197353549,35.0605154396432,0 33.36976961556649,35.0601822959761,0 33.37008779048812,35.05986816409794,0 33.37027872462703,35.0597253556337,0 33.37045812008289,35.05963963972837,0 33.37096164685766,35.05949668732349,0 33.37134364298338,35.05940612004275,0 33.37161302238432,35.05921867924476,0 33.37193200698137,35.0587876448247,0 33.372123413361,35.05855277792325,0 33.37232286807827,35.05837988969394,0 33.37269566446485,35.05788984923074,0 33.37289910626326,35.05776629113687,0 33.37298148427009,35.05776226907314,0 33.37326254883254,35.05776213471408,0 33.37368898718154,35.05775794721799,0 33.37401855350888,35.05781752722042,0 33.37440632005505,35.05794478326427,0 33.37441121219373,35.05757413965258,0 33.37439146482733,35.05722479493073,0 33.37485665970834,35.05707611432705,0 33.37479362578633,35.05689831699167,0 33.37522816234294,35.05675908905127,0 33.37572169166008,35.05664483980051,0 33.37573445042615,35.05667205450432,0 33.37588225740856,35.05672432746486,0 33.37596379084501,35.05673266256458,0 33.3760529187441,35.05667398826839,0 33.37617266789827,35.05668230391093,0 33.37621594993493,35.05664249850503,0 33.37625670584608,35.056632008558,0 33.3762898459279,35.05665921226808,0 33.37639692665648,35.05675966434406,0 33.37650657113533,35.05688314847982,0 33.37656770191467,35.05686217846201,0 33.37655238381634,35.05682030850823,0 33.37667967404698,35.05669251753867,0 33.3766082727681,35.05660460988628,0 33.37652658646899,35.05639316932543,0 33.37653921719283,35.05624868499994,0 33.3764627389568,35.05618590637862,0 33.37640157762594,35.05616499859342,0 33.37618500283896,35.05613998191831,0 33.37635622933524,35.05599475149634,0 33.37621655450871,35.05566436885206,0 33.37575289637317,35.05569658102958,0 33.37562965891673,35.05566732782843,0 33.37544813818665,35.05575003102533,0 33.37549687331061,35.05588325416782,0 33.37523107758224,35.05600863836794,0 33.37523102822941,35.05594201507957,0 33.37520175865133,35.05582210679479,0 33.3751205932418,35.05568356992919,0 33.37506862332734,35.0555610086293,0 33.37496156193448,35.05548111291967,0 33.37482203615033,35.05534793483436,0 33.37478302561685,35.05520937654482,0 33.37474301681502,35.05468742772648,0 33.37471757622733,35.05459508530714,0 33.37467402210885,35.05451764780729,0 33.37457972047955,35.05444023538823,0 33.37447085732207,35.05427643402133,0 33.3744346160801,35.0542853887506,0 33.3741553066105,35.05400846195371,0 33.37383625448533,35.05391030359572,0 33.37351362951478,35.05388364649652,0 33.37326347743765,35.05382418308179,0 33.37271274309288,35.0535349829972,0 33.37222091315103,35.05315496613702,0 33.37197358496059,35.0528202023576,0 33.37146646337924,35.05312939247123,0 33.3710745320293,35.05275148437764,0 33.37157157057828,35.05253678050526,0 33.37100344317653,35.05202013151504,0 33.37125672268882,35.05196975909724,0 33.37186812831198,35.05191204033068,0 33.37185032653937,35.05143103286476,0 33.37272380409048,35.05141626266879,0 33.37377002367154,35.05142507864185,0 33.3738115046772,35.05077166826921,0 33.3740006110452,35.0507865212527,0 33.37406938701275,35.05034413142627,0 33.37446215770142,35.05039176195721,0 33.37450559684418,35.0501167624171,0 33.37453100186424,35.05004800525966,0 33.37454915370167,35.05000615155582,0 33.37458184278741,35.04995233537093,0 33.37469811128553,35.04981777832023,0 33.37478932136653,35.04972539911287,0 33.37475926172862,35.04963009892937,0 33.3749126105706,35.04956698317184,0 33.37494209327648,35.04954272154274,0 33.37490959389499,35.04947484814687,0 33.37483874275607,35.04940214357617,0 33.37485347122333,35.04937304098686,0 33.37420710107447,35.04890055273095,0 33.3740155056058,35.0491067398853,0 33.37362590198757,35.04880142437239,0 33.37336142950234,35.04855753794914,0 33.37354048816775,35.04827195958476,0 33.37355060022095,35.04821521146322,0 33.37355665632742,35.04816514178758,0 33.37352614187726,35.04808338010822,0 33.37352000020615,35.04801328881393,0 33.37351587936669,35.04792817643845,0 33.37353817566241,35.047874761191,0 33.37357733682612,35.04784591253746,0 33.37368926131707,35.04770151011692,0 33.37375610085259,35.04759697723063,0 33.37385137454829,35.04748693017697,0 33.37392254198433,35.04743381225612,0 33.37396435856676,35.04736838310745,0 33.37418014075742,35.04696571490637,0 33.37415124976337,35.04685324798763,0 33.37428132873423,35.04664730894309,0 33.37451590208715,35.04637188440599,0 33.37459342568844,35.04623501496991,0 33.37475552359319,35.0458583856323,0 33.37506480964957,35.04529582876139,0 33.37522419866134,35.04487969361189,0 33.37521884585306,35.04452789429705,0 33.37520854774439,35.04438131553554,0 33.37512187572409,35.04430597196206,0 33.37526953278844,35.04416769172634,0 33.37530006077201,35.04410904229326,0 33.37542223214525,35.04395820917363,0 33.37555457842028,35.0437864307078,0 33.37570223381976,35.04364814904278,0 33.37595677537502,35.04336323009156,0 33.37626227940515,35.0430950369714,0 33.37634842641719,35.0431668496307,0 33.37656456397808,35.04331471867039,0 33.37684372112074,35.04347735238285,0 33.37715893444175,35.04370655823501,0 33.37734827894077,35.04412819850079,0 33.37766360834613,35.0445053806849,0 33.37790684602182,35.04477161511889,0 33.37815908066523,35.04503044653372,0 33.37827613143137,35.04507477829076,0 33.37835716604667,35.04510433268911,0 33.378483185345,35.04510426684831,0 33.37919404044798,35.04478574086352,0 33.37938304987559,35.04476344392899,0 33.37986012919956,35.04477798826704,0 33.38026518150484,35.04477037257018,0 33.38084310670506,35.04468954006101,0 33.38149132498783,35.0445570247473,0 33.38192696103147,35.04450988848008,0 33.38265321772055,35.04467149261735,0 33.38294884750528,35.04466280140346,0 33.38378352407221,35.04451513005169,0 33.38401575694384,35.04447681526462,0 33.38425384444666,35.04449577178953,0 33.38451521657756,35.0445815363026,0 33.38488126680839,35.0448533852359,0 33.38498017762619,35.04508720479348,0 33.38523604281354,35.04552139806303,0 33.38545691558495,35.04577423733296,0 33.38563124785845,35.0459268714832,0 33.38581710839026,35.04597926571467,0 33.38595249331084,35.04585158427597,0 33.38616381077971,35.04565364548019,0 33.38700932788625,35.04515561164219,0 33.38722064628066,35.04496366539941,0 33.38722785415658,35.04486775084405,0 33.38733606150683,35.04412756510757,0 33.38740895240042,35.04369880356881,0 33.38736193806029,35.04330802733789,0 33.38728108627551,35.04328709318528,0 33.38720020549591,35.04323468437965,0 33.38709803923756,35.04316480280563,0 33.38663823781769,35.04279088291035,0 33.386369968868,35.04251127223633,0 33.38627626975956,35.04239242518949,0 33.38603779918103,35.04218224770703,0 33.38591555223089,35.04203702566122,0 33.38573214653655,35.04177560365003,0 33.38562270293974,35.04156961407637,0 33.38547200489819,35.04116914720169,0 33.3854148139697,35.04105520344304,0 33.38532499731444,35.04093904392955,0 33.38505649149011,35.04053123534624,0 33.38488837799818,35.04011998972305,0 33.38455342782179,35.039620849291,0 33.38444667683973,35.03939599873413,0 33.38434561572728,35.0390882818754,0 33.38421951251924,35.03889682673091,0 33.38407460195103,35.03872255606914,0 33.3839498710179,35.03852336664853,0 33.38385211155044,35.03837120965358,0 33.38377120876441,35.03824671778492,0 33.38363301493833,35.03805030368984,0 33.38348475625335,35.03789540708306,0 33.38324257401818,35.03768778121223,0 33.38296301949762,35.03752088608239,0 33.38263024199033,35.03721734308955,0 33.38246638007043,35.0369815346642,0 33.38239371839006,35.03687193068422,0 33.38228180733235,35.03673816167417,0 33.38222877302931,35.03664628338799,0 33.38223014728518,35.0366036646317,0 33.38216510697858,35.03650499140311,0 33.38195428613297,35.03626076037877,0 33.38191486267873,35.03619443660515,0 33.38176668163591,35.0360479775419,0 33.38158882471393,35.03589254067189,0 33.38143387834459,35.03571116809451,0 33.3812932393803,35.03549443828772,0 33.3811382423179,35.03524708182878,0 33.38094250326586,35.03495200230415,0 33.38069512012734,35.03464738163855,0 33.38056769535488,35.03451385796184,0 33.38045070780849,35.0343378131755,0 33.38022651518685,35.03404175166276,0 33.38015716875302,35.03399200343896,0 33.37985366008147,35.0337456143261,0 33.3796592406128,35.03354119204672,0 33.37952957365337,35.03333393299933,0 33.37936241136566,35.03311548817221,0 33.37912365424616,35.03286345918956,0 33.37899873994328,35.032786642183,0 33.37896013494031,35.03271535615035,0 33.3789311457479,35.03261633324093,0 33.37890212209224,35.03247373505856,0 33.37882488215367,35.03229154755229,0 33.37868983880372,35.03213712013114,0 33.37840531037439,35.03184411799863,0 33.378005131531,35.0315432527679,0 33.37782666028996,35.03130565521113,0 33.37773443112854,35.03105824295276,0 33.3775087192205,35.03078326416309,0 33.37729011242067,35.03028102828979,0 33.37708591136273,35.02958741425733,0 33.3768671030541,35.0288100827795,0 33.3768171547437,35.02857989157143,0 33.37668562204225,35.02829300747695,0 33.37651264718804,35.02803739577303,0 33.37640953045948,35.02783078362431,0 33.37637396886566,35.02774013382811,0 33.37633333146443,35.02763802381777,0 33.37631639494612,35.02753539950514,0 33.37635009640692,35.02738569037428,0 33.37630052858039,35.02718683909083,0 33.37625792917189,35.02686357057993,0 33.37629750498644,35.02661839214689,0 33.37623758854463,35.02624251107661,0 33.37619782413861,35.02623435933851,0 33.37612792541349,35.02580127993648,0 33.37592775907913,35.02527558767857,0 33.37543510681851,35.02428255066818,0 33.37523229487206,35.0239317313379,0 33.374957102435,35.02352146863919,0 33.37484109423407,35.02315870971977,0 33.37472510880514,35.02282569017743,0 33.37450051209225,35.02234997589614,0 33.37447791008562,35.02227656383893,0 33.37436031295763,35.02209659343983,0 33.37430817523515,35.02165209278423,0 33.37427093292461,35.02153296263143,0 33.37423730411908,35.0212732974278,0 33.37417765734153,35.02099836938092,0 33.3742315569734,35.02102610749597,0 33.37467271418148,35.0210658230959,0 33.37487914416033,35.02110565300386,0 33.37533643883479,35.02107547896152,0 33.37576943130683,35.02101869466146,0 33.37606886087557,35.02094866447104,0 33.37638125398164,35.02074046090821,0 33.37671479884177,35.02050737754514,0 33.37696701378503,35.02048810542103,0 33.37745193635212,35.02031237302856,0 33.37842552061536,35.01978541798242,0 33.37874483042268,35.01961282343571,0 33.37936442612803,35.0191969119148,0 33.3795876810301,35.01901770147516,0 33.38005935965375,35.01871437186012,0 33.38033863281543,35.01859004864898,0 33.38094606647505,35.01817267439817,0 33.3813175572272,35.01796754475046,0 33.38154052049865,35.01793147057236,0 33.38166732230758,35.01793499666194,0 33.38194712163692,35.01789170020962,0 33.38206519666085,35.01791680175534,0 33.38225327728426,35.01799938792635,0 33.38238445829911,35.01801010090571,0 33.38250690662588,35.01803519995999,0 33.38272268909108,35.01799837372688,0 33.38339166076007,35.01799056629059,0 33.38362668032897,35.0179582226336,0 33.38375474960024,35.01796142794048,0 33.38434457411049,35.01803281711265,0 33.38474262635936,35.01809146959807,0 33.38526393624897,35.01823809922069,0 33.38535825612449,35.01825028893134,0 33.38540292203125,35.01824210014237,0 33.38547734885752,35.01820940640916,0 33.38566093713465,35.01813175371321,0 33.38573535063962,35.01808273337555,0 33.38598343871226,35.01797239166972,0 33.38603304713644,35.01793971162007,0 33.38613715985071,35.01779680218758,0 33.38621650387994,35.01771104568933,0 33.38631074615563,35.01763344462637,0 33.38638515772895,35.01758442479663,0 33.3864098668577,35.0174578870481,0 33.38640978466831,35.01736401540077,0 33.38638478273752,35.01715179743874,0 33.38637473161084,35.01700895461254,0 33.38636820600564,35.01689326390337,0 33.38642113477057,35.01664561005093,0 33.3865447855706,35.01624254363325,0 33.38669206223508,35.0158491731748,0 33.38692787936231,35.01542176396126,0 33.38706986041012,35.01511624772985,0 33.38709591037658,35.01501490648369,0 33.38727871971831,35.01483056910224,0 33.38744294584073,35.0147475687679,0 33.38755121400101,35.01472601002346,0 33.38760720656572,35.01470448382484,0 33.38765948564325,35.01470752320652,0 33.38775286801422,35.0147412426538,0 33.38783515346607,35.01489471761352,0 33.38808380751607,35.01490983014759,0 33.38906163782021,35.01498232867955,0 33.38995807079525,35.01513469596902,0 33.39062197891711,35.01521876284404,0 33.3910014311992,35.01534849190884,0 33.39128609377482,35.01552376850119,0 33.39147591132357,35.01568610672894,0 33.39155507325989,35.01582901915822,0 33.3915553566513,35.0161344386356,0 33.39151607771021,35.01638789726392,0 33.3914925498425,35.01658286160685,0 33.39168221330873,35.01657624353081,0 33.39173743687717,35.01647223633389,0 33.39180842871568,35.01632922882292,0 33.39185581579637,35.01629670680742,0 33.39191113616861,35.01629667241568,0 33.39221939058587,35.0163419644927,0 33.39222717070648,35.01621199358523,0 33.39227440522637,35.0160170146742,0 33.39232958464088,35.0158675190679,0 33.39243214341898,35.01567900289116,0 33.39263773258785,35.0158023389055,0 33.39293826171592,35.01603608575179,0 33.39322292968119,35.01621135774199,0 33.39348384175029,35.01633465637914,0 33.39379217183674,35.01645792500567,0 33.39410046480072,35.01654220301926,0 33.39452960563056,35.01664344428364,0 33.39500720883665,35.01674847181854,0 33.39524407482292,35.01680577455782,0 33.39551590180249,35.01688539830482,0 33.39559743615484,35.01689492107621,0 33.39573333269975,35.01691717576325,0 33.39584979345176,35.01691390603463,0 33.39600123502881,35.01695211079287,0 33.39612162136399,35.0169935284173,0 33.39630024773622,35.01704129195118,0 33.39646721132553,35.01707310126131,0 33.39666396669683,35.01713406219172,0 33.39690646688565,35.01723059911521,0 33.39697850728942,35.01727001958847,0 33.39707934275051,35.01730350101995,0 33.39723055119887,35.0173093188538,0 33.39802882381406,35.0175049127502,0 33.39833205649093,35.01756099660822,0 33.39849832730297,35.01757294534906,0 33.39850808259225,35.01754881391029,0 33.39907046575357,35.01758863409854,0 33.39953012808868,35.01759635684984,0 33.39967683854358,35.01760831698277,0 33.39969154590658,35.01764449382945,0 33.40026362658932,35.01760388630112,0 33.40125996821887,35.01747196945389,0 33.40122721496894,35.01707754876979,0 33.40121602205313,35.01668311176627,0 33.40068242746934,35.01669235266925,0 33.4006927518948,35.01625358131498,0 33.40074598954873,35.0156197726345,0 33.40093468062386,35.01566395896235,0 33.40273686650011,35.01601294189176,0 33.40279706521012,35.01541258430525,0 33.4028274900006,35.01541881579298,0 33.40286375654208,35.01497475781854,0 33.40293229416588,35.0149747087884,0 33.40293671165145,35.01452787735995,0 33.40298004782586,35.01385156703137,0 33.40270738470056,35.01383032505635,0 33.40213395438567,35.01378566802058,0 33.40219365004231,35.01353807144773,0 33.40225172613003,35.01316496940681,0 33.40234285895324,35.0131561886072,0 33.40242308144959,35.01285285946129,0 33.402434780911,35.01245451628547,0 33.40246090386068,35.01208380782342,0 33.40254925213014,35.01204497830169,0 33.40269948115713,35.01201337382032,0 33.40271398844514,35.01180257942703,0 33.40266382376302,35.01172993106201,0 33.40254592724354,35.01168882801652,0 33.40250169085703,35.01165009472787,0 33.4024720165708,35.01145144563555,0 33.40239677392299,35.01129054487957,0 33.40236129686734,35.01125126327963,0 33.40225755620182,35.01116866218269,0 33.40222625619825,35.01095310778364,0 33.40220000738448,35.01073961079558,0 33.40216323042658,35.01043490886515,0 33.40214248963608,35.01031677993751,0 33.402126707463,35.010182046666,0 33.40210671911769,35.01003115857262,0 33.40212899048598,35.00992993026453,0 33.4021232301067,35.0097735162057,0 33.40229649711476,35.0096215739928,0 33.40244092506597,35.00955911906672,0 33.40266177457832,35.00940257005855,0 33.40276452307612,35.00935600169554,0 33.40287756002358,35.009317878746,0 33.40298035344178,35.00931357848872,0 33.40308310594183,35.00927123569526,0 33.40318066934796,35.00918240404273,0 33.40337074890481,35.00909350377712,0 33.40349914512288,35.00900042197298,0 33.40375096208815,35.00896642411931,0 33.40386387101854,35.00880995157347,0 33.40402285039819,35.00848014946256,0 33.40397641319826,35.00831533982214,0 33.40379123359378,35.008180219389,0 33.40353930115768,35.00810432119321,0 33.4032203967394,35.00788476223772,0 33.40322344745947,35.00782795548367,0 33.40333721543645,35.00773188014041,0 33.40348783167536,35.00777098162553,0 33.40363776795552,35.0078360072952,0 33.40369622123949,35.00785957070993,0 33.40417264568552,35.00808850069751,0 33.40433893052845,35.00809679342908,0 33.40440513673707,35.00827867034541,0 33.40458575014645,35.00840357304765,0 33.40487856218807,35.00845371348174,0 33.40477560430283,35.008604313495,0 33.40524348809214,35.00864682992365,0 33.40529473252965,35.00851295225154,0 33.40530053667286,35.00844781165781,0 33.40534999911054,35.00837715732683,0 33.40542411568642,35.00829699809881,0 33.40555565506367,35.00839197568746,0 33.40578612755102,35.00852709434495,0 33.40578628307848,35.00866818302172,0 33.40572867322773,35.00877684244188,0 33.40592341268554,35.00888215225061,0 33.406035694199,35.00892504932487,0 33.40603337565754,35.00895404130444,0 33.40615435852844,35.00898518530652,0 33.40642593564255,35.00901366163771,0 33.4066249795741,35.00906219625671,0 33.40665851474839,35.00963068538816,0 33.40700097156996,35.00981143397524,0 33.40719056218015,35.00983908733664,0 33.40735038986254,35.00980557446301,0 33.40735020814358,35.00977930682939,0 33.40728173341923,35.00956682071172,0 33.40725374297894,35.00945409846096,0 33.40723335829286,35.00924588051608,0 33.40722046254105,35.00914938633061,0 33.40720429948509,35.00898275739176,0 33.40720066747231,35.0089502364678,0 33.40718212816357,35.00886342261318,0 33.40680920200836,35.00842595244488,0 33.4070045281703,35.00826031004612,0 33.40752179436634,35.00866659188391,0 33.408101043027,35.00911399855629,0 33.40833957683625,35.00882808838462,0 33.4078753856361,35.00804390744089,0 33.40787474794489,35.00792249926322,0 33.40835281484551,35.00788120424097,0 33.40848826402152,35.00797975855116,0 33.40859523212345,35.00799072395542,0 33.40912437165893,35.00869578384899,0 33.40889024838279,35.00899619083927,0 33.40942136703339,35.00916807238467,0 33.4095252520977,35.00929960129935,0 33.40953376876006,35.00944193542573,0 33.40944123692968,35.00971402532268,0 33.40935881011435,35.00986488802802,0 33.40937000194891,35.010121113684,0 33.40939999765246,35.01024733731891,0 33.40940315061615,35.01033414861823,0 33.40946785025434,35.01064881300292,0 33.40896963548641,35.01056347063823,0 33.40891016881807,35.0106616894384,0 33.40938599785534,35.01095713355235,0 33.40947127996313,35.0114715468024,0 33.40940158093925,35.01152135000992,0 33.4095512829624,35.01213974800471,0 33.41031887581568,35.01205341831194,0 33.41041837347061,35.01203775329901,0 33.4105506219195,35.01258580913435,0 33.41059839008086,35.01291273074189,0 33.41060108326204,35.01375456860422,0 33.41056610604181,35.01425631521919,0 33.41056716765486,35.01435320053608,0 33.41053621753115,35.01480097549998,0 33.41147158792747,35.01496308663368,0 33.41146902672497,35.01510077967464,0 33.4114655764778,35.01533638592137,0 33.41140148268713,35.01534891024622,0 33.41140954457067,35.01559720007025,0 33.41143637391261,35.01575873151733,0 33.41150677892081,35.01616392706048,0 33.41142720782339,35.01617754230722,0 33.41115721248797,35.01625234915377,0 33.4110727177347,35.0162829311049,0 33.41087281198928,35.016350899732,0 33.41067617852776,35.01642956219375,0 33.41065025200588,35.01644092575044,0 33.41053897332101,35.0164867850335,0 33.41032258263598,35.01656324307966,0 33.41006252312073,35.01665036512745,0 33.40979283795032,35.01672465318538,0 33.40928761002463,35.01676078131589,0 33.40927983540441,35.01692515038832,0 33.40920715359726,35.01729279163514,0 33.40946924430206,35.01734372838245,0 33.40933780343082,35.01854056455624,0 33.40835245484775,35.01850614872122,0 33.40830693146074,35.01932471762347,0 33.40849642269368,35.01936181060194,0 33.40841531000554,35.02003109021485,0 33.40835111361717,35.02025346049115,0 33.40833648239415,35.02025572179704,0 33.40824431661329,35.02048558854852,0 33.40816572978522,35.02076855260017,0 33.40795394171258,35.02141674984825,0 33.40750788315804,35.02115836628936,0 33.40735785005393,35.02108333302306,0 33.40731320398087,35.02106091409055,0 33.40718454966466,35.02105797811001,0 33.4071342691629,35.02105476918486,0 33.40693394840681,35.02102583218139,0 33.4067754399867,35.02100425810713,0 33.40670130123123,35.02097729369476,0 33.40629164769926,35.02085114591471,0 33.40612709791024,35.02078239571783,0 33.40611582633726,35.02077251424156,0 33.40610823730714,35.02076257446948,0 33.40609956712239,35.02075868952799,0 33.40608710738083,35.02074983964032,0 33.40607463778033,35.02074098978432,0 33.40606580349257,35.02073006441998,0 33.40605948663479,35.02072211792869,0 33.4060531588298,35.02071417327652,0 33.40604679589543,35.02070422038408,0 33.40604040601232,35.02069324898003,0 33.40603887488734,35.02068120756348,0 33.40605520280774,35.02054913317701,0 33.40603030656186,35.02048314349162,0 33.4059451403711,35.02035675132573,0 33.40587131596661,35.02029255681705,0 33.4056342145871,35.02016160286642,0 33.40544829238742,35.02007006051827,0 33.4052696248568,35.01997438680024,0 33.40496041800047,35.01979833999819,0 33.40469989323599,35.01965973270185,0 33.40463224300231,35.0196467515998,0 33.40435551652735,35.01959493285674,0 33.40432381499485,35.01964976532598,0 33.40427948466539,35.0196887199223,0 33.40426379787701,35.01969803333758,0 33.40426024530586,35.01970311654524,0 33.4042492631046,35.01970431054558,0 33.40423462957671,35.01970655243507,0 33.40418593027913,35.01971741445322,0 33.4038164026383,35.01977373736257,0 33.40386917500636,35.01992780329152,0 33.40384379073477,35.01999058854973,0 33.40405399966477,35.02012497980657,0 33.40401379563277,35.02028157265415,0 33.40401154419486,35.02028965774954,0 33.40401299004786,35.02029868243362,0 33.40401816340972,35.02030966610869,0 33.40402200766626,35.02031664740817,0 33.4040447524234,35.02034544588813,0 33.40406362614083,35.02036627159583,0 33.4041359440405,35.02041941183452,0 33.40428163243029,35.02051864770365,0 33.40431326731648,35.02056038791164,0 33.40432874644327,35.02059232854344,0 33.40434919116449,35.02067649967428,0 33.40435066618259,35.02068654285797,0 33.4043519832495,35.02069054346667,0 33.40435098694039,35.02069961414211,0 33.40433570460762,35.02072501561452,0 33.4041168030225,35.02098208252676,0 33.40406927820045,35.02094161569459,0 33.40405432373091,35.02093078537737,0 33.40403819698113,35.02092199526245,0 33.40402808210079,35.02090908458469,0 33.40400333238586,35.02089841667375,0 33.40398479850641,35.02089167897891,0 33.40396519317154,35.02089099516,0 33.40394666911413,35.02088424841241,0 33.40378379527834,35.0208818689178,0 33.40377281395484,35.02088305205542,0 33.4037641909986,35.02088117604873,0 33.40375331054474,35.02088638367697,0 33.40374116512588,35.02089060575626,0 33.40362091174025,35.02097807453534,0 33.40361000330156,35.02098227445932,0 33.40359291634583,35.02098456048767,0 33.40358316214915,35.02098572240046,0 33.40357099865029,35.02098894575258,0 33.40356000635183,35.02099012890748,0 33.40355014033652,35.02098726636154,0 33.40354402761625,35.02098736961735,0 33.40353538768939,35.02098449397917,0 33.40352667591748,35.02097859252162,0 33.40344856028909,35.02093861746754,0 33.4033440639751,35.02092019548872,0 33.40325563848697,35.02090855546928,0 33.40324729229467,35.02091774250152,0 33.40318106437059,35.02096207428881,0 33.40306399881467,35.02098007772867,0 33.40297397815765,35.02100266420638,0 33.40287936443331,35.02103739443368,0 33.40278193198014,35.02105708117558,0 33.40263825721772,35.02103828742052,0 33.40254200424096,35.02100665507664,0 33.40240990916659,35.02101081238828,0 33.40232637312368,35.02099808369444,0 33.40230162803088,35.02098742533619,0 33.40228424965196,35.02097764847901,0 33.40223946536928,35.02094819527502,0 33.4020989803123,35.02085994602121,0 33.40206577229313,35.02085344234159,0 33.40203194797184,35.02077251787838,0 33.40177518593474,35.02073342816016,0 33.40168069249932,35.0207228914841,0 33.40157898024393,35.02071750498116,0 33.40138485422214,35.02073675422153,0 33.40131529734441,35.02074492302798,0 33.40120133826349,35.02073872486517,0 33.40116189341262,35.02072730178793,0 33.40097186449794,35.02066399674116,0 33.4007899529924,35.02058245956319,0 33.40062777242467,35.02050663957213,0 33.40057016517521,35.0205031970094,0 33.40110431818609,35.02231898749221,0 33.4010302627558,35.02233678011222,0 33.40100774566758,35.02231702964923,0 33.40078470439408,35.02230453452274,0 33.40072379656854,35.02226629651803,0 33.40064746378614,35.02224741505624,0 33.40060916164077,35.02223294214343,0 33.40048075896438,35.02213745423794,0 33.4004320314009,35.02214628845954,0 33.40029579243362,35.02208009342462,0 33.40024218738672,35.02209000732989,0 33.40019806080747,35.02203741723746,0 33.4000895929856,35.02205526145945,0 33.39996868333106,35.02201497362987,0 33.39976660878211,35.02200818380879,0 33.39969861791897,35.02207968371201,0 33.3994514858636,35.02213095059729,0 33.39938569970789,35.02236228957653,0 33.39937904449912,35.0223808761646,0 33.39936211778357,35.02241507304173,0 33.39934875204597,35.02243118388304,0 33.3994983736715,35.02251204254653,0 33.39976695487927,35.02265580673711,0 33.39989694347473,35.02272368336373,0 33.39999755287857,35.02278562440172,0 33.40017301350317,35.02289352430342,0 33.40039985285887,35.02300327362148,0 33.40048805674323,35.02303312957402,0 33.40053464583438,35.02305507225776,0 33.40060692306588,35.02307693914473,0 33.40076368015752,35.02311862053055,0 33.40081879196503,35.02313351562567,0 33.40088128733591,35.02315741850474,0 33.40091437046465,35.02316936747442,0 33.40110056423665,35.02322702614478,0 33.4012120491585,35.02326282518533,0 33.40131620673606,35.02330066121743,0 33.40138235193622,35.02332154464049,0 33.40158810432661,35.02337612894017,0 33.40179483625439,35.02338853054532,0 33.40194037663442,35.02339208785737,0 33.40200518169145,35.02339188312364,0 33.4022647333305,35.02344530190136,0 33.40247655560835,35.02349283532187,0 33.40256840092947,35.02351463253328,0 33.40265897532841,35.02352841398571,0 33.40277775921336,35.02355816229455,0 33.4029675997341,35.02360978452122,0 33.40308761223106,35.02363953295311,0 33.40328229536834,35.02368310697693,0 33.40329231902852,35.02372425489568,0 33.40329129999179,35.02375840575437,0 33.40329282696929,35.02381162213206,0 33.40326631417133,35.02387699624877,0 33.40325539748454,35.02389209519835,0 33.4032409600763,35.02393331989009,0 33.40322402262164,35.02396551167601,0 33.40362102916509,35.02409983804382,0 33.4038968086341,35.02420542382119,0 33.40411131344015,35.02429111773817,0 33.40429767615735,35.02437188504031,0 33.40464097615983,35.02451944848485,0 33.40412143290969,35.02558592214231,0 33.40361561748671,35.02546798568856,0 33.40341605965691,35.02543546898237,0 33.40316019654623,35.02539308461148,0 33.40231532973399,35.02522901454902,0 33.4021657023569,35.02579812138407,0 33.40264208948697,35.02589908057559,0 33.40302040362563,35.02596116553173,0 33.40396086375259,35.0261470485518,0 33.40394162144227,35.02620237393781,0 33.40381508168063,35.02652431137618,0 33.40381885694435,35.02654238663516,0 33.40397682923322,35.02657302102934,0 33.40393313649651,35.02667109093607,0 33.40427035827647,35.02677305218839,0 33.40457055289902,35.02685750063628,0 33.40427554473975,35.02764530930184,0 33.40441886215586,35.02767701052748,0 33.40418835931297,35.02841447615349,0 33.40401313517138,35.02836880708355,0 33.40378894143635,35.02831525286773,0 33.40348141874869,35.02824085514199,0 33.40321925278434,35.02817938458296,0 33.40317115875706,35.02832326887328,0 33.40310633796791,35.0285375804601,0 33.40300789611369,35.02886157169275,0 33.40276158150199,35.0287930056511,0 33.40257234004057,35.02907609051581,0 33.40252005972705,35.02913356245183,0 33.4020654693886,35.02901941598078,0 33.40199439899094,35.02900054862252,0 33.40172016485057,35.02940355773313,0 33.40183196769794,35.02948261584393,0 33.40180334213212,35.02961310045721,0 33.40173624029316,35.02985914236815,0 33.40186450422392,35.02988207967393,0 33.40194544994166,35.02972179222111,0 33.40203879599804,35.02961293268051,0 33.40208772091017,35.02959049478837,0 33.4021942087596,35.0295951519711,0 33.40228130396049,35.02961275909086,0 33.40232498761227,35.02963512352908,0 33.40247131689902,35.02974929120295,0 33.40242270351691,35.02985049123864,0 33.40238228579349,35.02985525764208,0 33.4023325522728,35.02994438508532,0 33.40226986816337,35.02997615146862,0 33.40222410685758,35.03003214136712,0 33.40223054511589,35.0301336933767,0 33.4021663794096,35.03019458846406,0 33.40206912216957,35.03039999999147,0 33.40206330680633,35.03050348738008,0 33.40195801416825,35.03051085191741,0 33.40193415636087,35.030579043728,0 33.40196778336197,35.03065062465134,0 33.40206237358267,35.03074571713824,0 33.40199533987858,35.03085484377471,0 33.40193298025065,35.03084941468738,0 33.40183640813105,35.03097744350445,0 33.40182008540057,35.03102457940399,0 33.40213277988709,35.0310848984447,0 33.40217699371216,35.03148022013634,0 33.40219761032849,35.03163917235471,0 33.40162021780306,35.0316213626317,0 33.40157586357948,35.0323428132295,0 33.40120611151004,35.0323665419427,0 33.40090719741269,35.03240681987351,0 33.40107493667438,35.03280598660618,0 33.40120362002376,35.03305713547309,0 33.40134368956985,35.03340487556672,0 33.40149231101987,35.03375468928004,0 33.40165225559806,35.03407040983515,0 33.40224481642139,35.03404210493156,0 33.40227869077518,35.03422330061118,0 33.40223578519501,35.03423206848746,0 33.40211601398743,35.03421419015762,0 33.40203263587928,35.0342317492685,0 33.40197667051666,35.0341951839757,0 33.40184365931239,35.0341530975578,0 33.40178475631694,35.03417080710764,0 33.40176489154265,35.03420285059003,0 33.40172097134415,35.03432521620086,0 33.401710367367,35.03455438476663,0 33.40178068200661,35.03462924526863,0 33.40183018035739,35.03470497421934,0 33.40174913537219,35.0347356085508,0 33.40173006988108,35.03467817399841,0 33.40163554777199,35.03457299606854,0 33.40151593648771,35.03453702701713,0 33.40144503095899,35.03452952026318,0 33.4013532015232,35.03453495759205,0 33.40129266722182,35.03446116241933,0 33.40115376335157,35.03439289149242,0 33.40106307968185,35.03440737953056,0 33.40102050396763,35.03437895078626,0 33.40094299638611,35.03441513462288,0 33.40073200378453,35.03433527752027,0 33.40052938972507,35.03427759966197,0 33.40044228407546,35.03430013047382,0 33.40036276544647,35.03429657627218,0 33.4002858595498,35.03427594419794,0 33.40018409312062,35.03429637060653,0 33.40013724029432,35.03433426106764,0 33.40011704775808,35.0343994819554,0 33.40000584838983,35.03451234340765,0 33.39999464977569,35.03466409663896,0 33.39994836701688,35.03477136708445,0 33.40007354883519,35.03486471963869,0 33.40023834220671,35.03491008888049,0 33.40032760288088,35.03491873376424,0 33.40037116220592,35.0349733320962,0 33.40043695963517,35.03500393977554,0 33.40049624149539,35.03507875359574,0 33.4006315692049,35.0351349770384,0 33.40067165506083,35.035167420927,0 33.40062454884649,35.03536318627027,0 33.4005750444563,35.03542217515967,0 33.4005260850998,35.03542284968026,0 33.40034361764612,35.03530295244939,0 33.40014472086306,35.03523825500004,0 33.39995094223313,35.0351514664963,0 33.39976886510473,35.03499034988995,0 33.399731774872,35.03489960761431,0 33.39963255151802,35.03477827041299,0 33.39955560188775,35.03463094770088,0 33.39951681024061,35.03459248493387,0 33.39953647188538,35.0344518534836,0 33.39958755606686,35.03435466683539,0 33.3995348482923,35.03423264992786,0 33.39947506272318,35.03421414419532,0 33.39942727601485,35.03421985332195,0 33.39934937847835,35.03417509032167,0 33.39921963308943,35.03417823231531,0 33.39915645799766,35.03412954196214,0 33.39919311416811,35.03400411561487,0 33.39911680175032,35.03392014468878,0 33.39907632695598,35.03380022729394,0 33.39903812046823,35.0335677255399,0 33.39899632271546,35.0334578578359,0 33.3989371783444,35.03336999300902,0 33.39872481013994,35.03331124986478,0 33.39869631398532,35.03334825736579,0 33.39865323265352,35.03337611112718,0 33.3986157114259,35.03333162062801,0 33.39865380491232,35.03318409420479,0 33.39868994801284,35.03311497209405,0 33.39861998814607,35.0330069247891,0 33.39856358759993,35.03301861211528,0 33.39855074467065,35.03295317366275,0 33.39849624437981,35.03289349775207,0 33.39848356137664,35.03280996555039,0 33.39839214457757,35.03277316254601,0 33.39834733324725,35.03272359928773,0 33.39814877924794,35.03262876666572,0 33.39802097734548,35.03268620768421,0 33.39788694733043,35.03288636038939,0 33.39793712126499,35.03301537864179,0 33.39793250363173,35.03311587999578,0 33.39791995743406,35.03314796195733,0 33.39780190182328,35.03308081497174,0 33.39779376784671,35.03277614691261,0 33.39769920287076,35.03268302153291,0 33.39759272848458,35.03268531750306,0 33.39752741502588,35.03273413852618,0 33.39741455530149,35.03276554123928,0 33.39723970180378,35.03301165850432,0 33.39719805196582,35.03314608504639,0 33.39721498593343,35.03329599092666,0 33.39716719844238,35.03343239361543,0 33.3973467525912,35.03359547492418,0 33.39739109944131,35.033563599872,0 33.39745055466283,35.03361728816624,0 33.39747321689159,35.03367876890241,0 33.39753580468405,35.0336600929686,0 33.39769431451818,35.03371947443966,0 33.39780830795353,35.03382882919758,0 33.39797852019482,35.03407529677529,0 33.39800079040093,35.03417900640215,0 33.39799791497357,35.03435493427375,0 33.39794217044021,35.03455664384576,0 33.39737121612166,35.03605493651212,0 33.3971358051758,35.03597289059122,0 33.39716396554266,35.03584236633846,0 33.39712284579291,35.03583091593215,0 33.39703408620056,35.03581429944514,0 33.39687676976627,35.03575677376206,0 33.39662355125446,35.03567139305548,0 33.39656933647743,35.03584286079447,0 33.39647203396755,35.03582169713313,0 33.39631239828517,35.03576813640964,0 33.39601282347498,35.03578902944837,0 33.39605005374487,35.03592364518732,0 33.39586638989272,35.03593770174509,0 33.39588576259158,35.03598531349526,0 33.39596347565872,35.03614340794135,0 33.39604610447764,35.0363035595431,0 33.39627554776341,35.03660808011075,0 33.39604702034296,35.03669259203573,0 33.39573508340938,35.03681543964826,0 33.39563949025943,35.03674482983216,0 33.39551043302438,35.03664282996779,0 33.39530487767605,35.03645842934286,0 33.39516540338457,35.03628614453621,0 33.39493183036715,35.03639285102201,0 33.39460066153789,35.03654341734523,0 33.3944462482204,35.03660714647135,0 33.39409677212077,35.03673406370991,0 33.39373314012748,35.03678367723806,0 33.39372136900636,35.03687110043064,0 33.39375175671827,35.03705451464197,0 33.39380789911758,35.03705477413788,0 33.39382546373342,35.03718121362756,0 33.3938030322325,35.03724741695307,0 33.39398659176953,35.0375235275863,0 33.39403683715276,35.0376564556684,0 33.39402785648785,35.03779316820751,0 33.39405756469404,35.03789052912465,0 33.39413967599582,35.03799534579557,0 33.39422864582679,35.03812450357089,0 33.39431815068426,35.03823356519497,0 33.39436499552021,35.03835357878361,0 33.3943621035483,35.03838239199781,0 33.39438695952234,35.03841478738955,0 33.39450090957941,35.03846153031576,0 33.39453014046369,35.03848792155085,0 33.39464706300763,35.03858868188052,0 33.39482675021222,35.03865939022538,0 33.39507794180886,35.03869305351945,0 33.39521331241283,35.03868600800459,0 33.39537823382136,35.03861402727543,0 33.39538949672651,35.03859547190635,0 33.39545772955656,35.03858288573625,0 33.39560602598286,35.03861675163976,0 33.39573849355749,35.03882506122025,0 33.39576937650168,35.0389064303681,0 33.39580793220191,35.038958856188,0 33.39563285313173,35.03908957345825,0 33.39543074509029,35.03923349685461,0 33.39544718782525,35.03927842026132,0 33.39545257809742,35.03936215945431,0 33.3954978125268,35.03945659477082,0 33.39554255938659,35.0395076023952,0 33.39549129101668,35.03966033126107,0 33.39567447734407,35.03972985778723,0 33.3957154133801,35.03966692272218,0 33.39576134173884,35.03956831860261,0 33.39578908692626,35.03954555211276,0 33.39579492500613,35.03960139193946,0 33.39580852522646,35.03978340991748,0 33.39586228423038,35.03986335678603,0 33.39592132061038,35.03992603243019,0 33.39595718786604,35.03999107415041,0 33.39597727172647,35.0400756965186,0 33.39599390283814,35.04015002427681,0 33.39608721924714,35.04026895882033,0 33.3961562625415,35.04031752067908,0 33.39616379600918,35.04038121257582,0 33.39615010020679,35.0404338954,0 33.39648357025641,35.04086299276727,0 33.39624794046499,35.04093443972033,0 33.39632634405351,35.04105372924235,0 33.39635170598063,35.04111725561401,0 33.39635317105444,35.04117733190827,0 33.39632233519473,35.04126284706709,0 33.39630408975686,35.04128943168561,0 33.39625698075345,35.04133833674635,0 33.39599021052746,35.04136239747839,0 33.39598392791103,35.04144004869985,0 33.39608633881865,35.04172188419437,0 33.39658131074685,35.04166715782582,0 33.39673403136627,35.04184749670721,0 33.39681844368936,35.04192797567538,0 33.39669586134546,35.04205825140302,0 33.39652713092907,35.04205967912682,0 33.39647623143559,35.04200670167591,0 33.39644850125247,35.0419573785529,0 33.39640914955657,35.04189256923394,0 33.39615627411334,35.04195588750726,0 33.39586367290778,35.04197659701226,0 33.39569764350875,35.04214424279655,0 33.39557709648611,35.04219331766099,0 33.39552032456734,35.04225374516582,0 33.3955261449314,35.04231568220513,0 33.3958541295214,35.04249895360685,0 33.39590042648537,35.04252372845885,0 33.39644610725207,35.04299964306829,0 33.39652865077092,35.04305746857538,0 33.39661625408483,35.04314030254679,0 33.39665921510241,35.04328545564956,0 33.39672758194275,35.04341409288286,0 33.39634630575377,35.04347814051768,0 33.39631327550195,35.04337475885397,0 33.39624197984623,35.04329497948609,0 33.39609298117437,35.04320372096089,0 33.39602279186052,35.04315143639153,0 33.39595693364291,35.04311334032923,0 33.3958943512239,35.04311515627734,0 33.39575115100349,35.04298381865587,0 33.39549080800843,35.04286323352915,0 33.39538850235162,35.04279034958643,0 33.39506090162131,35.04248466451735,0 33.39488289993443,35.04222618648887,0 33.3946873097409,35.04241658144307,0 33.39474388029508,35.04249597607165,0 33.39414083307545,35.04294275479373,0 33.39330029556635,35.04236654174833,0 33.39395437886075,35.04188502139908,0 33.39379112481788,35.04162976417403,0 33.3938210263751,35.04161094925032,0 33.39356469517162,35.04132025809908,0 33.39277726689576,35.04189104613186,0 33.39261429756795,35.04176396123152,0 33.39203317542479,35.04219207323879,0 33.39208111523195,35.04224049916538,0 33.39209409807004,35.04233437468645,0 33.39214758726916,35.04240551001512,0 33.39222324874747,35.04254780161368,0 33.39222711644614,35.04274313643774,0 33.39234083495986,35.04284223173396,0 33.3926425428244,35.0429972193601,0 33.39280482826813,35.04316363420905,0 33.39250163207475,35.04331227340399,0 33.39288905472957,35.04378707438811,0 33.39308919737565,35.04390048026006,0 33.39320117870389,35.04405416638887,0 33.39317405882947,35.0441239543255,0 33.39316771136975,35.04413879504541,0 33.39303494198603,35.04421257328686,0 33.39303912683059,35.04466729522448,0 33.39342310896271,35.04469156884622,0 33.39376349519274,35.04469418925975,0 33.39374698536511,35.0448955042641,0 33.39410042927729,35.04490093973616,0 33.39405177489713,35.04517447951353,0 33.39398011677802,35.04518504693853,0 33.39391435929057,35.04521991080647,0 33.39374757348814,35.04524489944725,0 33.3936025079224,35.04531452843315,0 33.39353213768787,35.04531004681618,0 33.3935315039034,35.04537764590749,0 33.3932195518585,35.04537118732597,0 33.39317114057481,35.04540011645066,0 33.39306379221784,35.04540534723564,0 33.3929402437992,35.04542661426705,0 33.39255649909262,35.04544991229064,0 33.39222220791417,35.04546347982749,0 33.39228523787575,35.04601366410397,0 33.3922776180965,35.04637230454949,0 33.39227536819644,35.04646524218693,0 33.39250521690227,35.04652970258102,0 33.39267127814898,35.0465663810058,0 33.39330446894361,35.04662394411727,0 33.39351529734494,35.04651748407771,0 33.39365821204591,35.04686725847159,0 33.39332964154527,35.04691516880123,0 33.39309375628684,35.04694663906276,0 33.39262649215056,35.04705304963139,0 33.39230534009113,35.04710605771964,0 33.39206490949334,35.04710817983042,0 33.39183931610751,35.04710738795161,0 33.39185977943011,35.04839359774725,0 33.39153724127951,35.04869300157951,0 33.3912602459684,35.04888870509512,0 33.39091035657523,35.04898986464534,0 33.39067427153028,35.04905357171722,0 33.39017293050105,35.0491504311433,0 33.39042218426399,35.05013714666907,0 33.38984277305362,35.05022939372793,0 33.38964673372731,35.05024188972024,0 33.38913856135286,35.05029821583726,0 33.38842637808273,35.05043157805125,0 33.38795362373479,35.05053058221252,0 33.38783782208551,35.05053364679222,0 33.38791814606672,35.05137960981341,0 33.38809855064035,35.05288646791036,0 33.38816710341823,35.05288430964519,0 33.3882200161937,35.05295959040794,0 33.38828018768553,35.053010717087,0 33.38833278203386,35.05299854552649,0 33.38833910045405,35.05305180692489,0 33.38831493965453,35.05314332810887,0 33.38831514732237,35.05320364098989,0 33.38832035706597,35.05329108301061,0 33.38831369526998,35.05348207859335,0 33.38819256347593,35.05350445442865,0 33.38823921015118,35.05388231357944,0 33.38825798468067,35.05434366241514,0 33.38817451379661,35.05435583268839,0 33.38814988301771,35.05458514258741,0 33.38808951684572,35.05482350250425,0 33.38801684541297,35.0550468138951,0 33.38788841362633,35.05534943405558,0 33.38788081633761,35.055364163093,0 33.3877607333218,35.05559695101284,0 33.3876355000674,35.0558474725301,0 33.38758072441241,35.05593804120798,0 33.38748093388705,35.05610811221662,0 33.38745176962568,35.05617048757099,0 33.38738619776951,35.05632741387392,0 33.38733143428652,35.05641998893961,0 33.38730728926993,35.05651854355114,0 33.38729151262929,35.05655877889259,0 33.387216517533,35.05682427606619,0 33.38720103303834,35.05694894487063,0 33.38718554377315,35.05703986840783,0 33.38718320232076,35.057107239338,0 33.38722195004902,35.05725005263646,0 33.3872060530999,35.05734193657607,0 33.38715585150137,35.0575697169659,0 33.38715591663377,35.05764343426522,0 33.38715597152189,35.05770662039532,0 33.38717710803344,35.05782546996281,0 33.38721288888386,35.05790681909665,0 33.38732764093014,35.05817095327799,0 33.38742439240598,35.05853564688761,0 33.38743557515314,35.05863237958098,0 33.38745151345366,35.05889780719733,0 33.38745362002721,35.05893600231834,0 33.38743972250288,35.05898516195312,0 33.38743093255334,35.05914689435934,0 33.38741415916851,35.05924426258454,0 33.38738386137307,35.05934958749354,0 33.38735879339866,35.05941675874879,0 33.38726758526284,35.05963324284621,0 33.38719876150665,35.05997790021794,0 33.38712013360455,35.0602139659688,0 33.38712021851499,35.06031115143492,0 33.3870746795693,35.06040326872438,0 33.38698516714786,35.06037358687849,0 33.38665689695316,35.06032938189926,0 33.38626988669608,35.06029298452962,0 33.38590142367128,35.06027848622082,0 33.38574347900185,35.06026497342765,0 33.38569631091194,35.06023012428475,0 33.38539713521945,35.06019691345232,0 33.38528300958177,35.06020122868021,0 33.38514679118128,35.06021734582682,0 33.3848823867847,35.06033229749676,0 33.38450311214998,35.06023827241318,0 33.38392590646697,35.06064760290607,0 33.38384560901704,35.06067550242785,0 33.3837577368565,35.06072674448922,0 33.38364737423479,35.06083751566102,0 33.38353826985088,35.06098532267553,0 33.38344065214122,35.06113010239545,0 33.38335136329844,35.06121216791612,0 33.38321479723889,35.06128312860716,0 33.383139416628,35.06130744794508,0 33.38287301650502,35.06144385153878,0 33.38260567111056,35.06166404287124,0 33.38255326384034,35.06175764401851,0 33.38250129242584,35.06185046404636,0 33.38235782444674,35.06195176091977,0 33.382299651758,35.06197539360353,0 33.38229464345525,35.06197742855054,0 33.38221567372295,35.06200950986732,0 33.38202783300994,35.06207947065634,0 33.38189224526653,35.06209198553555,0 33.38155036776515,35.06205246539404,0 33.3815040336886,35.06197003097456,0 33.38136639431808,35.0619022773758,0 33.3810983366259,35.06186918077537,0 33.38095161194251,35.061903217451,0 33.38056862947899,35.06180032545395,0 33.38049484201353,35.0617524251326,0 33.38032585702734,35.06169407033718,0 33.38018548211198,35.06160206426441,0 33.38018169646424,35.06152139794536,0 33.38015783345815,35.06146868964724,0 33.3800818764612,35.06142706879636,0 33.38003874151767,35.06145119863379,0 33.37999003548446,35.06146072951068,0 33.37990636646161,35.06147432166408,0 33.37974657534915,35.06153230415585,0 33.37941187803031,35.06166610335156,0 33.37925297446439,35.06178862352276,0 33.37901414631376,35.06207381957991,0 33.37891491335904,35.06220818759714,0 33.37878344843801,35.06227725874335,0 33.37850995522394,35.06229360773587,0 33.37791819743221,35.0623474967466,0 33.37782375171537,35.06238849602253,0 33.37773744048212,35.06241425135457,0 33.37760940899357,35.06248642040983,0 33.37751463895082,35.06247037279122,0 33.37687937702165,35.06227153251719,0 33.37666702950796,35.06231997504215,0 33.37655774410992,35.06226727075303,0 33.3763759147844,35.06222072817686,0 33.37626704827544,35.06216558670862,0 33.37621425661622,35.0620934085228,0 33.37616862874142,35.06194508203768,0 33.3759333211619,35.06190228773531,0 33.37582920039608,35.06201321094673,0 33.37571300533004,35.06212070012832,0 33.37567840933831,35.06218008955079,0 33.3755653401145,35.06230448751278,0 33.37548656939307,35.06233590671075,0 33.37516971154965,35.0623423713181,0 33.37500466650735,35.0623025993635,0 33.37476027328075,35.06233079274713,0 33.37452102909857,35.06227541424142,0 33.37434346461241,35.06223203112216,0 33.37416398826534,35.06200048924802,0 33.374099452589,35.06185041115667,0 33.3739541302031,35.06185578276255,0 33.37391831036869,35.0618494670159,0 33.37389173079995,35.06182981973542,0 33.37376130476464,35.06176345587589,0 33.37367540952457,35.06173315902752,0 33.37365476069277,35.06164221334586,0 33.3736004811739,35.06158072753807,0 33.37351458173806,35.06157545018726,0 33.37291820246258,35.06191185599035,0 33.37309596134466,35.06202358568323,0 33.37317444548697,35.06207649422969,0 33.37317989034221,35.06209806630231,0 33.37317389677323,35.06218574798316,0 33.37322196914067,35.06227350490204,0 33.37323834481933,35.06230339582424,0 33.3732466473108,35.06234798657646,0 33.37320837193007,35.06249929280432,0 33.37319141754944,35.06255737157344,0 33.37313092871315,35.06265187782117,0 33.37309448558669,35.06270621977495,0 33.3730426302489,35.06276076956782,0 33.37299970599162,35.06280170218592,0 33.37282624889114,35.06296710913281,0 33.37280228774497,35.06298109607321,0 33.37272161413206,35.06302574664742,0 33.37247606467112,35.06307664015056,0 33.37239648845618,35.06315297177503,0 33.3723953316511,35.06327122437001,0 33.37239450507262,35.06327413215884,0 33.37235111338848,35.06340685677404,0 33.37233984669794,35.06352401273101,0 33.37234007598938,35.06364960126206,0 33.37227995680954,35.06365446682167,0 33.37226131638199,35.06372073454714,0 33.37211380750399,35.06376204726151,0 33.37208085204352,35.06377707303486,0 33.37177245817065,35.06393410173041,0 33.37164318335702,35.06400285826345,0 33.37161899548298,35.06398071616874,0 33.37155793909815,35.06392688519239,0 33.37147493238903,35.06386054400663,0 33.37133237909355,35.06379890114162,0 33.3712713865044,35.06380146396486,0 33.37119508839077,35.06381524389413,0 33.3711074739192,35.06384283017123,0 33.37107417020171,35.06386719356312,0 33.37104459267142,35.06388908469287,0 33.37096361212689,35.06396662756169,0 33.37092325713498,35.06395497312126,0 33.37079719553608,35.06415769760276,0 33.37073441382981,35.06425806973159,0 33.37063166492862,35.06451681944947,0 33.37059015533752,35.0646242891188,0 33.37054794363019,35.06464628272563,0 33.37054176993538,35.06474401283846,0 33.37052598075368,35.06488287039633,0 33.37054359542722,35.0649274454921,0 33.37055132576465,35.06505918215741,0 33.37055710149856,35.06523874649354,0 33.37058106818208,35.06528154892956,0 33.37066372349846,35.0654664445677,0 33.37067922258874,35.06550111508066,0 33.371011332466,35.065915068229,0 33.37102301471723,35.0659338467618,0 33.37096818346161,35.06600020783794,0 33.37061704984413,35.06614517989626,0 33.37035114923221,35.0661740530086,0 33.37029675185229,35.06653036775924,0 33.37022393745826,35.06653272998106,0 33.37006769573941,35.06646188887978,0 33.37006172074474,35.06644662908207,0 33.37005707066478,35.06643488164895,0 33.37003714955012,35.06638455981906,0 33.36974707996634,35.06631259950679,0 33.36947280135924,35.06642423681786,0 33.36936698391663,35.06643966856207,0 33.36925134728318,35.06676766847826,0 33.36944079643026,35.06714670399267,0 33.36953350474349,35.06727318709947,0 33.36973047583347,35.06766739970826,0 33.36968281080912,35.06774841152374,0 33.36932795906098,35.0680373808439,0 33.3692989470987,35.06805674947049,0 33.36918414352168,35.0681946101828,0 33.36869351479627,35.06835183670159,0 33.36865079111781,35.06855896218335,0 33.3686171235339,35.06898313441013,0 33.36862182294292,35.06930092532392,0</coordinates>
						</LinearRing>
					</outerBoundaryIs>
				</Polygon>
			</MultiGeometry>
		</Placemark>
	</Document>
</kml>