<?xml version='1.0' encoding='UTF-8'?>
<kml xmlns="http://www.opengis.net/kml/2.2">
	<Document>
		<name>OROUNTA</name>
		<Style id="PolyStyle70">
			<LabelStyle>
				<color>00000000</color>
				<scale>0.000000</scale>
			</LabelStyle>
			<LineStyle>
				<color>ff0055ff</color>
				<width>2.000000</width>
			</LineStyle>
			<PolyStyle>
				<color>00828282</color>
				<outline>1</outline>
			</PolyStyle>
		</Style>
		<Placemark id="ID_70390">
			<name>OROUNTA</name>
			<snippet />
			<description>&lt;html xmlns:fo="http://www.w3.org/1999/XSL/Format" xmlns:msxsl="urn:schemas-microsoft-com:xslt"&gt;

&lt;head&gt;

&lt;META http-equiv="Content-Type" content="text/html"&gt;

&lt;meta http-equiv="content-type" content="text/html; charset=UTF-8"&gt;

&lt;/head&gt;

&lt;body style="margin:0px 0px 0px 0px;overflow:auto;background:#FFFFFF;"&gt;

&lt;table style="font-family:Arial,Verdana,Times;font-size:12px;text-align:left;width:100%;border-collapse:collapse;padding:3px 3px 3px 3px"&gt;

&lt;tr style="text-align:center;font-weight:bold;background:#9CBCE2"&gt;

&lt;td&gt;1&lt;/td&gt;

&lt;/tr&gt;

&lt;tr&gt;

&lt;td&gt;

&lt;table style="font-family:Arial,Verdana,Times;font-size:12px;text-align:left;width:100%;border-spacing:0px; padding:3px 3px 3px 3px"&gt;

&lt;tr&gt;

&lt;td&gt;DIST_CODE&lt;/td&gt;

&lt;td&gt;1&lt;/td&gt;

&lt;/tr&gt;

&lt;tr bgcolor="#D4E4F3"&gt;

&lt;td&gt;VIL_CODE&lt;/td&gt;

&lt;td&gt;327&lt;/td&gt;

&lt;/tr&gt;

&lt;tr&gt;

&lt;td&gt;VIL_CCD&lt;/td&gt;

&lt;td&gt;1327&lt;/td&gt;

&lt;/tr&gt;

&lt;tr bgcolor="#D4E4F3"&gt;

&lt;td&gt;VIL_NM_E&lt;/td&gt;

&lt;td&gt;OROUNTA&lt;/td&gt;

&lt;/tr&gt;

&lt;tr&gt;

&lt;td&gt;VIL_NM_G&lt;/td&gt;

&lt;td&gt;ΟΡΟΥΝΤΑ&lt;/td&gt;

&lt;/tr&gt;

&lt;/table&gt;

&lt;/td&gt;

&lt;/tr&gt;

&lt;/table&gt;

&lt;/body&gt;&lt;script type="text/javascript"&gt;

				function changeImage(attElement, nameElement) {

				document.getElementById('imageAttachment').src = attElement;

				document.getElementById('imageName').innerHTML = nameElement;}

			&lt;/script&gt;&lt;/html&gt;

</description>
			<styleUrl>#PolyStyle70</styleUrl>
			<MultiGeometry>
				<Polygon>
					<extrude>0</extrude>
					<altitudeMode>clampToGround</altitudeMode>
					<outerBoundaryIs>
						<LinearRing>
							<coordinates> 33.05266596642308,35.07540416363181,0 33.05269521810063,35.07567278571489,0 33.05274107822908,35.07577202257161,0 33.05276111663939,35.07597801189281,0 33.05284441338328,35.07603919624,0 33.05303914793374,35.07666151953645,0 33.053102605756,35.07670307231029,0 33.05326895387697,35.07687320122037,0 33.05316223728551,35.0770462794387,0 33.05319688022196,35.07713358265684,0 33.05324589189054,35.07709581343584,0 33.05337339209935,35.07697557604823,0 33.05343360727971,35.07692864793564,0 33.05370084740034,35.07679149567538,0 33.05380291901334,35.07676072746198,0 33.05387850394214,35.07671268446725,0 33.05390234695732,35.07668174807638,0 33.05396863049937,35.07648447875299,0 33.05396601249271,35.07634193531549,0 33.05399636523179,35.07611112040562,0 33.05411939631588,35.07594868889382,0 33.05438037266383,35.07579242427263,0 33.0544103944263,35.07565973039269,0 33.05459841347993,35.075435118336,0 33.05467881577647,35.07539031776422,0 33.05487433181391,35.07544168864025,0 33.05503720090597,35.07516618156586,0 33.05515058969107,35.07495056706706,0 33.05522262885867,35.0748837951963,0 33.05550308415166,35.07480837995436,0 33.05596046286868,35.07447708211246,0 33.05602966768939,35.07441837874582,0 33.05614281694326,35.07427779824498,0 33.05620633304987,35.07423524448875,0 33.05633871192984,35.07423215341055,0 33.05669881027958,35.07434289143512,0 33.05671906256168,35.07419280237234,0 33.05684076963508,35.07402567048675,0 33.05684437398829,35.07380622516513,0 33.05695743798199,35.07369450099116,0 33.05705613105908,35.07327200645135,0 33.05694690568716,35.07309843044457,0 33.0572102436925,35.07271447413248,0 33.05739369040931,35.07261678112598,0 33.05760787988562,35.07258733215129,0 33.05750290859027,35.07240450876991,0 33.05751724902107,35.07233407334969,0 33.0575962683705,35.07229385248078,0 33.05782868831945,35.07228870928267,0 33.05819468574192,35.07234862901222,0 33.05818744739311,35.07240175569959,0 33.05832097858502,35.0724783715158,0 33.05831338500706,35.07262854223924,0 33.0583739311466,35.07263448500412,0 33.05845801291105,35.07275140066981,0 33.05857072538,35.07274362205255,0 33.05865600809643,35.07291714959427,0 33.05861650865657,35.07293321481377,0 33.05868656203323,35.07303507171104,0 33.05881339397879,35.07301809158248,0 33.05902892243356,35.0730140621148,0 33.05919717549303,35.07322362897686,0 33.05927320455015,35.07323308016215,0 33.05939087030451,35.07378675852283,0 33.05968878196362,35.0739770347976,0 33.05971569157889,35.07393783425658,0 33.05960609417001,35.07386475260809,0 33.05968436830714,35.07365125859494,0 33.06013747567148,35.07377843294043,0 33.06021491410065,35.07341589691776,0 33.06081123644454,35.07330547149974,0 33.06057233462067,35.07277912655297,0 33.06061815713099,35.0725839847283,0 33.06052667629785,35.07218856881529,0 33.06050214537998,35.07197011179171,0 33.06035091819631,35.07172473033013,0 33.06032050129692,35.07157211479401,0 33.06028923807306,35.07127041877413,0 33.06021446012031,35.07092583687641,0 33.05998815663788,35.07078540091896,0 33.05995179011877,35.07071480817383,0 33.05993270532259,35.0705448688823,0 33.0601011138001,35.07034652330697,0 33.06020348273601,35.0701017647535,0 33.06016217366081,35.06984737549514,0 33.06025084538576,35.06949968720212,0 33.06063774233395,35.06928452435146,0 33.06066045845734,35.06923949980597,0 33.06062725210315,35.06907873415962,0 33.06064577171041,35.06902560526434,0 33.06071638123668,35.06898532615246,0 33.0608108185892,35.06897863089022,0 33.06090224921803,35.06902163672363,0 33.06099069663169,35.06910740723819,0 33.06105506238337,35.06922663961387,0 33.06119013270474,35.06928131734463,0 33.0613914956235,35.0693199801589,0 33.06138479129311,35.06923095144114,0 33.0612472966521,35.06907338284104,0 33.0612222459783,35.06899124028762,0 33.06131741072885,35.06879611012265,0 33.06140233693214,35.06869921434447,0 33.06137223026184,35.06846560465853,0 33.06137960068904,35.06838122552963,0 33.06143074266587,35.06827498919856,0 33.06152269715193,35.06818388318021,0 33.06158899517366,35.06816786289291,0 33.06166070789753,35.06820966576375,0 33.06171827552532,35.06826530714309,0 33.0617193945053,35.06834046047169,0 33.06188136522609,35.06836630362462,0 33.06191503687644,35.06840569822646,0 33.06194717744504,35.06847630428619,0 33.06195247828521,35.06856302967699,0 33.0619923784572,35.06844982638794,0 33.06200544802937,35.06835042939392,0 33.06197621364626,35.06822712318137,0 33.06197500705169,35.06822203349203,0 33.06195552778374,35.06813987741506,0 33.06204056837493,35.06801637487582,0 33.06221480747156,35.06815093310481,0 33.06247152254203,35.06809838823084,0 33.06242359583198,35.06846131826184,0 33.06244555480444,35.06861283166255,0 33.06234779656233,35.06874438526206,0 33.06235886816739,35.06879643824157,0 33.06242073827372,35.06883243517983,0 33.06250807832883,35.06884306118489,0 33.06256026946119,35.06883163224704,0 33.06261402823805,35.06877974144618,0 33.06279025049397,35.06876746949691,0 33.06284514419621,35.06878610762512,0 33.06286191599558,35.06882198977843,0 33.06286036574374,35.06885782643907,0 33.0628390845316,35.06889361292772,0 33.06292357256585,35.06891659133484,0 33.06292918953165,35.06891811992944,0 33.06306773279751,35.06916934877433,0 33.06333695791902,35.06916309598292,0 33.06354828177693,35.06918675493428,0 33.06368086278563,35.06916396877884,0 33.06394710953168,35.06884785300102,0 33.06411219504081,35.0688054893722,0 33.06417298163031,35.06876170512168,0 33.06429712073448,35.06873773739319,0 33.06438025439692,35.06874603952378,0 33.06440656430004,35.06886404005173,0 33.06463357480798,35.06884842483563,0 33.06471518983531,35.06853412640333,0 33.06513197943483,35.06865195478011,0 33.06491475243701,35.06903412896372,0 33.0648778632378,35.06909300225295,0 33.06483173918571,35.06934493435721,0 33.06459429534069,35.06950156694633,0 33.06446946263296,35.06969894373189,0 33.06435215708305,35.06977725717203,0 33.06426170789432,35.06983714031408,0 33.06416298935618,35.0698507607091,0 33.0639323259014,35.07008137223933,0 33.06379042739753,35.07032145113411,0 33.06397183848033,35.07042248831385,0 33.06409146507036,35.07081928045842,0 33.06435559860566,35.07067663373863,0 33.06456367554253,35.07045638622869,0 33.06456711127813,35.07030264946947,0 33.06475599878339,35.07029966874779,0 33.06487780044598,35.07085369318371,0 33.06487679534496,35.07145128108094,0 33.06470608798763,35.07149244173614,0 33.0647613041325,35.07178038080515,0 33.06473401765558,35.07190628729075,0 33.06480349353652,35.07215264445112,0 33.06508546504093,35.07213027895185,0 33.06514804571548,35.07199059871647,0 33.06528329158239,35.07200598169759,0 33.06528361512442,35.07192623495243,0 33.06547109776394,35.07192095165261,0 33.06547658542501,35.07195795186388,0 33.06569648337494,35.07195390909131,0 33.06569969665598,35.07220241092249,0 33.06602629367556,35.07230267307665,0 33.06601468597493,35.07238354461897,0 33.06615287979828,35.07236888710361,0 33.06632219057141,35.07267098569447,0 33.06634432375957,35.07277274717683,0 33.06635797616329,35.07288026253102,0 33.06642061236395,35.07307227242989,0 33.06639481237192,35.0731762109161,0 33.06651032498613,35.07319270125084,0 33.06676299774461,35.07310439574482,0 33.06712314234719,35.07361269166606,0 33.0674913308024,35.07354434924861,0 33.06752682299714,35.07382063810141,0 33.0676748938236,35.07380601662285,0 33.06785063321581,35.07425139051626,0 33.06803002793064,35.07416290160648,0 33.06819616510165,35.07487746591952,0 33.06840074197219,35.07483412058043,0 33.06848024926695,35.07470030097168,0 33.06840212808616,35.07450711556245,0 33.06840370945684,35.07446667531288,0 33.0684210125157,35.07437543496696,0 33.06848492611942,35.07426236393794,0 33.06849350825335,35.07423349752958,0 33.06844347426659,35.0740646444369,0 33.06881078034374,35.0738818942995,0 33.06883161078068,35.07395591223804,0 33.06919285548323,35.07387599260441,0 33.06910657064083,35.07328403176045,0 33.0692249326928,35.07329937398752,0 33.06926995805956,35.07332029811221,0 33.06939764363067,35.07346279862829,0 33.06953032442138,35.07342732490193,0 33.06953847385827,35.07349900450629,0 33.06969929866973,35.07347631998486,0 33.06995758133108,35.07341459910789,0 33.07005931648968,35.07336401506903,0 33.07008351504276,35.073310912141,0 33.07019360162571,35.07328577827501,0 33.07023291997161,35.07299807821765,0 33.07041492818051,35.07264716554329,0 33.07100479078256,35.07254583772768,0 33.07102843190532,35.07262103721938,0 33.0711751010101,35.07261795493186,0 33.07123770064472,35.07313366750152,0 33.071447837614,35.07312728896888,0 33.07146083495817,35.07305796866027,0 33.07198268525903,35.07303969574438,0 33.07202791519937,35.07269880077581,0 33.07272764689561,35.07264861329534,0 33.07283405437447,35.07282229756722,0 33.07284471888582,35.07327431929919,0 33.0725493203281,35.07341918547647,0 33.07240969582463,35.07342112673138,0 33.07235954476197,35.07359900169976,0 33.07221693496408,35.07363907805198,0 33.07217442379097,35.07368520000997,0 33.07215975635635,35.07381230310069,0 33.07213643803277,35.07398214660105,0 33.07189175741314,35.07414561237069,0 33.0716395043905,35.07442924457222,0 33.07177170819245,35.07450703529771,0 33.07172617647302,35.07459936730282,0 33.0717515121823,35.07460983759663,0 33.07157380188865,35.07493871720029,0 33.07154922907094,35.07507501327474,0 33.07164075211862,35.07510415343042,0 33.07162357562741,35.07516188759092,0 33.07189957439854,35.07524468977713,0 33.07186944640709,35.07536132209523,0 33.07245310597414,35.07538487770697,0 33.07260375000107,35.07575276569132,0 33.07296617889705,35.07574567399488,0 33.07296563338968,35.07586700678846,0 33.07274946540628,35.07596116519842,0 33.072599471689,35.07607861318962,0 33.0724719435274,35.07621807368277,0 33.07277200090668,35.07628130235732,0 33.07268578868306,35.07664040624104,0 33.07262728549355,35.07679506754871,0 33.07289710493005,35.07668259280376,0 33.07293820045219,35.07632336177085,0 33.07332292948159,35.07637411571256,0 33.07353879831272,35.07634813780413,0 33.07353518025973,35.07621293113777,0 33.07360716113141,35.07619926436831,0 33.07363800531868,35.07592779399136,0 33.07405976294248,35.07590584190167,0 33.07410261562554,35.07609547645837,0 33.07419426020414,35.07610035117984,0 33.07421652850439,35.07616512506062,0 33.07434342359021,35.07617125269694,0 33.0743613554767,35.07625912620159,0 33.07445729030541,35.07625130254456,0 33.07448937099151,35.07632881277189,0 33.07432368558761,35.07647857568169,0 33.07412743878237,35.07652771841131,0 33.07439444757792,35.07704033914387,0 33.07447383141395,35.07695043544317,0 33.07461967084694,35.07682258446133,0 33.07492516403952,35.07755136697505,0 33.0746876928303,35.07767201206075,0 33.07450229404216,35.07781706119574,0 33.0743426068015,35.07789170540097,0 33.07425942092233,35.07788915848065,0 33.07390548435266,35.07788930976871,0 33.07390652660516,35.0779701823913,0 33.07398573143871,35.07791726423854,0 33.0743889653665,35.07792996102307,0 33.07439136293005,35.07802239166897,0 33.07454070378871,35.07805169786226,0 33.07472702125092,35.07801294670946,0 33.07493278429599,35.07804010201955,0 33.0751306531369,35.07794477023023,0 33.07531833044798,35.07791988381143,0 33.0754048044826,35.07782307837596,0 33.0759361708711,35.07758887081044,0 33.07599564861566,35.07753704268747,0 33.07602699422274,35.07746895890528,0 33.07605431427265,35.07735695523015,0 33.07627944791186,35.07716923633156,0 33.07636592213636,35.07707587901869,0 33.07645843603765,35.07689818042338,0 33.07649398384132,35.07683703296757,0 33.07654789169315,35.07677131455056,0 33.07659334316348,35.07670441428419,0 33.07662369573839,35.07654848884229,0 33.07671464330669,35.07640543876849,0 33.07679519653858,35.07637330097307,0 33.07693396525099,35.07626042510395,0 33.07704585368585,35.07616480754464,0 33.07709677126832,35.07613605335746,0 33.07718570454011,35.07612242777224,0 33.07722812188852,35.07610174120756,0 33.07742389615687,35.07586881026899,0 33.07721630919184,35.07561743838941,0 33.07742323684972,35.07541341416989,0 33.07736700106535,35.07537280788687,0 33.07732169479287,35.07540736103191,0 33.07724878280006,35.07531354028232,0 33.07742709411197,35.07519496512372,0 33.07733055098416,35.07502710001731,0 33.07728475368359,35.07486745948095,0 33.0773246147299,35.07479127428569,0 33.07737870492151,35.0746896943039,0 33.07762174118884,35.0746094229015,0 33.07767198779077,35.07442690614093,0 33.07752727985543,35.07429935992231,0 33.07751187107725,35.07427619795263,0 33.07752499729247,35.07418606051179,0 33.07756914393303,35.07409947284381,0 33.07763308189944,35.07400484267212,0 33.07787184731026,35.07393610531905,0 33.07809557373666,35.073767897726,0 33.0781931322492,35.07372537453538,0 33.07821221000002,35.07357165264278,0 33.0782463055652,35.07352318130127,0 33.07846843618672,35.07339657713088,0 33.07862966886542,35.07331837125617,0 33.07895208304592,35.0731746733795,0 33.07902179011915,35.07305806667107,0 33.07910247912814,35.07300508467855,0 33.07930773453797,35.07287263436211,0 33.07945503946076,35.07274823977503,0 33.0795806182184,35.07260295179893,0 33.07964997618453,35.07240042098186,0 33.07971539538882,35.07227008539166,0 33.07981561191611,35.07215164811031,0 33.07996246138584,35.07199633278641,0 33.08010713750818,35.07186944129744,0 33.08020661739358,35.07168613279165,0 33.08023287498601,35.0715987185327,0 33.08040179878987,35.07142703455103,0 33.08052187763474,35.07131658448171,0 33.08058804328499,35.07125522975156,0 33.08073637432869,35.0712358137401,0 33.08088006691355,35.07124482682967,0 33.08094085550425,35.07114701677398,0 33.0817662986236,35.0710229275232,0 33.08192750784485,35.07126700002618,0 33.08228376295126,35.07124797424029,0 33.08246467432369,35.07126682981409,0 33.08267532077193,35.0712874649838,0 33.08296291333277,35.07132778010391,0 33.08302740776684,35.07133943366338,0 33.08307653551834,35.07130661278035,0 33.08309263059563,35.07120105482532,0 33.08314572316773,35.07108304006685,0 33.08321141545248,35.07098520748269,0 33.0833240524518,35.07088092362991,0 33.08339063627183,35.07086012724811,0 33.08342537811991,35.07086796732131,0 33.08352723697464,35.07090163275821,0 33.08367153443955,35.07096536896337,0 33.08381002321545,35.07095616813686,0 33.08417435142361,35.07100195843679,0 33.08412653173635,35.0711442460536,0 33.08403816946946,35.07141864639175,0 33.08395881168857,35.07161595033347,0 33.08378393452575,35.0719012065921,0 33.08347797796903,35.07241062529508,0 33.08339096139926,35.07259182308096,0 33.0834132385821,35.07280460344717,0 33.0835316571513,35.07298215876558,0 33.08365701497591,35.07311705503378,0 33.08394934473942,35.07334597067412,0 33.0840920421112,35.0734807390998,0 33.08422530603264,35.07365615608246,0 33.08429874287167,35.07379554612143,0 33.08435285049035,35.07397567466223,0 33.08437009068735,35.07417842012893,0 33.08434973612258,35.07434293200924,0 33.08432181536001,35.07449533049702,0 33.08418393677368,35.07477240906094,0 33.08398981890061,35.07532394464612,0 33.08394019160988,35.07552731512502,0 33.08395387713957,35.07563883340488,0 33.08406132827646,35.07572117909218,0 33.0842012345115,35.0758255841542,0 33.08446086436451,35.07600209296783,0 33.08511133434241,35.07655907502588,0 33.08562463343569,35.07703195637636,0 33.08590634902459,35.07718799783463,0 33.08618447575893,35.07745777827139,0 33.08627258148049,35.07757684138247,0 33.08649825086914,35.07821868451802,0 33.0866143014515,35.07839440306304,0 33.08690255752769,35.0786783664534,0 33.08720300928567,35.07894598491601,0 33.08807597189224,35.07904228606287,0 33.08856961948558,35.07910924881336,0 33.08876606896478,35.07917462911238,0 33.08885586321126,35.0792266886336,0 33.08890659922398,35.07932375106824,0 33.08892571698559,35.07946780584155,0 33.08892064208352,35.07985785038357,0 33.0891360556113,35.07985400816855,0 33.08946691217863,35.07977403883183,0 33.08946155518944,35.07974158460342,0 33.08960610607075,35.07961646233485,0 33.08965163045544,35.07949421293079,0 33.08966769437566,35.07939252765797,0 33.08963691670888,35.07930747928764,0 33.08955818674064,35.07914971845988,0 33.08969138200231,35.07910799444802,0 33.08968141379695,35.07890498582997,0 33.09012868796083,35.07883423926339,0 33.09011262965247,35.07913289299037,0 33.09018077139797,35.07923589671181,0 33.09033600857696,35.07917570181522,0 33.09064031581163,35.07915690830836,0 33.09105433731335,35.07920014197533,0 33.0913404629628,35.07931147072561,0 33.09155694957606,35.07939697534697,0 33.09180412195797,35.0795594030131,0 33.09202152508384,35.07971598274188,0 33.09229643597739,35.07991676431764,0 33.09244555926053,35.07996222271476,0 33.09261411860872,35.07997907588457,0 33.09286371538161,35.07994447167723,0 33.09306516756218,35.08001589417501,0 33.09327153357686,35.0800852302878,0 33.09336146715005,35.08014743629589,0 33.09345480657038,35.08020850923685,0 33.09377466129116,35.08058610784682,0 33.09394194667436,35.08078739970456,0 33.09404521294584,35.08092359477927,0 33.09444086191794,35.08095316925493,0 33.09526907349949,35.08105298515503,0 33.09558047535354,35.08111272663658,0 33.09574459560775,35.08093068250749,0 33.09605672043102,35.0808383128266,0 33.09633382141676,35.08082899324627,0 33.09668317565234,35.08071239207025,0 33.09698530037773,35.08064432562686,0 33.09732706963833,35.08056420534336,0 33.0976661822185,35.08052261273903,0 33.09813652626269,35.08045706521601,0 33.09841898587495,35.0803666217495,0 33.09905842701117,35.08062812914653,0 33.09920146589425,35.08071779412307,0 33.09974029653871,35.08081064869212,0 33.10018577221503,35.08077341992507,0 33.10079912144602,35.08080564029338,0 33.10101906591699,35.0808509057594,0 33.10187353202514,35.08114140771972,0 33.10230391813268,35.08163346074184,0 33.10242679867225,35.08178997524283,0 33.1028537008432,35.08247055299367,0 33.10304823940236,35.08263942214058,0 33.10337129464709,35.08282893838253,0 33.10353835151361,35.0830484067562,0 33.10373489374552,35.0833044507341,0 33.10400363925993,35.08346945986664,0 33.10411933669462,35.08357522368161,0 33.10457106657772,35.08374886761282,0 33.10503504498183,35.08394281443743,0 33.10547005189942,35.08400287136591,0 33.10601278907399,35.0854470056683,0 33.1062452775635,35.08584472454624,0 33.10761697852935,35.0857081288549,0 33.10751954244873,35.08602617760641,0 33.10713885048746,35.08660431231706,0 33.1067847977361,35.08689327017245,0 33.10690864870669,35.08703792552544,0 33.10658113197913,35.08739917354725,0 33.10675798812922,35.08787638544848,0 33.10695181336748,35.08862869284161,0 33.10721912911388,35.08861388271878,0 33.10716762881406,35.08912811297493,0 33.10705326302246,35.08925987184945,0 33.10677647077454,35.08957663937021,0 33.10633757468042,35.09007891530263,0 33.1065304260169,35.09017060013266,0 33.10622482099209,35.09075570295345,0 33.10634463211657,35.09091127484226,0 33.10625296947592,35.0909515167921,0 33.10659121680759,35.09155642113998,0 33.10673217243917,35.09174080125048,0 33.10694468627564,35.09162129836763,0 33.10727551993257,35.09200672923741,0 33.1086409196033,35.09131847221845,0 33.10888078106085,35.09166330749754,0 33.10962942649,35.09131367313555,0 33.10965134689463,35.09130343488814,0 33.10973319983358,35.09126520760044,0 33.10984901687866,35.09138018264443,0 33.11015524357484,35.09123172232526,0 33.1109328537095,35.09217170276558,0 33.11114795941304,35.09237461323291,0 33.11136317380553,35.09223960845138,0 33.11159483796234,35.09244253356246,0 33.11169408586598,35.09264535941932,0 33.11187904148286,35.09343136760932,0 33.11182744133796,35.09410865618425,0 33.11196687918174,35.09421066756878,0 33.11212828297309,35.09448652219664,0 33.11228282067904,35.09463886318323,0 33.11234405276694,35.09474640908133,0 33.11247974397543,35.09503874864448,0 33.11244777708139,35.09533370990273,0 33.11238705245272,35.09551329436792,0 33.11229383450697,35.09542385056606,0 33.11215733854883,35.09518055114504,0 33.1120136423362,35.09491094595647,0 33.11205692918426,35.09474592839041,0 33.11208137301479,35.09465494507798,0 33.11178897486224,35.09476812333119,0 33.11138059892529,35.09496619981181,0 33.11164888320247,35.09510102896508,0 33.11198555505248,35.09534134266405,0 33.11200366117261,35.0955536835783,0 33.11149252434955,35.09550242072896,0 33.11138196752416,35.09542097778658,0 33.11111010002494,35.09542962297445,0 33.11085103138654,35.09538376632225,0 33.11056301940015,35.09525085267698,0 33.11034644473162,35.09514662212974,0 33.1102582801462,35.09504914687335,0 33.11013921860153,35.09511115963743,0 33.1099808920443,35.09514062541871,0 33.11018047361446,35.09551758653608,0 33.10999959393496,35.09558734256724,0 33.10973936990836,35.09538385264767,0 33.10965685183648,35.09541576611885,0 33.10963492797823,35.09542424480576,0 33.10961053548862,35.09543367851409,0 33.10950995970536,35.09534624306055,0 33.10935236045945,35.0952867946607,0 33.10912697952183,35.09505522631375,0 33.10890750622496,35.09474061132717,0 33.10876731589418,35.09445957549968,0 33.10848562781157,35.0947398924855,0 33.10843623032713,35.09478477657776,0 33.10816375352754,35.09495273420745,0 33.10796153818219,35.09504494692069,0 33.10759520807056,35.0951621822372,0 33.10732293580241,35.09525162919507,0 33.1070828486165,35.09533114419524,0 33.10692419577614,35.09541513456762,0 33.10678261515517,35.09552547693848,0 33.10662626196187,35.09563169464664,0 33.10641514584739,35.09579619332391,0 33.10634997368438,35.09592108091275,0 33.10629660799277,35.09611269604483,0 33.10631450690362,35.09634308516996,0 33.10634019813924,35.0965250381274,0 33.10628457367316,35.09669037812252,0 33.10656095026444,35.09700706698726,0 33.10693579621895,35.09736069844796,0 33.10712956748944,35.09751736064447,0 33.1072435767151,35.09746143265018,0 33.10760695630704,35.0977140255571,0 33.10790840326515,35.09799659760116,0 33.10809371036375,35.09829266927101,0 33.10830726802956,35.09845353142982,0 33.10868110156124,35.09864765871603,0 33.1085589672263,35.09909961750606,0 33.10940952328323,35.09929656795883,0 33.109640109448,35.09929494355153,0 33.10966204548645,35.099294788502,0 33.10972326239038,35.09929435723107,0 33.10996777384412,35.09930184730334,0 33.10997592011805,35.0992089204905,0 33.11030418857143,35.09924923545033,0 33.11059524396478,35.09936453863858,0 33.11058693891919,35.09962122797598,0 33.11051915594246,35.09977586672157,0 33.11035394711906,35.09983165779276,0 33.1102539422714,35.0999806450054,0 33.11040379029619,35.10009068290461,0 33.11048189587647,35.10021242775247,0 33.10995358598129,35.10047205418856,0 33.11025782716968,35.10074068908605,0 33.10989293145805,35.10095679777047,0 33.10966399101224,35.10074766733327,0 33.10964202751582,35.10072760462764,0 33.10948087507882,35.10058039544479,0 33.10930985994272,35.10065213181088,0 33.10956674755171,35.10096695892862,0 33.10964246330278,35.10105309255562,0 33.10966443348982,35.10107808598,0 33.10985076757751,35.10129005840585,0 33.10976379197046,35.10135421227276,0 33.10996933033527,35.10160610779894,0 33.10987248448154,35.10166817851447,0 33.10997307457145,35.10175773367717,0 33.11004451290655,35.10178444891879,0 33.11041468740925,35.1021546270855,0 33.11061575659993,35.10235195675639,0 33.11077404542836,35.10233474039505,0 33.11083765552607,35.10241599865915,0 33.11088570981283,35.10259015803835,0 33.11103659520775,35.10257289942893,0 33.11106340313626,35.10293495141175,0 33.11125055683437,35.1030210341535,0 33.11127592917633,35.10325167682078,0 33.11123384388302,35.10357489960996,0 33.11125161173482,35.10382976116418,0 33.11157031434195,35.10384795987228,0 33.11165845350727,35.10395568219876,0 33.11163959620425,35.10415371183019,0 33.11156480986754,35.1042341117989,0 33.11208073681031,35.10463980134529,0 33.11148696903476,35.10501812960182,0 33.11089512840399,35.10484647838111,0 33.11032484775826,35.10477202732751,0 33.11057036132603,35.10497579047163,0 33.11027166239223,35.10524880359094,0 33.11011835212115,35.10526195481299,0 33.10985200587024,35.10550887678306,0 33.10971294095708,35.10559691469084,0 33.1098570794386,35.10611742876459,0 33.1100530090693,35.1063390956933,0 33.11028815261062,35.10660349500586,0 33.1102706004846,35.10663572652063,0 33.11041070666177,35.10673169038582,0 33.11098947100393,35.10699033578202,0 33.11127050532815,35.10724554271061,0 33.11127661722299,35.1072510915987,0 33.1112966200998,35.10753634473078,0 33.11099925474891,35.10763138724205,0 33.11103429516223,35.1077674700851,0 33.11083955587096,35.1078356309261,0 33.11082834534007,35.10787213932284,0 33.11064471273693,35.10794488509175,0 33.11072755099231,35.10816418865559,0 33.11075519942946,35.10822359345183,0 33.11053821036164,35.10829628208723,0 33.11074834020079,35.10874409805125,0 33.11091971656372,35.10919462176234,0 33.11084811214583,35.10920740526398,0 33.11078222523666,35.10902663608621,0 33.11047613614081,35.10908973654963,0 33.11053418956602,35.10924807690981,0 33.11077564501156,35.10974837679608,0 33.11085971001012,35.10972978767353,0 33.11127832107589,35.11055364542879,0 33.11140112655481,35.11055801265755,0 33.11159916314688,35.11107272637827,0 33.11195399469817,35.1116086206124,0 33.11183126810714,35.11179004185679,0 33.11151506122135,35.11184860483614,0 33.11181993819642,35.1121311127992,0 33.11219372104082,35.11203326635924,0 33.11241133620065,35.11245749041339,0 33.11250114027683,35.11316401210672,0 33.11194782602804,35.11307462664183,0 33.11178001635657,35.11338239326479,0 33.1110752480992,35.11306796108789,0 33.11086473158744,35.11293871572742,0 33.11052656980326,35.11270807227375,0 33.10993993082947,35.11220207506279,0 33.10981113193205,35.11214508111499,0 33.10985728412222,35.1126386761651,0 33.10985224348537,35.11283243084942,0 33.10988359453133,35.11295015191004,0 33.10998238535655,35.11302676425902,0 33.11021110468715,35.11292817658388,0 33.11030285348092,35.11289763086717,0 33.11034681821948,35.1129085718418,0 33.1103849744521,35.11295373022976,0 33.11051617344622,35.11310770053603,0 33.11067914665129,35.1133632495955,0 33.11082344271396,35.1137698919069,0 33.11103103783029,35.11382234973451,0 33.11105367738043,35.11380259171232,0 33.11142368430989,35.11413280933926,0 33.11183903527663,35.11442149928149,0 33.11173911642228,35.11448217611714,0 33.11202950963331,35.11484924004779,0 33.11225928419796,35.11499502531556,0 33.11241526580037,35.11485869209089,0 33.11206123388453,35.1144803022155,0 33.11246069243805,35.11396294005663,0 33.11237332756103,35.11391885105645,0 33.11246939632815,35.11372279261778,0 33.11268182818399,35.11377938330904,0 33.11310826510016,35.11392692657656,0 33.11341157596028,35.11408220231033,0 33.11385568585163,35.11449666918172,0 33.11392512079188,35.11456868883611,0 33.11382706737582,35.11465162236038,0 33.11350948810174,35.11485553611904,0 33.11317481834919,35.11505507693159,0 33.11256808114222,35.11550583139203,0 33.1123902013272,35.11553874827826,0 33.11215575207638,35.11557259342453,0 33.11101881257267,35.11561526709707,0 33.11098862533414,35.11529715910741,0 33.11119152132779,35.11524856834361,0 33.11116695988359,35.11515316577061,0 33.11109521421837,35.11516995721031,0 33.11082036725765,35.1145829714715,0 33.11053678270594,35.1147087761176,0 33.11059039731362,35.11491581994386,0 33.11020877826309,35.11502962529811,0 33.11017574117407,35.11497647572281,0 33.10968317928717,35.11507149385151,0 33.10966124448255,35.11507572508487,0 33.10909094205489,35.11518573665837,0 33.10914588211013,35.11524738694015,0 33.10928207879524,35.11587002877188,0 33.10921904942504,35.1160243141606,0 33.1093254885081,35.11609100099422,0 33.10918182909818,35.11660319994864,0 33.1092513018266,35.11667321207869,0 33.10925530535135,35.11680253918701,0 33.10911813541947,35.1169715365079,0 33.1088641016314,35.11690804062378,0 33.10874171440837,35.1171702183215,0 33.10867286127458,35.11745362658964,0 33.10851340429613,35.11744043126978,0 33.10766868838955,35.11759162440235,0 33.10755741810179,35.11742790993954,0 33.10733365338252,35.11752452849682,0 33.1071857411569,35.11763473685721,0 33.10686215937843,35.1170347564647,0 33.10633968659695,35.11727499820586,0 33.10648202568686,35.11756652627816,0 33.10633298136754,35.11762622498481,0 33.1060310580004,35.11761025325055,0 33.10613782093844,35.11804041542149,0 33.10609338824482,35.1180476277375,0 33.10624151573504,35.11839984562081,0 33.10631558975754,35.11838715372807,0 33.10630611374106,35.11846773996954,0 33.10610814526186,35.11851840138547,0 33.10603978074887,35.11851539821676,0 33.10592816354582,35.11856608653163,0 33.10558274487443,35.11868303482441,0 33.10563807079208,35.11880841059177,0 33.10539082244858,35.11890063360755,0 33.10559664502345,35.11930898963068,0 33.10559729615164,35.11941229873387,0 33.10567011483339,35.11995085552024,0 33.10561327231886,35.11997540537283,0 33.10560154489644,35.12046970716325,0 33.10512400023259,35.12058105962357,0 33.10515965454386,35.12073281705437,0 33.10543539422121,35.12084106577342,0 33.10508394795953,35.12090529350827,0 33.10536831402203,35.12159072811149,0 33.10585136704702,35.12156650373325,0 33.105920269101,35.1216539613856,0 33.10599503308077,35.12181757124674,0 33.10621934219651,35.12179370298482,0 33.10629903116684,35.12222534601098,0 33.10636542133307,35.12222462974365,0 33.10646273077607,35.12292314731456,0 33.10591650069199,35.12312804291012,0 33.10551019990574,35.12325907995091,0 33.10350739529181,35.12343296957985,0 33.10357278705922,35.12374088015648,0 33.10361308721776,35.1238154003611,0 33.10362158821991,35.12399414251783,0 33.10283285625074,35.12411375604596,0 33.10224908057616,35.12420228330819,0 33.10224116499263,35.12473725190327,0 33.10122677570204,35.12491575116569,0 33.10126238688142,35.12525148363216,0 33.10071656317717,35.12537121192172,0 33.10042343424574,35.12429927691759,0 33.09992739332322,35.12441991139956,0 33.09979131818015,35.12421110933134,0 33.09936899303757,35.12414827832394,0 33.09936144370921,35.12406888028585,0 33.09935598158473,35.1239771808079,0 33.09931911013935,35.12383728618626,0 33.09924754613615,35.12377786171428,0 33.09911795505712,35.12379405610254,0 33.09901653479491,35.12373284046571,0 33.09890953358196,35.12364715603827,0 33.09898663147192,35.12334132698886,0 33.09900790845948,35.12319555714695,0 33.09898392098281,35.12294271521362,0 33.09896046903932,35.12276878400186,0 33.09890063249314,35.1227022430276,0 33.09886303635947,35.12263156714934,0 33.09882741927884,35.12248803503741,0 33.098824091597,35.12236258500398,0 33.0988801876937,35.12224296640171,0 33.09898813663969,35.12210694756149,0 33.09916523902519,35.12195040646903,0 33.0992414815618,35.12188128979975,0 33.09928086936804,35.12185077368154,0 33.09932240118257,35.12177167613417,0 33.0993313664513,35.1216340163514,0 33.09932426208103,35.12131628974728,0 33.09916410094448,35.12105383126199,0 33.09926531236085,35.12101698172874,0 33.09911203830041,35.1206755540389,0 33.09878074106151,35.12071943556454,0 33.09872134085228,35.12071765860074,0 33.09860159103636,35.12057445356999,0 33.09876411940403,35.11973174566631,0 33.09862042496106,35.11934370478269,0 33.09791611027619,35.11947424281204,0 33.09764909003162,35.11950169610503,0 33.09752787853007,35.11950423740861,0 33.09720612198358,35.11948334607308,0 33.09673150909104,35.11953394057139,0 33.09669123778189,35.11907468996151,0 33.09663739318523,35.11879966225872,0 33.09660100409508,35.11854479326374,0 33.09662289012611,35.11813178221407,0 33.09665231095467,35.11773491028104,0 33.09655012146622,35.11726573022823,0 33.09621661382123,35.11732997748859,0 33.09602086404536,35.11692397710534,0 33.09603604698826,35.11661620830185,0 33.09652573297579,35.1165998103294,0 33.09644992448573,35.11601101628097,0 33.09635441741462,35.11507807386624,0 33.0957575786348,35.11498369405923,0 33.09397879778319,35.11490703023222,0 33.09382769572026,35.11486927811897,0 33.09374615617156,35.11487775857324,0 33.0933193721534,35.11501538710349,0 33.09309105784617,35.11594549281507,0 33.09262110047659,35.11590919513546,0 33.09214670106245,35.11593767976915,0 33.09177353561008,35.11594546077875,0 33.09135077025415,35.11592513599373,0 33.09084129167237,35.1158687858771,0 33.09010685237862,35.11578918870634,0 33.08919192266797,35.1156740088356,0 33.08936985678152,35.11534137540995,0 33.08920645068556,35.11529154680584,0 33.0889023804433,35.11526058137493,0 33.08863318575145,35.11526789602871,0 33.08858075818632,35.11519125676423,0 33.08847744839376,35.1149105094701,0 33.08855460877007,35.11465116958534,0 33.0885614619912,35.11457425081686,0 33.08845589857246,35.11432385201273,0 33.08824242159749,35.11383924604508,0 33.08783817509431,35.11327461286665,0 33.08781268826799,35.11282753515276,0 33.08778287859259,35.1124654509631,0 33.08780802791179,35.11218808031539,0 33.08783814740437,35.11191472273637,0 33.08731119564736,35.11145996562287,0 33.08727392612286,35.11109181378958,0 33.08573524436608,35.11106717099973,0 33.08482042815633,35.11055578408459,0 33.08477943446913,35.11002177254123,0 33.084803564592,35.10971080570589,0 33.08479666204888,35.10968170936904,0 33.08497806575453,35.10935699131799,0 33.08495950053566,35.1092022031403,0 33.08489761707391,35.10877024774197,0 33.08461810757235,35.10877609499975,0 33.08399727648752,35.10867931760229,0 33.08398798683629,35.10920035430603,0 33.08400019652451,35.10931327827907,0 33.08400785663986,35.10945451693131,0 33.08403115790681,35.10985943370897,0 33.08403338412252,35.11018905936155,0 33.08408084316952,35.11027579720977,0 33.08410179341742,35.11045568003232,0 33.08409984518514,35.11053253390539,0 33.08407829750773,35.11062969754729,0 33.08403460496202,35.11073504963141,0 33.08399991211386,35.11107694378882,0 33.08394651207433,35.11157055205332,0 33.08389720513363,35.11157481740914,0 33.08383795619835,35.11120304343116,0 33.08313219303163,35.11115568974783,0 33.08297792129422,35.11204392785851,0 33.0822526061319,35.11200064781043,0 33.08263589134719,35.11070909134916,0 33.08287420907289,35.10985066792537,0 33.08334089312431,35.10992533822499,0 33.08338785041021,35.10957527167135,0 33.08338955155873,35.10919921156606,0 33.08337934194009,35.10899638297723,0 33.0825608486087,35.10908580787526,0 33.08252699198553,35.10908417323078,0 33.0825096053166,35.10908624028301,0 33.08205657050799,35.10907059728043,0 33.08199576530357,35.10906569147365,0 33.08160123792975,35.10903530065637,0 33.08149142566345,35.10929699117292,0 33.08058211749599,35.10916238544701,0 33.08038692530199,35.1091325881662,0 33.08027478103563,35.10929332644984,0 33.07997504732119,35.10922855981772,0 33.07987303688469,35.10954902295421,0 33.07966651400352,35.10948691637986,0 33.07956164458634,35.10984135531599,0 33.07915740146814,35.10982862518206,0 33.07941307810127,35.10897119133587,0 33.07937109146508,35.10896319446537,0 33.07898221293947,35.10889221528602,0 33.07850869622759,35.10880517335874,0 33.07860544363149,35.10844589905506,0 33.07812895933619,35.108365683049,0 33.07827480510959,35.10777898451349,0 33.07818325760196,35.10776151022493,0 33.0782281271723,35.10761780887211,0 33.07783066062942,35.10754923468293,0 33.07731524562146,35.10748259678002,0 33.07700518635789,35.10849849398698,0 33.07653821961274,35.10839639563405,0 33.07677227303085,35.10753244555267,0 33.07615073418694,35.1074035408333,0 33.07591848616111,35.10735603515451,0 33.07578834113603,35.1073230951611,0 33.07571459653644,35.10729964143156,0 33.07508478007733,35.10695379722654,0 33.07490634105949,35.10735727317198,0 33.07479332421322,35.10760101167695,0 33.07477918963171,35.10764106020488,0 33.07475537305822,35.1077418103598,0 33.07436768938957,35.10752996552507,0 33.0747021863537,35.10663569635184,0 33.07476008630353,35.10664356063714,0 33.07510387926403,35.106676041467,0 33.07517185219481,35.10666834635443,0 33.07522765210676,35.1065871945884,0 33.07545223520447,35.10608075267177,0 33.07550845371384,35.10595587211097,0 33.0756415366188,35.10566873900263,0 33.07569947111051,35.10554138830688,0 33.07576170722781,35.10536401553624,0 33.0758257059379,35.10478053742564,0 33.07581083143431,35.10449423477608,0 33.07580241547552,35.10428022854773,0 33.0757986680508,35.10402376197252,0 33.07578819398726,35.10372038378352,0 33.07576291287697,35.10365118643984,0 33.0757477055095,35.10364962477985,0 33.075483232063,35.10362550116459,0 33.07528212544889,35.10360428255809,0 33.07526201229125,35.10377987845099,0 33.07477066998304,35.10375185917516,0 33.07460341190709,35.10429920420407,0 33.07457302837747,35.10442691154633,0 33.0738779206175,35.10438221058952,0 33.07392721045678,35.10412630926459,0 33.0739898091677,35.10368193159448,0 33.07400454908997,35.10344302037624,0 33.07427504306045,35.10353699127151,0 33.07428128763691,35.10351049854185,0 33.07431892540801,35.10338459413879,0 33.07452338377551,35.10277483529556,0 33.07435572974323,35.10273235009234,0 33.0737124857739,35.10262639691783,0 33.07388522878754,35.10220219069462,0 33.07403600370701,35.10183404114034,0 33.07409544925117,35.10166889487679,0 33.07438761481953,35.10080697263662,0 33.07407306475777,35.10072659062241,0 33.07383100726481,35.10063914436903,0 33.07338717860578,35.10052352186857,0 33.07362836386474,35.09984301084422,0 33.0731544978221,35.09968795266791,0 33.07319776005841,35.09949701360199,0 33.07323451663343,35.09933031113017,0 33.07247031447811,35.0992524717511,0 33.07212693352125,35.09925146229408,0 33.07167540967865,35.09900423266717,0 33.07168855894933,35.09863541983891,0 33.07171609738437,35.09846619208356,0 33.07165440859094,35.09843577971927,0 33.07147603585742,35.09867712839122,0 33.07136955527257,35.09879976526679,0 33.07121907385324,35.09871064269441,0 33.07103553860564,35.099056773996,0 33.0708893403168,35.09927200161265,0 33.07053043535918,35.09962163194688,0 33.07026037116176,35.10000980645198,0 33.07070694014436,35.10023083561653,0 33.07088016473615,35.10008220777269,0 33.07102346469058,35.10006449859211,0 33.07110245869156,35.10008690558946,0 33.07124801843614,35.100167964433,0 33.07136650147491,35.1002066158458,0 33.07148750443004,35.10022310442106,0 33.07170228601426,35.10028220132691,0 33.07195401197785,35.10039583394664,0 33.07176591111914,35.10056054972146,0 33.07170172876816,35.10054020043871,0 33.07153555385348,35.10084808599871,0 33.07142200666026,35.10080944446827,0 33.07122861598713,35.10113941220744,0 33.07131254007007,35.10116788718185,0 33.07121065949147,35.10144572640568,0 33.07135623844049,35.10152075193312,0 33.07116281530632,35.1018648230511,0 33.07105173279699,35.10183021355611,0 33.0707688314147,35.10242997253173,0 33.06973466715016,35.10209216161439,0 33.07020267238274,35.10154339546203,0 33.0698745346865,35.10138316148922,0 33.06968856393379,35.10159416754395,0 33.06911126522403,35.10135850542202,0 33.06915857895406,35.10126809288753,0 33.06869218893901,35.10111147613405,0 33.06839603305718,35.10103398504089,0 33.0680391275375,35.1016273767243,0 33.06752347918235,35.10144239041749,0 33.06707536103129,35.10198306489973,0 33.06682861388006,35.10191578990599,0 33.06669496068449,35.10206247105476,0 33.06656382216984,35.10218900770591,0 33.06640360804622,35.1020736435266,0 33.06629986810875,35.102095482032,0 33.06588704045303,35.10233597860245,0 33.06575921054887,35.10209780554284,0 33.06548996810074,35.10216949278309,0 33.06536941889576,35.10198978189944,0 33.06577691789292,35.10191046886649,0 33.06581871903735,35.10198313970543,0 33.06623629713813,35.10182325319479,0 33.06642166518539,35.10173114279382,0 33.06663433130889,35.10157866392262,0 33.06702768812825,35.10122523303467,0 33.06686503477741,35.10109374902679,0 33.06626401469327,35.10157549288203,0 33.06612559588705,35.10164961499767,0 33.06602924798575,35.10167953851878,0 33.06567108039576,35.10177311849286,0 33.0655525276329,35.1017989405132,0 33.06543415769794,35.1017461798646,0 33.06531341678599,35.10165109905031,0 33.06524682826964,35.10162469736771,0 33.06502477434729,35.10157765834814,0 33.06485943567049,35.10155900563261,0 33.06473601359306,35.1015606328382,0 33.06468440080511,35.10146375941572,0 33.0646870035301,35.10140533746691,0 33.06475630090703,35.10132496026185,0 33.06490946257604,35.10127103788241,0 33.0650181261563,35.10124719859046,0 33.06509709638429,35.10125550420211,0 33.06560770057633,35.10142030380918,0 33.06610431100231,35.10123848864789,0 33.06614633836035,35.10121242391272,0 33.06632939784699,35.10104776108948,0 33.06616430006194,35.10091224545448,0 33.06586345477317,35.10076623974837,0 33.06575501062554,35.10068933868207,0 33.06572060718962,35.10062072466067,0 33.06537759154998,35.10057332631471,0 33.06553929222456,35.10002577039342,0 33.06555203799628,35.09984849884057,0 33.06564374415318,35.09968556930802,0 33.06569799584595,35.09970991232979,0 33.06590386436284,35.09927934163358,0 33.06578306205042,35.09921047256935,0 33.06564497906969,35.09914356790555,0 33.06553115418787,35.09926412046003,0 33.06527182916727,35.09932580250898,0 33.06514356340374,35.09928713596587,0 33.06507706600663,35.09922246193342,0 33.06515134659023,35.09912194242896,0 33.06531718138715,35.09892296992948,0 33.06515454778945,35.09880159561472,0 33.0648700861248,35.09906670139375,0 33.06469515309698,35.09893118807027,0 33.06461079095517,35.09912435359971,0 33.06437399366892,35.09906118682695,0 33.06423747412219,35.09939723661654,0 33.06414617427111,35.09938890271105,0 33.06401457830345,35.09973100441862,0 33.06392822991741,35.09971663908524,0 33.06381631790696,35.10008498833969,0 33.06391743202992,35.10011753287658,0 33.06352563978116,35.10091615893526,0 33.06306688652032,35.10079788245912,0 33.06294807773467,35.10082234003497,0 33.06286442999857,35.10083955895271,0 33.06293380851073,35.10071889859817,0 33.06288515780454,35.10041655750602,0 33.06289536254592,35.1002735529685,0 33.0629476140852,35.10021913459687,0 33.06300915479557,35.10015504191876,0 33.06304880344993,35.10008465160492,0 33.06307620676068,35.09997393212175,0 33.06309135074677,35.09982892655533,0 33.06314111838989,35.09965179372534,0 33.06322795540568,35.09945261010915,0 33.06346226616247,35.09950973013301,0 33.06360692043197,35.09885540781342,0 33.06360749966451,35.09860559527527,0 33.06341564871222,35.0983290223072,0 33.06294561940108,35.09762385634566,0 33.0629016883948,35.09755794887036,0 33.06252164802829,35.09757295383964,0 33.06241765499853,35.0977257482982,0 33.0624321495773,35.09785874707354,0 33.0624813674557,35.09791529712457,0 33.06256756592861,35.09798605778875,0 33.06265136796428,35.09802659524215,0 33.06272013617488,35.09816579919396,0 33.06270731835439,35.0983712424062,0 33.06216183754184,35.09843732463855,0 33.06217301453562,35.09809567427747,0 33.06159444927451,35.0981765342651,0 33.06175676575871,35.09861618811462,0 33.06124437730455,35.09906772246752,0 33.06096849467708,35.09881004381977,0 33.06082856879404,35.0988369960392,0 33.06073758360769,35.09871183535968,0 33.05958767013373,35.09885339324052,0 33.05908673098138,35.09893848389439,0 33.05863744623548,35.09909421739795,0 33.05856142782458,35.09891070748957,0 33.05845330378002,35.09874522775176,0 33.05723320056071,35.09908210180174,0 33.05711415525352,35.09874116595203,0 33.05748191216547,35.09861339172427,0 33.0574132089084,35.09847019602308,0 33.05731733135887,35.0983470596571,0 33.05675446460138,35.09759219426151,0 33.05657504183242,35.09735403364883,0 33.05614386547303,35.09721984954182,0 33.05572397267574,35.09751864543576,0 33.05638578159328,35.09811266293936,0 33.05604014346799,35.09828883222914,0 33.0559147762876,35.09813339721539,0 33.0555913305542,35.09831566657197,0 33.05512447662031,35.09767190552903,0 33.05462395577062,35.09769456911745,0 33.0546340271501,35.09761002913292,0 33.05507839825803,35.09736368545611,0 33.0551869897591,35.09731769464625,0 33.05532764713661,35.09726575871306,0 33.0553597485716,35.09724571826086,0 33.05548564052936,35.09718366781404,0 33.05554994727161,35.09710129785908,0 33.05558236584576,35.09695238392281,0 33.05541735834728,35.09687940619473,0 33.05522214766902,35.09705804272547,0 33.05483114368044,35.09666021365778,0 33.05505140361925,35.09631855294531,0 33.0550416864353,35.09626013043312,0 33.05503193899557,35.09621378957959,0 33.05485198948422,35.09620722499166,0 33.05463513560909,35.09617236427069,0 33.05454892886867,35.09614191006281,0 33.05436430543261,35.09603667181045,0 33.05432012914979,35.09595801712891,0 33.05421200251208,35.09582280119076,0 33.05362264751819,35.09591169744378,0 33.05352897703298,35.09591343889603,0 33.0532727019831,35.09588652016333,0 33.05323437288396,35.09544548610365,0 33.05371496255939,35.09546700364693,0 33.0538289527488,35.09522572306997,0 33.05376983972675,35.09520743347077,0 33.05375820106963,35.09493357831447,0 33.05376357404467,35.09475641567147,0 33.05387941892305,35.09475875750773,0 33.05386986345133,35.0946344847321,0 33.05382591003513,35.09424385131807,0 33.05380977974548,35.09404948209163,0 33.05382158039129,35.09394886554021,0 33.05387793287824,35.09390009655729,0 33.05399308779842,35.09385918063911,0 33.0541352035961,35.09393420055113,0 33.05423125597748,35.0940482072254,0 33.0543109870126,35.09402842426717,0 33.05442174069564,35.09358144186093,0 33.05393407017156,35.09363119694726,0 33.05402317760492,35.09289076825224,0 33.05364852259218,35.09278041400328,0 33.05344444927022,35.09277016219156,0 33.05344757532543,35.092923723014,0 33.05305090725538,35.0928638720339,0 33.05260900752047,35.09280918015147,0 33.05278367212323,35.09254539014072,0 33.05279855295939,35.09234538239721,0 33.0526968717866,35.09216141193505,0 33.05293842438046,35.09189080674246,0 33.05300905897757,35.09173434355666,0 33.05281506552934,35.0916842004977,0 33.05256592680315,35.09166539347209,0 33.05171555497983,35.09147963147736,0 33.0508826018132,35.0912942131643,0 33.0504706417875,35.09117126113379,0 33.05016373202008,35.09119385082339,0 33.0501546216669,35.09116334802562,0 33.05033872791832,35.09111218047742,0 33.05033489456619,35.09097055725056,0 33.05002161303895,35.09095258738093,0 33.04951207888811,35.09117360965708,0 33.0492613748107,35.09122150745078,0 33.04802169850858,35.09111547374329,0 33.04752754558579,35.09141358225769,0 33.04727535529744,35.09084680296782,0 33.04723683312306,35.090615616895,0 33.04688102080938,35.09014405288023,0 33.04728633687813,35.08984030901062,0 33.04703159948858,35.08961452799933,0 33.04682283659452,35.08942949337575,0 33.04672446587586,35.08933990005384,0 33.04650721117011,35.0892891573003,0 33.0464332954395,35.08931313080312,0 33.04631412857,35.08933921283292,0 33.04603736026336,35.08935024246063,0 33.04580134788133,35.08940850822646,0 33.04556776674401,35.08956382162158,0 33.04544406309056,35.08961513329227,0 33.04528331411485,35.08968181156848,0 33.04457274837397,35.09014554162397,0 33.04429107832511,35.09006147524163,0 33.04410583835917,35.09004039827344,0 33.04379024870548,35.08986420406583,0 33.04359254571924,35.08977969195792,0 33.04334357052437,35.08976899487291,0 33.04305182698551,35.08978983223128,0 33.04275103817395,35.08968521950256,0 33.04275557199254,35.08961611095278,0 33.04275924735408,35.08956009485076,0 33.04288133179057,35.08942092830961,0 33.04290927019588,35.08929617616003,0 33.04305206822384,35.08905930047587,0 33.04305861551151,35.0889635625008,0 33.04311374238092,35.0887078449072,0 33.04325388323519,35.08847828308573,0 33.04341012009643,35.08825896351843,0 33.0435479395047,35.08807196337521,0 33.04367235268192,35.08794869071824,0 33.04371585712193,35.08788889501259,0 33.0437082558217,35.08780189769529,0 33.04357845322497,35.08767022605755,0 33.04355820519365,35.08759511752571,0 33.04375124405242,35.08757242522787,0 33.04395002405926,35.08746639833772,0 33.04400921999308,35.08734931101324,0 33.04403140599542,35.08722411264743,0 33.04383648227527,35.08700582449532,0 33.04368845232278,35.08688452491609,0 33.04357741896265,35.08659364036966,0 33.04339321055596,35.08644900856778,0 33.04330886268854,35.08637274384634,0 33.04327399490347,35.08625415440272,0 33.04327645135605,35.08603609940222,0 33.04339235700501,35.08571316476156,0 33.04315804427286,35.08563827586563,0 33.04316789758366,35.08529913560884,0 33.04299526028569,35.08523238403527,0 33.04277330975755,35.08498392880064,0 33.04281769859576,35.08494157546274,0 33.04272550685145,35.08481760387557,0 33.04262626017853,35.084652293083,0 33.04250775638563,35.08456333613398,0 33.04250886721302,35.08452097102477,0 33.04271061309954,35.08453878602806,0 33.04286948615103,35.08441684238851,0 33.04290647374985,35.08425541195049,0 33.04287688289927,35.08408586707453,0 33.04280044447895,35.08389409720308,0 33.04275852789497,35.08383756349135,0 33.04263771237213,35.08370429568895,0 33.04248978133588,35.08362347891639,0 33.0423925093407,35.08331607707438,0 33.04207282694376,35.08290874133607,0 33.04215946877425,35.08287672271268,0 33.04215455877075,35.08263261024594,0 33.04195417596535,35.08254545424104,0 33.04177498027988,35.08228742185279,0 33.04177673528912,35.08218294265892,0 33.04185588512006,35.08215836260764,0 33.04181723617598,35.08184701972564,0 33.04213009091072,35.08185470058685,0 33.0424960778914,35.08181089570176,0 33.04248024597857,35.08156855560977,0 33.04252475545209,35.08156330909592,0 33.04249904640406,35.08141560219367,0 33.04269417075399,35.08140097489598,0 33.0428078586813,35.08130571826617,0 33.04302677181403,35.08131419974552,0 33.04293651037926,35.08090112004374,0 33.04270061732653,35.08059032389553,0 33.04291142216746,35.08044690542503,0 33.04303075135435,35.08031394124587,0 33.04297792619676,35.08010571484723,0 33.04283320790689,35.08005685971496,0 33.04282064600952,35.07986003003882,0 33.04304507092276,35.07993111108545,0 33.04336542400302,35.07996711851148,0 33.04358987149694,35.07983592618536,0 33.04326990740703,35.07973628103978,0 33.04318164429858,35.07968515803439,0 33.04310155963874,35.07955948404446,0 33.04297341332825,35.07954837719586,0 33.04290235250539,35.07926749133697,0 33.04291898336079,35.0788562143159,0 33.04306000954846,35.07881498493285,0 33.04318925412093,35.07872122414174,0 33.04318898131149,35.07851147639443,0 33.04344129925567,35.07844288946514,0 33.04350391167308,35.07835262894302,0 33.04389906788464,35.07830735625558,0 33.04384636525386,35.07815768883098,0 33.04403195300225,35.07810268387875,0 33.0441533647046,35.07828718490067,0 33.0441742564204,35.07841239843913,0 33.044208916943,35.07840057184867,0 33.04436737776553,35.07834535271861,0 33.04440836176884,35.07843643935649,0 33.04463154800942,35.0785612414463,0 33.04469593789864,35.07853754834678,0 33.04481698048651,35.07852237250739,0 33.0449253734852,35.07853734910019,0 33.04500382567488,35.07858436132462,0 33.0451289403023,35.07865191294209,0 33.04521361101261,35.07881192515556,0 33.0453175389319,35.07878249569273,0 33.04537265053569,35.07893823980964,0 33.04541205714259,35.0789446025811,0 33.04542036065426,35.07909392357028,0 33.04581765275201,35.07908699548894,0 33.04602277774971,35.07905433523757,0 33.04624239296877,35.07905204413647,0 33.04622188317117,35.07889051817305,0 33.04642174483563,35.07889008578254,0 33.04629175719474,35.07858044310353,0 33.04632993890523,35.07823380241765,0 33.04677399985886,35.07824134269569,0 33.0467749012996,35.07792061751965,0 33.04660075389883,35.0775864069136,0 33.04659769415178,35.07717284814844,0 33.04657486353584,35.07699716634038,0 33.04626253994277,35.07689788937731,0 33.0463183430012,35.07675308256016,0 33.04650704194081,35.07664158986147,0 33.04684811562034,35.07635375798664,0 33.04688478714483,35.07638632191326,0 33.04702813715111,35.07659926574038,0 33.04729830464581,35.07672040301284,0 33.04766958302904,35.07684838410178,0 33.04775625103585,35.07705483748246,0 33.04820482544446,35.07710878468198,0 33.04853611708337,35.07728689594529,0 33.04880837875655,35.07721236394496,0 33.04905150072923,35.07709321759788,0 33.0490855623301,35.07713988727471,0 33.04912402822375,35.07723702816855,0 33.0492000854444,35.07727999039695,0 33.04924161418925,35.07732066618566,0 33.04928152787455,35.07751465822255,0 33.04935539413404,35.07753137740489,0 33.04941441259172,35.0775520147394,0 33.04946343038007,35.07758467921571,0 33.04960718809518,35.07752729763273,0 33.04968337625856,35.07732412504937,0 33.04943532393029,35.07697314813579,0 33.0493266697104,35.07674431551418,0 33.04924161017763,35.07661856190886,0 33.04949334139129,35.07662052459408,0 33.04949181064665,35.07676577947597,0 33.04962488939468,35.07678497575134,0 33.04963108171827,35.07666598623832,0 33.0495978692156,35.07653861704888,0 33.04960442238831,35.0763853284848,0 33.04972524870922,35.07639635651787,0 33.0497844194473,35.07616882191296,0 33.04983631241613,35.07616317125541,0 33.04988550283478,35.07617969563395,0 33.04993950335659,35.07620836189631,0 33.04999880216204,35.07620277031756,0 33.04995105663093,35.07604905429074,0 33.04998680293102,35.07593633995148,0 33.04993518580734,35.07591576204039,0 33.04990161249111,35.07558862831746,0 33.04990078325534,35.07543325506955,0 33.05015515133275,35.07542109821122,0 33.05014893852263,35.0753080532091,0 33.05004712686627,35.07513171775351,0 33.05001848900238,35.07503867811814,0 33.05002929777514,35.07494997605339,0 33.050062065387,35.07488565906612,0 33.05013698408857,35.0748035036432,0 33.05021960571322,35.07469315768032,0 33.05031944129453,35.07458899635126,0 33.0505266475862,35.07460269738287,0 33.0506163135517,35.07476078473157,0 33.0506481039873,35.07478927966852,0 33.05066906357111,35.0746744204985,0 33.05068419284493,35.0746442680949,0 33.05082786964521,35.074596942181,0 33.05092858125123,35.07464412876848,0 33.05087025673591,35.07455690871556,0 33.05088679717423,35.07415949502926,0 33.05121698665238,35.07445060203893,0 33.05120502362298,35.07464827247579,0 33.05145778375471,35.07479147455225,0 33.05168216284164,35.07481741657632,0 33.05157668548756,35.07522019915603,0 33.05175105553192,35.07530629851866,0 33.05201678709012,35.07539108478061,0 33.0520526428848,35.07550234928842,0 33.05245286367269,35.07547718599493,0 33.05255480838596,35.07540935983778,0 33.05266596642308,35.07540416363181,0</coordinates>
						</LinearRing>
					</outerBoundaryIs>
				</Polygon>
			</MultiGeometry>
		</Placemark>
	</Document>
</kml>