<?xml version='1.0' encoding='UTF-8'?>
<kml xmlns="http://www.opengis.net/kml/2.2">
	<Document>
		<name>OVGOROS</name>
		<Style id="PolyStyle70">
			<LabelStyle>
				<color>00000000</color>
				<scale>0.000000</scale>
			</LabelStyle>
			<LineStyle>
				<color>ff0055ff</color>
				<width>2.000000</width>
			</LineStyle>
			<PolyStyle>
				<color>00828282</color>
				<outline>1</outline>
			</PolyStyle>
		</Style>
		<Placemark id="ID_70239">
			<name>OVGOROS</name>
			<snippet />
			<description>&lt;html xmlns:fo="http://www.w3.org/1999/XSL/Format" xmlns:msxsl="urn:schemas-microsoft-com:xslt"&gt;

&lt;head&gt;

&lt;META http-equiv="Content-Type" content="text/html"&gt;

&lt;meta http-equiv="content-type" content="text/html; charset=UTF-8"&gt;

&lt;/head&gt;

&lt;body style="margin:0px 0px 0px 0px;overflow:auto;background:#FFFFFF;"&gt;

&lt;table style="font-family:Arial,Verdana,Times;font-size:12px;text-align:left;width:100%;border-collapse:collapse;padding:3px 3px 3px 3px"&gt;

&lt;tr style="text-align:center;font-weight:bold;background:#9CBCE2"&gt;

&lt;td&gt;3&lt;/td&gt;

&lt;/tr&gt;

&lt;tr&gt;

&lt;td&gt;

&lt;table style="font-family:Arial,Verdana,Times;font-size:12px;text-align:left;width:100%;border-spacing:0px; padding:3px 3px 3px 3px"&gt;

&lt;tr&gt;

&lt;td&gt;DIST_CODE&lt;/td&gt;

&lt;td&gt;3&lt;/td&gt;

&lt;/tr&gt;

&lt;tr bgcolor="#D4E4F3"&gt;

&lt;td&gt;VIL_CODE&lt;/td&gt;

&lt;td&gt;327&lt;/td&gt;

&lt;/tr&gt;

&lt;tr&gt;

&lt;td&gt;VIL_CCD&lt;/td&gt;

&lt;td&gt;3327&lt;/td&gt;

&lt;/tr&gt;

&lt;tr bgcolor="#D4E4F3"&gt;

&lt;td&gt;VIL_NM_E&lt;/td&gt;

&lt;td&gt;OVGOROS&lt;/td&gt;

&lt;/tr&gt;

&lt;tr&gt;

&lt;td&gt;VIL_NM_G&lt;/td&gt;

&lt;td&gt;ΟΒΓΟΡΟΣ&lt;/td&gt;

&lt;/tr&gt;

&lt;/table&gt;

&lt;/td&gt;

&lt;/tr&gt;

&lt;/table&gt;

&lt;/body&gt;&lt;script type="text/javascript"&gt;

				function changeImage(attElement, nameElement) {

				document.getElementById('imageAttachment').src = attElement;

				document.getElementById('imageName').innerHTML = nameElement;}

			&lt;/script&gt;&lt;/html&gt;

</description>
			<styleUrl>#PolyStyle70</styleUrl>
			<MultiGeometry>
				<Polygon>
					<extrude>0</extrude>
					<altitudeMode>clampToGround</altitudeMode>
					<outerBoundaryIs>
						<LinearRing>
							<coordinates> 33.95132707658014,35.35897489057841,0 33.95132468262366,35.35899742021872,0 33.95175739244236,35.35930301085814,0 33.95189587999977,35.35928625042908,0 33.95193923812587,35.35931333195735,0 33.95207308228618,35.35930835948184,0 33.95231062483139,35.35966416289737,0 33.95260276407971,35.36002502006358,0 33.95252740485444,35.36012355380397,0 33.95230495857886,35.36032118639746,0 33.9518752719578,35.36044403793485,0 33.95160000850367,35.36058007355225,0 33.95123938046367,35.36089413218601,0 33.95130577780208,35.3609558835107,0 33.95170485923849,35.36076638439676,0 33.95192013181313,35.36073107275545,0 33.95208968405975,35.3607224750182,0 33.95246534161279,35.36074626637279,0 33.95274535332102,35.36076431926219,0 33.9534174869821,35.36098623799572,0 33.9543818354195,35.36117391853329,0 33.9544133409539,35.36117988169767,0 33.95482348117889,35.36132011591319,0 33.95532086006993,35.36139592859219,0 33.95581105964191,35.36151778918799,0 33.95673010301268,35.36165699033917,0 33.95715842906218,35.36170039659481,0 33.95703236070389,35.36216893320092,0 33.95701197336822,35.36237527438945,0 33.95703753219956,35.36271721764847,0 33.95721119355085,35.36278955402602,0 33.95698395660594,35.36313105771868,0 33.95743847249784,35.36339549013979,0 33.95795341633767,35.36374109525686,0 33.95808524772982,35.36380973929091,0 33.95879170492756,35.36406290037386,0 33.95894234824448,35.36377003407672,0 33.9593819636624,35.36392251204743,0 33.95941543676646,35.36388354671592,0 33.95960211610988,35.3640017955421,0 33.95980855902737,35.36380566395029,0 33.96014425349838,35.36405841382687,0 33.96058051247695,35.36446084970036,0 33.96062150871413,35.36444180225159,0 33.96076215637835,35.36452811505415,0 33.96131144012659,35.36490667009237,0 33.96176976644843,35.36517259691572,0 33.96266871048326,35.36592281571469,0 33.96279917365973,35.36576366930061,0 33.96281888654389,35.3656760155127,0 33.96299960950282,35.36523289249673,0 33.96309513433024,35.36509054829071,0 33.96321045453791,35.3649940997411,0 33.96332997331004,35.3649253371519,0 33.9633561637017,35.36467362179391,0 33.96437483019366,35.36469150356783,0 33.9643410803907,35.36505267310447,0 33.96539287135696,35.36524903747521,0 33.96531881121012,35.36561122057503,0 33.96521454360043,35.36563280661343,0 33.96512457928252,35.36568313082979,0 33.96507183164954,35.36576429423445,0 33.96504346205887,35.36616521467369,0 33.96502971370727,35.36635950088537,0 33.96514980375152,35.36655018633746,0 33.96492260392488,35.36691622948936,0 33.96514431177118,35.3670594090901,0 33.96551093563674,35.3667813796873,0 33.9664767472639,35.36687798605175,0 33.96630495059261,35.36731518670414,0 33.96630095590463,35.36737221519108,0 33.96716817064239,35.36752369772229,0 33.9671882280521,35.36777327242478,0 33.9669419203334,35.36788743045934,0 33.96682155249435,35.36797949016714,0 33.96655945796697,35.36823167099063,0 33.96584361053347,35.36915609131018,0 33.96568865728568,35.3690821471026,0 33.96538204091712,35.3693088030911,0 33.96543727194084,35.36944395886377,0 33.96482506579918,35.36978717120753,0 33.96527801370598,35.37038501588439,0 33.96544176301572,35.37064684649957,0 33.96557203136272,35.37084987305083,0 33.96524623934043,35.37129551766658,0 33.96514683008762,35.37148158285846,0 33.96543338325385,35.37159475312552,0 33.965244892763,35.37228364394465,0 33.96505097851441,35.37279267589261,0 33.96569782612038,35.37287880082497,0 33.9655108563179,35.37341426712986,0 33.96538090074245,35.37379426691197,0 33.96537587968535,35.37392319087294,0 33.96549278464834,35.37465528836795,0 33.96550160012049,35.37532188634025,0 33.9655653050955,35.3758772632021,0 33.96565218340886,35.37624802565633,0 33.96561615497146,35.3766847093262,0 33.96479240696393,35.37649127500024,0 33.96460147975528,35.37643825007462,0 33.96430310048573,35.37641725315494,0 33.96423761600355,35.37651128960874,0 33.96414543199396,35.37649384183356,0 33.96400723615169,35.37679892600201,0 33.96426469794214,35.37692149383071,0 33.96423114180747,35.37703345797537,0 33.96407385384122,35.37740876751198,0 33.96391761479323,35.37787238611664,0 33.96384451942158,35.37785998109784,0 33.9638039091066,35.37791225677682,0 33.96315861235473,35.37779012053103,0 33.96278229565262,35.37761648362151,0 33.96273998775908,35.37752590455101,0 33.96244631282517,35.37736719292023,0 33.9624947093809,35.37716939009282,0 33.96239762639776,35.37700651534188,0 33.96230802758713,35.37693969147217,0 33.96186170141566,35.37674582814757,0 33.96139096061563,35.37663268221577,0 33.96168927341095,35.37611338657071,0 33.96060149266214,35.37585188960261,0 33.96049289858602,35.37605536556561,0 33.96000081939437,35.37681777516389,0 33.95976263275482,35.37679109348905,0 33.95939501166247,35.37654724164884,0 33.95941616457812,35.37645875507139,0 33.95866184031415,35.3759660042091,0 33.95879815003448,35.37569217472556,0 33.95883682562159,35.37547626695473,0 33.95906272355079,35.37553681636813,0 33.95916848629319,35.37536193719227,0 33.95862309921544,35.3751039081397,0 33.95832912364063,35.37498545201077,0 33.9581149884815,35.37498065615183,0 33.9579803895535,35.37513108554541,0 33.95795121504564,35.37521184259777,0 33.95798541816424,35.37528820070693,0 33.9578056439214,35.3756236048314,0 33.95778176809845,35.37583531104456,0 33.95773521717947,35.37614933210779,0 33.9574594240007,35.37617045757352,0 33.95739082103876,35.37632256976347,0 33.95744455664629,35.3763467403541,0 33.95744441094476,35.37644563634541,0 33.95730801614112,35.37676679202544,0 33.95714972107668,35.37675470283952,0 33.95697228084703,35.37695886347073,0 33.95673150939398,35.37681693510044,0 33.95681688233958,35.37670015151065,0 33.95655110128273,35.37641112094116,0 33.95653491121453,35.3764736355829,0 33.95636136534168,35.37646866312049,0 33.95619280687358,35.37684649902858,0 33.95613976757492,35.37697108600608,0 33.95616246870214,35.3770571735614,0 33.95627950723847,35.37726176586515,0 33.95631272895225,35.37745179802397,0 33.95631311973208,35.37800999309163,0 33.95630086453003,35.37828411421612,0 33.95635337781326,35.37852925416718,0 33.95632274381487,35.37856303963711,0 33.95609544347786,35.37846588605961,0 33.95564209868884,35.37837813100895,0 33.95519389635707,35.37817859571219,0 33.95476229624293,35.37785479815795,0 33.95451009773445,35.37774768842617,0 33.95447753106514,35.37773524686338,0 33.95429885772049,35.37769861218363,0 33.95417663305352,35.37788376702265,0 33.95396706282651,35.37803751685886,0 33.95387448339778,35.37816531101507,0 33.95377042038536,35.37836741127418,0 33.95366608686325,35.37869433066656,0 33.95339405325691,35.37920658443501,0 33.95333518685744,35.37932766131581,0 33.95275776013199,35.37905523022756,0 33.95246127806038,35.3788833046878,0 33.95229049272351,35.37882849714979,0 33.95208760527523,35.37906718921322,0 33.95198813835896,35.37924683294855,0 33.95186677029906,35.37929146405126,0 33.95178287875077,35.37928380657942,0 33.95160323130253,35.37933929515976,0 33.95158855738406,35.37938724522665,0 33.95150332347477,35.37948150612575,0 33.95143472380124,35.37966329573617,0 33.95122665153988,35.37991333527457,0 33.95100262437673,35.38064239382285,0 33.95097074077697,35.38073257228505,0 33.95093352629547,35.38083628110005,0 33.95097770828686,35.38085841521625,0 33.95088342974266,35.38124584404513,0 33.95094418701002,35.38127684028281,0 33.95091821540466,35.38140294246524,0 33.95175303013603,35.3818954650006,0 33.95211752208917,35.38207694295114,0 33.95202118874402,35.38228903146049,0 33.95196344212051,35.3825143033477,0 33.9519275486146,35.38273041135295,0 33.95188685122509,35.38300501021823,0 33.95180608723314,35.38314053680887,0 33.95155603513339,35.38335383497164,0 33.95119776527755,35.38417049644828,0 33.95012310712767,35.38417895282706,0 33.95003164244719,35.38480691364784,0 33.94996953507656,35.3848950806581,0 33.94966273075273,35.38477609087161,0 33.94929423059347,35.38472165881243,0 33.94927614818955,35.38481847299859,0 33.94916567336005,35.38487891708566,0 33.94906742306187,35.38481111940982,0 33.94895049662919,35.38478955603685,0 33.9486583348901,35.38492449382649,0 33.94869657698638,35.3850253614649,0 33.94833707826928,35.385270986843,0 33.94813785873868,35.38513765932103,0 33.94783209297032,35.38516591325745,0 33.94760016012029,35.38528688575723,0 33.94760271042372,35.3855049388493,0 33.94750868538283,35.385681034498,0 33.94733127997226,35.38612194469225,0 33.9472473926151,35.38622601831478,0 33.94715220231814,35.38618517369881,0 33.9470615102157,35.38617689122887,0 33.94677145518965,35.38602291651969,0 33.94661496109628,35.38602189492764,0 33.94656044198318,35.3860549204926,0 33.94651345433,35.38614521609594,0 33.9464782790884,35.38642426571058,0 33.9464027831951,35.38654176230725,0 33.9463118153017,35.38674481076923,0 33.94629701100756,35.38686762922747,0 33.94511726902468,35.38614265749672,0 33.94507554161324,35.38624274671002,0 33.94494037081309,35.38642225291826,0 33.94481047196508,35.38646542227344,0 33.94462473784267,35.38642893682963,0 33.94437733513283,35.38625382735606,0 33.94412328512547,35.38683331301657,0 33.94415059551189,35.38711552673259,0 33.94389193916768,35.38794135870197,0 33.94366339350157,35.38783545600746,0 33.94532100918395,35.3899042372918,0 33.94505989877726,35.39019862727513,0 33.94473764715284,35.39075639633877,0 33.94469720057305,35.39103223361789,0 33.94495386454421,35.39145717942331,0 33.94497084426102,35.39159165196828,0 33.94504089727388,35.39165209688741,0 33.94507025179671,35.39174651218557,0 33.9451360529637,35.39188270644362,0 33.94528053559666,35.39193836236347,0 33.9452493573103,35.39212789620823,0 33.94545318152515,35.39220622286925,0 33.94544320295718,35.39223153997598,0 33.94518454629176,35.39229665978933,0 33.94458995820756,35.39218773773418,0 33.944591829438,35.3925684047554,0 33.94449582927088,35.39270586443667,0 33.94423252511096,35.39281308357746,0 33.94428968864849,35.3928694231649,0 33.9442882486889,35.39296618215418,0 33.94431738218789,35.39304167054026,0 33.9442689825281,35.3932965372586,0 33.94223104592169,35.3940843303261,0 33.94099633902012,35.39525492942379,0 33.94079835359207,35.39545838001212,0 33.94069845313064,35.39415516502878,0 33.94054638604168,35.3941100785117,0 33.94053026885782,35.39404921106968,0 33.9402929345427,35.39396062026243,0 33.94007401902491,35.39390974326868,0 33.94001629625147,35.39380503170029,0 33.93991114247076,35.39381846943608,0 33.93964085588161,35.39398882958942,0 33.93966497076023,35.39407487395961,0 33.93965977818868,35.39429154517698,0 33.93954109942058,35.39424619766776,0 33.93944078896876,35.39423435831198,0 33.93933101001053,35.39429199934337,0 33.93926347896866,35.39422732410905,0 33.93917140957439,35.39426169198028,0 33.93914755492295,35.39441961813615,0 33.93912003507157,35.39448292872493,0 33.93903806918637,35.39450249473762,0 33.93896072690006,35.39447785783027,0 33.93892705911461,35.39462167960856,0 33.93894826673473,35.39473244312961,0 33.93900087647216,35.39483929864588,0 33.93894427587468,35.39483132560537,0 33.93885969191408,35.39484670534656,0 33.9387670366152,35.39483059943713,0 33.93868572838372,35.39490694743473,0 33.93856188810793,35.39485953537726,0 33.93835956112733,35.3953329592777,0 33.93831873703938,35.39545350556838,0 33.93766765235448,35.39536178740408,0 33.9365667720983,35.39416613309839,0 33.93565900166922,35.39586538368442,0 33.92862993549531,35.40902045728379,0 33.9226268346172,35.4059008106369,0 33.92188647959811,35.40555384953637,0 33.92122331663997,35.40527015065266,0 33.91655194297709,35.40327159431973,0 33.9156329772092,35.40288624057788,0 33.91524947471919,35.40272542239687,0 33.91414495337303,35.40225796928765,0 33.91199004909014,35.40045320213593,0 33.9109960194799,35.39960457885403,0 33.90915672412383,35.39807382680272,0 33.9059818714319,35.39543135300739,0 33.90595700061053,35.39529396026835,0 33.91126167599587,35.38824080977486,0 33.91358527619855,35.38517520045542,0 33.91395610162078,35.38500224303216,0 33.91403896634856,35.38486118130332,0 33.91392764409213,35.38491658295399,0 33.91381018360608,35.38494749756111,0 33.91369604147209,35.38487213426994,0 33.91369763368979,35.38480836917224,0 33.9137565213513,35.38465926791095,0 33.91365168547249,35.38447840350349,0 33.91396688211528,35.38433846793511,0 33.91403294123668,35.38429889630272,0 33.91415072047951,35.38420862631796,0 33.91427140544524,35.3840882504502,0 33.91445056612775,35.38403982420061,0 33.91455293241401,35.38398774818593,0 33.91471273876085,35.3838721682561,0 33.9148157735512,35.38379764648007,0 33.91489628398057,35.38376081676707,0 33.91505254882656,35.38372437768115,0 33.91512704892709,35.38368308667463,0 33.91523341380881,35.38355763115191,0 33.91527709278757,35.38350009717585,0 33.91534068890428,35.38348695974922,0 33.91549926920183,35.38333231169882,0 33.9155919445307,35.38327197993074,0 33.91560256674497,35.38329684831752,0 33.91557414855713,35.38346304408823,0 33.91563484705973,35.38353535226462,0 33.91565882920861,35.38360635775322,0 33.91571126603815,35.38363127063937,0 33.9157281340409,35.38353214942844,0 33.91565661267365,35.38341021573438,0 33.91567514109937,35.38334047079456,0 33.91568696369031,35.38319009839181,0 33.91578394995409,35.38305489975825,0 33.91587181429609,35.38296722716577,0 33.91590375587752,35.38288788947207,0 33.9160217629702,35.38291257371764,0 33.91616396316054,35.38263159291716,0 33.91618002972536,35.38252794310536,0 33.91612745088926,35.38245148066731,0 33.91621294307966,35.38238965710805,0 33.9161222369016,35.38232916879242,0 33.91627272181783,35.38225587231135,0 33.91629504773517,35.38236707346333,0 33.91634668769908,35.38236040762577,0 33.91636979366325,35.38220180331664,0 33.91653822349581,35.3820217048768,0 33.91660115931298,35.38199769812449,0 33.91672612368053,35.38186969361786,0 33.9168642176738,35.38168528669103,0 33.91699824513906,35.38168290578168,0 33.91707833007314,35.38166039011723,0 33.91719031457911,35.38155984631779,0 33.91725989983601,35.38153207705644,0 33.91738993551107,35.38152971880989,0 33.91749937244856,35.38139794846884,0 33.91752533309663,35.38132245848546,0 33.91773817725516,35.38104370730084,0 33.91778642890425,35.38103812746004,0 33.91833580167901,35.38117826440707,0 33.91870967810769,35.38119606160459,0 33.91880704973161,35.38090593385506,0 33.91886731910851,35.38075697462141,0 33.91893892128924,35.38065290205846,0 33.91913430271896,35.38065455337597,0 33.91932173909866,35.38063116632169,0 33.91966572956673,35.38012771201774,0 33.91936857602386,35.37991179604431,0 33.91917740846231,35.37954407995494,0 33.91979214696381,35.37935220914985,0 33.91936200276217,35.37840855162496,0 33.91933166923015,35.37822076255858,0 33.91932269541083,35.37811772013843,0 33.91913213948809,35.37807261245009,0 33.91956016739369,35.37744492277608,0 33.91967457138261,35.37741697055886,0 33.91997415871838,35.37746605677717,0 33.92033059440033,35.37771843304592,0 33.9204263490103,35.37771770362473,0 33.92077671203963,35.37787503147459,0 33.92083338011579,35.37780558092531,0 33.92110217088797,35.37786313902134,0 33.92151102251671,35.37811099755469,0 33.92153653377449,35.37816441966581,0 33.92167022263058,35.37811585911223,0 33.92180747354644,35.37808208644352,0 33.92193625031189,35.37802557996832,0 33.92229737436296,35.37804754381429,0 33.92239436432713,35.37801569750244,0 33.92244858635777,35.37791574755292,0 33.92245829572025,35.37780180083295,0 33.92250438501677,35.37773378498018,0 33.92278287818333,35.37753012117812,0 33.92286768276154,35.37743683896698,0 33.92296419690565,35.3772165045939,0 33.92304099545623,35.37717565897218,0 33.92339940880802,35.37711436972173,0 33.92345356732787,35.37710510831619,0 33.92295658485102,35.37688283250504,0 33.92344214150481,35.37592806018905,0 33.92276497044239,35.37586729585222,0 33.92284904879541,35.37554336443065,0 33.92309422617915,35.37556598888474,0 33.92308335717355,35.37560420462336,0 33.92292509289761,35.37560504047606,0 33.92290438327174,35.3757361389354,0 33.92318046357509,35.37581725712184,0 33.92332321770476,35.37577834366579,0 33.92363163628001,35.37559048574007,0 33.92367688274153,35.37516084209822,0 33.92340998559485,35.37510358704172,0 33.92367583768641,35.37435733767037,0 33.92385108642652,35.37394094647954,0 33.92314344410411,35.37367473372106,0 33.92303849692754,35.37364156963631,0 33.92279718566866,35.37355436108807,0 33.92275728968428,35.37364302439693,0 33.92267884017738,35.37386145053947,0 33.92237745126126,35.37365735981542,0 33.92233832616595,35.37362590630557,0 33.92233752618896,35.3735556029918,0 33.92211167316957,35.37341897572594,0 33.9222793772941,35.37282573683463,0 33.92264782316579,35.37296608187359,0 33.92265263020899,35.37277525898904,0 33.92268254599691,35.37272740137838,0 33.92297658534605,35.3727727848401,0 33.92306732365041,35.37265657046882,0 33.92299959420768,35.37260477356012,0 33.92294408863415,35.37259385786748,0 33.92279574514011,35.37221169154452,0 33.92280192140993,35.37210695627346,0 33.92265259051278,35.37212488308255,0 33.92265816291793,35.37204490665557,0 33.92274041130106,35.3718260539766,0 33.92221298184735,35.37144122177239,0 33.92230014777086,35.37112227927194,0 33.92241411420534,35.37091728514492,0 33.92261000829789,35.3706118723975,0 33.92293238556594,35.37022837878246,0 33.9261956523839,35.36744093407236,0 33.92631846652485,35.36714118148947,0 33.92649565268814,35.36680187146856,0 33.92663327481111,35.36683227276942,0 33.92686355451119,35.3663546941945,0 33.92700335427812,35.36606476494436,0 33.9275269062276,35.36617364135297,0 33.92760701782412,35.36575571320489,0 33.92766812046784,35.36548727478282,0 33.92763569866034,35.36547843642317,0 33.9276989702927,35.36515704956961,0 33.92788458482247,35.36512983187519,0 33.9279005164584,35.36512749676623,0 33.9284216901572,35.36501382386001,0 33.92894517143114,35.36496147307661,0 33.92897425889164,35.36532266103148,0 33.92882836768412,35.3657296388301,0 33.92870003915292,35.36634585684879,0 33.92852267436095,35.3671975130668,0 33.92867037694496,35.36725074287683,0 33.92872372529374,35.36734448440131,0 33.9286303663911,35.36771113262036,0 33.92841086306264,35.36764109295762,0 33.92836085301789,35.36765984546527,0 33.92829050733363,35.36766375147401,0 33.92825334089121,35.36777428453809,0 33.92832666024632,35.36779866119277,0 33.92843169001357,35.36788045248829,0 33.92858800268507,35.36794919938914,0 33.92873609249914,35.36806617385732,0 33.92892956849624,35.36818037735654,0 33.92894309732127,35.36822556897744,0 33.92909630689844,35.36825370063153,0 33.92932325889672,35.3681880075857,0 33.92968764550236,35.36819319855098,0 33.92971812423822,35.3680144441017,0 33.92960726017063,35.36799131615722,0 33.92958078118486,35.36795155292109,0 33.92963345056143,35.36777405728877,0 33.92944309797599,35.36774475004424,0 33.92945455445472,35.36772337873003,0 33.92954544411496,35.36770669263304,0 33.92954622229917,35.36749086408206,0 33.92950056377612,35.36748055703202,0 33.92956601416218,35.3671638233015,0 33.92957905359205,35.36634161726704,0 33.92957921374998,35.36633149675888,0 33.92974388047759,35.3657996380445,0 33.92937756322179,35.36573518397777,0 33.92948303222302,35.3649858950315,0 33.93013829862487,35.36500239857025,0 33.93017667478298,35.36419069514389,0 33.93031321967482,35.36413160260259,0 33.93040066596294,35.36402165160045,0 33.93041189914808,35.36390388331254,0 33.93036053140699,35.3638068463739,0 33.93026156046454,35.36374109524581,0 33.93029476047089,35.3636338503856,0 33.93063327014048,35.36330445798532,0 33.9308185452372,35.36315563040735,0 33.9308976412428,35.36306452266079,0 33.93100133528805,35.36276157222998,0 33.93103784050614,35.36237881785939,0 33.93132980764727,35.36127281373998,0 33.93152822093833,35.3613217772175,0 33.93160859709917,35.36053903448047,0 33.93128206110126,35.36037618072497,0 33.93174808222111,35.3594062847545,0 33.93135119928516,35.35921755355194,0 33.93148896754377,35.35906460239368,0 33.93160999614957,35.35893102362171,0 33.93173905497736,35.35893993252679,0 33.93176387698128,35.35899586366294,0 33.93212719922405,35.35917156039677,0 33.93244677342748,35.35917504115976,0 33.93295818539848,35.35929927654431,0 33.93309812344829,35.35906606460257,0 33.93341432871194,35.35917665549066,0 33.93347499082352,35.35920714597631,0 33.93389846438911,35.35940829688442,0 33.9332473674996,35.36082720239118,0 33.93376800046248,35.3610457417354,0 33.93385705885169,35.36071243684138,0 33.93403583176233,35.360319355122,0 33.93486934102914,35.36040181133138,0 33.93491634044043,35.36035664060423,0 33.93495462310674,35.36026859682745,0 33.93496495100075,35.36016596400094,0 33.93499418710012,35.36014539739318,0 33.9352462690734,35.3601081910897,0 33.93537698204888,35.36008889766157,0 33.93546273720156,35.3601179346452,0 33.93553742392377,35.3601782839813,0 33.93563812626075,35.36017420367041,0 33.9357222527474,35.36013063527638,0 33.93577379992253,35.36005760751883,0 33.93583176785852,35.35984257436644,0 33.9357510992504,35.35983659675178,0 33.93575451977746,35.35978374936854,0 33.93583914158001,35.35966319679441,0 33.9364227918616,35.35983711190486,0 33.93656294189562,35.35964543509299,0 33.93672382788903,35.35951289707721,0 33.93702934341952,35.35955268488132,0 33.93720527188412,35.35943247431604,0 33.93719471592623,35.35939144181526,0 33.93712242939506,35.35923834020511,0 33.93696350987646,35.35916280849772,0 33.93680013785848,35.35913023353712,0 33.93669064303185,35.35912255114049,0 33.93660926514367,35.35912017050686,0 33.93655328374982,35.35919754857483,0 33.93635133557511,35.35911886855777,0 33.93632869699454,35.35906725959543,0 33.93633502275458,35.35904298722141,0 33.93636410426434,35.35893142996891,0 33.93641583314888,35.35893038019231,0 33.93644484177434,35.35895640858015,0 33.93650058317757,35.35896106196425,0 33.93651328705707,35.35892258830302,0 33.93669391169676,35.35884903300778,0 33.93680919461902,35.35849704440703,0 33.93713634502038,35.3584718835564,0 33.93701365714947,35.35841766600181,0 33.93674208452405,35.35842132523787,0 33.93648824858511,35.35839711596335,0 33.93623313474042,35.35865430187092,0 33.93618026580375,35.35863635305783,0 33.93633834950859,35.35834316536292,0 33.93669609971601,35.35826446279546,0 33.93690920663302,35.35822319539106,0 33.93726403215227,35.35824025176681,0 33.93733553314411,35.35815056244799,0 33.93747513441898,35.35789984960974,0 33.9366818976489,35.35767448176413,0 33.93660534678173,35.3576838098957,0 33.93560317373512,35.35749382341496,0 33.93560267871063,35.3574509110964,0 33.93601733312055,35.35741468705292,0 33.93609097702589,35.3573525527832,0 33.93632160003826,35.3571528989112,0 33.93622575003175,35.35709691238145,0 33.93634823516769,35.35710510297761,0 33.9363710017835,35.35698277860427,0 33.93625319570154,35.35690115969871,0 33.93624863242242,35.35685497640779,0 33.93637666046877,35.35677475357378,0 33.93639313336278,35.35663839730316,0 33.93615737313535,35.35647919402123,0 33.93608972330353,35.35635441086168,0 33.93606858499253,35.35626874047337,0 33.93617346234327,35.35617583151021,0 33.93632867013464,35.35617516000373,0 33.93668284726701,35.35641914233038,0 33.9369402736248,35.35637753138677,0 33.93722142370657,35.35639855174077,0 33.93729757061524,35.35632219860273,0 33.93758748813695,35.35622775312613,0 33.93757157474393,35.35606187956647,0 33.93762222594862,35.35588182174898,0 33.93783378419593,35.35582613980341,0 33.93785831485884,35.35576963044046,0 33.937742400745,35.35569784627069,0 33.93776091916519,35.35561882046279,0 33.93796675382573,35.35560485591333,0 33.93820713634963,35.35546314794419,0 33.9380941610651,35.35545082037605,0 33.93826969620571,35.35529759812555,0 33.93866589129198,35.35506012946168,0 33.93878923488918,35.35492381795872,0 33.93884457543621,35.35483095257742,0 33.93899715580225,35.3547835485411,0 33.9392658888271,35.35478266808754,0 33.93951836904461,35.35455500956406,0 33.93956351109969,35.35448753622437,0 33.93983946674263,35.35409693508957,0 33.93999645622291,35.35408250870416,0 33.94004408089728,35.35401941348823,0 33.94012850471377,35.3540022506509,0 33.94108857244214,35.3540657839417,0 33.94133282116712,35.35408355791004,0 33.94143896274132,35.35413019813232,0 33.94148335305091,35.35447499771578,0 33.94156229446246,35.3545555316856,0 33.9415495649088,35.35513908005596,0 33.94184066432793,35.35529341869567,0 33.94214089972081,35.35552038793813,0 33.94224368743674,35.35563356123367,0 33.94279970784353,35.35594844780275,0 33.9429454729632,35.35575026898132,0 33.94325174613481,35.35553092056129,0 33.94328906590404,35.35552461737981,0 33.94415550822095,35.35591796101826,0 33.94404756009233,35.3553483489521,0 33.94361681422829,35.35493773095603,0 33.94365274160725,35.35469601629806,0 33.94348935608682,35.35465065867734,0 33.94270403899184,35.3540910327193,0 33.94306623713481,35.35364011297354,0 33.94339169950725,35.35329581475557,0 33.94418904223797,35.3535821235609,0 33.94469136888689,35.35367825165819,0 33.94520243431521,35.35368571174292,0 33.94525676432117,35.35383415572436,0 33.94536277920795,35.35390384240043,0 33.94548231655783,35.35390290729862,0 33.94552088756448,35.35393002864328,0 33.94574260254002,35.35397365711128,0 33.94582985705084,35.3537709077408,0 33.94597055023182,35.35378538705509,0 33.94598304723417,35.35378537937134,0 33.94598417484657,35.35378556072673,0 33.94619980448248,35.3538202280543,0 33.94628307738374,35.35379837939447,0 33.94638030676491,35.35403335664836,0 33.94684052380036,35.35418694017381,0 33.94703329983485,35.35404354980829,0 33.94708751174046,35.35406614146126,0 33.94705807609014,35.35411778964092,0 33.94755212537344,35.35424711540783,0 33.94757438802844,35.35410293740458,0 33.94800686550252,35.35420647916941,0 33.94813263546295,35.35421821668653,0 33.94834011286905,35.35436979578409,0 33.9486416309284,35.35464273289927,0 33.94848242100438,35.3548783843147,0 33.94856494953707,35.35493725798627,0 33.94939783645642,35.35546275190912,0 33.94930390094884,35.35560844050475,0 33.94928123104937,35.35571439279858,0 33.94913782027469,35.35586383815535,0 33.94904361907069,35.35584162186773,0 33.94882765229523,35.35618414798118,0 33.94861515888279,35.35628872858249,0 33.94857479315206,35.35640862176356,0 33.94857346980952,35.35682097069446,0 33.94893206653524,35.35706901831025,0 33.94906630710948,35.35704283950162,0 33.94909233625653,35.35702532948321,0 33.94945751016166,35.35669834062992,0 33.94959671679491,35.3568849505203,0 33.94970662019969,35.35692158418347,0 33.94982316865581,35.35707345419308,0 33.94987383043014,35.35731594646742,0 33.94998541502144,35.35745218383401,0 33.95009534693144,35.35744740243887,0 33.95011793013324,35.35750259561184,0 33.95011865727999,35.35762740474799,0 33.95017368628062,35.3576762624232,0 33.95027357200726,35.35773616923165,0 33.95034316807826,35.3577225544331,0 33.95037306388824,35.35772855746436,0 33.95036207449034,35.35776441330047,0 33.95033891290225,35.35784635989778,0 33.95038595188905,35.35801903607864,0 33.95048466068994,35.35809122090962,0 33.95052324200658,35.35809309147871,0 33.95057281048551,35.35805910710231,0 33.95091701902609,35.35777417458373,0 33.95110057459883,35.35767615947817,0 33.95120371689199,35.3576562547577,0 33.9512361402317,35.35766940688659,0 33.9515616622816,35.35802596423773,0 33.95175302957145,35.3579903129785,0 33.95182854542086,35.3581413630416,0 33.95163230447272,35.35819442780027,0 33.95140036309021,35.35831312356536,0 33.9513099195236,35.3583769586245,0 33.95129386019289,35.35839646821065,0 33.95129404399773,35.3584281783705,0 33.95138180260596,35.35854439044574,0 33.95139584266211,35.35860570216693,0 33.95135302790435,35.35873069450083,0 33.95132707658014,35.35897489057841,0</coordinates>
						</LinearRing>
					</outerBoundaryIs>
				</Polygon>
			</MultiGeometry>
		</Placemark>
	</Document>
</kml>