<?xml version='1.0' encoding='UTF-8'?>
<kml xmlns="http://www.opengis.net/kml/2.2">
	<Document>
		<name>PANO AKOURDALEIA</name>
		<Style id="PolyStyle70">
			<LabelStyle>
				<color>00000000</color>
				<scale>0.000000</scale>
			</LabelStyle>
			<LineStyle>
				<color>ff0055ff</color>
				<width>2.000000</width>
			</LineStyle>
			<PolyStyle>
				<color>00828282</color>
				<outline>1</outline>
			</PolyStyle>
		</Style>
		<Placemark id="ID_70060">
			<name>PANO AKOURDALEIA</name>
			<snippet />
			<description>&lt;html xmlns:fo="http://www.w3.org/1999/XSL/Format" xmlns:msxsl="urn:schemas-microsoft-com:xslt"&gt;

&lt;head&gt;

&lt;META http-equiv="Content-Type" content="text/html"&gt;

&lt;meta http-equiv="content-type" content="text/html; charset=UTF-8"&gt;

&lt;/head&gt;

&lt;body style="margin:0px 0px 0px 0px;overflow:auto;background:#FFFFFF;"&gt;

&lt;table style="font-family:Arial,Verdana,Times;font-size:12px;text-align:left;width:100%;border-collapse:collapse;padding:3px 3px 3px 3px"&gt;

&lt;tr style="text-align:center;font-weight:bold;background:#9CBCE2"&gt;

&lt;td&gt;6&lt;/td&gt;

&lt;/tr&gt;

&lt;tr&gt;

&lt;td&gt;

&lt;table style="font-family:Arial,Verdana,Times;font-size:12px;text-align:left;width:100%;border-spacing:0px; padding:3px 3px 3px 3px"&gt;

&lt;tr&gt;

&lt;td&gt;DIST_CODE&lt;/td&gt;

&lt;td&gt;6&lt;/td&gt;

&lt;/tr&gt;

&lt;tr bgcolor="#D4E4F3"&gt;

&lt;td&gt;VIL_CODE&lt;/td&gt;

&lt;td&gt;332&lt;/td&gt;

&lt;/tr&gt;

&lt;tr&gt;

&lt;td&gt;VIL_CCD&lt;/td&gt;

&lt;td&gt;6332&lt;/td&gt;

&lt;/tr&gt;

&lt;tr bgcolor="#D4E4F3"&gt;

&lt;td&gt;VIL_NM_E&lt;/td&gt;

&lt;td&gt;PANO AKOURDALEIA&lt;/td&gt;

&lt;/tr&gt;

&lt;tr&gt;

&lt;td&gt;VIL_NM_G&lt;/td&gt;

&lt;td&gt;ΠΑΝΩ ΑΚΟΥΡΔΑΛΕΙΑ&lt;/td&gt;

&lt;/tr&gt;

&lt;/table&gt;

&lt;/td&gt;

&lt;/tr&gt;

&lt;/table&gt;

&lt;/body&gt;&lt;script type="text/javascript"&gt;

				function changeImage(attElement, nameElement) {

				document.getElementById('imageAttachment').src = attElement;

				document.getElementById('imageName').innerHTML = nameElement;}

			&lt;/script&gt;&lt;/html&gt;

</description>
			<styleUrl>#PolyStyle70</styleUrl>
			<MultiGeometry>
				<Polygon>
					<extrude>0</extrude>
					<altitudeMode>clampToGround</altitudeMode>
					<outerBoundaryIs>
						<LinearRing>
							<coordinates> 32.43946640355716,34.93220538241351,0 32.43961332929776,34.93241945407881,0 32.43976259842968,34.93293888712408,0 32.43974686341818,34.93344863327945,0 32.43982964457049,34.93367017009414,0 32.44014677541354,34.93344514213759,0 32.44068291371017,34.93300287461958,0 32.44112191187438,34.93271923742538,0 32.44129571599284,34.93262913728717,0 32.44181614315586,34.93222229676203,0 32.44191092562032,34.93213282692656,0 32.44210326801512,34.93200900378785,0 32.44229930478956,34.93190446792566,0 32.44244151274344,34.93172891668586,0 32.44255171875395,34.93163018377817,0 32.44291968529385,34.93148835588945,0 32.44314646253771,34.93142577661926,0 32.44332578152708,34.93142706348662,0 32.44347337421373,34.93147949125704,0 32.44362455793421,34.93156083402792,0 32.44367909950769,34.93156443707483,0 32.44369150772048,34.93149710707733,0 32.44361059270387,34.931406633874,0 32.44347934291542,34.93128369696664,0 32.4432231455659,34.93117912540124,0 32.44305586140616,34.93114582000405,0 32.44286830387856,34.93118620833478,0 32.44267769790812,34.93114631423767,0 32.44245180322281,34.93112542938301,0 32.44231167137529,34.93110515955016,0 32.44221865722244,34.93105312607659,0 32.44222323449036,34.930988949514,0 32.44237296588447,34.9308391360495,0 32.44249021869394,34.93081108368592,0 32.44301325965625,34.93075063174331,0 32.44330600173227,34.93071741824168,0 32.44367280794425,34.93068473428864,0 32.44384805822189,34.930702044383,0 32.44403781475259,34.93082219010591,0 32.44413096348789,34.93086138293114,0 32.44448560382729,34.93087355700091,0 32.44491790009677,34.93091517829063,0 32.44510840350458,34.93096470012019,0 32.44530219788709,34.9310720314523,0 32.44545012439811,34.93109235234621,0 32.44591106032065,34.93112760606698,0 32.44606111489441,34.93108230777393,0 32.44611051321382,34.93097807240275,0 32.44641773168474,34.93085211041787,0 32.44657496652394,34.93086943906266,0 32.44663430327475,34.93084040133797,0 32.44673013322164,34.93091326805668,0 32.4470988500802,34.93089233341855,0 32.44729870428858,34.93093942627387,0 32.44782453474748,34.93094760070112,0 32.44804990237438,34.93077980517631,0 32.44864892957282,34.93080175597233,0 32.44873893696866,34.93108817624829,0 32.44875199224248,34.93154787055803,0 32.44864134702515,34.93169291777783,0 32.44865525480548,34.93173131663832,0 32.44879099677593,34.93175143485217,0 32.44901802502862,34.93194526292926,0 32.44936389190636,34.93214539834196,0 32.44951231887198,34.9322773768198,0 32.4495445615843,34.93230604665329,0 32.4499274901199,34.93272147222015,0 32.45042297188315,34.93282716188855,0 32.45066877164805,34.9329560800485,0 32.45057282627947,34.93304443191911,0 32.45040221159361,34.93306750019138,0 32.45019832206719,34.93313889530755,0 32.45000839024669,34.93312944869756,0 32.44981060295815,34.93324405437995,0 32.44959467674612,34.93352580874775,0 32.44927866104748,34.93366655280322,0 32.44908504015546,34.93400782015372,0 32.44979613616281,34.93430967060682,0 32.44978039688881,34.93456047446264,0 32.44962058678981,34.93480215775627,0 32.44935461689199,34.93485692104819,0 32.44935415015345,34.93521305593404,0 32.4493825036166,34.93532117944777,0 32.44947141497133,34.93527864398158,0 32.4498689922276,34.9354838276334,0 32.44984576376606,34.93582361307452,0 32.44974501237547,34.93605762235949,0 32.44955633244371,34.93623974391019,0 32.44956793732712,34.93638282168186,0 32.44955753852614,34.93643670851203,0 32.44920449715629,34.93635864794268,0 32.44906822612717,34.93623086901226,0 32.44889358773797,34.9363240547972,0 32.44869591944957,34.93611489679329,0 32.44849110412802,34.93596234694013,0 32.4484770915298,34.93604858376963,0 32.44878636351618,34.93654992378682,0 32.44887306649487,34.93671781955819,0 32.44928259150571,34.93703370897491,0 32.4493408003301,34.93710697005617,0 32.44896715632307,34.93711779666776,0 32.44825847202281,34.93783041453284,0 32.44825061361284,34.93795446689888,0 32.4482895048666,34.93799521565897,0 32.44864298188461,34.93803281059677,0 32.44877780806171,34.93829817929451,0 32.44864838339067,34.93845374093741,0 32.44867435343367,34.9387884804183,0 32.44849473087871,34.93904351050291,0 32.44852830412787,34.93927847808797,0 32.44833634117462,34.93946057368233,0 32.44814249358795,34.93951045236795,0 32.44811469192415,34.93966134228797,0 32.44814774962694,34.93994487084237,0 32.44819977554147,34.93998301468204,0 32.44854970352358,34.9400475661626,0 32.44908556305931,34.94019168388476,0 32.44921750081367,34.94010898618959,0 32.4493911233893,34.9401129219019,0 32.44959409347027,34.94013055584141,0 32.44990105829578,34.94022987225053,0 32.45032115337738,34.94016541285992,0 32.45107039066566,34.93996029887523,0 32.45170571193466,34.93968152472642,0 32.45191921711437,34.93963177951447,0 32.45204702276553,34.93994295926088,0 32.45251309446764,34.94049396747581,0 32.45263564006206,34.94061920716688,0 32.45277894038914,34.94076565695054,0 32.45295982478672,34.94101515877485,0 32.45307695970778,34.94109423253641,0 32.4535064605642,34.94107030000124,0 32.45368884456545,34.94117681572796,0 32.45434583975183,34.94133256321939,0 32.45441516008928,34.94159746011307,0 32.45457805624667,34.9416876487578,0 32.45463381252294,34.94168264738887,0 32.45491698023695,34.9418654197101,0 32.45561307608725,34.94204302042529,0 32.45588336675945,34.94220411577938,0 32.45616218040738,34.94217640968085,0 32.45668284149328,34.94220976819459,0 32.45744000091469,34.94218813681399,0 32.45771923479874,34.9421199596463,0 32.4580593497183,34.94218441474344,0 32.45864990355269,34.94242870392919,0 32.45856809510072,34.94273300305848,0 32.45892661056849,34.94291899542544,0 32.4589977664779,34.94300853243732,0 32.45905411030655,34.94326254281283,0 32.45926792589611,34.94349877684181,0 32.45938403213376,34.94367766438535,0 32.45937920933982,34.94382602157064,0 32.45922666584492,34.94431598503002,0 32.4590073764029,34.94460582642098,0 32.45866293271519,34.94495683823044,0 32.45835025054125,34.94508953458551,0 32.4580584601042,34.94510366372008,0 32.4574513139897,34.9455067792119,0 32.45744412766379,34.94588175313154,0 32.45725391244076,34.94589659716507,0 32.45690042947405,34.94585632917094,0 32.45673645331899,34.94586865935303,0 32.45660505003219,34.94590010815689,0 32.45611592039424,34.94661162448321,0 32.4558794078246,34.94666660940182,0 32.45544308710375,34.94682406434183,0 32.45533599155493,34.9468627113096,0 32.45535587098635,34.9469437138682,0 32.45498850941599,34.94682090609063,0 32.45483707668838,34.9467886353405,0 32.45473436055048,34.94681908947864,0 32.4541092014017,34.94701795767372,0 32.45406404320981,34.94737389292207,0 32.45400991915099,34.94742719861443,0 32.45363435899839,34.94715616789438,0 32.45337569872796,34.94680945772259,0 32.45319155298799,34.94650892243663,0 32.45296263844364,34.9463186824475,0 32.45278870452073,34.94635252175303,0 32.45306206901079,34.94666889803985,0 32.45322026519441,34.94680837057055,0 32.45327721058658,34.94687181654298,0 32.45329436906437,34.94691811687017,0 32.45328303709868,34.9469959676334,0 32.45326119475765,34.94706797404599,0 32.45331692988843,34.94713186345884,0 32.45337269519803,34.94719286843235,0 32.45336744654744,34.9473689077867,0 32.45329307574892,34.9474087999344,0 32.45317910537436,34.94753501329786,0 32.45306300217133,34.94751976947629,0 32.45258784376733,34.947811054458,0 32.45245031600408,34.9478953620426,0 32.45224825023189,34.94786882813281,0 32.45203477547286,34.94775680749379,0 32.45158066151753,34.94779884394334,0 32.45118684926634,34.94794178133531,0 32.45110755472475,34.94790103306435,0 32.45082620928604,34.94783375033867,0 32.45066307138016,34.94769458499978,0 32.45035604878132,34.94774267067243,0 32.44987600200135,34.9479251862067,0 32.44960059893275,34.94787803917072,0 32.44920172483297,34.94791542949322,0 32.44910312743569,34.94796497610531,0 32.4489604863487,34.94812473974538,0 32.44882355945841,34.9483247424435,0 32.44877951324197,34.9484349657778,0 32.44854526569508,34.94855892608494,0 32.44789315241197,34.94877541034203,0 32.44719763399032,34.94844894969479,0 32.44703804057659,34.94846792205354,0 32.44710390029924,34.94861911433337,0 32.44691160673113,34.94883380747011,0 32.44699046260082,34.94891475714745,0 32.44700691283787,34.94910078619007,0 32.44710703352128,34.94939171135638,0 32.44714764316556,34.94961310220184,0 32.44710865773734,34.94982388971598,0 32.44718532373679,34.95011591142476,0 32.44718317744411,34.95032195205131,0 32.44697058067347,34.950625888111,0 32.44701250364002,34.9507216818639,0 32.44688624944922,34.95106760325313,0 32.44706295797151,34.95175178654956,0 32.44720641313307,34.95210973830667,0 32.44747268707414,34.95245350318921,0 32.447122290264,34.95253145643766,0 32.4468950676379,34.95256000838948,0 32.44675238810859,34.95271485634076,0 32.44653955680317,34.95312564299806,0 32.44690806522065,34.95363968173184,0 32.44686466004123,34.95368463081324,0 32.44716283440335,34.9539130552044,0 32.44731428831747,34.95409518053651,0 32.44760526011179,34.95442918958148,0 32.44772600982997,34.95461614337933,0 32.44791449954318,34.9547784383385,0 32.44791658845104,34.95515072447577,0 32.44787172277183,34.95533652138247,0 32.4477779863881,34.95550185199026,0 32.44744982554541,34.95579127486921,0 32.44702296695056,34.95613031239645,0 32.44678202613689,34.95628957602224,0 32.44631985486424,34.9564824751378,0 32.44614984220364,34.95678541721098,0 32.44603343522193,34.95676948828486,0 32.44593104835547,34.9565876258325,0 32.44588082177959,34.95611434955006,0 32.44564872225352,34.95597685512953,0 32.4455821916427,34.9558981747965,0 32.44551457599314,34.9555649356755,0 32.44536754175512,34.95518510274299,0 32.44535961781403,34.95470570847398,0 32.44524617052711,34.95448854486035,0 32.44521290523905,34.95426189127095,0 32.445133098075,34.95400221246277,0 32.44493408905543,34.95375150340991,0 32.44456524175253,34.95385620379508,0 32.44415765787218,34.95339047293221,0 32.44358595448037,34.95284724656753,0 32.44322448579322,34.95251183389903,0 32.442973311598,34.95250716134896,0 32.44284354695799,34.95232841217816,0 32.44248555282288,34.95197913046982,0 32.44216558882147,34.95180979443624,0 32.4420456821555,34.95164694926969,0 32.44182027455012,34.95134422806613,0 32.44183070736612,34.95125374184449,0 32.44190167826365,34.95090656043704,0 32.44165045995943,34.95083388811816,0 32.44142672956422,34.95080543917969,0 32.44123254778111,34.95045939035036,0 32.44130860225913,34.94994669034795,0 32.44130164982445,34.94984848464902,0 32.44125647006992,34.94965688900533,0 32.4412345600684,34.94947760471887,0 32.44125186409155,34.9492937106606,0 32.4414030837488,34.94913679995594,0 32.44161680919808,34.94900952756552,0 32.44176218916018,34.94885099764695,0 32.4418220943477,34.94867194517817,0 32.44180584851469,34.94851402993057,0 32.44177219814758,34.94833766824425,0 32.44178906024,34.9479382071369,0 32.44169510386307,34.9477789034964,0 32.44164978431326,34.94760488139644,0 32.44166867365895,34.94741108067473,0 32.44172472396932,34.94722175321922,0 32.44176319121897,34.94703950311293,0 32.44174715458652,34.94685611281567,0 32.44161387437413,34.94672543147407,0 32.44150654519196,34.94662696710529,0 32.44125825494379,34.94656116636494,0 32.44088279945267,34.94616057438007,0 32.44060989131008,34.94615085720654,0 32.44016970941443,34.94593582445859,0 32.43981473184625,34.9453803530121,0 32.43980140570574,34.94515805877213,0 32.43973836792419,34.94488889932647,0 32.43982883556897,34.94464409839198,0 32.43957672922855,34.94415396047172,0 32.43975497117748,34.9439175465518,0 32.43971921140908,34.94373901105493,0 32.43950226281721,34.94348424659002,0 32.43960225007107,34.94322917832579,0 32.43957221904438,34.94310236121442,0 32.43940872371234,34.94283764356792,0 32.43969346719217,34.94232295465336,0 32.43958486018977,34.94220849053927,0 32.43949195609325,34.94179701181999,0 32.43954496402264,34.94153385463802,0 32.43935162946625,34.94112423716323,0 32.43933700614197,34.94072882137541,0 32.43942606130187,34.94032123977383,0 32.4393972956866,34.9400755804249,0 32.43929242843014,34.93990429952589,0 32.43909891765778,34.93980730562827,0 32.43901838122797,34.9397085444492,0 32.43902625173158,34.93955874552248,0 32.43929519669032,34.9393488217879,0 32.43932356848369,34.93904156689326,0 32.43888392072959,34.93878002573198,0 32.4385143225951,34.93871793451539,0 32.43818812712369,34.93870524522304,0 32.43792828934433,34.93864911066284,0 32.43772269644654,34.93850810533275,0 32.43730569710791,34.93793630454913,0 32.43748604534498,34.93788749931829,0 32.43728685522806,34.93765357454323,0 32.43709864205628,34.93745939442764,0 32.43694796917352,34.93729772022307,0 32.43685955952081,34.93710097436583,0 32.43677801417372,34.93693248649971,0 32.43667295166107,34.93679529508597,0 32.43646015528043,34.93669412772294,0 32.43658275230197,34.93625153637591,0 32.43674692903424,34.9357764466581,0 32.43676662859016,34.93566775342119,0 32.43706653507558,34.93524363593059,0 32.43729362720367,34.93506530666309,0 32.43716187510057,34.93478682743206,0 32.43699010266506,34.93447190827923,0 32.43702432454388,34.93432205840863,0 32.43690644172593,34.93414274465692,0 32.43690704105779,34.93405504621489,0 32.43702137789942,34.93401895849144,0 32.43711012294229,34.93394284250208,0 32.43723268691413,34.93372559319362,0 32.43750340678896,34.93339301124776,0 32.43782602697488,34.93301633324583,0 32.4378866943018,34.93277206511078,0 32.43770808322306,34.93225631965209,0 32.4375725028495,34.93214273387824,0 32.43787423095044,34.93204016733139,0 32.43824506896303,34.93176195187789,0 32.43794662035695,34.93143463591697,0 32.43801273820261,34.93136673107185,0 32.43815756782361,34.93144647283719,0 32.43832482874359,34.93148859988083,0 32.43849884338407,34.93147962647961,0 32.43858549722498,34.93150838479323,0 32.4387521869432,34.93160421540431,0 32.4388791867391,34.93163582178064,0 32.43905900406926,34.93166525156884,0 32.43915451465415,34.93173755215025,0 32.43920897206691,34.93187349114733,0 32.43926985790517,34.93198902001632,0 32.43937155205761,34.93206392162595,0 32.43946640355716,34.93220538241351,0</coordinates>
						</LinearRing>
					</outerBoundaryIs>
				</Polygon>
			</MultiGeometry>
		</Placemark>
	</Document>
</kml>