<?xml version='1.0' encoding='UTF-8'?>
<kml xmlns="http://www.opengis.net/kml/2.2">
	<Document>
		<name>PARAMALI</name>
		<Style id="PolyStyle70">
			<LabelStyle>
				<color>00000000</color>
				<scale>0.000000</scale>
			</LabelStyle>
			<LineStyle>
				<color>ff0055ff</color>
				<width>2.000000</width>
			</LineStyle>
			<PolyStyle>
				<color>00828282</color>
				<outline>1</outline>
			</PolyStyle>
		</Style>
		<Placemark id="ID_70561">
			<name>PARAMALI</name>
			<snippet />
			<description>&lt;html xmlns:fo="http://www.w3.org/1999/XSL/Format" xmlns:msxsl="urn:schemas-microsoft-com:xslt"&gt;

&lt;head&gt;

&lt;META http-equiv="Content-Type" content="text/html"&gt;

&lt;meta http-equiv="content-type" content="text/html; charset=UTF-8"&gt;

&lt;/head&gt;

&lt;body style="margin:0px 0px 0px 0px;overflow:auto;background:#FFFFFF;"&gt;

&lt;table style="font-family:Arial,Verdana,Times;font-size:12px;text-align:left;width:100%;border-collapse:collapse;padding:3px 3px 3px 3px"&gt;

&lt;tr style="text-align:center;font-weight:bold;background:#9CBCE2"&gt;

&lt;td&gt;5&lt;/td&gt;

&lt;/tr&gt;

&lt;tr&gt;

&lt;td&gt;

&lt;table style="font-family:Arial,Verdana,Times;font-size:12px;text-align:left;width:100%;border-spacing:0px; padding:3px 3px 3px 3px"&gt;

&lt;tr&gt;

&lt;td&gt;DIST_CODE&lt;/td&gt;

&lt;td&gt;5&lt;/td&gt;

&lt;/tr&gt;

&lt;tr bgcolor="#D4E4F3"&gt;

&lt;td&gt;VIL_CODE&lt;/td&gt;

&lt;td&gt;221&lt;/td&gt;

&lt;/tr&gt;

&lt;tr&gt;

&lt;td&gt;VIL_CCD&lt;/td&gt;

&lt;td&gt;5221&lt;/td&gt;

&lt;/tr&gt;

&lt;tr bgcolor="#D4E4F3"&gt;

&lt;td&gt;VIL_NM_E&lt;/td&gt;

&lt;td&gt;PARAMALI&lt;/td&gt;

&lt;/tr&gt;

&lt;tr&gt;

&lt;td&gt;VIL_NM_G&lt;/td&gt;

&lt;td&gt;ΠΑΡΑΜΑΛΙ&lt;/td&gt;

&lt;/tr&gt;

&lt;/table&gt;

&lt;/td&gt;

&lt;/tr&gt;

&lt;/table&gt;

&lt;/body&gt;&lt;script type="text/javascript"&gt;

				function changeImage(attElement, nameElement) {

				document.getElementById('imageAttachment').src = attElement;

				document.getElementById('imageName').innerHTML = nameElement;}

			&lt;/script&gt;&lt;/html&gt;

</description>
			<styleUrl>#PolyStyle70</styleUrl>
			<MultiGeometry>
				<Polygon>
					<extrude>0</extrude>
					<altitudeMode>clampToGround</altitudeMode>
					<outerBoundaryIs>
						<LinearRing>
							<coordinates> 32.80783365801905,34.72170323936231,0 32.80802312775796,34.72185637920141,0 32.80827595743978,34.72233412063556,0 32.80835090134132,34.72270791484979,0 32.8087861386697,34.72351076050446,0 32.80899935832208,34.72367382696461,0 32.80903369807279,34.72388528118946,0 32.80921680703704,34.72410227631033,0 32.80931358370477,34.72478083869076,0 32.80877766686584,34.72481297882315,0 32.80834232659994,34.72402487483031,0 32.80782664454345,34.72277941281838,0 32.80762069375785,34.7224148940191,0 32.80733682722767,34.72213358601844,0 32.80682649856601,34.72189554679329,0 32.80649038346355,34.72141253441097,0 32.80598832647576,34.72082070578934,0 32.80541392195039,34.72037108054366,0 32.80482691190857,34.72002950844411,0 32.8045309322336,34.71978254197847,0 32.80415172592429,34.71952047846126,0 32.80371364980181,34.71915987863211,0 32.80316204263094,34.71886759187812,0 32.80255839337941,34.71834411435931,0 32.80173026718974,34.71846834576941,0 32.80138169826783,34.71897792860722,0 32.80164082083908,34.71939674092435,0 32.80225055398424,34.71990059159859,0 32.80207720705032,34.72001287728155,0 32.80199905670432,34.72013048287851,0 32.80056551223498,34.7199965808033,0 32.80027907857809,34.72010837945909,0 32.80004832257193,34.7199009942231,0 32.79969511697611,34.72020907113647,0 32.79918150592047,34.7195729387921,0 32.79886788488098,34.71929639741857,0 32.79842658459863,34.71852788883748,0 32.79828992352031,34.71849290205133,0 32.79813695978073,34.71912125663675,0 32.79790353703923,34.7193168180925,0 32.7979720891154,34.71974956056678,0 32.79760452672968,34.72042613206676,0 32.79703252991489,34.72051703459535,0 32.79695917300443,34.71991227551182,0 32.79533989195499,34.71996381999104,0 32.79504597221932,34.71941258956171,0 32.79493619848077,34.71891578357869,0 32.79235926508613,34.71888002437454,0 32.79267905099907,34.71823274540399,0 32.79272936396548,34.71783000290023,0 32.79258136340249,34.71771141894125,0 32.79246223128738,34.71772564315477,0 32.79226529945704,34.71780341250862,0 32.79191444954947,34.71775765745024,0 32.79182550448124,34.7177081285034,0 32.79161355430186,34.71736321251961,0 32.79176313546657,34.71724592406931,0 32.79244750426117,34.7172587334173,0 32.7924732532317,34.71696890935631,0 32.792656638462,34.71665946005288,0 32.79272395107311,34.71654587332723,0 32.79271403564308,34.7162970566806,0 32.79252374961462,34.71597876785903,0 32.79223844705381,34.7157098325799,0 32.79182632968151,34.71370367405721,0 32.79188941534502,34.7132561450319,0 32.79204617357259,34.71297249426495,0 32.79221620564537,34.7128594877811,0 32.79250376460485,34.71276830118434,0 32.79266808602418,34.71265053089469,0 32.7927092603152,34.71249196320618,0 32.79246621598104,34.71189387572977,0 32.79248667752465,34.71183473005912,0 32.79271716526766,34.71169117766312,0 32.79360983048178,34.71166651437031,0 32.79363373995547,34.71151498100298,0 32.79357439685192,34.71136783468783,0 32.79318344816276,34.71101553125816,0 32.79314194910964,34.71076894963499,0 32.79332709850614,34.71053280221601,0 32.79383396275437,34.7102482567274,0 32.79487709604506,34.710022828151,0 32.79495262610966,34.70895933618582,0 32.79514365152581,34.70778260271548,0 32.7953337743801,34.70720766481,0 32.79527576549829,34.70684728876212,0 32.7950782466541,34.70631099883011,0 32.7947124221226,34.70561525890903,0 32.79461156812678,34.70522390157475,0 32.79419311668093,34.70422703712435,0 32.79284586264782,34.70399864213905,0 32.79168247091085,34.70373783959198,0 32.79181234258751,34.70361992481125,0 32.79212869872853,34.70350753774685,0 32.79081483501923,34.70350003019416,0 32.79038412437755,34.7034975655364,0 32.79034710064509,34.7033107001423,0 32.78997658140401,34.70328848992611,0 32.78996118374504,34.70361377954454,0 32.78982064499166,34.70427074660624,0 32.78947547768804,34.70469755560543,0 32.78925532783042,34.70532671641176,0 32.78872524171063,34.70530242967714,0 32.78810151537848,34.7053642178277,0 32.7876876985376,34.7056095094599,0 32.78728947412025,34.70550068097553,0 32.78668866738119,34.70561610237218,0 32.78583327179754,34.70551761193076,0 32.78496658011105,34.70536689956537,0 32.7843807142535,34.7054851214867,0 32.78387923505421,34.70540740083693,0 32.78309218860641,34.70527899162904,0 32.7832388218041,34.70471541309762,0 32.78300530313664,34.70458533459553,0 32.78282272657415,34.70429074259808,0 32.78267392576885,34.70416927470843,0 32.78261019777671,34.70400150930821,0 32.78269935886421,34.70358456731108,0 32.78257159985738,34.70354968060848,0 32.78177188456824,34.70383579825047,0 32.78166758120364,34.7037950587965,0 32.7810821868545,34.70356640905258,0 32.78068040514913,34.70349598223259,0 32.78029212953166,34.70364663774559,0 32.78010280272074,34.70387505498692,0 32.77990456778739,34.70394144100682,0 32.77958882646877,34.70393042407369,0 32.7793883053713,34.70459672050327,0 32.7792179259221,34.70472363270748,0 32.77915762745409,34.70479337741098,0 32.77917683145702,34.70515863265653,0 32.77915015559538,34.7051708686356,0 32.77904052570641,34.70515939701477,0 32.77902207104317,34.7051853988881,0 32.77902754338626,34.70536388894146,0 32.77898734436565,34.7054103850448,0 32.77884917638072,34.70544134413402,0 32.7787774151247,34.70548495406978,0 32.77867425907551,34.70575219304494,0 32.77855090859129,34.70555258374453,0 32.77822589582777,34.70543444284394,0 32.77775579147048,34.7051371859045,0 32.77716239448701,34.70513590385848,0 32.77626982030747,34.70488067955145,0 32.77541995436059,34.70495374342885,0 32.77495722059024,34.70505050803307,0 32.77488481531059,34.70494035716492,0 32.77443540921715,34.70453198258996,0 32.77422560678455,34.70458732378523,0 32.77433556749514,34.70404830179147,0 32.77426606838344,34.70400131287739,0 32.77382242575155,34.70397735041018,0 32.77392542158357,34.7037361992156,0 32.77389566765675,34.70371135449935,0 32.77178578362217,34.70379930539958,0 32.77178327563392,34.70367711372374,0 32.77165512255553,34.7034527647164,0 32.77264148755314,34.70294766403261,0 32.77411942290986,34.70215902763407,0 32.77447403904965,34.70216062287827,0 32.77448553251089,34.70207471154048,0 32.77452757657557,34.70176044050176,0 32.77506560184793,34.70158950647632,0 32.77540686776037,34.70158321804764,0 32.7756649096277,34.7011724725258,0 32.77599106146555,34.70092564334039,0 32.77608884112531,34.70057327974888,0 32.77584618007734,34.70046373772518,0 32.77559832003661,34.70005851246408,0 32.77570190266718,34.69955046239549,0 32.77598214256044,34.6990294403804,0 32.77614796639525,34.69885084831584,0 32.77661179276339,34.69835039357459,0 32.77665776548084,34.69789332054435,0 32.77705360555068,34.69793064686439,0 32.77774742352353,34.69801075140063,0 32.77836019735927,34.69807864925219,0 32.77917790688839,34.69818691649611,0 32.77909557860485,34.69800716732028,0 32.77891975371443,34.69789399969176,0 32.77877134548169,34.69760356322756,0 32.7787340390999,34.69747132909451,0 32.77855411135933,34.69689494181613,0 32.77844899020668,34.69655345936121,0 32.77845195164921,34.69610407076284,0 32.77848752482725,34.69577506793573,0 32.77866481080554,34.69566551337487,0 32.77856710836956,34.69528464384015,0 32.77848561478314,34.69497875015959,0 32.77852720071574,34.69482322914958,0 32.77872899306008,34.69461523510373,0 32.77891360456781,34.69448008987479,0 32.77946220525924,34.69450629079778,0 32.77953313366142,34.69424249815416,0 32.77963314532523,34.69390985230083,0 32.77987417168143,34.6939030860328,0 32.77992856716643,34.69397626743656,0 32.78016225659753,34.69435973869599,0 32.78019596019114,34.69467723538926,0 32.78025055248387,34.69472085235306,0 32.78054886881089,34.69471040907862,0 32.78086159013675,34.69468623362726,0 32.78116353238414,34.69448658290277,0 32.78122804720629,34.69410843785192,0 32.78125827985258,34.69386416549251,0 32.78121268181101,34.69354069978359,0 32.78120379809531,34.69344013463651,0 32.78126044247748,34.69317036106619,0 32.78169615417963,34.69291573386092,0 32.78173227781281,34.69289462390211,0 32.78199856623692,34.69267312492152,0 32.78213786228956,34.69253382263485,0 32.78216351321348,34.69225996271072,0 32.78227248857162,34.69201408368572,0 32.78233304982637,34.69187441780975,0 32.78245453221484,34.6915398976105,0 32.78254910047035,34.69130774904445,0 32.78266462515435,34.69115453906969,0 32.78246036835714,34.6907780157897,0 32.78228723044746,34.69049051848934,0 32.78251144071452,34.6901347914951,0 32.78299365005117,34.68936683350974,0 32.7831627621897,34.68913318992367,0 32.7830475133061,34.68899263286171,0 32.78289960449397,34.68889597779535,0 32.78264502232989,34.68880355047182,0 32.78260558897462,34.68871840913491,0 32.7825720347919,34.6885306240528,0 32.78254314812161,34.68820526462397,0 32.78251337013224,34.68801590416448,0 32.78243894813227,34.68772187161117,0 32.78244773123116,34.68760427402579,0 32.78245596587895,34.68749398549613,0 32.78259828313444,34.68666293873176,0 32.78238390816159,34.68568444967207,0 32.7822660535939,34.68547602701157,0 32.7823282496047,34.68541793273178,0 32.78240104230359,34.68508995918539,0 32.78273402657002,34.68481052518719,0 32.78273221037105,34.68441292567127,0 32.78296043947866,34.68394701040884,0 32.78308243820047,34.68352076158424,0 32.78359010549485,34.6828590751843,0 32.78399925316443,34.68240852630608,0 32.78468676182273,34.68192634134779,0 32.78415789742337,34.68177816659657,0 32.78400016476232,34.68159145985679,0 32.78382223828765,34.6811165026282,0 32.78333110561695,34.68060007541079,0 32.78349608223701,34.68035274558522,0 32.78426283446012,34.67990373173135,0 32.7842028444962,34.67891965023303,0 32.78420119372471,34.67891954544407,0 32.784174856508,34.67849901372615,0 32.78225490041844,34.67840686083528,0 32.78225544697955,34.67764815464405,0 32.7820962714711,34.67700913196511,0 32.78228656147046,34.675591020102,0 32.78201792687127,34.67548772873038,0 32.7817718199001,34.67531522857589,0 32.78174233825982,34.67531849772525,0 32.78120188186561,34.67537842703162,0 32.78089735689392,34.67536252074972,0 32.78037544456882,34.6748350062941,0 32.77999289356018,34.67459990168333,0 32.77974177925295,34.67451856706798,0 32.78004808882971,34.67409425903205,0 32.77873867695778,34.67407989528121,0 32.77916704638704,34.6732977661265,0 32.77880420129169,34.67342386095386,0 32.77827063295949,34.67308039724878,0 32.77759455709816,34.67264519419087,0 32.77707845720141,34.67228787080256,0 32.77733384560737,34.67183643659259,0 32.77745244105469,34.67175566650141,0 32.77765166286081,34.67083785398664,0 32.77795623470376,34.66985817992099,0 32.77775642345511,34.66981121679651,0 32.77778211692217,34.66936959512762,0 32.77734594422733,34.66935138460242,0 32.77716649509604,34.66866494158744,0 32.77687381662327,34.66878287357778,0 32.7763093320505,34.66882641705661,0 32.77631964388808,34.66875058228408,0 32.77660069573719,34.66839140557531,0 32.77684818924412,34.66815402994872,0 32.77702383416341,34.66786484176301,0 32.77705501803388,34.66759668746183,0 32.77725713792733,34.66718538754096,0 32.77728756483866,34.66712347122778,0 32.7771438749781,34.66701984642295,0 32.77765017446512,34.66683511749515,0 32.77780750470678,34.66685479055812,0 32.77795231674252,34.66677684692498,0 32.77783876874318,34.66657308607964,0 32.77761679170601,34.66639865250129,0 32.77741141902252,34.66619177048489,0 32.77720843633077,34.6661285317394,0 32.77757020513327,34.66597567649208,0 32.77750703392636,34.66558243868779,0 32.77755989932227,34.66552034417774,0 32.77761071073827,34.66526040722544,0 32.77805511628014,34.66394260281125,0 32.77822289963157,34.66386205028631,0 32.77821019731038,34.66379424252883,0 32.77797783524839,34.66370919358674,0 32.777762845678,34.66346703876063,0 32.77724265396251,34.66271945215926,0 32.77722424776467,34.66251340608927,0 32.77711432293151,34.66225546065049,0 32.77682973648014,34.6621295249529,0 32.77663108697607,34.66189828150886,0 32.77628835525317,34.66162845261169,0 32.77651343975455,34.66129883509343,0 32.77673012618005,34.66073611703898,0 32.77658437731563,34.66043735963407,0 32.776255005832,34.66012964890534,0 32.77554774696966,34.65940560583083,0 32.77515790061624,34.65880222728099,0 32.77492886932765,34.65871176707326,0 32.77473939502374,34.658559203805,0 32.77468091114922,34.6585121144058,0 32.77399821686613,34.65806160109184,0 32.77376607243276,34.65763856748652,0 32.77358048424622,34.65674311640188,0 32.7734362251345,34.65654624181686,0 32.77340937007072,34.65636319217798,0 32.77347686136346,34.65636513946617,0 32.77361177540563,34.65637378368316,0 32.77380508855477,34.65637766812825,0 32.77393634258543,34.65638830467139,0 32.77406618774481,34.65642806967744,0 32.77413665254499,34.65643742954308,0 32.77426894864443,34.6564741906461,0 32.77431017060706,34.65649246055329,0 32.77436107899516,34.65651679998418,0 32.774464221244,34.65654941241459,0 32.77454300419971,34.65658794298557,0 32.77464829118317,34.65666376429154,0 32.77467641964981,34.65668127787567,0 32.77468027945961,34.65668368113302,0 32.77468224561244,34.65668519473952,0 32.77473317617293,34.65672440571387,0 32.77473651406265,34.65672697567982,0 32.77473940803761,34.65672991172649,0 32.77478352920937,34.65677467581541,0 32.77478508499398,34.65677625447002,0 32.7747877258503,34.65677960202276,0 32.77480786333033,34.65680513116902,0 32.77484887208847,34.65685554805353,0 32.77491052581573,34.65691007590825,0 32.77496729608065,34.65696759573393,0 32.77505427703329,34.65705338027367,0 32.77512442240491,34.65711095985758,0 32.77522603036765,34.65719178788736,0 32.77527679469859,34.65723822906875,0 32.77532030204716,34.65727861065394,0 32.77540847397285,34.65736841952047,0 32.77548463331332,34.65743607225266,0 32.77555121169244,34.65748157966006,0 32.77567725133971,34.65754543691512,0 32.77576691273642,34.65759406250743,0 32.77594628911581,34.65768327512713,0 32.77607123360634,34.6577290445421,0 32.77621801756032,34.65778194312445,0 32.77624707601455,34.65780116184168,0 32.77629437674472,34.65781945755649,0 32.77643390710254,34.65786629636805,0 32.77653222638988,34.65789285741022,0 32.7766354233128,34.65791743053853,0 32.77670702574366,34.65793884915178,0 32.77682121331158,34.65795643958157,0 32.77691473556975,34.65797293195981,0 32.77703508229657,34.65797849333973,0 32.77711530766368,34.65798287064676,0 32.77724790742168,34.6579744227346,0 32.7773951696205,34.65795498811123,0 32.77747667861102,34.65794932507695,0 32.77763475290483,34.65795003175067,0 32.77773073305185,34.65796251551441,0 32.77783281531642,34.65797201381399,0 32.7779992550409,34.65799485929166,0 32.77817293808495,34.65802577421498,0 32.77835373841227,34.65808384618519,0 32.77847882389005,34.65810851613814,0 32.77881546550103,34.65813714337418,0 32.77926668609678,34.65830893960099,0 32.77938214364112,34.65836723880292,0 32.77958785985636,34.65847111296431,0 32.77993731812852,34.65863377104455,0 32.78034624338083,34.65876132810871,0 32.78081092783395,34.65895877003972,0 32.78117714505582,34.65917898600496,0 32.78144328713787,34.65930203709507,0 32.78178411753679,34.6593863974203,0 32.78181731422077,34.65939461428809,0 32.78238345839176,34.65946482879977,0 32.78275979261979,34.65956321633357,0 32.78306807931538,34.65968644984164,0 32.78327099157986,34.65981308498443,0 32.78354194030823,34.65991680787697,0 32.78424095728626,34.66008238778508,0 32.78446982568538,34.6601762504207,0 32.78499990425948,34.6604029817569,0 32.78542464510947,34.66062731232211,0 32.78595850611996,34.66100300695981,0 32.786306085987,34.66121151868377,0 32.78693488435845,34.66137677524869,0 32.78751420171121,34.6615940395497,0 32.78777555101607,34.66173833426925,0 32.78821352119991,34.66210005675984,0 32.78864005763775,34.66241723574694,0 32.78938048099383,34.66309752498545,0 32.78940307657723,34.66313533946327,0 32.78947551448478,34.66325656252535,0 32.78954944200622,34.66342131226906,0 32.7896748885526,34.66358435240708,0 32.78984512378126,34.66369729257944,0 32.79002247819464,34.66379478807024,0 32.79042929931028,34.66388941731928,0 32.79068191225819,34.66393114248087,0 32.79091593697405,34.66394957265994,0 32.79106419643443,34.66392699514947,0 32.79135414017743,34.66388283979054,0 32.79170121613739,34.66383381603633,0 32.79225566332719,34.66365720466282,0 32.79252888617109,34.66359521296241,0 32.79353099503681,34.66366790176371,0 32.79379339106833,34.66374841042804,0 32.79400136603164,34.66373124633094,0 32.79486297889077,34.6635813692376,0 32.79643706507292,34.66322369754388,0 32.79837252295957,34.66281033440356,0 32.79996843850216,34.66245572444546,0 32.80082622232254,34.66232989260772,0 32.80119118966372,34.66228326895667,0 32.80132582256802,34.6622531456301,0 32.8022612170227,34.66204385335977,0 32.80279814087648,34.66191059232655,0 32.80374450549221,34.66162452043854,0 32.8038084438935,34.6615941173807,0 32.80383671819285,34.66156278608746,0 32.80385151633779,34.66151847799034,0 32.80386973051874,34.66140559737046,0 32.80390647652344,34.6613589356572,0 32.80393500855052,34.66132930133294,0 32.80397922181852,34.66129679847486,0 32.80403551583171,34.6612679786186,0 32.80407853405866,34.66125090708018,0 32.80413338708539,34.66124931666365,0 32.80418586554207,34.66125815790022,0 32.80424508267437,34.66126813407494,0 32.80428995475897,34.6612657928592,0 32.80433067679786,34.66125874737298,0 32.80437140105293,34.66124657788446,0 32.80440800708627,34.6612305488654,0 32.80442604423946,34.66122052904161,0 32.80446279232169,34.66119232218826,0 32.80451977294707,34.66116556668828,0 32.80456636246417,34.66114871255,0 32.80460456951615,34.66114405005037,0 32.80465062035886,34.66116611446059,0 32.80469686928696,34.66120466807686,0 32.80473791172405,34.66125030435112,0 32.80474628460313,34.6612886999236,0 32.80473426666168,34.66138564979454,0 32.80470940609843,34.66140646833843,0 32.8046918726142,34.66147384004013,0 32.80465890837087,34.66163210992792,0 32.80465066234038,34.66173863860594,0 32.80465234016601,34.66177031647016,0 32.80466901853627,34.66179819430464,0 32.80469323714336,34.66181760673178,0 32.80479768220082,34.66185945015211,0 32.80500309378094,34.66190058508186,0 32.80504716022689,34.66189811519157,0 32.80512766235532,34.66188766596397,0 32.805361196227,34.66189192707408,0 32.8056938341179,34.66183427366016,0 32.80578856158829,34.6618178545522,0 32.8060632624559,34.6617453596719,0 32.80650263561687,34.66160634785747,0 32.80706409742906,34.66138185499466,0 32.80706424375951,34.66138179663025,0 32.80757224266706,34.66118021436812,0 32.80784559018016,34.66109123433093,0 32.80795472624622,34.66108669336434,0 32.80822683707625,34.66118802664646,0 32.80843188196663,34.66134917330525,0 32.80855734970772,34.66163018030979,0 32.80862888394044,34.66181579753869,0 32.80880766983517,34.66228735187909,0 32.80898772642378,34.66256358323393,0 32.80927682478634,34.66285029872865,0 32.80965678320803,34.66314741691837,0 32.80980783364856,34.66322318734442,0 32.80992886959704,34.66325375404527,0 32.8101361305847,34.66325107597179,0 32.81051112267589,34.66321484127115,0 32.81077680599851,34.66318488587766,0 32.81100419286834,34.66315586757773,0 32.81141015550089,34.66313205268085,0 32.81179088592242,34.66308639077075,0 32.81222754023755,34.66305318747776,0 32.81276140330673,34.66298533676277,0 32.81332534949188,34.66287080805449,0 32.8138598217673,34.66278965758153,0 32.81406162406194,34.66277726010474,0 32.81420542295579,34.66277609555856,0 32.81538982485576,34.66264563550141,0 32.8154090599691,34.66266024420414,0 32.81591722337419,34.66304619086271,0 32.81609795822644,34.66311772532413,0 32.81615999443993,34.66320509081276,0 32.81626924931003,34.66363562753265,0 32.81662776660909,34.66475588192451,0 32.81668168333835,34.6650827490113,0 32.81671501318807,34.66553746399646,0 32.81684620545861,34.66614502340764,0 32.81704869235082,34.66693797807811,0 32.81709343013187,34.6672516623373,0 32.81715590455819,34.66768970199851,0 32.81724303042076,34.66797587899903,0 32.8173149882719,34.66805784084235,0 32.81737357740352,34.66813914256875,0 32.81754195504011,34.66837278763727,0 32.81780142447861,34.668976679359,0 32.81787233300039,34.66911697197383,0 32.81808023852464,34.66934511501242,0 32.81840755589167,34.66960175006377,0 32.81883241712111,34.66987689678893,0 32.8190820810156,34.67012168098495,0 32.81945213227823,34.67056625130028,0 32.81970136806478,34.67088350677966,0 32.81979782223925,34.67108648945172,0 32.81982684195251,34.67123319966823,0 32.81987811985411,34.67132399540687,0 32.82007055365434,34.67147466007808,0 32.82043521526773,34.67182203133431,0 32.8207520263029,34.67217249891905,0 32.82089458178188,34.67233119318485,0 32.82097926892578,34.67250283584013,0 32.82108512367009,34.67280138941219,0 32.82116893114198,34.67312126287503,0 32.82119376071953,34.67326183384087,0 32.82123233555711,34.67348022314724,0 32.82127448360657,34.67379132986095,0 32.82127282993758,34.67406994898596,0 32.82127122415547,34.6743404918554,0 32.82129348365082,34.67470804765436,0 32.82143859636835,34.67496708903133,0 32.82155974846225,34.67514526893167,0 32.82170996445429,34.67536798891145,0 32.82180037613367,34.67578428508621,0 32.82195524436057,34.67604740481767,0 32.82202236311041,34.67626977761547,0 32.82255375133197,34.67651427496698,0 32.82279244225428,34.67665660082513,0 32.82310326413207,34.67700112886962,0 32.82343893487567,34.67727711243363,0 32.82380386703366,34.67756533070663,0 32.82401332766124,34.67769137995545,0 32.82414958161027,34.6777969346093,0 32.82457239400065,34.67821864684159,0 32.82475193297574,34.67844552311371,0 32.82516611496975,34.67867337052658,0 32.82569202190527,34.67902282024689,0 32.82620763299675,34.67946106353649,0 32.82625098927038,34.67957026952482,0 32.82626812247589,34.67998222254174,0 32.8262460776138,34.68040612732167,0 32.82619061817688,34.68069259979285,0 32.8260701372173,34.68122916191051,0 32.82599521825003,34.68149940158921,0 32.82594630919137,34.68150323694399,0 32.82589258136486,34.68149493876988,0 32.8258194189597,34.68146637020637,0 32.82522683996915,34.68081379060595,0 32.82519273923118,34.68079345854241,0 32.82517785998647,34.68082973955852,0 32.82515735408727,34.68099117674725,0 32.82507239321561,34.68130579273806,0 32.82501282694287,34.68145899205015,0 32.82498230617659,34.681660768388,0 32.82493723859037,34.68184229384632,0 32.82488651879913,34.68215301398553,0 32.82481192810628,34.68236672104295,0 32.82471806896579,34.68253189204067,0 32.82466365068486,34.68264069376233,0 32.82465330185293,34.68273756385474,0 32.82468203744088,34.68283863424225,0 32.82472553835537,34.68292361381675,0 32.82477380501525,34.68302880405253,0 32.82480239923929,34.68315410130671,0 32.82476269512134,34.68325488757292,0 32.82467453161772,34.68328278850356,0 32.82459631363667,34.68328246412197,0 32.8245231263138,34.68325793245124,0 32.82439699684981,34.68309184901385,0 32.82426631337134,34.68286921394381,0 32.82424317935197,34.68264702503057,0 32.82423711926949,34.68201706376575,0 32.8242280569104,34.68189588541307,0 32.82418811348364,34.6820370508812,0 32.82407872822388,34.68234752647618,0 32.8240385244795,34.68253310982054,0 32.82388537801594,34.68280302332954,0 32.82388745415045,34.68327952183042,0 32.82388478318349,34.68373177281295,0 32.82384324052824,34.6841434815156,0 32.8236996778018,34.68444573900613,0 32.82336089797933,34.68469065119357,0 32.8229005647317,34.68482199224731,0 32.82268977300795,34.6849180280386,0 32.82243946525649,34.68508254581697,0 32.8221999856739,34.68506943365188,0 32.82190596408324,34.68518531156877,0 32.82121971087303,34.6854893392944,0 32.82112145410279,34.68556969037536,0 32.82091981333351,34.68577075092648,0 32.82060059824726,34.6860116986985,0 32.82047719984924,34.68620904778706,0 32.82027009069395,34.68650699671466,0 32.81982291815714,34.68688873952095,0 32.81934176091703,34.68722995866174,0 32.81893501786458,34.68738977489168,0 32.81822788167034,34.68775537025536,0 32.81788056307031,34.68793493447979,0 32.8181739685329,34.68871478945605,0 32.8181613301853,34.68908974534966,0 32.81835585556192,34.68959723903958,0 32.81844408624778,34.68991249554261,0 32.81846969405479,34.69066605555359,0 32.81861787409005,34.69070084763811,0 32.81862356648494,34.69143997866479,0 32.81854828981574,34.69161620449962,0 32.81869722021758,34.69221511365295,0 32.81859007852898,34.69274426077384,0 32.81851332806527,34.6934080779362,0 32.81843895147076,34.69367399693299,0 32.81832892250959,34.69410580206608,0 32.81821049599368,34.69420264187139,0 32.81819972229758,34.69426557557829,0 32.81836759089889,34.6945954742886,0 32.81842492316778,34.69486193831804,0 32.81910553572634,34.69581515157675,0 32.81907539877402,34.69621866051035,0 32.81872323786585,34.69625142221551,0 32.81720384965028,34.69650227053263,0 32.81672450471564,34.69658140473324,0 32.81650898777944,34.69644469500517,0 32.81622892479025,34.69692497092511,0 32.81607620668603,34.69734379580897,0 32.81605028241783,34.69778696414437,0 32.81581391082143,34.69775264599487,0 32.8152296913575,34.69754709697718,0 32.81467056548274,34.69742391469499,0 32.8132284887203,34.69733704600711,0 32.81303114284843,34.6975149849976,0 32.81266347630905,34.69770653018902,0 32.8133407436957,34.69872213285295,0 32.81219663295187,34.69895819030801,0 32.81019838379354,34.69965070905494,0 32.81024115153341,34.69972952905653,0 32.81104696340232,34.70049781656502,0 32.81181381276374,34.70104668725226,0 32.81147748406352,34.70174359197254,0 32.81084901909833,34.70165762111989,0 32.81021348945091,34.70132615024956,0 32.81014385226744,34.70222767100436,0 32.81014142942274,34.70225904020591,0 32.81017260541478,34.70246725002918,0 32.8096036223797,34.70234839682407,0 32.80935860138307,34.70222441492974,0 32.80857170485209,34.70182623591261,0 32.80799380318482,34.70146916200766,0 32.80771514465705,34.70146424591964,0 32.80751751623787,34.70164456247204,0 32.80744834812884,34.70174238895618,0 32.80511226859312,34.7019667364761,0 32.80512975341815,34.70208755967428,0 32.80517353580218,34.70220697625214,0 32.80529068822718,34.70252650307561,0 32.80549779406516,34.70288014709608,0 32.80550414174964,34.7032671620299,0 32.80561227720377,34.7034080036026,0 32.80603236203225,34.7035141297028,0 32.80620160281998,34.70364442253832,0 32.8064367239693,34.70440856865017,0 32.80680085382614,34.70582302471018,0 32.80683911363421,34.7059833775315,0 32.80661167762529,34.70645582960637,0 32.80688168091435,34.70757830638654,0 32.80692466707331,34.70803567021233,0 32.80762049119703,34.70868830881322,0 32.80782345092016,34.70901133082251,0 32.80794909701357,34.70949963224952,0 32.80803862292498,34.71019117957279,0 32.80802585552111,34.71049711812547,0 32.80740914435242,34.71116596894884,0 32.80719244355866,34.711307275875,0 32.80656063561627,34.71159087184182,0 32.80633701697931,34.71179334534584,0 32.8061633308866,34.7120302240137,0 32.80612957082995,34.71220288003526,0 32.80632856542853,34.71281748085944,0 32.80646480253328,34.71335622580091,0 32.80648690984383,34.71401869620309,0 32.80603689270406,34.71451903041849,0 32.80604948938139,34.71459827964535,0 32.80648856728781,34.71517246867018,0 32.80677981537576,34.71603404062306,0 32.80685792944639,34.71645194909306,0 32.80710000749819,34.7167205311572,0 32.80729926688276,34.71694160614786,0 32.80745279159835,34.71712899368632,0 32.80776611311855,34.71745465345749,0 32.80846472731556,34.71802273396833,0 32.80857681799276,34.71817554581793,0 32.8071672198064,34.71893620194226,0 32.80746797091765,34.71936500648561,0 32.80965605087424,34.72154138776668,0 32.80899396489539,34.72175727887937,0 32.80873227161333,34.7217266898721,0 32.80815077456158,34.72144904211017,0 32.80783365801905,34.72170323936231,0</coordinates>
						</LinearRing>
					</outerBoundaryIs>
				</Polygon>
			</MultiGeometry>
		</Placemark>
	</Document>
</kml>