<?xml version='1.0' encoding='UTF-8'?>
<kml xmlns="http://www.opengis.net/kml/2.2">
	<Document>
		<name>PENTAGEIA</name>
		<Style id="PolyStyle70">
			<LabelStyle>
				<color>00000000</color>
				<scale>0.000000</scale>
			</LabelStyle>
			<LineStyle>
				<color>ff0055ff</color>
				<width>2.000000</width>
			</LineStyle>
			<PolyStyle>
				<color>00828282</color>
				<outline>1</outline>
			</PolyStyle>
		</Style>
		<Placemark id="ID_70386">
			<name>PENTAGEIA</name>
			<snippet />
			<description>&lt;html xmlns:fo="http://www.w3.org/1999/XSL/Format" xmlns:msxsl="urn:schemas-microsoft-com:xslt"&gt;

&lt;head&gt;

&lt;META http-equiv="Content-Type" content="text/html"&gt;

&lt;meta http-equiv="content-type" content="text/html; charset=UTF-8"&gt;

&lt;/head&gt;

&lt;body style="margin:0px 0px 0px 0px;overflow:auto;background:#FFFFFF;"&gt;

&lt;table style="font-family:Arial,Verdana,Times;font-size:12px;text-align:left;width:100%;border-collapse:collapse;padding:3px 3px 3px 3px"&gt;

&lt;tr style="text-align:center;font-weight:bold;background:#9CBCE2"&gt;

&lt;td&gt;1&lt;/td&gt;

&lt;/tr&gt;

&lt;tr&gt;

&lt;td&gt;

&lt;table style="font-family:Arial,Verdana,Times;font-size:12px;text-align:left;width:100%;border-spacing:0px; padding:3px 3px 3px 3px"&gt;

&lt;tr&gt;

&lt;td&gt;DIST_CODE&lt;/td&gt;

&lt;td&gt;1&lt;/td&gt;

&lt;/tr&gt;

&lt;tr bgcolor="#D4E4F3"&gt;

&lt;td&gt;VIL_CODE&lt;/td&gt;

&lt;td&gt;441&lt;/td&gt;

&lt;/tr&gt;

&lt;tr&gt;

&lt;td&gt;VIL_CCD&lt;/td&gt;

&lt;td&gt;1441&lt;/td&gt;

&lt;/tr&gt;

&lt;tr bgcolor="#D4E4F3"&gt;

&lt;td&gt;VIL_NM_E&lt;/td&gt;

&lt;td&gt;PENTAGEIA&lt;/td&gt;

&lt;/tr&gt;

&lt;tr&gt;

&lt;td&gt;VIL_NM_G&lt;/td&gt;

&lt;td&gt;ΠΕΝΤΑΓΕΙΑ&lt;/td&gt;

&lt;/tr&gt;

&lt;/table&gt;

&lt;/td&gt;

&lt;/tr&gt;

&lt;/table&gt;

&lt;/body&gt;&lt;script type="text/javascript"&gt;

				function changeImage(attElement, nameElement) {

				document.getElementById('imageAttachment').src = attElement;

				document.getElementById('imageName').innerHTML = nameElement;}

			&lt;/script&gt;&lt;/html&gt;

</description>
			<styleUrl>#PolyStyle70</styleUrl>
			<MultiGeometry>
				<Polygon>
					<extrude>0</extrude>
					<altitudeMode>clampToGround</altitudeMode>
					<outerBoundaryIs>
						<LinearRing>
							<coordinates> 32.90386432936355,35.16344408718242,0 32.90383190648689,35.16355675668729,0 32.90368351507885,35.16369648430044,0 32.90351668800997,35.1638879601259,0 32.90343556295453,35.16422597846751,0 32.90332232025747,35.16441813129593,0 32.90293463943249,35.16458354785457,0 32.902676126761,35.16474243899066,0 32.90235770944063,35.16625160634294,0 32.90197416357318,35.16659759571613,0 32.90195181266868,35.16667194065287,0 32.90189041894578,35.16673462497337,0 32.90157292858603,35.16705878677699,0 32.90136444411038,35.16732217833387,0 32.90122114738769,35.1676305549093,0 32.9010832100575,35.16795685826245,0 32.90093798635079,35.16810631923322,0 32.90077393982396,35.16820647501721,0 32.90056917600679,35.16827291986311,0 32.89988688823881,35.16844292129316,0 32.89909279955547,35.16862148737054,0 32.89881974429191,35.16871679023824,0 32.89865821047876,35.1688572388322,0 32.8984305638201,35.16913398963406,0 32.89811197344982,35.16960514649278,0 32.89751312647842,35.17051178006794,0 32.8973421053068,35.1709073462802,0 32.89717707153534,35.17119773810978,0 32.89679582036076,35.17165972315046,0 32.89651913014289,35.17192958498132,0 32.8961717278375,35.17216786715721,0 32.895581098181,35.17252840605963,0 32.89520309000878,35.17285010451054,0 32.89520306802852,35.17285012342098,0 32.89425194334252,35.17197276554703,0 32.89422646195156,35.17194614022447,0 32.89394947650086,35.17182231583797,0 32.89394944468503,35.17182230048626,0 32.89381534288564,35.17173504177723,0 32.89373845988628,35.17168501325288,0 32.89349073714096,35.17150333536122,0 32.89349071081774,35.17150331731005,0 32.89304760025276,35.17125013860978,0 32.89304757173182,35.17125012235937,0 32.8926556146735,35.17101451152844,0 32.89265558615273,35.17101449527792,0 32.89219818529408,35.17069754732587,0 32.8919905807838,35.1705271317061,0 32.89184119494651,35.17041391661765,0 32.89169370175581,35.17029183233702,0 32.89116760247163,35.16982296970899,0 32.89106741715459,35.16974603331649,0 32.89091659425901,35.16955929741739,0 32.89067816443884,35.16933921694498,0 32.89045960740501,35.16916575646717,0 32.89035212811395,35.16909031281356,0 32.89035210179222,35.16909029476171,0 32.89018078728711,35.16898159000318,0 32.89018075986648,35.16898157285167,0 32.88979062716192,35.16875046404985,0 32.8897905986425,35.16875044779864,0 32.88947347930501,35.1685466222182,0 32.88947345188468,35.16854660506655,0 32.88926013485407,35.16842723944339,0 32.88926010523714,35.16842722319107,0 32.88899585145947,35.16825059851456,0 32.88870356079055,35.16802540517745,0 32.88851352890528,35.16780890826784,0 32.88834282067198,35.16758005260969,0 32.88820830331506,35.16742490534158,0 32.88787883372218,35.16709397901088,0 32.8876644664219,35.16685835478859,0 32.88748602348357,35.16668461148956,0 32.88720400305762,35.16641001634091,0 32.8869774845878,35.16620134502691,0 32.88664608892857,35.16591128399069,0 32.88649469069711,35.1657915161706,0 32.88637181128571,35.16563698256858,0 32.88627450761771,35.16552820732457,0 32.88611683691822,35.16539138310318,0 32.88570023637373,35.1650710468293,0 32.88527184395563,35.16475259900078,0 32.88494824888886,35.16450733045965,0 32.88452972264169,35.16419911847348,0 32.884227894623,35.16399177994303,0 32.88422786720659,35.16399176188875,0 32.88383360553409,35.16375107403171,0 32.88383357701888,35.1637510568777,0 32.88363712516637,35.16362587979431,0 32.88363709774765,35.16362586354271,0 32.88333240556089,35.16342336956328,0 32.8832342847724,35.16334339178718,0 32.8830118038867,35.16314671363607,0 32.88293714601513,35.16308844693219,0 32.88293712079463,35.16308842887975,0 32.88281668118445,35.16303652322431,0 32.88281664717751,35.16303650876895,0 32.88254143206391,35.16294586215659,0 32.88254139915214,35.16294584950506,0 32.88225553132991,35.16273367916284,0 32.88199471176253,35.1625554586533,0 32.88175335602251,35.16237716283167,0 32.88151807657892,35.16222025465391,0 32.88151804916238,35.16222023750043,0 32.88133977325283,35.16212354706629,0 32.88133974363975,35.16212353081202,0 32.88116170993845,35.16205228967001,0 32.88116167592958,35.162052277017,0 32.88077241976559,35.1619315986837,0 32.88077238465787,35.1619315869309,0 32.88075041060965,35.16192266214301,0 32.8807503766009,35.16192264948989,0 32.88020161444382,35.16174727190206,0 32.88020157933493,35.16174726105049,0 32.87969538482677,35.16161537900489,0 32.87969534861769,35.16161536995487,0 32.87919780792835,35.16146679502448,0 32.87919777172208,35.16146678417156,0 32.87917653945029,35.16146044416076,0 32.87917650324403,35.16146043330782,0 32.87897411568169,35.16139987062294,0 32.87897408057443,35.16139985886963,0 32.87879114516738,35.16130862523043,0 32.87879111335848,35.16130860987473,0 32.87855694392181,35.16119875840575,0 32.87855691101537,35.16119874304891,0 32.87840118746423,35.1611315702115,0 32.8784011545565,35.16113155575601,0 32.87823195816369,35.16105524877771,0 32.87823192415839,35.16105523432108,0 32.87806141240812,35.16099557740641,0 32.87806137730254,35.16099556475143,0 32.87793824852803,35.16094996946403,0 32.87793821342113,35.16094995771044,0 32.8776163822212,35.16088847551148,0 32.87761634491236,35.16088846826257,0 32.87744025688435,35.1608427008743,0 32.87744021957827,35.16084269182252,0 32.87708397487889,35.16080023897312,0 32.87708393646843,35.16080023442714,0 32.87685427686911,35.16076811495675,0 32.87685423846004,35.16076810950929,0 32.8767007467879,35.16074434022745,0 32.8767007094765,35.16074433478111,0 32.87639010952249,35.16067659329654,0 32.8763900722152,35.16067658514586,0 32.87622807616611,35.16063411418533,0 32.8762280388616,35.1606341042318,0 32.87604150348309,35.16058346917725,0 32.87604146617999,35.16058345832224,0 32.87573841626926,35.16048293794736,0 32.87573838116153,35.16048292709453,0 32.87543406774068,35.16038946535464,0 32.8754340315354,35.16038945450056,0 32.87511775162353,35.16029509448273,0 32.8751177154197,35.16029508272718,0 32.87445075749344,35.16003106278858,0 32.87445072348924,35.16003104833087,0 32.87442256610212,35.16001531579786,0 32.87442253539356,35.16001529954076,0 32.87421284836517,35.15992672553909,0 32.87421281326342,35.15992671108021,0 32.87389138238598,35.15981652918722,0 32.87389134727876,35.15981651833383,0 32.8735551363774,35.15972710472413,0 32.87355509907503,35.15972709386835,0 32.87349463218359,35.15970792459524,0 32.87349459597887,35.15970791374059,0 32.872964136515,35.15960940495791,0 32.87296409920575,35.15960939860899,0 32.8727925378897,35.15958744609201,0 32.87279249947866,35.15958744244606,0 32.8725318643945,35.15958644557571,0 32.87253182707686,35.15958644463503,0 32.87240311397354,35.15963392398007,0 32.87216920196698,35.15970485131616,0 32.87202750905261,35.15976075460264,0 32.87185253439309,35.15982397437022,0 32.8715374407705,35.15991391532524,0 32.8713835877135,35.15995019853475,0 32.87122053355902,35.15998341781346,0 32.87105924654886,35.16002074825148,0 32.87085037945569,35.16008515910385,0 32.87061307697723,35.16014118772718,0 32.87061304403845,35.16014119400184,0 32.87035135947882,35.16017516577023,0 32.87035132434762,35.16017517023965,0 32.87017584918181,35.16018450835941,0 32.87017581186105,35.16018450922081,0 32.87002164128145,35.16017336842624,0 32.87002160286883,35.16017336568082,0 32.86978147482277,35.16014571416747,0 32.86978143641301,35.16014570961918,0 32.86952408307945,35.16012104345744,0 32.86952404466974,35.16012103890908,0 32.86934177155232,35.16007843955072,0 32.86934173424891,35.16007842959505,0 32.86911294435924,35.15999991377556,0 32.86911290925404,35.1599999020194,0 32.86904547269652,35.15997493418475,0 32.86904543869041,35.15997492152835,0 32.86886445368317,35.15988648918373,0 32.86886442187814,35.15988647292406,0 32.8687457652092,35.15982028327647,0 32.86874573560092,35.15982026611773,0 32.86844105996385,35.15959220958911,0 32.86814801677471,35.1593625505343,0 32.86806664687385,35.15929878139829,0 32.8678986357456,35.15918405697406,0 32.86789860723825,35.1591840380135,0 32.86775813284435,35.15909753390928,0 32.8677581043356,35.1590975158501,0 32.86745647356584,35.15892689217434,0 32.86745644176148,35.15892687591428,0 32.86738854083379,35.15890213920859,0 32.86738850573077,35.1589021265505,0 32.86729923272848,35.15886960531459,0 32.86729919762549,35.15886959265648,0 32.86718667819775,35.15882841673662,0 32.86718664309333,35.15882840497991,0 32.86694511428967,35.1587573924024,0 32.86694507698863,35.1587573815446,0 32.86678766398001,35.15871994544207,0 32.86678762667609,35.158719936387,0 32.86666521851117,35.15868802365036,0 32.86666518230486,35.15868801459648,0 32.86654055485724,35.15866148698061,0 32.86654051865095,35.15866147792667,0 32.86646408074933,35.1586315383118,0 32.86646404564807,35.15863152475205,0 32.8663657319195,35.15859790486832,0 32.86636569681383,35.15859789401275,0 32.86645748954563,35.15843010249608,0 32.86630903482373,35.15835584248976,0 32.86630900192221,35.15835582622817,0 32.86615287818928,35.15828243643553,0 32.86615284528634,35.15828242107533,0 32.86611794738128,35.15826342780022,0 32.86611791557743,35.15826341153982,0 32.86594526885234,35.15840212963419,0 32.86580792543852,35.15829193243003,0 32.86571854073415,35.15822598315276,0 32.86571851442137,35.15822596509555,0 32.86558862274329,35.15816076495543,0 32.865588589842,35.15816074869366,0 32.86543360071708,35.15808016963615,0 32.86543357001251,35.15808015247536,0 32.8651444686114,35.15789927716379,0 32.86514444010216,35.15789926000538,0 32.86489576431868,35.15772840672466,0 32.86480962687902,35.15766425148254,0 32.86447721975408,35.15739058892076,0 32.86443580640552,35.15735626851416,0 32.86419114177286,35.15719620716538,0 32.8641911110719,35.1571961882015,0 32.86396883635205,35.15757720107216,0 32.86396886596002,35.15757721733068,0 32.86397566306545,35.15758134888421,0 32.86396689207124,35.15759856486132,0 32.86395781326973,35.1575962894397,0 32.86395777596661,35.15759628038376,0 32.86394350185812,35.15761797376169,0 32.86394353585947,35.15761798822235,0 32.86396854983644,35.15762931360317,0 32.86389274393163,35.15775286860151,0 32.8638927834435,35.1577528695473,0 32.86390770072427,35.15775295751568,0 32.86389972671206,35.15776546454839,0 32.86388521563497,35.15776531934555,0 32.86388517831826,35.15776531840223,0 32.86387467076022,35.15778261084321,0 32.86387470256494,35.1577826262028,0 32.86388517848568,35.15778827985844,0 32.86387779211974,35.15779986451248,0 32.86386757609214,35.15779435266861,0 32.86386754428742,35.157794337309,0 32.86385744285474,35.15781095775759,0 32.86385747465946,35.15781097311718,0 32.86386732222697,35.15781628623908,0 32.86385907528397,35.15782922203044,0 32.86384951831825,35.15782406517729,0 32.86384948651354,35.1578240498177,0 32.86383617677707,35.15784595158868,0 32.86383620858178,35.15784596694827,0 32.863845278654,35.15785086094682,0 32.86383732553252,35.15786333464674,0 32.86382853619148,35.15785859239895,0 32.86382850438674,35.15785857703935,0 32.86380108143346,35.1579037029322,0 32.86373120255195,35.15787558349027,0 32.86373116744997,35.15787557083114,0 32.8639256578408,35.157549024281,0 32.86415435045089,35.15716394884613,0 32.86405202898015,35.15706757857271,0 32.86396921736884,35.1569962413698,0 32.8638853676022,35.15691501093789,0 32.8636729649309,35.156719115212,0 32.86357060704265,35.15661893425117,0 32.86339298851131,35.15646812214528,0 32.86336183283052,35.15636101375243,0 32.86308287498312,35.15612440931486,0 32.86302188153149,35.15606753840353,0 32.86295757434775,35.15601604960141,0 32.86282143587257,35.1558878700359,0 32.86265577780552,35.15575238613081,0 32.86240725382854,35.15555635435813,0 32.86235164017043,35.15551658524286,0 32.86218488084815,35.15538289593448,0 32.86214234897187,35.15535306696158,0 32.86188511927821,35.15514800925998,0 32.86176967231012,35.15504419900733,0 32.86176964929343,35.15504418005158,0 32.86174893762021,35.15503422745393,0 32.86174890801513,35.15503421029346,0 32.86159642264446,35.15489248421097,0 32.86136980734792,35.15469473289934,0 32.86119442259526,35.15453763279407,0 32.86096236211255,35.15433536564912,0 32.86080987788302,35.15419453456056,0 32.86067235708284,35.15409422868861,0 32.86064415682595,35.15407163591228,0 32.86045118832416,35.15392705572926,0 32.8603149622085,35.15381595572245,0 32.86020492010068,35.15372113719198,0 32.86009262256365,35.15363799815512,0 32.86001743736087,35.15357477966342,0 32.85994003743478,35.15351604755764,0 32.85973939776871,35.153373234932,0 32.85969140038435,35.15334248564135,0 32.85953559065732,35.15320973287353,0 32.85931220962608,35.15302277934189,0 32.85906699544689,35.15282495340127,0 32.85885552441483,35.1526623192404,0 32.85869539860256,35.15251875972487,0 32.85850364942262,35.15235801565229,0 32.85850362421397,35.15235799579195,0 32.85843730799022,35.15231840165951,0 32.85843727838839,35.15231838359686,0 32.85842290499807,35.15230774555416,0 32.85842292259741,35.15230772303962,0 32.85849913368737,35.15221251649209,0 32.8585190162557,35.15207437784439,0 32.85856300472391,35.1517687566302,0 32.85870221364245,35.15164493626917,0 32.85911303035604,35.15191633899557,0 32.8593551495786,35.152043102661,0 32.85943708550764,35.15207783511239,0 32.85965681912779,35.15217097956066,0 32.85997642397884,35.15226697843698,0 32.86087242799761,35.15249392059089,0 32.86195329082732,35.15276805258275,0 32.86294500071217,35.15301858982524,0 32.86404982370265,35.15329457988979,0 32.86554609945248,35.15367396683395,0 32.8674144710173,35.15416398839844,0 32.86670544027106,35.15350689254282,0 32.86730660724587,35.1533258220918,0 32.86738523494262,35.15328648435568,0 32.86722600645334,35.15317443306365,0 32.86671000787782,35.15267466061579,0 32.86634673667027,35.15237360598032,0 32.86650994717399,35.15230980962222,0 32.86670210745375,35.15210494714004,0 32.86688961399643,35.15190504507045,0 32.86708884839103,35.15195440746426,0 32.86738410683504,35.15200396120428,0 32.86742637619626,35.15199140131873,0 32.86748417083906,35.15197422788405,0 32.86759053783669,35.15192890075978,0 32.86800305713251,35.15168107248555,0 32.86830890630441,35.15152006648215,0 32.86861785131978,35.15129086277818,0 32.86880453308497,35.15101200908469,0 32.86900582250713,35.15055094649213,0 32.86905808729257,35.15020450656675,0 32.86914100526436,35.14997894205138,0 32.8692884292481,35.14915874873861,0 32.86937502821668,35.14875764476171,0 32.86935944736077,35.14861893506998,0 32.86939809426807,35.14827244504627,0 32.86935112371318,35.14814815553694,0 32.86917827659289,35.14788922158034,0 32.86913547454709,35.14774929259271,0 32.86914041347828,35.14759276710146,0 32.86919032598111,35.14742746270399,0 32.86918281732743,35.14730667259731,0 32.86924739861401,35.14719732882443,0 32.86924966794066,35.14703072993286,0 32.8692994163745,35.14689561516621,0 32.86941851910579,35.14677417283703,0 32.86957040634262,35.14613290262381,0 32.86976081382686,35.14541685509129,0 32.86976829117472,35.14529388436092,0 32.86990460664196,35.145011488799,0 32.87000314963097,35.14466521770445,0 32.87003464678973,35.1441308485833,0 32.86996867340604,35.14399642597512,0 32.8700387723247,35.14362321459625,0 32.87016446544662,35.14329046194375,0 32.87032464546989,35.14312444215468,0 32.87042723506456,35.14303424724535,0 32.87048124402553,35.14286560234968,0 32.87047478986503,35.14280072486741,0 32.87045324588776,35.14275703682918,0 32.87040983690859,35.14272892333518,0 32.87038272669904,35.14270757789029,0 32.87037743332429,35.14267960430379,0 32.87039408507019,35.14262152108872,0 32.87042285464538,35.14258808174905,0 32.87048292864483,35.14255587473546,0 32.87051031166343,35.14252690306373,0 32.87050790774135,35.14221827979211,0 32.87040353242213,35.14213627005832,0 32.87038051192152,35.14211382205818,0 32.87037537770724,35.14205677648946,0 32.87047980170937,35.14187937063486,0 32.87052601012365,35.14162654944899,0 32.87054418535597,35.14144052944723,0 32.87068768505019,35.14115183154696,0 32.87073555159496,35.14103438431168,0 32.87080189048417,35.14097707063436,0 32.87083630428393,35.14090675165921,0 32.87091780293428,35.14068900735818,0 32.87098130700332,35.14057739434894,0 32.87107022865977,35.14045703946897,0 32.87107041393293,35.1403395413469,0 32.87106457769017,35.1402612020218,0 32.87109520154004,35.14012629767037,0 32.87109784627404,35.14012275525228,0 32.8711936193152,35.1400336521091,0 32.87120213686201,35.13995781051608,0 32.87118442623496,35.13985008443861,0 32.87121441875043,35.13972772244733,0 32.87118769793344,35.1396199074666,0 32.87114010366012,35.13961078781521,0 32.8711170724592,35.13959057632429,0 32.8711200120502,35.13955033255252,0 32.87115568439759,35.13949902817491,0 32.87139091679302,35.13929750000877,0 32.87150886149963,35.13913579741138,0 32.87155881931241,35.13896042763992,0 32.87179587858426,35.1389232775056,0 32.87190931548712,35.13883982985976,0 32.87205067423758,35.1386278944421,0 32.87209041649571,35.13857884038291,0 32.87218436501934,35.13857471101159,0 32.87230669049585,35.13871055665563,0 32.87237211235317,35.13879874979035,0 32.87250922911746,35.13877441462311,0 32.87262821519275,35.13891162205674,0 32.87275922656737,35.13898030084388,0 32.87324497137676,35.13904262475955,0 32.87339717526579,35.13909014286833,0 32.87343347493204,35.1391741386965,0 32.87361445848303,35.1391859800698,0 32.87384965084004,35.13873844959813,0 32.8742348060811,35.13824785641517,0 32.87460277056611,35.1379159801082,0 32.87508138250688,35.13763115933358,0 32.87536221472059,35.13746403471023,0 32.87572177001301,35.13709100789654,0 32.87582529503823,35.13674296812603,0 32.87583743602615,35.13644066939558,0 32.87563829230375,35.13566537050262,0 32.87551732816448,35.13534531077337,0 32.87577652107121,35.13473004541127,0 32.87569377289662,35.1344734723323,0 32.8755904359009,35.13348255914144,0 32.87576463299474,35.13302823737197,0 32.87578526922144,35.13244953864722,0 32.8766026363115,35.13167216316641,0 32.87671112426928,35.13170422938441,0 32.87690538318771,35.13142850413352,0 32.87704218845438,35.13140884178337,0 32.87714431396396,35.13131994846133,0 32.8773550633934,35.13123720445743,0 32.87761125495422,35.13117766044672,0 32.8777416659455,35.13104279723792,0 32.87786929411601,35.13077258739434,0 32.87808714426742,35.13067259180899,0 32.87825613957443,35.13053210780166,0 32.87836556266556,35.13038852693784,0 32.8785006913438,35.13002620273241,0 32.87850551824947,35.12977858628343,0 32.87848092231813,35.12913349597552,0 32.87858378071809,35.12890638742282,0 32.87860657717025,35.1285753320457,0 32.87870938769392,35.12835686151161,0 32.87893455975897,35.12753990322707,0 32.87891036043641,35.12681994848339,0 32.87894966595316,35.12667899664248,0 32.87924637571749,35.12624814351221,0 32.87944722509457,35.12604730319917,0 32.87965584801342,35.12570251530465,0 32.87992022564115,35.12541839570596,0 32.8803371599418,35.1247864103325,0 32.88050393375656,35.12440115950071,0 32.88169251344048,35.12497843120956,0 32.88175794610736,35.12519750494079,0 32.88163108675605,35.12532662780278,0 32.88167632937115,35.1253872592653,0 32.88179570554992,35.12534737212971,0 32.8820266570071,35.12541730669074,0 32.88206604594124,35.12592135506893,0 32.88228239873394,35.12610065546051,0 32.88257272071822,35.12621111085701,0 32.88278191678962,35.12641917998364,0 32.88304059127589,35.12654967891377,0 32.88318771683062,35.12656460029659,0 32.88330308872274,35.12661972169656,0 32.88344328327642,35.12662022076993,0 32.88364569766556,35.1267850719535,0 32.88363451497566,35.12691172894599,0 32.88377446683489,35.12695829839279,0 32.88390070247316,35.12694722929646,0 32.88424357197756,35.12706362892104,0 32.88445010052137,35.12711331422609,0 32.88456521625192,35.12721738426328,0 32.88487696890402,35.12725304484456,0 32.88504814627603,35.12736019278634,0 32.88523037150097,35.12736659872114,0 32.88529311211407,35.12743304865304,0 32.88553122379316,35.12747564448052,0 32.8858104067006,35.12770699380705,0 32.88582409347784,35.12777038833284,0 32.88595013198097,35.12779675150858,0 32.88604432891216,35.12788058906617,0 32.88646423678512,35.12801165131378,0 32.88674727484352,35.12817678281696,0 32.88686657786711,35.12815128793297,0 32.88709159829484,35.12801674893764,0 32.88740323782231,35.12807543930752,0 32.88770034163835,35.12823197861066,0 32.88780850115061,35.12832738288365,0 32.88807151651182,35.12829951384683,0 32.88815537847361,35.12834876038744,0 32.88795457569378,35.12854385871978,0 32.88819401313277,35.12900541699528,0 32.88825710352928,35.12900563923719,0 32.88829484571437,35.12916126430312,0 32.88809775341758,35.12931606159986,0 32.8878342336462,35.12943894765633,0 32.88805632720763,35.12986589494229,0 32.88803126487795,35.12996658792192,0 32.88842351567295,35.13069935453888,0 32.88808685423408,35.13073272072885,0 32.88784783519129,35.13086145520354,0 32.88780496050609,35.1310167957169,0 32.88743583225901,35.13122569545357,0 32.88720091854744,35.1312392640723,0 32.88714012768384,35.13146940541815,0 32.88671896216837,35.1315744582697,0 32.88676280766089,35.13190287220158,0 32.88694359562905,35.13218569813129,0 32.88705920330528,35.13219762518187,0 32.88704054589301,35.13241352018823,0 32.88721202629569,35.13246595704063,0 32.88743626098647,35.13248402601211,0 32.8874282721449,35.13267116255088,0 32.88784452422821,35.13283676028754,0 32.88801496262681,35.13308787520013,0 32.88788435639277,35.13326306290362,0 32.88799140689458,35.13357154334377,0 32.88803402565745,35.13413607026083,0 32.88790508914885,35.13466255780456,0 32.88672256014536,35.13557117293102,0 32.8859508776534,35.13633725912787,0 32.88571896951617,35.13644297762565,0 32.88621575268402,35.13662902497953,0 32.88636913848568,35.13679081643046,0 32.8864386562057,35.13690336187259,0 32.8866377329966,35.13704228201844,0 32.8867525031058,35.13721545496795,0 32.88689221682062,35.13731097234032,0 32.88696111712184,35.13754157236671,0 32.88713540635565,35.13767433899135,0 32.88718966481527,35.13771567214825,0 32.8874434748248,35.13798564336116,0 32.88715555209904,35.13809027681992,0 32.88692427660592,35.1381224740263,0 32.88666732611106,35.13806874180494,0 32.88645027579893,35.13807127529219,0 32.88652594634523,35.13820360509616,0 32.88653513794994,35.13836706400429,0 32.88646815488432,35.13849393557549,0 32.88627603184334,35.13872436413389,0 32.88610388999128,35.13897632233004,0 32.885943660184,35.13925638562505,0 32.88582130580781,35.13959436010261,0 32.88569182960956,35.1397573286397,0 32.88559235362776,35.13994846457057,0 32.88538237065757,35.14013425786743,0 32.8853778147227,35.14023658934303,0 32.88548415163095,35.14026998152692,0 32.88565678958667,35.14030691021698,0 32.88576535383183,35.14029904146978,0 32.88628295344565,35.14046925323474,0 32.88658274412229,35.14059300074531,0 32.88663388831757,35.14061411176858,0 32.88698100322313,35.14072098946578,0 32.8870335151297,35.14059342180451,0 32.88705428554037,35.14054296420333,0 32.88728865383342,35.14030443047595,0 32.88738983650452,35.14017107490853,0 32.88757650771388,35.13983002436947,0 32.8875449332314,35.13971931044976,0 32.88780835966769,35.13930424681738,0 32.88799333085851,35.13890376155732,0 32.88803084037954,35.13864802384605,0 32.88803047654749,35.13833272582091,0 32.88822036695158,35.1377589266736,0 32.88824349805341,35.13767824864858,0 32.88834691322904,35.13731754320825,0 32.88881824622838,35.13700822244725,0 32.88902191345128,35.13693983098361,0 32.88916626192691,35.13681939989061,0 32.88961201798868,35.1367086677628,0 32.89023374092203,35.13646321505266,0 32.89031779166588,35.13647790657008,0 32.89043038009738,35.13639767771664,0 32.89034635908631,35.13637722541084,0 32.89062081428888,35.1361766254935,0 32.89091228833417,35.13607398537489,0 32.89129921167529,35.135816187144,0 32.89146134711685,35.13564398609834,0 32.89160677702137,35.13531335656437,0 32.8917512666632,35.13516412882448,0 32.8920820679997,35.13491189096993,0 32.89206833087514,35.13485713265823,0 32.89258539638278,35.13451052134864,0 32.89266236126805,35.13453958421457,0 32.89279269277625,35.13441622207927,0 32.89290407075388,35.13456922180106,0 32.89400559183223,35.13483054735112,0 32.89411762242013,35.13485712502975,0 32.89418156364422,35.13485458392394,0 32.8942455888551,35.13483545876354,0 32.89432652375633,35.13479980839006,0 32.8944674223357,35.13488045209356,0 32.89426370010332,35.13523905449746,0 32.89440847509449,35.1352202097081,0 32.89475072179184,35.13540381673116,0 32.893996986198,35.13650132623221,0 32.89317681786413,35.13769553021633,0 32.89300039585626,35.13795240446423,0 32.89272349620381,35.13885268588016,0 32.89259426040868,35.13910046909466,0 32.89177253593633,35.14059774698434,0 32.89151136568663,35.14107361563961,0 32.89121607729057,35.14183964823618,0 32.89114898507063,35.14217710156483,0 32.89124732870211,35.14316367173562,0 32.89121733134338,35.14369805245011,0 32.89126958093234,35.14412314114874,0 32.89164747012666,35.1452828869037,0 32.89182292598107,35.14557646208851,0 32.89196923400378,35.14571562635184,0 32.89266432059011,35.14608928453773,0 32.89286278972829,35.14614588547926,0 32.89300068757192,35.1463319826546,0 32.89297312720409,35.1463967405402,0 32.89319554585716,35.14656076818059,0 32.8932684594625,35.14667731026692,0 32.89343880056146,35.14690824708077,0 32.89359101919582,35.14695797709172,0 32.89375725647286,35.14692948260333,0 32.89394261373247,35.14705469698804,0 32.89402915440532,35.14711315764802,0 32.89474130894214,35.14707785015883,0 32.89475426593539,35.14713801130943,0 32.89485460062789,35.14760388352687,0 32.89507428428263,35.14805308297854,0 32.89515654178366,35.14839174911444,0 32.89572407729009,35.14847913074033,0 32.89566697088918,35.14947436379324,0 32.89491246809849,35.14996289536418,0 32.89907281832544,35.15146218786661,0 32.8992334616795,35.1509436702332,0 32.89938072694453,35.15030190922803,0 32.89954873680481,35.14990661297985,0 32.89972348386269,35.14897255928042,0 32.89982897561494,35.14867889023293,0 32.90034711610529,35.14864945572374,0 32.90158704574314,35.14865862236674,0 32.90278133250945,35.14859698839329,0 32.90295489982162,35.14907886834571,0 32.90298836231399,35.14958162604249,0 32.90309777997912,35.14969698170619,0 32.90309417227274,35.15001564001347,0 32.90320571916393,35.15050223560755,0 32.90312386540366,35.15086990563831,0 32.90280855048234,35.15113000956313,0 32.903507036392,35.15182885929674,0 32.90244427319495,35.15217843303817,0 32.9024143951983,35.15223188392384,0 32.90225230212553,35.15252185961483,0 32.90237400151739,35.15290024220037,0 32.9028538020611,35.1530771436511,0 32.9038396412537,35.15344061210889,0 32.90416588778125,35.15354647647889,0 32.90436929235737,35.15377936367389,0 32.90462282096603,35.15399615213991,0 32.9049066343706,35.154310196559,0 32.90511578052057,35.15438654544872,0 32.90500668112352,35.15468543333287,0 32.90479444906776,35.15519414567008,0 32.90469795731795,35.15537635903622,0 32.90459346896124,35.15572719265315,0 32.9045100507044,35.15593263271868,0 32.90447669916167,35.15617455417998,0 32.90438247440667,35.15632003772588,0 32.90409870799061,35.15652475221951,0 32.90372448233592,35.15681469227339,0 32.90328629809471,35.15667482933265,0 32.90321954110419,35.1566774874483,0 32.90315579238945,35.15676088040232,0 32.9028770146129,35.15749630583272,0 32.90276470517565,35.15783517073989,0 32.90253660799222,35.15823448433164,0 32.9022446890983,35.15878437329233,0 32.90297405656871,35.15929284844181,0 32.9035097024033,35.15916935303632,0 32.90456011360933,35.15892716838432,0 32.90471843387277,35.15886165276572,0 32.90522776450035,35.15865965191933,0 32.90557725739245,35.15828351651653,0 32.90578839728895,35.15806321187549,0 32.90619275823781,35.15777982041688,0 32.90652186842556,35.15739112070057,0 32.90691571337725,35.1569050595648,0 32.9070040162055,35.15659266368974,0 32.90710126511836,35.15646140999603,0 32.9073141280484,35.1563486207528,0 32.90735517260575,35.15619993664976,0 32.90733801517727,35.15602581907238,0 32.90795483783739,35.15614895597827,0 32.90787721233201,35.15625464433314,0 32.90783886078249,35.15645125742903,0 32.90782824368866,35.15661394742669,0 32.90787339555015,35.15713712526773,0 32.90735124121002,35.16011160373979,0 32.90728304442111,35.16021127386855,0 32.9071391777942,35.16038732051167,0 32.90691897355271,35.16059596710887,0 32.90646853450225,35.16095690549317,0 32.90621594638091,35.16124507555565,0 32.90615063666287,35.16188141680364,0 32.90610157043839,35.16243159276576,0 32.90608509840027,35.16271663080142,0 32.90586693705918,35.16289544684098,0 32.90579409482582,35.16306111683175,0 32.9055033254005,35.16320010129934,0 32.90517195510252,35.16354455431014,0 32.90492923209064,35.16401502906364,0 32.9048487424944,35.1641271482012,0 32.90484837637023,35.16412765991065,0 32.90464156997402,35.16398923647185,0 32.9044612116764,35.16385556320103,0 32.90393699656727,35.16343088698736,0 32.90386432936355,35.16344408718242,0</coordinates>
						</LinearRing>
					</outerBoundaryIs>
				</Polygon>
			</MultiGeometry>
		</Placemark>
	</Document>
</kml>