<?xml version='1.0' encoding='UTF-8'?>
<kml xmlns="http://www.opengis.net/kml/2.2">
	<Document>
		<name>PERGAMOS</name>
		<Style id="PolyStyle70">
			<LabelStyle>
				<color>00000000</color>
				<scale>0.000000</scale>
			</LabelStyle>
			<LineStyle>
				<color>ff0055ff</color>
				<width>2.000000</width>
			</LineStyle>
			<PolyStyle>
				<color>00828282</color>
				<outline>1</outline>
			</PolyStyle>
		</Style>
		<Placemark id="ID_70314">
			<name>PERGAMOS</name>
			<snippet />
			<description>&lt;html xmlns:fo="http://www.w3.org/1999/XSL/Format" xmlns:msxsl="urn:schemas-microsoft-com:xslt"&gt;

&lt;head&gt;

&lt;META http-equiv="Content-Type" content="text/html"&gt;

&lt;meta http-equiv="content-type" content="text/html; charset=UTF-8"&gt;

&lt;/head&gt;

&lt;body style="margin:0px 0px 0px 0px;overflow:auto;background:#FFFFFF;"&gt;

&lt;table style="font-family:Arial,Verdana,Times;font-size:12px;text-align:left;width:100%;border-collapse:collapse;padding:3px 3px 3px 3px"&gt;

&lt;tr style="text-align:center;font-weight:bold;background:#9CBCE2"&gt;

&lt;td&gt;4&lt;/td&gt;

&lt;/tr&gt;

&lt;tr&gt;

&lt;td&gt;

&lt;table style="font-family:Arial,Verdana,Times;font-size:12px;text-align:left;width:100%;border-spacing:0px; padding:3px 3px 3px 3px"&gt;

&lt;tr&gt;

&lt;td&gt;DIST_CODE&lt;/td&gt;

&lt;td&gt;4&lt;/td&gt;

&lt;/tr&gt;

&lt;tr bgcolor="#D4E4F3"&gt;

&lt;td&gt;VIL_CODE&lt;/td&gt;

&lt;td&gt;108&lt;/td&gt;

&lt;/tr&gt;

&lt;tr&gt;

&lt;td&gt;VIL_CCD&lt;/td&gt;

&lt;td&gt;4108&lt;/td&gt;

&lt;/tr&gt;

&lt;tr bgcolor="#D4E4F3"&gt;

&lt;td&gt;VIL_NM_E&lt;/td&gt;

&lt;td&gt;PERGAMOS&lt;/td&gt;

&lt;/tr&gt;

&lt;tr&gt;

&lt;td&gt;VIL_NM_G&lt;/td&gt;

&lt;td&gt;ΠΕΡΓΑΜΟΣ&lt;/td&gt;

&lt;/tr&gt;

&lt;/table&gt;

&lt;/td&gt;

&lt;/tr&gt;

&lt;/table&gt;

&lt;/body&gt;&lt;script type="text/javascript"&gt;

				function changeImage(attElement, nameElement) {

				document.getElementById('imageAttachment').src = attElement;

				document.getElementById('imageName').innerHTML = nameElement;}

			&lt;/script&gt;&lt;/html&gt;

</description>
			<styleUrl>#PolyStyle70</styleUrl>
			<MultiGeometry>
				<Polygon>
					<extrude>0</extrude>
					<altitudeMode>clampToGround</altitudeMode>
					<outerBoundaryIs>
						<LinearRing>
							<coordinates> 33.65367929246396,35.0497306969569,0 33.65358609809033,35.04974987338756,0 33.65348753250305,35.04969994937273,0 33.6533639448017,35.04958961386591,0 33.65320314405444,35.04942902360471,0 33.65330858214728,35.04910044608911,0 33.65308660664925,35.04866273304195,0 33.65282435529895,35.04808895709839,0 33.65078476483318,35.04413541286347,0 33.65085560259204,35.0441196576646,0 33.65133499436408,35.04410806015581,0 33.65203726596506,35.0441046431165,0 33.65231632823871,35.04410328454891,0 33.65329837446338,35.04410292665452,0 33.65369933281819,35.04394691937446,0 33.65502743024025,35.0427628172955,0 33.65535940308708,35.04246102013462,0 33.65588901572115,35.04201969041719,0 33.65636739649359,35.04160555951693,0 33.6567904264021,35.04128788067975,0 33.65704608785393,35.04109418602324,0 33.65768560825221,35.04065610040686,0 33.65923426571414,35.04016307350957,0 33.65988660056167,35.03986721547964,0 33.66068801538074,35.0395013110135,0 33.66106044613609,35.03929158690307,0 33.66175036420481,35.03901859179727,0 33.66173079055693,35.03891100449762,0 33.66179439645307,35.03867988525063,0 33.66234433116579,35.03844611212605,0 33.66237400306597,35.03864595313595,0 33.66302407739944,35.03807316383317,0 33.66223822708707,35.03804668528823,0 33.66185453062459,35.03801800954209,0 33.66185353819314,35.03789493666226,0 33.66169405170693,35.03783426692541,0 33.66166382371281,35.03756519748093,0 33.66203785634449,35.03755546466167,0 33.66204875889452,35.03774771563365,0 33.66226386319681,35.037746541748,0 33.66232171647932,35.03796161319634,0 33.66304203690977,35.0379807567561,0 33.6630659312275,35.03746523354134,0 33.66304548634515,35.0372499580242,0 33.66311955946616,35.03715724427446,0 33.66345636659975,35.03717078821869,0 33.66350088946143,35.0368936179151,0 33.66295845708245,35.0368965828909,0 33.66269948756663,35.03609798537754,0 33.66256656982247,35.03585255460099,0 33.66222734798131,35.03553901670465,0 33.66192714943244,35.03542526895603,0 33.66194740475612,35.03561746808342,0 33.66108948665691,35.03592984256331,0 33.66096790834191,35.03593050490583,0 33.66085623973483,35.03600034534119,0 33.66077052161008,35.03580850163868,0 33.6607061089212,35.03593962330618,0 33.66045378666383,35.03596407468808,0 33.6603209376899,35.03572633269667,0 33.66020889758246,35.03575001916604,0 33.66011636624989,35.03587360185535,0 33.65978953819415,35.03581495578065,0 33.65965297250069,35.03543792874721,0 33.65959774980609,35.03514392021321,0 33.65961741432136,35.03500511184024,0 33.65981282681571,35.03493240412982,0 33.65988730006886,35.03498769227851,0 33.65994115350984,35.03495423680019,0 33.659880226051,35.0349100091397,0 33.65994743378039,35.03484321478073,0 33.66004890134018,35.03489843172684,0 33.66023060830111,35.03477581153654,0 33.66017533200714,35.03447070186332,0 33.66159843969547,35.03412047649115,0 33.66164700011183,35.03412949525103,0 33.66173280732414,35.03414543104663,0 33.66212695856503,35.03407523853269,0 33.66233009458254,35.03403996854829,0 33.66241443160295,35.03403695179154,0 33.66256198992414,35.03402404212788,0 33.66282215191838,35.0340108074892,0 33.66286680437362,35.03399797638519,0 33.66319284158468,35.03390429237873,0 33.66378599786298,35.03374718143905,0 33.6642044348017,35.03366272526511,0 33.66459201407164,35.03356170664059,0 33.66479711937403,35.03349451301361,0 33.66500580541828,35.03337735722811,0 33.6651741726609,35.03329916888708,0 33.66548991744835,35.03322944664493,0 33.66588698902851,35.03308735172738,0 33.6672515703106,35.03296937797503,0 33.67105082564778,35.03219349973538,0 33.67415699809752,35.03153183214033,0 33.68283944376008,35.02968366914409,0 33.68298271090886,35.02959665011306,0 33.68261714619915,35.02957190031322,0 33.68244200294652,35.02962311693846,0 33.68221358675249,35.02969346851486,0 33.68207624365722,35.02970051974942,0 33.68217489930033,35.02963089707592,0 33.68222033212029,35.02958668931197,0 33.68226555729573,35.02951736784516,0 33.68241053232595,35.02951027347885,0 33.68245521277387,35.02945639060719,0 33.68241916525761,35.02940451034485,0 33.68233964233858,35.02935938536787,0 33.68233527963034,35.0293105818712,0 33.68245028181457,35.02933923161385,0 33.68263282588017,35.02940005362914,0 33.68273988734985,35.02942549280417,0 33.68290633221529,35.0294538526663,0 33.68307261579883,35.02946268163667,0 33.68355834715442,35.02933950565689,0 33.6835772385883,35.02923197830555,0 33.68426429557893,35.02904907231805,0 33.6843064684951,35.02888607562267,0 33.68519550728523,35.02879057617918,0 33.68532629241017,35.02854251465862,0 33.68557757484512,35.02848933046271,0 33.68559088584379,35.02840873125016,0 33.68507227540427,35.02826786768393,0 33.68405057634313,35.02817010088646,0 33.6836739643024,35.02828725748086,0 33.68339346989539,35.02819105789679,0 33.68284114712824,35.02819991897776,0 33.68256884038039,35.02824746483113,0 33.68255547861976,35.02832231217201,0 33.68153860333654,35.02880541902943,0 33.68137673472443,35.02867979105483,0 33.68216890879656,35.0280829147248,0 33.6821748019356,35.02795059185353,0 33.68156711820102,35.02802877867749,0 33.68151084763478,35.02798883359569,0 33.68077255583736,35.02833807943358,0 33.68064464910211,35.02809147386554,0 33.68115368241863,35.02792181770519,0 33.68130027627627,35.02789223643053,0 33.68216637624248,35.02777808835649,0 33.6822078024897,35.02771458697067,0 33.68269709813596,35.0276945796994,0 33.6827256884616,35.02776919103952,0 33.68422791171443,35.02763419306197,0 33.68508758825246,35.02758908072284,0 33.68543776287242,35.02765612361121,0 33.68583803501756,35.02786092301077,0 33.686959208293,35.02814791801438,0 33.6869530341343,35.02824573159945,0 33.68711428349048,35.02829658434767,0 33.68753399838501,35.02831721352791,0 33.68740766049347,35.02826041263815,0 33.68742072889864,35.0281510562923,0 33.68788933915954,35.02816565541007,0 33.68783595636315,35.02847079847175,0 33.6884443120003,35.02847310045249,0 33.68875201004327,35.0284771062399,0 33.68916473395932,35.02849776944991,0 33.68918532439453,35.028451638674,0 33.6892554857329,35.02847999848807,0 33.68929589283256,35.02829571452546,0 33.68925292684088,35.02817517349368,0 33.68931464832123,35.02803103044689,0 33.68943385008547,35.02807061526504,0 33.68949576326173,35.02794947750574,0 33.68894807184083,35.02767650696786,0 33.68843808995145,35.02735396195035,0 33.68846067242659,35.02731615975448,0 33.68806187242237,35.02709238165293,0 33.68770318355341,35.02710069407238,0 33.68676193407293,35.02681719562262,0 33.686678445822,35.02687417785963,0 33.68651779082473,35.02683113449056,0 33.68643498473979,35.02696973914013,0 33.68528390192473,35.02715205345214,0 33.6852277475932,35.02682586837899,0 33.68541814710601,35.02677456158436,0 33.68544156942242,35.02683721823679,0 33.68643278024425,35.02670603750094,0 33.68653717184126,35.02641033971362,0 33.6867432032306,35.02640289476319,0 33.68678957706403,35.02647170043087,0 33.68714136583879,35.02655133450191,0 33.68724064396205,35.02655705056932,0 33.68736892910833,35.02638051548737,0 33.68779836016903,35.02661667974341,0 33.68864185920683,35.02707653428411,0 33.68869492022968,35.02703228081725,0 33.6891317808286,35.02724328327086,0 33.68918473628756,35.02718647186478,0 33.69043400255462,35.02778842307208,0 33.69114264235912,35.02763997467396,0 33.69154961527138,35.02792648489875,0 33.69212107516667,35.02780392822814,0 33.69247711885318,35.02748167328203,0 33.69512823698182,35.02686374251425,0 33.69523557321214,35.0269196373587,0 33.69533394837284,35.02681861164516,0 33.69574771345248,35.02700460678441,0 33.69581555680005,35.02690375573172,0 33.69622259529327,35.02719652902496,0 33.69634429484609,35.02714559925717,0 33.69667474192682,35.02740741649151,0 33.69705425035154,35.02715408154937,0 33.69676927979484,35.02685433107216,0 33.69829937565124,35.02652388988938,0 33.70344738886686,35.0254837795776,0 33.70353052877633,35.0254685056206,0 33.70375650994988,35.02541381885006,0 33.70443184282765,35.02583686523629,0 33.7044773153226,35.02579892812224,0 33.70413787137668,35.02538021264062,0 33.70348366749668,35.0247498397359,0 33.70366657884028,35.0247173843697,0 33.70374161295344,35.02456625575039,0 33.70400902132061,35.0245960996236,0 33.70426626620643,35.02433089402898,0 33.70457426014916,35.02464305065463,0 33.70480269635926,35.02457893526395,0 33.7050402755215,35.02469057465647,0 33.70520711375148,35.02456402748098,0 33.70544226515958,35.02439313067648,0 33.70522758483376,35.02428135899346,0 33.70478161206082,35.02390093737215,0 33.70513124985298,35.02372937621243,0 33.70554685493467,35.02412880969018,0 33.70640012543415,35.0233061670062,0 33.7070716557652,35.02375447464874,0 33.70792499352294,35.02433106635619,0 33.70820940103493,35.02451841622362,0 33.70942904466116,35.02534874846585,0 33.70944450580936,35.025383693713,0 33.70910264951935,35.02548638452244,0 33.70927935600656,35.02574967039746,0 33.70961328664238,35.02596924183127,0 33.70976679742331,35.02585003075785,0 33.70972981566987,35.02582003842094,0 33.70979595139226,35.02568245846271,0 33.70973981529779,35.02556069661172,0 33.7104460940492,35.02601849183893,0 33.71040510988256,35.02605649143184,0 33.71049283350784,35.02611513495551,0 33.71047015526231,35.0261467338132,0 33.71095289728731,35.02641074267122,0 33.71100030629538,35.02640794729778,0 33.71153596803808,35.02677485405066,0 33.71211622360828,35.02716666920345,0 33.71241330423224,35.02737008682802,0 33.7125410418769,35.02745492567281,0 33.71260818951518,35.02761060517301,0 33.71307396341243,35.02803329556725,0 33.71329089474685,35.02799300173293,0 33.71348012207135,35.02811020343431,0 33.71357718197669,35.028010198405,0 33.71405067684002,35.02826417956956,0 33.71385943193469,35.0286189878864,0 33.71429742248834,35.02883667561774,0 33.71464780497931,35.029009566173,0 33.71535476014912,35.0293628596393,0 33.71529462047354,35.02948530421323,0 33.71612030946012,35.02959119639868,0 33.71608199580311,35.03028620130877,0 33.7170543719127,35.030717214176,0 33.71777176650484,35.03103644706722,0 33.7179914988722,35.03114087490905,0 33.718314323556,35.03131014179911,0 33.71839029019772,35.0312407080087,0 33.71893112107246,35.03145267606128,0 33.72052215428411,35.03204399255753,0 33.72163369527372,35.0323377332329,0 33.72210293814004,35.03240552659727,0 33.72326034298077,35.03282243036926,0 33.72376063996469,35.03304038634301,0 33.72470018065633,35.03337850973502,0 33.72509422478623,35.03405390436856,0 33.72536352068807,35.03405229481662,0 33.72594703496735,35.0340534203237,0 33.72623900272194,35.03542464292969,0 33.72604027238884,35.0354496588818,0 33.72608596126682,35.03550995040928,0 33.72609286418245,35.03552589359015,0 33.72595093839484,35.03565803952164,0 33.72617850954403,35.03569691706011,0 33.72623220450938,35.03582459959306,0 33.7265703174982,35.03662860347438,0 33.72654008191655,35.03669996970301,0 33.72651154358802,35.03712789613226,0 33.72677873418857,35.03714396968544,0 33.72703557039134,35.03777905651688,0 33.72704764873418,35.03816381054556,0 33.726192723369,35.03813963589148,0 33.72518899225729,35.03857224271628,0 33.72504964587689,35.03843288925317,0 33.72438652758748,35.03906394060133,0 33.7242562715025,35.03897858696777,0 33.7241467832905,35.03906539334868,0 33.72404249887835,35.03899694432278,0 33.72388528001571,35.03911897616308,0 33.72388195429244,35.03914178062956,0 33.72416481820903,35.03928519424203,0 33.72439090644706,35.03943638540438,0 33.72522673125879,35.04017611236313,0 33.72554249911744,35.04051646969947,0 33.72569435444181,35.04077372526631,0 33.7257494890674,35.04090030228035,0 33.72592081899679,35.04125079152809,0 33.72604727081099,35.04145359647326,0 33.72641048763456,35.04196663923352,0 33.72679433118766,35.04255225402493,0 33.72722692216949,35.04306072404856,0 33.72724954914237,35.04307772577348,0 33.72756480733376,35.04331461290497,0 33.72767875980484,35.04337394268111,0 33.72792222058177,35.04351575198882,0 33.72809029175698,35.04361364831521,0 33.72840154685735,35.04379677181881,0 33.72860240662453,35.04395508226575,0 33.72909709898551,35.0443414595757,0 33.72928802091054,35.04456421712151,0 33.72952343659799,35.04487728722577,0 33.72983446193592,35.04524057942104,0 33.73017283248467,35.0456147122524,0 33.73046567713437,35.04592858586545,0 33.73072724369378,35.04629789640156,0 33.73101922515988,35.04676952260389,0 33.73111124761861,35.04686054719769,0 33.73142287141141,35.0470966553738,0 33.7315348511422,35.04719014181251,0 33.73158990205409,35.04735781650294,0 33.73161454094563,35.04746880821385,0 33.73161817430194,35.04777609013335,0 33.73180156024203,35.04816671890573,0 33.73208004726968,35.04867321579585,0 33.73222931707266,35.04891835535238,0 33.73301373177624,35.05007794708707,0 33.73317777359521,35.05031555781577,0 33.73335912475226,35.05057823693419,0 33.7335201721563,35.05081625917933,0 33.73385749849912,35.05146152617992,0 33.73415440753896,35.05201224335469,0 33.73441835439968,35.0523424058917,0 33.73462136028962,35.0525333964597,0 33.73473565178245,35.0526846226619,0 33.73483018063897,35.05281683906368,0 33.73495326638838,35.05307328927082,0 33.73508362785558,35.05326609464592,0 33.73541959101966,35.05360590598326,0 33.73555740163588,35.05371788448321,0 33.73573723637377,35.0538206670205,0 33.73628739489749,35.0541192502357,0 33.73639297467037,35.05418620042857,0 33.73666371188128,35.05435571430316,0 33.73678207414704,35.05441160393704,0 33.73695890457127,35.05447137932696,0 33.73709814564747,35.05451988828546,0 33.73718880830674,35.05458448473347,0 33.73733666179194,35.05474621028406,0 33.73760283514555,35.05511480555204,0 33.73767481510293,35.05518497857258,0 33.737713546316,35.05529436969837,0 33.73776989570284,35.05559339622517,0 33.73778255158146,35.05574393590044,0 33.73779141328562,35.05596110626134,0 33.73774252599642,35.05616561531594,0 33.73763379262843,35.05659641096532,0 33.73760006705758,35.05678613052026,0 33.73752548819673,35.05715487912539,0 33.73741196310957,35.05752386352942,0 33.73713313372287,35.05791787279232,0 33.7368828629312,35.05823964959981,0 33.73659278235679,35.0584655907752,0 33.73624406480776,35.05866786773278,0 33.73603223158744,35.05893336441794,0 33.73589526081971,35.05912361614273,0 33.73571683130994,35.05929636622631,0 33.73535954324142,35.05959451168533,0 33.73441449027622,35.06018035620674,0 33.73402035207864,35.06038400779917,0 33.73366982931896,35.06063475083717,0 33.73349975487407,35.06066687298452,0 33.73330293512816,35.06088048814848,0 33.73305385267732,35.06117612026826,0 33.7328637523374,35.06140058745011,0 33.73256747059919,35.06160390897382,0 33.73223767816969,35.06176385690691,0 33.73193423542094,35.06190730538704,0 33.73151316072828,35.06223120587668,0 33.73088833745599,35.06273607789466,0 33.7306842990082,35.06288437045939,0 33.73059224006725,35.0629611801809,0 33.73052214000553,35.0632720693668,0 33.73039783295422,35.06344711502357,0 33.72998357155797,35.06401231547552,0 33.72978197606,35.06347260955513,0 33.72986117606303,35.06343945208806,0 33.72986649064052,35.06329235685113,0 33.72980020064247,35.06328730859978,0 33.72975972822434,35.06320585069496,0 33.7297724441966,35.06314585946002,0 33.72972983923036,35.06282475454408,0 33.72965015512946,35.06280344722573,0 33.72949329419912,35.06229783811718,0 33.72937511304297,35.06167216758151,0 33.72951294476203,35.06078351170273,0 33.72965166046674,35.0607391030732,0 33.73036975246912,35.06060974812024,0 33.73051895424923,35.06064003787378,0 33.73054901675597,35.06070706384552,0 33.7308625405697,35.06082249878557,0 33.7308628958195,35.06092004999309,0 33.73092257945273,35.06093216655525,0 33.73093422165658,35.06103115777812,0 33.73098236238484,35.06103523943481,0 33.73098756434189,35.06107252128233,0 33.7310458775241,35.06108694729996,0 33.73105381893622,35.06139967225903,0 33.73147240265402,35.06147716726982,0 33.73149409278391,35.06138711613479,0 33.73163331548457,35.0613269232888,0 33.73172754914669,35.06100270673491,0 33.73194777049955,35.06101442572622,0 33.73205723252853,35.06084022612106,0 33.73209384250866,35.06081617051338,0 33.73249767634481,35.05997638183702,0 33.73254223906409,35.05988371174206,0 33.73262559436346,35.05971036784815,0 33.73148370089282,35.05941926563768,0 33.73166925974292,35.05918728688326,0 33.7312655385368,35.05888297339595,0 33.73081182541431,35.05917631001643,0 33.73057319917159,35.05915835666764,0 33.7305364579622,35.05930474531127,0 33.73037243232475,35.05929887885086,0 33.73031401741524,35.05963430578554,0 33.73053787852675,35.0596949682724,0 33.73047254006512,35.06017672959378,0 33.73052478893602,35.06019495120105,0 33.73041583965083,35.06048644205703,0 33.72965546351794,35.0605938485046,0 33.72966649263298,35.06017254722704,0 33.72948715985374,35.05957209494346,0 33.72915633663689,35.0590336594603,0 33.72922307984412,35.05897368419341,0 33.72865675005102,35.05872176843958,0 33.72864046875919,35.05863676019497,0 33.72855245921669,35.05863303334137,0 33.728528698424,35.05828849637084,0 33.72847162394354,35.05827181721016,0 33.72843513267774,35.05765927202325,0 33.72816608116094,35.05766514288756,0 33.72819490189446,35.05799688405119,0 33.72821144595881,35.05811167827083,0 33.72824937032533,35.05830293921642,0 33.72820906671173,35.05842658567396,0 33.7272748729084,35.05870878499022,0 33.72725893373198,35.05866207204414,0 33.72698927530353,35.05859985893108,0 33.72688184782468,35.0587409282569,0 33.72680422499052,35.05874139337662,0 33.72660935165123,35.05894256044046,0 33.72630207400562,35.05872312457411,0 33.72596909831003,35.05910809600562,0 33.72638485997417,35.05930560569648,0 33.72618445790192,35.06005148531781,0 33.72533525823747,35.05941401448764,0 33.72536075638944,35.05937130898624,0 33.7250640939342,35.05918159309076,0 33.72449762477174,35.05891263855441,0 33.72349579507713,35.05856968188798,0 33.7234184020526,35.05918290884053,0 33.72287935020868,35.05908824993585,0 33.72223996665108,35.05906973825337,0 33.72219953679716,35.05925269708091,0 33.72226581502267,35.059276993458,0 33.72213177571277,35.05974199531483,0 33.72188493952191,35.05967432758072,0 33.72195213692485,35.05912083459365,0 33.72171100458511,35.0590185649517,0 33.72170417293305,35.05892477671529,0 33.72159015567219,35.0589353316116,0 33.72155286303819,35.05879234255399,0 33.72122826180764,35.05875970449814,0 33.72100124012643,35.05821289966135,0 33.72065888607597,35.05820999533427,0 33.7204070484667,35.05825593632543,0 33.7201069916705,35.05828240988781,0 33.72012117149956,35.05852924211832,0 33.7203572480862,35.05855590261967,0 33.72043288525782,35.05850998075213,0 33.72043531799383,35.05839344298441,0 33.72068533634975,35.05852553372539,0 33.72070403010802,35.05907961913293,0 33.71947431948954,35.05916649611445,0 33.71946381175767,35.05911673744298,0 33.71915398368197,35.05917918630539,0 33.71914672835216,35.0592366517792,0 33.71841791220248,35.05930158206755,0 33.71820604344678,35.05903167817139,0 33.71833657756378,35.0588745898179,0 33.71792309037274,35.05861863844444,0 33.71775691432941,35.05869299449874,0 33.71763960920948,35.05858841462197,0 33.71752777345636,35.05866563890297,0 33.71703999481146,35.05834313222841,0 33.71646151445117,35.05785208369797,0 33.71627652683154,35.05799354053442,0 33.71615523272281,35.05787622259513,0 33.71606628494634,35.05790864897853,0 33.7152332032136,35.05713836747897,0 33.71507886029592,35.05723498037658,0 33.71519688455204,35.05742250134562,0 33.71543123621852,35.05760295608563,0 33.71568671150222,35.05798107169523,0 33.71564861265969,35.0580610492239,0 33.71589867955689,35.05826374057257,0 33.71670319646666,35.05875964632344,0 33.71679348239528,35.05868433220038,0 33.71767832477333,35.05921324352624,0 33.71753013777786,35.05935299811155,0 33.71782356822079,35.05947945661036,0 33.71791380712863,35.05939880027542,0 33.71804503292165,35.05954758389365,0 33.7187354569968,35.05975715253559,0 33.71899589632608,35.05982504802968,0 33.7192638169794,35.06000506816419,0 33.71916086760248,35.06011784903908,0 33.71871657731253,35.05982670335176,0 33.71847104773995,35.05997771822769,0 33.71827033281485,35.06005368663322,0 33.71812695769924,35.06000112158563,0 33.71799774288252,35.06008200788584,0 33.71801157570773,35.06017807148148,0 33.71785383174658,35.06031147229837,0 33.71746040391575,35.06002335974681,0 33.71779145450721,35.05964189142259,0 33.71717665310945,35.05935121527329,0 33.71672996817103,35.05943517838542,0 33.71659935677032,35.05957923400886,0 33.71651610931917,35.0597539906681,0 33.71624285943238,35.05974398636133,0 33.71617787437499,35.05985280157088,0 33.71590421855208,35.05979632928284,0 33.71584380706414,35.05988962594791,0 33.71570719881561,35.05988655966411,0 33.71566528733549,35.05994102225237,0 33.71559434077857,35.05990658837641,0 33.71558407751609,35.05980983549158,0 33.71533851003122,35.05973383245001,0 33.71537561212865,35.05966778115629,0 33.71545475966554,35.05956275522845,0 33.71518995080583,35.05944039574376,0 33.71513404541633,35.05951043113566,0 33.71502085012899,35.05949173556454,0 33.71498845818181,35.05955775989099,0 33.71502159288374,35.05957692744663,0 33.71502667352251,35.05961949562769,0 33.71349600997034,35.05952125804766,0 33.71224591007206,35.05932330838069,0 33.71239549373291,35.05968101493502,0 33.71238820657235,35.05971113548947,0 33.71238098401201,35.05974099516075,0 33.71235371696316,35.05985370891345,0 33.71217156204846,35.05985410066258,0 33.71213180626336,35.05990724416749,0 33.71179410915845,35.05992245423913,0 33.71121483142078,35.05990601057765,0 33.71121282404321,35.05967453951982,0 33.71083456750841,35.05965030168879,0 33.71078705473595,35.05973655970794,0 33.7097170337504,35.05970975553991,0 33.70970807413505,35.05960398774132,0 33.70937009168188,35.05958612323284,0 33.70926126412713,35.06002327027864,0 33.70928607903915,35.06010249034121,0 33.70919207795527,35.0603940464562,0 33.70909538855209,35.0603747702105,0 33.70904017263,35.06050075560994,0 33.70876578884667,35.06039653806561,0 33.70884387724097,35.06012491677912,0 33.70878688916112,35.06004588372328,0 33.7088178612649,35.05990681302384,0 33.7084867218376,35.05975001725074,0 33.7083523304847,35.06002196713362,0 33.70764185055783,35.05971526597352,0 33.70728601422961,35.05949247197,0 33.70698773570123,35.05941484563918,0 33.70643090197297,35.0602650105039,0 33.70588582785149,35.06091029194803,0 33.70578401461738,35.06103609905317,0 33.70522737232817,35.06091919774617,0 33.70311644653489,35.06126009212505,0 33.70049443614437,35.06170218613435,0 33.7003524900497,35.06071498310488,0 33.69983277492015,35.06065699426206,0 33.70009047438185,35.06130199103333,0 33.69988362779918,35.06140076711646,0 33.69994608744909,35.06176634096122,0 33.69527430822809,35.06254743552211,0 33.69537909827353,35.06239330184051,0 33.69463002855579,35.06213937904758,0 33.69404726215083,35.06197871316115,0 33.69348580516109,35.06182839144291,0 33.69320184004387,35.06237435964988,0 33.6841079013065,35.06048584147646,0 33.6805698999537,35.06007671815942,0 33.67571590352811,35.05956051053676,0 33.67549539702816,35.05953705571063,0 33.67543289740703,35.05953040799191,0 33.66697529792899,35.05864480695497,0 33.66691925397615,35.05851476477801,0 33.66703172643068,35.05849012679243,0 33.6669429396172,35.05783523161922,0 33.66670525699973,35.05785712613638,0 33.66666594465799,35.05764116790272,0 33.66656204266346,35.05769320964343,0 33.6661208402201,35.05783288648972,0 33.66587534029323,35.05792001686049,0 33.66568380832751,35.05797253794816,0 33.66555901371301,35.05802126186025,0 33.66545911666217,35.05805269184127,0 33.66536748130109,35.05807378245247,0 33.66502208244554,35.05819234183759,0 33.66488874708757,35.0582170923177,0 33.66474684277257,35.05821443841815,0 33.66463014225992,35.05823223420494,0 33.66452053596111,35.05809558143773,0 33.66434967298828,35.05812396852697,0 33.66415113226185,35.05782652962051,0 33.66442581599186,35.05773581125806,0 33.66424950117198,35.05760638594526,0 33.66413711349468,35.05764131486115,0 33.66406662077883,35.05769660227693,0 33.66399634909506,35.05777933873603,0 33.66392646721992,35.05791011125999,0 33.66382236870989,35.05793813216853,0 33.66369546280067,35.05772608387105,0 33.66380367762134,35.05769117819803,0 33.66377114060941,35.05756320258504,0 33.6636562652126,35.05754025503958,0 33.66350721512042,35.05754578561871,0 33.66335100222715,35.05768997048111,0 33.66326209354893,35.0577263061748,0 33.66306732139187,35.0577509479731,0 33.66286138459454,35.05781337220346,0 33.6626844240748,35.05791335952569,0 33.66259902023723,35.0579892704291,0 33.6625306293733,35.05804151226886,0 33.66244993115343,35.05799008470973,0 33.66232916904088,35.05794830628889,0 33.66209372409676,35.05790715465832,0 33.66210772238068,35.05806052246411,0 33.66175654627744,35.05805045287153,0 33.65947025813335,35.05777029176561,0 33.65943054348206,35.05761045346243,0 33.65947577201688,35.05753004797413,0 33.65931920490856,35.05731399630985,0 33.65935892781432,35.05726191209632,0 33.65862835684886,35.0562615266816,0 33.65849685034623,35.0563093937163,0 33.65819222400007,35.05622145688979,0 33.65823866386054,35.05629193319768,0 33.6580102457359,35.05641105472934,0 33.65848080356321,35.05716766151735,0 33.65875061252601,35.05720391835975,0 33.65882572507466,35.05727423961549,0 33.65893510078136,35.05729508710868,0 33.6592134994138,35.0576562406894,0 33.65920023814157,35.05781061603714,0 33.65589231157838,35.05739524094466,0 33.65579576522563,35.05738311629953,0 33.65514462410258,35.05515396835077,0 33.65460447339738,35.05492564015429,0 33.65415449483018,35.05492146113613,0 33.65378259632359,35.05463276009667,0 33.65364411604124,35.05439565578038,0 33.6538830398209,35.05413008945334,0 33.65453487404149,35.05425871398707,0 33.65509643227691,35.05414997109649,0 33.65469397839934,35.05405964662172,0 33.65474942793237,35.05396024295231,0 33.654925865352,35.05391964877196,0 33.65495605113359,35.05367502797083,0 33.65461365572787,35.05305582236184,0 33.65468564728668,35.05301579209586,0 33.65474157072894,35.05297584851114,0 33.65465213925031,35.05284419223069,0 33.65474062156208,35.05285692833005,0 33.65486932615821,35.05287605450336,0 33.65488449865354,35.05276365455477,0 33.65467550366721,35.05275156898313,0 33.65452993950275,35.05263342914323,0 33.65429681575463,35.05161060785355,0 33.65422307296619,35.05138899158767,0 33.65438461649887,35.05117652741706,0 33.65474655308273,35.05111314411631,0 33.65500288588328,35.05099117557213,0 33.65539457906662,35.05081979246324,0 33.65554911011176,35.05077678551061,0 33.65607424941678,35.05083460099233,0 33.65631521637373,35.05082669123176,0 33.65635443454085,35.05070755372167,0 33.65647430985223,35.05062762154031,0 33.6562807545799,35.05053617069156,0 33.65594369783486,35.05058424265082,0 33.65592694356796,35.05049844241513,0 33.65552519307072,35.05049400757354,0 33.65477311240426,35.05088787966249,0 33.65455677420569,35.05096172341444,0 33.65410802894925,35.05110949730805,0 33.65384367304207,35.0501991613323,0 33.65367929246396,35.0497306969569,0</coordinates>
						</LinearRing>
					</outerBoundaryIs>
				</Polygon>
			</MultiGeometry>
		</Placemark>
	</Document>
</kml>