<?xml version='1.0' encoding='UTF-8'?>
<kml xmlns="http://www.opengis.net/kml/2.2">
	<Document>
		<name>PERISTERONA PAFOU</name>
		<Style id="PolyStyle70">
			<LabelStyle>
				<color>00000000</color>
				<scale>0.000000</scale>
			</LabelStyle>
			<LineStyle>
				<color>ff0055ff</color>
				<width>2.000000</width>
			</LineStyle>
			<PolyStyle>
				<color>00828282</color>
				<outline>1</outline>
			</PolyStyle>
		</Style>
		<Placemark id="ID_70064">
			<name>PERISTERONA PAFOU</name>
			<snippet />
			<description>&lt;html xmlns:fo="http://www.w3.org/1999/XSL/Format" xmlns:msxsl="urn:schemas-microsoft-com:xslt"&gt;

&lt;head&gt;

&lt;META http-equiv="Content-Type" content="text/html"&gt;

&lt;meta http-equiv="content-type" content="text/html; charset=UTF-8"&gt;

&lt;/head&gt;

&lt;body style="margin:0px 0px 0px 0px;overflow:auto;background:#FFFFFF;"&gt;

&lt;table style="font-family:Arial,Verdana,Times;font-size:12px;text-align:left;width:100%;border-collapse:collapse;padding:3px 3px 3px 3px"&gt;

&lt;tr style="text-align:center;font-weight:bold;background:#9CBCE2"&gt;

&lt;td&gt;6&lt;/td&gt;

&lt;/tr&gt;

&lt;tr&gt;

&lt;td&gt;

&lt;table style="font-family:Arial,Verdana,Times;font-size:12px;text-align:left;width:100%;border-spacing:0px; padding:3px 3px 3px 3px"&gt;

&lt;tr&gt;

&lt;td&gt;DIST_CODE&lt;/td&gt;

&lt;td&gt;6&lt;/td&gt;

&lt;/tr&gt;

&lt;tr bgcolor="#D4E4F3"&gt;

&lt;td&gt;VIL_CODE&lt;/td&gt;

&lt;td&gt;321&lt;/td&gt;

&lt;/tr&gt;

&lt;tr&gt;

&lt;td&gt;VIL_CCD&lt;/td&gt;

&lt;td&gt;6321&lt;/td&gt;

&lt;/tr&gt;

&lt;tr bgcolor="#D4E4F3"&gt;

&lt;td&gt;VIL_NM_E&lt;/td&gt;

&lt;td&gt;PERISTERONA PAFOU&lt;/td&gt;

&lt;/tr&gt;

&lt;tr&gt;

&lt;td&gt;VIL_NM_G&lt;/td&gt;

&lt;td&gt;ΠΕΡΙΣΤΕΡΩΝΑ ΠΑΦΟΥ&lt;/td&gt;

&lt;/tr&gt;

&lt;/table&gt;

&lt;/td&gt;

&lt;/tr&gt;

&lt;/table&gt;

&lt;/body&gt;&lt;script type="text/javascript"&gt;

				function changeImage(attElement, nameElement) {

				document.getElementById('imageAttachment').src = attElement;

				document.getElementById('imageName').innerHTML = nameElement;}

			&lt;/script&gt;&lt;/html&gt;

</description>
			<styleUrl>#PolyStyle70</styleUrl>
			<MultiGeometry>
				<Polygon>
					<extrude>0</extrude>
					<altitudeMode>clampToGround</altitudeMode>
					<outerBoundaryIs>
						<LinearRing>
							<coordinates> 32.46652559572604,34.98274618069421,0 32.46623139132702,34.98259596818581,0 32.46639047316775,34.98236813113348,0 32.46649695975735,34.98229769539941,0 32.46668268258355,34.98227123982705,0 32.46690134401203,34.98227492775725,0 32.46691197338995,34.9821686189145,0 32.46710088509748,34.98216126691436,0 32.46734889067785,34.98223871238427,0 32.46758714973944,34.98228611815061,0 32.46763394193614,34.98222360090722,0 32.46759846666158,34.98207345674175,0 32.46742393720776,34.98190634019244,0 32.46740478862574,34.98172969830161,0 32.46740205091942,34.98170444120008,0 32.46731983775329,34.98147918504554,0 32.46730218649688,34.98132032294247,0 32.46709096248603,34.98113584677053,0 32.46692340478551,34.98095522801046,0 32.46658861950506,34.98068832637653,0 32.46674610648122,34.98037988782717,0 32.46655455109696,34.98025156074797,0 32.46646934544049,34.98009751814079,0 32.4660125807267,34.97984120776839,0 32.46627972719067,34.97952058887226,0 32.46635380347573,34.97933820161653,0 32.46647821637903,34.97923775170332,0 32.46663250091447,34.97927943049221,0 32.46716404420452,34.97906087178907,0 32.46739959563891,34.97904312236998,0 32.46767036795054,34.97897093434725,0 32.46872756386644,34.97901005728257,0 32.46890813790271,34.97895575707226,0 32.46949772831328,34.97913976728388,0 32.46986958310721,34.97892806090446,0 32.46995907058,34.97897895169827,0 32.46996760043715,34.97908748087748,0 32.47020535123649,34.97909971857298,0 32.47046204024658,34.97914647976791,0 32.47072348901637,34.97904247289206,0 32.4709420360767,34.97904663797264,0 32.47114938792537,34.97888934330874,0 32.4712727705729,34.97887609253599,0 32.47154458774467,34.978616448737,0 32.47173328849887,34.97774784402603,0 32.47185520515823,34.97762933489054,0 32.47206613811299,34.9774242943376,0 32.4722108557909,34.9773437597546,0 32.47252410217718,34.97693046940724,0 32.47302978513805,34.97661364225867,0 32.47351407814126,34.97631219758393,0 32.47364527442942,34.97616944082029,0 32.47388187664315,34.97609924781619,0 32.47427202342788,34.97669990849886,0 32.47439802532142,34.97683473916159,0 32.47458814671629,34.97692730290902,0 32.47479549191338,34.97695009355406,0 32.47503689428579,34.97710319590119,0 32.47531258644966,34.97759434169895,0 32.47504664572897,34.9777652883456,0 32.47495730958644,34.9781976089841,0 32.47518604670967,34.9784360448963,0 32.47528786968322,34.97862894944021,0 32.47526878248848,34.97888120273775,0 32.47531918741733,34.97902715822316,0 32.47535431096385,34.97951469952163,0 32.47543163625657,34.97956571132406,0 32.47553385547508,34.97948876163829,0 32.47557133922896,34.97951425879147,0 32.47568561066766,34.97964318361214,0 32.47573897202161,34.9799619453923,0 32.475712096249,34.98028403578754,0 32.47584014623503,34.98068097182355,0 32.47601622655484,34.98076372748173,0 32.47620728922725,34.98076504852434,0 32.47629811694651,34.98088021964643,0 32.47630828615603,34.98103948725272,0 32.4762556203049,34.98111483947158,0 32.47649777117596,34.98142713880139,0 32.47667799561869,34.98156622564077,0 32.47677770486961,34.98173581720912,0 32.47680719837461,34.9817705767689,0 32.4769152345257,34.98189790507313,0 32.47706148596857,34.98212994340085,0 32.47765933079792,34.98226220373618,0 32.4777925677929,34.9826145199488,0 32.47775954844082,34.9828453220404,0 32.47787079901977,34.98304023177368,0 32.47791037303723,34.98332395276983,0 32.47797826942818,34.98337489715817,0 32.47818101255934,34.98338794410633,0 32.47862812901266,34.98326483372939,0 32.47885329656143,34.98339257667262,0 32.47897306978776,34.98344582092808,0 32.47903328333886,34.98332392459168,0 32.47919530780899,34.98316584307153,0 32.4791890979002,34.98308037916569,0 32.47903003635736,34.98294726590571,0 32.47902672032036,34.98280940237441,0 32.4789115580444,34.982070868788,0 32.47893208285223,34.9817797141738,0 32.47894739701033,34.98156246246364,0 32.4788370145113,34.98128213722745,0 32.47881522180248,34.98110531709274,0 32.47894952777214,34.98088880321304,0 32.47898133722032,34.98077641930672,0 32.47892362927202,34.9806517705737,0 32.47878444877458,34.98041978280229,0 32.47876364602631,34.98014589857856,0 32.47880355637992,34.97993261679087,0 32.47886707717189,34.97971755595844,0 32.47903263387798,34.97944301383896,0 32.47912160747498,34.97927666382132,0 32.47947096913611,34.9790208602546,0 32.47957000670811,34.97879245342261,0 32.47972283920711,34.97860906938921,0 32.47969218247086,34.9783758871213,0 32.48001475893185,34.97843440804175,0 32.48038409803746,34.97853401927095,0 32.48056933739785,34.97864401235664,0 32.48098022829474,34.97883321301384,0 32.48131686268459,34.97890153400289,0 32.48147177298797,34.9789783131988,0 32.48155275686627,34.97913418252192,0 32.48158970761998,34.97944506370283,0 32.48149649417683,34.97956479411432,0 32.48151713427024,34.97962317787379,0 32.48158716993817,34.97969549121692,0 32.48166736799358,34.97969604182032,0 32.48180225107814,34.97965425628156,0 32.48217438888306,34.97971117023133,0 32.48238770228143,34.97984464953643,0 32.48261789914579,34.97994135763889,0 32.48281258055892,34.98005141277624,0 32.48291892282194,34.98026569923052,0 32.48295082688765,34.98037657973462,0 32.48323748149761,34.98048920452927,0 32.48379966754487,34.9806483687057,0 32.48399139729944,34.98058367307859,0 32.48411191180949,34.98056314246111,0 32.48413003420239,34.98040406954622,0 32.48434869167234,34.98024248702184,0 32.48441859262759,34.98032838704742,0 32.48470239401378,34.98025655436205,0 32.48477004704069,34.98009782043024,0 32.48523205907392,34.9801320417564,0 32.485349244948,34.97997364637852,0 32.48585237225914,34.97990719250929,0 32.48657074859105,34.98001693404526,0 32.48699904482118,34.97965098537389,0 32.4871285299572,34.97944219412059,0 32.48703091550409,34.97906295067911,0 32.48704904837792,34.97890193565127,0 32.48700647941198,34.97867838155504,0 32.48700689753878,34.97840270242806,0 32.48729649192796,34.97845709573354,0 32.48770832491098,34.97832012001631,0 32.48805697149422,34.97813223570029,0 32.48826964039709,34.97879959344043,0 32.48836837455504,34.97906818248214,0 32.48837878412027,34.97920609473066,0 32.48873300406834,34.97987247313476,0 32.48874487546079,34.98009970134287,0 32.48882127245609,34.98000897520436,0 32.48888217366235,34.97981718794345,0 32.48901167512824,34.97960645398181,0 32.48906709532103,34.97925543226715,0 32.48933745662997,34.97934657716342,0 32.48950937653908,34.97937492675112,0 32.48971576113522,34.9794947562906,0 32.48995699873194,34.97943232980347,0 32.49030089528487,34.97948320225408,0 32.49036499093063,34.97967778021461,0 32.49034318805269,34.98020569921066,0 32.49057218611232,34.9801878412669,0 32.49073244784636,34.98020251978006,0 32.49089329352746,34.98015895896756,0 32.49128701861159,34.98018104431663,0 32.49141008537978,34.98014110959089,0 32.49156572646662,34.98014604855378,0 32.49166195073757,34.98019523711828,0 32.49176934743494,34.98030662699402,0 32.4918710784984,34.9805131080608,0 32.49181503493883,34.98069133908904,0 32.49186742530006,34.98087807087765,0 32.49187662856931,34.98089453233766,0 32.49201342581621,34.98113921249406,0 32.49206776425868,34.98136672710357,0 32.49212085217999,34.98148357290168,0 32.49210979209063,34.98183555040537,0 32.49210700613683,34.9819241824439,0 32.49230123898748,34.98208081305,0 32.4925275121441,34.98257158614462,0 32.49283861171751,34.98260087322769,0 32.49321201381419,34.98300527802454,0 32.4935496633405,34.98297455941395,0 32.49374691648377,34.98306519934783,0 32.49419949347894,34.98310126460083,0 32.49413490767599,34.98342698808621,0 32.4944548659867,34.98351457292761,0 32.4946307155676,34.98362253951355,0 32.49478046930535,34.98350900891175,0 32.49513610198466,34.98356771202061,0 32.49547356070627,34.98355640022282,0 32.49576693113261,34.98418157980765,0 32.49538963842818,34.98440229580128,0 32.49535063770946,34.98452822499588,0 32.49524494770206,34.98471777127736,0 32.49517783151161,34.98506094970153,0 32.49504056435174,34.98534152941047,0 32.49493890839206,34.9858359066903,0 32.49440452892523,34.98666710749944,0 32.49403790514784,34.98723540881191,0 32.49396538971394,34.9874096463181,0 32.4940716227862,34.98740259826054,0 32.49425434638427,34.9875319675179,0 32.49454026177685,34.98795907355229,0 32.49474437258596,34.9880730546661,0 32.4948715846096,34.98809138609523,0 32.49507603006535,34.98793551332484,0 32.49554820469329,34.98766496126245,0 32.49582860170073,34.98746300497043,0 32.4959456040195,34.98732207003,0 32.49615236444171,34.98693323806497,0 32.49619935100859,34.98671611559652,0 32.49635620316015,34.98660068805078,0 32.49663353854395,34.98670545346741,0 32.49742757278382,34.98680593465343,0 32.49727788069347,34.98715049942872,0 32.49712313503757,34.98729118109026,0 32.4971065280406,34.98753763027397,0 32.49717047440756,34.98774967694892,0 32.49717136735507,34.98789723103247,0 32.49713435998198,34.9880600613156,0 32.49713697452594,34.98850854732691,0 32.49737734672414,34.98853540525188,0 32.49754648360823,34.98860837741012,0 32.49770206645366,34.98885792696692,0 32.4974369074539,34.98895127029021,0 32.49727413467899,34.98895017453545,0 32.49703262148397,34.98903785391956,0 32.49692474497812,34.98920991306742,0 32.49676318855866,34.98932336840928,0 32.49660950248898,34.98959413280055,0 32.49661476317237,34.98977666192157,0 32.49656137476211,34.98992579191367,0 32.49640668238079,34.99006064783103,0 32.49656031247088,34.99003256311742,0 32.49716152941774,34.98983470652031,0 32.49723904839408,34.9898682330761,0 32.49692483904568,34.99062424839446,0 32.49689003461727,34.9907079900759,0 32.49696547770552,34.9909038733086,0 32.49659845466175,34.99114102842229,0 32.49674698294536,34.99124241453893,0 32.49679406462259,34.99138845270667,0 32.49678258260103,34.99148768180905,0 32.49653712190316,34.991767753993,0 32.49650066497575,34.99187221137115,0 32.49655986204618,34.99185533985096,0 32.49676110459884,34.99193225561056,0 32.49697165654237,34.99186459253733,0 32.49704387498866,34.9919892116062,0 32.49685893304414,34.99225134181491,0 32.4968226932536,34.99259758910921,0 32.49671699605326,34.99280520346456,0 32.49632481843378,34.99280147944764,0 32.49622190431128,34.99286123194292,0 32.49624313976558,34.99296823713811,0 32.49612728031308,34.99301063223216,0 32.49617394287758,34.99319876503321,0 32.49631787195253,34.99323535674088,0 32.49653508602491,34.99342140157816,0 32.49642077533918,34.99357174805372,0 32.49650898153438,34.99380333726903,0 32.49622236913101,34.9940377786447,0 32.49600944664832,34.99427044479912,0 32.49628544651427,34.99464700966303,0 32.49621886116973,34.99553707530613,0 32.49629931559935,34.99588842710293,0 32.49682044494094,34.99631291723266,0 32.49715450020359,34.99642742286045,0 32.49784532566297,34.99674186784129,0 32.49794753254574,34.99728118261961,0 32.49788017647865,34.99759052076924,0 32.49790921162641,34.99836465467016,0 32.49783943337359,34.99852177947839,0 32.49779971982954,34.99882158760477,0 32.49757148701801,34.999082348679,0 32.49748048438457,34.99939476522201,0 32.49756163514803,34.9996770379565,0 32.49754549769069,34.99984855662266,0 32.49761687515806,35.00005844299819,0 32.49789058068278,35.00023838842552,0 32.49794351257734,35.00072016272639,0 32.4977773536699,35.00133430868306,0 32.49776618574004,35.00153392519406,0 32.49800619278921,35.00206877066179,0 32.49794086243484,35.00365822274294,0 32.49790734245062,35.00382970370335,0 32.49745976324765,35.00450995624005,0 32.49709567863993,35.00512989042502,0 32.4970121042235,35.00525250439934,0 32.49679545212168,35.00567007405522,0 32.49703955602473,35.00588262266601,0 32.49721623870283,35.00609194120435,0 32.49741299208612,35.0063180449079,0 32.49750234049763,35.00649069869149,0 32.49754129492797,35.0066435876117,0 32.49760441082748,35.00674113949416,0 32.49750591268094,35.006809851382,0 32.49732895571771,35.00696683567887,0 32.49727076348259,35.00705246888188,0 32.49728729383925,35.007085881588,0 32.49744227508447,35.00710357542469,0 32.49756999886103,35.00714883599244,0 32.49767717918017,35.00722448374615,0 32.49784441030312,35.00736713684334,0 32.49787385277974,35.00745891091528,0 32.49799292234098,35.00755312624132,0 32.49801676615857,35.0075719932135,0 32.49861775674567,35.00789197446996,0 32.49853500945837,35.00797302680561,0 32.49857788716476,35.007998151501,0 32.49856654642672,35.00827128475596,0 32.49875933991934,35.00840031633764,0 32.49863300961437,35.00852719876485,0 32.49834495290438,35.00843655577897,0 32.4979846976048,35.00838003315133,0 32.49788003277395,35.00836361182719,0 32.49771128598848,35.00837357648039,0 32.4976432752791,35.00842861935858,0 32.49730660069554,35.00836530099558,0 32.4970505428055,35.00833582406347,0 32.49698513858785,35.00813003045378,0 32.49687881420036,35.00796836362494,0 32.4966444797918,35.00778918056054,0 32.49661949098559,35.00758920981097,0 32.49654728407663,35.00738891971935,0 32.4964405196161,35.00727164896188,0 32.49625987931532,35.00712057856915,0 32.49618501826185,35.00718667420777,0 32.49601533354485,35.00729098011752,0 32.49593990821189,35.0074125724735,0 32.49583701150707,35.00758393047114,0 32.49566632896031,35.00778813013536,0 32.4954687174764,35.00798659819902,0 32.49529858111172,35.00813530038936,0 32.49505313954557,35.00839449549058,0 32.49505175448215,35.00853323728401,0 32.49513767545849,35.00871141947219,0 32.49548883046156,35.00867494170995,0 32.49564342901677,35.008731486332,0 32.49585773548751,35.00888833489586,0 32.49609941443993,35.00900651695905,0 32.49621326374079,35.00909053626585,0 32.49644061873769,35.00929187229208,0 32.49648668344089,35.00940873439031,0 32.49651881027379,35.00956990357881,0 32.49647766616133,35.00963622665461,0 32.49617206185304,35.00983951651565,0 32.4961150044015,35.01014993505513,0 32.49629486574429,35.0103787007075,0 32.49541598637171,35.01056702086358,0 32.49490800452818,35.01076893956728,0 32.49464408575459,35.01085040786467,0 32.49438691191845,35.01093191810483,0 32.49422434526119,35.01099742083077,0 32.49421224096871,35.01085858594011,0 32.4941248835848,35.01082469647915,0 32.49393097231656,35.01065133219344,0 32.49384963357316,35.01068963215594,0 32.49371450084035,35.01071091704488,0 32.49324185394663,35.01075211785363,0 32.49301846234223,35.01082830546285,0 32.49293801173869,35.01077781110271,0 32.49280989615635,35.01077139138597,0 32.49256516598268,35.01095843505377,0 32.49221421609488,35.0109727060256,0 32.4920744460595,35.0107830567856,0 32.49136050435122,35.01066721178127,0 32.49115256215025,35.01054924919895,0 32.49109017151258,35.01071532738776,0 32.49086612324295,35.0108581083582,0 32.49093251551265,35.01096400823527,0 32.49095722305091,35.01119172794171,0 32.49079543274375,35.01117953102379,0 32.49061959498069,35.01122273624291,0 32.49042519420232,35.01109931530245,0 32.48992996431846,35.01070189475757,0 32.48961669788365,35.01099391606216,0 32.48929836178176,35.01111940149622,0 32.48881997555782,35.0110606445769,0 32.48864786141142,35.01140357736301,0 32.48855804898928,35.01161386750399,0 32.48831976655391,35.01182869505152,0 32.48824438211277,35.01194473443658,0 32.48814859911463,35.01207728277878,0 32.48791723261813,35.01227550308264,0 32.48809852898138,35.01235999386554,0 32.48806419408488,35.01242080715897,0 32.48812996911565,35.01258775958468,0 32.48823600291612,35.01277718360489,0 32.48818738486448,35.01291560070776,0 32.48805163216608,35.0129979302989,0 32.48778140173655,35.01303493799706,0 32.48739632512474,35.0130878099473,0 32.48709124472217,35.01323558065169,0 32.48655730813416,35.01333183859933,0 32.48645995338475,35.01361977809928,0 32.48612152977677,35.01372846779489,0 32.48593776769899,35.01388816285431,0 32.48570215735256,35.01383659901973,0 32.4855207424842,35.01376321319126,0 32.48523825223738,35.0136780262206,0 32.48503604188914,35.01365999560894,0 32.48515977149271,35.01343329040033,0 32.48441292915111,35.01323392927753,0 32.48439364601052,35.01313944412846,0 32.48426659594303,35.01302757345788,0 32.48419368225796,35.012899425147,0 32.48429672341295,35.0127169788145,0 32.48446058975926,35.01252384940206,0 32.48458291303749,35.01243588254864,0 32.48488687056357,35.01239911254691,0 32.48509177170598,35.01215076453797,0 32.48541820841807,35.01189214427549,0 32.48560871795761,35.01173249475691,0 32.48583936413273,35.01160642135852,0 32.48611712014517,35.01149176597753,0 32.4863936987124,35.0114936550803,0 32.4865008470318,35.01157208704603,0 32.48673538293517,35.01172909126839,0 32.48681644637214,35.01171854405897,0 32.48696647775493,35.0115586166748,0 32.48717727431021,35.01139354998925,0 32.48742186034043,35.01122317027266,0 32.48769972373738,35.01109741078753,0 32.4875924585487,35.01103007758731,0 32.48762078584474,35.01089707184787,0 32.48730513162033,35.01075616939286,0 32.48711636224429,35.01074378059818,0 32.48697470204817,35.01074281324169,0 32.48681938350527,35.01075840193388,0 32.4868265760199,35.01071405393068,0 32.48684731484163,35.01066424384045,0 32.4869492268895,35.01059278869608,0 32.48705114533954,35.01052133259017,0 32.4871471511731,35.01036658689782,0 32.48731156276062,35.01011795665081,0 32.48766664594264,35.0096930221865,0 32.48763783488579,35.0092044206059,0 32.48752990703117,35.00920368553501,0 32.4874424922285,35.00917533743433,0 32.48718598759395,35.00919024057614,0 32.4868864962636,35.00945459910785,0 32.48654252153718,35.00944669668673,0 32.48629271009101,35.00946719338282,0 32.48627269405676,35.00944485455514,0 32.4862934938523,35.00938949840603,0 32.48656511233608,35.00921375054354,0 32.4866952388554,35.00902038778634,0 32.48679910825605,35.00875469435809,0 32.48685503046401,35.00856082474292,0 32.48683089851912,35.00827760831235,0 32.48687873283596,35.00821688484198,0 32.48685945013811,35.00812240180446,0 32.48670575870378,35.00797705062405,0 32.48653655883754,35.00803139608616,0 32.48646067704281,35.00819738060592,0 32.48626253742432,35.00844577869677,0 32.48620194146064,35.00843426624989,0 32.48612345718525,35.00818952813295,0 32.48615413633411,35.00782343319316,0 32.48630337697114,35.00774120237069,0 32.48625750192108,35.00760768631893,0 32.48628599228756,35.00745802968216,0 32.48642966240462,35.00725920510273,0 32.48648754870964,35.00687109810393,0 32.48667213380724,35.00662815348906,0 32.48674639055627,35.00662311129372,0 32.48684662031844,35.00671814844002,0 32.48711170659333,35.00652015174722,0 32.48710708738923,35.00630922103637,0 32.48657537427757,35.00618904198912,0 32.48640741438999,35.00612129323168,0 32.48634130060411,35.00598763836095,0 32.48656720065728,35.00566173121003,0 32.48674982901409,35.00561302670734,0 32.48681378089456,35.00529156053773,0 32.48723923778526,35.00524451176153,0 32.48729620278466,35.00506344721368,0 32.48740455816831,35.00474835194081,0 32.48757875678981,35.0046469967888,0 32.48766066048767,35.0044608172275,0 32.48765217749212,35.00426106843069,0 32.48783768182533,35.00420944119791,0 32.4877481201857,35.00411384320729,0 32.48747766340382,35.00400297863629,0 32.4872027228688,35.00381652439459,0 32.48699328826316,35.00363915141137,0 32.48680075630071,35.00334386962009,0 32.48681893068078,35.00293389543046,0 32.48678496239381,35.00283141055485,0 32.48665893306421,35.00270965624449,0 32.48668031885282,35.00254033471404,0 32.48698022045374,35.00246250516493,0 32.48706920666028,35.00248470086727,0 32.48709043365161,35.00246109866448,0 32.48691424090028,35.00237030448428,0 32.48673360574644,35.0021996051431,0 32.48686661629176,35.00201917230575,0 32.4866694388009,35.00179762621173,0 32.48663683312315,35.00164844471347,0 32.48614375631487,35.00136874959762,0 32.48594394604655,35.00166854094499,0 32.48466228892834,35.00101213072095,0 32.48261325489563,35.00099809366485,0 32.48249070281103,35.00014559952699,0 32.48246048166214,34.99898502543805,0 32.48233408609327,34.99799433919787,0 32.48236129651285,34.99738034055054,0 32.48258499297489,34.99705373412594,0 32.48258497201762,34.99692636398374,0 32.48245223540226,34.99656169197272,0 32.48206064192255,34.99623949913531,0 32.4820452303378,34.99607748229699,0 32.48209838877369,34.9958803143253,0 32.48222737612686,34.99570849396924,0 32.48241760944826,34.99550659564603,0 32.48244636897665,34.99519835464863,0 32.48226138506004,34.99520032421447,0 32.48209267729399,34.99514951381428,0 32.48190511959146,34.99505062143015,0 32.48183030802276,34.99504433205776,0 32.48175042648555,34.9950765150669,0 32.4814839706986,34.99527877189856,0 32.48120468657921,34.99536156904898,0 32.4808659379034,34.99530918283519,0 32.48037186976242,34.99534429214529,0 32.48023174291178,34.99531829939094,0 32.47937195586677,34.99496196957235,0 32.47900794162653,34.99470193773584,0 32.47877044158096,34.99457940739732,0 32.47854219433324,34.99457891487762,0 32.47841387871807,34.99455536221928,0 32.47814780885282,34.99401814039052,0 32.4783456667819,34.99378203369407,0 32.47837743146456,34.99336775945272,0 32.47831685495412,34.99313310933105,0 32.47816053143048,34.99302624886263,0 32.47768642225959,34.99308126786342,0 32.47745049748743,34.99316777831467,0 32.4773592530851,34.99316714846834,0 32.47699839902298,34.99301715105037,0 32.47705009798234,34.99273758770978,0 32.47655701168005,34.99282196802206,0 32.4753247464162,34.99287281686779,0 32.47497990952187,34.99285747762315,0 32.47396549157556,34.99289902620319,0 32.47340880110938,34.99294805842445,0 32.47312470699592,34.99302164604819,0 32.4728937003931,34.99290670611727,0 32.47230094727258,34.99289071889834,0 32.47213619628675,34.99283884281039,0 32.47185695448224,34.99256705032919,0 32.47170264277841,34.99250502856088,0 32.47124765405534,34.99232215525231,0 32.47077657534187,34.99229056504855,0 32.47006318854829,34.99206474935565,0 32.46986876209044,34.99189917216945,0 32.46971492081221,34.99180183426128,0 32.46953688263527,34.99171565092339,0 32.46934184319726,34.99160953031394,0 32.46919048342853,34.99127153534342,0 32.46896500539449,34.99111423565597,0 32.46894097720067,34.99077429761653,0 32.46878483717838,34.99056651508884,0 32.46872552639903,34.99043090883844,0 32.46858753144464,34.990115403296,0 32.46851814050923,34.98998528390449,0 32.46845111936415,34.98962501265093,0 32.46844888400766,34.98952975562348,0 32.46870625518969,34.9892008466487,0 32.46903901892598,34.98863152106949,0 32.46907278933261,34.98857374463849,0 32.46919472679014,34.98828357643141,0 32.46932049997093,34.98762039977338,0 32.46928943741621,34.98720217618229,0 32.46917904711462,34.98668286343293,0 32.46889484543092,34.9861835076185,0 32.46861280072616,34.98578734302732,0 32.46828079502607,34.98556015040484,0 32.46803351696128,34.98522243042554,0 32.46778226120882,34.98495876191961,0 32.46771287799896,34.984828640215,0 32.46747257635464,34.98443805812015,0 32.46739485606277,34.98418089001569,0 32.46740041786217,34.98395340308402,0 32.46717704624007,34.98316874101263,0 32.4670949665769,34.98302265770674,0 32.46697766830182,34.98286310130233,0 32.46652559572604,34.98274618069421,0</coordinates>
						</LinearRing>
					</outerBoundaryIs>
				</Polygon>
			</MultiGeometry>
		</Placemark>
	</Document>
</kml>