<?xml version='1.0' encoding='UTF-8'?>
<kml xmlns="http://www.opengis.net/kml/2.2">
	<Document>
		<name>PLATANISTEIA</name>
		<Style id="PolyStyle70">
			<LabelStyle>
				<color>00000000</color>
				<scale>0.000000</scale>
			</LabelStyle>
			<LineStyle>
				<color>ff0055ff</color>
				<width>2.000000</width>
			</LineStyle>
			<PolyStyle>
				<color>00828282</color>
				<outline>1</outline>
			</PolyStyle>
		</Style>
		<Placemark id="ID_70507">
			<name>PLATANISTEIA</name>
			<snippet />
			<description>&lt;html xmlns:fo="http://www.w3.org/1999/XSL/Format" xmlns:msxsl="urn:schemas-microsoft-com:xslt"&gt;

&lt;head&gt;

&lt;META http-equiv="Content-Type" content="text/html"&gt;

&lt;meta http-equiv="content-type" content="text/html; charset=UTF-8"&gt;

&lt;/head&gt;

&lt;body style="margin:0px 0px 0px 0px;overflow:auto;background:#FFFFFF;"&gt;

&lt;table style="font-family:Arial,Verdana,Times;font-size:12px;text-align:left;width:100%;border-collapse:collapse;padding:3px 3px 3px 3px"&gt;

&lt;tr style="text-align:center;font-weight:bold;background:#9CBCE2"&gt;

&lt;td&gt;5&lt;/td&gt;

&lt;/tr&gt;

&lt;tr&gt;

&lt;td&gt;

&lt;table style="font-family:Arial,Verdana,Times;font-size:12px;text-align:left;width:100%;border-spacing:0px; padding:3px 3px 3px 3px"&gt;

&lt;tr&gt;

&lt;td&gt;DIST_CODE&lt;/td&gt;

&lt;td&gt;5&lt;/td&gt;

&lt;/tr&gt;

&lt;tr bgcolor="#D4E4F3"&gt;

&lt;td&gt;VIL_CODE&lt;/td&gt;

&lt;td&gt;223&lt;/td&gt;

&lt;/tr&gt;

&lt;tr&gt;

&lt;td&gt;VIL_CCD&lt;/td&gt;

&lt;td&gt;5223&lt;/td&gt;

&lt;/tr&gt;

&lt;tr bgcolor="#D4E4F3"&gt;

&lt;td&gt;VIL_NM_E&lt;/td&gt;

&lt;td&gt;PLATANISTEIA&lt;/td&gt;

&lt;/tr&gt;

&lt;tr&gt;

&lt;td&gt;VIL_NM_G&lt;/td&gt;

&lt;td&gt;ΠΛΑΤΑΝΙΣΤΕΙΑ&lt;/td&gt;

&lt;/tr&gt;

&lt;/table&gt;

&lt;/td&gt;

&lt;/tr&gt;

&lt;/table&gt;

&lt;/body&gt;&lt;script type="text/javascript"&gt;

				function changeImage(attElement, nameElement) {

				document.getElementById('imageAttachment').src = attElement;

				document.getElementById('imageName').innerHTML = nameElement;}

			&lt;/script&gt;&lt;/html&gt;

</description>
			<styleUrl>#PolyStyle70</styleUrl>
			<MultiGeometry>
				<Polygon>
					<extrude>0</extrude>
					<altitudeMode>clampToGround</altitudeMode>
					<outerBoundaryIs>
						<LinearRing>
							<coordinates> 32.70409110761381,34.7348378086506,0 32.70386571468737,34.73487649797131,0 32.70312199567909,34.73543024395832,0 32.70295009959853,34.73548247301822,0 32.70288052379222,34.73546885078881,0 32.70279101028473,34.73525160156876,0 32.70302231811713,34.73513772861354,0 32.70234842463457,34.73494408920172,0 32.70179793356213,34.73473337163266,0 32.70140914297213,34.73439957916728,0 32.70105793810058,34.7340571271971,0 32.70065742197788,34.73386043141599,0 32.70040141251584,34.73369101112846,0 32.70022792695919,34.73323441864813,0 32.69995163181822,34.73291003912131,0 32.69955687606053,34.73266027663434,0 32.6993460800164,34.73217694625328,0 32.699041944784,34.73199400673926,0 32.69868859176272,34.73194355000278,0 32.69830995522406,34.7316894395123,0 32.69807562738552,34.73148915321508,0 32.69760189095332,34.7307201808547,0 32.6975072254736,34.73057233204931,0 32.69721506531686,34.73021932952911,0 32.69707414257573,34.73008341345274,0 32.69676918896634,34.72998271935264,0 32.6963219734165,34.72992636809343,0 32.69587448775643,34.72990606765688,0 32.69561213152308,34.72994980043576,0 32.69532787146813,34.73000243480886,0 32.69498929220543,34.73001873875465,0 32.69468373628725,34.7299991561357,0 32.69435654607607,34.72995242227677,0 32.69386518963145,34.7299589310934,0 32.69357007890515,34.73000249331338,0 32.69322037902384,34.73004577491915,0 32.69302352546933,34.73008983653834,0 32.69278259629002,34.7301877537023,0 32.69264026283805,34.73024110655078,0 32.69234535223124,34.73025762600281,0 32.69203972773868,34.73024704941049,0 32.69182178219976,34.73019185420804,0 32.69169138005896,34.73011006708812,0 32.69147492425945,34.72985658461215,0 32.69137747933014,34.72974792596049,0 32.69124674041025,34.72971120257312,0 32.69107192423833,34.72972833428788,0 32.69068913393929,34.72981650683302,0 32.69057982278475,34.72983397272704,0 32.69035150456049,34.72970661523983,0 32.68993833517791,34.72947916170841,0 32.68950347003505,34.72923356811537,0 32.68919696672817,34.72934015439299,0 32.68890151556604,34.72942876950085,0 32.68852957334489,34.72952600374293,0 32.68826673747306,34.72963281199783,0 32.68810256667906,34.72968604776725,0 32.68773075788113,34.72976525333755,0 32.68742425036553,34.72987183512276,0 32.68724909302367,34.72993402552917,0 32.68704138670739,34.72996900883294,0 32.6867247784503,34.72996737557578,0 32.68636395385491,34.73003762122765,0 32.68591551472893,34.73014346588991,0 32.68571893011256,34.73015146416337,0 32.6855554398008,34.73011456543415,0 32.68526203344158,34.72993278213928,0 32.68522581635625,34.72991714642824,0 32.68516030040166,34.72988878925645,0 32.68490853839243,34.72990733315238,0 32.68465355259336,34.72972473368259,0 32.68441195026771,34.72972138377304,0 32.68430341188437,34.72977939746036,0 32.68430214160273,34.72978007657598,0 32.68428792940229,34.7297068490326,0 32.68427834261549,34.72960804002897,0 32.68442155666295,34.72922471856397,0 32.68454360474813,34.72890590761112,0 32.6846009913633,34.72873916917438,0 32.6846017500069,34.72863919432893,0 32.68451464714285,34.72863508617316,0 32.6843886858742,34.72864168673249,0 32.68438758721601,34.72864174428404,0 32.6843960886136,34.72859837887145,0 32.68453407618878,34.72842155814612,0 32.68468762934538,34.72825961293493,0 32.68497166352826,34.72802436807265,0 32.68519828338991,34.72783971576313,0 32.68524150447335,34.72784887994592,0 32.68531044045598,34.72786897228072,0 32.68568360886879,34.7276095127732,0 32.68596909493463,34.72739466671204,0 32.68622114612151,34.72726978106909,0 32.68660515850043,34.72701938831072,0 32.68698821249824,34.72689517696919,0 32.68720696407708,34.72684222435243,0 32.68751277972196,34.72682577321959,0 32.68764385336713,34.7268174354912,0 32.6882242300725,34.72658607593082,0 32.6886079605171,34.726371728332,0 32.68878412918228,34.72617434053167,0 32.68903725950604,34.72590524006212,0 32.68920210129568,34.72576187360746,0 32.68913727941761,34.72567140675189,0 32.68919295103911,34.7255274786131,0 32.68941217271855,34.72541143063704,0 32.68963112256093,34.72533143472736,0 32.68979555491107,34.7252421452428,0 32.68990553848134,34.72513454973993,0 32.68995063097768,34.72494550036375,0 32.69008299017199,34.72476591120891,0 32.69029163102874,34.72460474076107,0 32.6904242598089,34.72438910054646,0 32.69051254337715,34.7242633659547,0 32.69066653088076,34.72411092729927,0 32.69074423495569,34.72394007171511,0 32.69087699737278,34.72370640473297,0 32.69115106704638,34.72355458109567,0 32.69135902608154,34.72348353906982,0 32.69157830666408,34.7233584744406,0 32.6918739363264,34.72324281280606,0 32.69184172729616,34.7231705411556,0 32.69151483710138,34.72308774817777,0 32.69139549788746,34.72298799004938,0 32.69120035285887,34.72280672306466,0 32.69104785976339,34.72276087557501,0 32.69097252677804,34.72261627528795,0 32.69080999795274,34.72245320172842,0 32.6907381209304,34.7218489370029,0 32.69030397099191,34.72151321673211,0 32.69003214551669,34.72136760865656,0 32.68973794548388,34.72129399166298,0 32.68933505719953,34.72115672207388,0 32.6889868872447,34.72100170669546,0 32.6888011058808,34.72102779123001,0 32.68865871692694,34.72109015314722,0 32.68851646414728,34.72113448865462,0 32.688156155452,34.72114164853312,0 32.6879636078012,34.72061788136489,0 32.68759340644358,34.72048978821804,0 32.68744214480425,34.72028170184777,0 32.68748655933405,34.72018278266263,0 32.68796633022934,34.72025736100331,0 32.68815149768162,34.72031239357639,0 32.6884345733483,34.72041299744298,0 32.68901347591527,34.72037090695341,0 32.6892655687405,34.72023700115394,0 32.68959509325954,34.71996829235522,0 32.68945698377325,34.71946283334092,0 32.69005750844986,34.71944788921216,0 32.69036404150767,34.71933228681844,0 32.69060074123455,34.71979318342478,0 32.69092660134324,34.72001117436126,0 32.69096002776696,34.71992121181997,0 32.69100430207826,34.71984031757433,0 32.69116980521852,34.71960681786882,0 32.6915421732982,34.71944648281312,0 32.6917410993902,34.71912301957607,0 32.69197229864658,34.71886281407646,0 32.69227230386203,34.71816130374869,0 32.69197980352509,34.71786236708211,0 32.69180724486174,34.71758206897614,0 32.69167787627693,34.71736508617005,0 32.69173495858706,34.71703188312599,0 32.69167122181159,34.71679720920991,0 32.6916288440883,34.71662573787519,0 32.69161975508882,34.71638232999842,0 32.69132644986231,34.7161915475006,0 32.69108760776975,34.71599015963144,0 32.6912261751033,34.71552331010596,0 32.69161643366889,34.71534225744622,0 32.69186947981511,34.7151871316102,0 32.69202084387689,34.71515461893521,0 32.69201164734521,34.71503976517965,0 32.6921862161017,34.71487093090253,0 32.69223846084228,34.71488949785875,0 32.69231591183463,34.71477341700941,0 32.69239704546592,34.71417483040178,0 32.69238485014293,34.71366063049464,0 32.69234734391859,34.71355894418645,0 32.69321999355445,34.71326551237689,0 32.69259753852004,34.71298450526849,0 32.69244911011024,34.71263267791495,0 32.69213715280315,34.71206039209016,0 32.692201027812,34.71134691042192,0 32.69216606776011,34.71064790442557,0 32.69222755058248,34.71051177695305,0 32.69269828417101,34.71007821665966,0 32.69252041515998,34.70962474314191,0 32.69263782422677,34.70955212514622,0 32.69243560391113,34.70912182353983,0 32.69287652454366,34.70889776105585,0 32.69308835514211,34.7085960032689,0 32.69320292627319,34.70836696496772,0 32.69333700771693,34.70822121980125,0 32.69350182854588,34.70774285284956,0 32.69341508676337,34.70749283364846,0 32.69372604653506,34.70740122341054,0 32.69463381476827,34.70724938785153,0 32.69451655600674,34.7067729273432,0 32.69453727798709,34.70616737911256,0 32.69449503192707,34.70589429001726,0 32.69443193192084,34.70571427377019,0 32.69421331471111,34.70532049723588,0 32.69415875410039,34.70507729678574,0 32.69451607631167,34.70471636846814,0 32.69490418311281,34.70479699087133,0 32.6952462427268,34.70490673147066,0 32.69571608868858,34.70494704555139,0 32.69614782695003,34.70488498231575,0 32.69649888169634,34.70474076691985,0 32.69671543621583,34.70461923208649,0 32.69700392340891,34.7043345641008,0 32.69738899884037,34.70389856436707,0 32.69760671866408,34.70362229931489,0 32.69786990398968,34.70341049064892,0 32.69777019909007,34.70257208758272,0 32.69794757333854,34.70202118425885,0 32.69787480143818,34.70182813120203,0 32.69792429482879,34.70171103873744,0 32.69815463604573,34.70116608438848,0 32.69795864462321,34.70069870774712,0 32.69834494872339,34.70010396549154,0 32.69847888647954,34.69879465202126,0 32.69852668223737,34.6979169942603,0 32.69957222404166,34.69804573408634,0 32.70056339974538,34.69881204006781,0 32.70085461314478,34.69873806411069,0 32.70133567081749,34.69882964870499,0 32.70240187853037,34.69838920519511,0 32.70221232519329,34.69818249426393,0 32.70146110516563,34.69754086419488,0 32.70076979043857,34.69665262384704,0 32.7006155135019,34.69615802641473,0 32.70031165571499,34.69567639282963,0 32.70199315402679,34.69512931665495,0 32.70217259550571,34.69558974516968,0 32.70289525129748,34.69557280180274,0 32.70324123062234,34.69597233744018,0 32.70354685467859,34.69620706383791,0 32.70398691062599,34.69622298792257,0 32.70443638792558,34.69608121046685,0 32.70481588625113,34.69643975830355,0 32.70537852944261,34.6967374939445,0 32.70526681424789,34.69609222733285,0 32.70540119290217,34.69588028335527,0 32.70562667823449,34.69570308738882,0 32.70704495191394,34.6959707976728,0 32.70762999966212,34.69544560319063,0 32.70805522587212,34.6952076701704,0 32.70853920926051,34.69488086782334,0 32.70899890027941,34.69446477989798,0 32.70870547176405,34.69367458107183,0 32.70896397010766,34.69352497689157,0 32.70916946683869,34.69382777702254,0 32.7095511865202,34.69387082653835,0 32.70969371022819,34.69367949389679,0 32.71069173977856,34.69347183021196,0 32.71084237323097,34.69330797061243,0 32.71098522687748,34.69306862765213,0 32.71184798631145,34.69320769576869,0 32.711916002946,34.69321865887643,0 32.71202339320638,34.69344059936397,0 32.71307715205421,34.69374338321461,0 32.71378169288288,34.693653501064,0 32.71391015792034,34.69385824787459,0 32.7140565839989,34.69389011410455,0 32.7144905665419,34.69354287946653,0 32.71493246743832,34.69326141136476,0 32.71561072003078,34.69273204203467,0 32.71680320320537,34.69236435894026,0 32.71732723294558,34.69232198943264,0 32.71753710389639,34.69226768108248,0 32.7177472606509,34.69217186124602,0 32.71851797208932,34.69159796052929,0 32.71870286856819,34.69151931047946,0 32.71905059015448,34.69152449279608,0 32.71972384827367,34.69171463317912,0 32.71994607054097,34.69169151649486,0 32.72062251801317,34.69141810623315,0 32.72094167395227,34.69131244051873,0 32.72125166404567,34.69132088903139,0 32.72152347188898,34.69139833728384,0 32.72197136835555,34.69145935541398,0 32.72276556915769,34.69112078480938,0 32.72320210287987,34.69100531248813,0 32.72325313741827,34.69089486126215,0 32.72485264141139,34.69042877622211,0 32.72544823361814,34.69033483215217,0 32.72578809182539,34.69026384925112,0 32.72614536582229,34.69009608661414,0 32.72640550030363,34.69004200929203,0 32.72673758800724,34.68988104044264,0 32.72689104891709,34.68949433536725,0 32.7271323498265,34.68912881660324,0 32.72713011182321,34.68884167337754,0 32.72788778243429,34.68832300060659,0 32.7277266916668,34.68798319114055,0 32.72779475791791,34.68783130923099,0 32.72720356270264,34.6878976103644,0 32.72671314304299,34.68734798747153,0 32.7262658446157,34.68684668180693,0 32.72612205686989,34.6866512768835,0 32.72631236708683,34.68600811540846,0 32.7268183485304,34.68562483442856,0 32.72693148830382,34.68565907431972,0 32.72698070752274,34.6857566678588,0 32.72722912778548,34.68590389070206,0 32.72761022528501,34.68587949097949,0 32.72818495687075,34.68538793889367,0 32.72833630437611,34.68513777010195,0 32.72872849806511,34.68481385344684,0 32.72906688061609,34.68439981030318,0 32.72919121795611,34.68411955685279,0 32.72935487148821,34.68406041873189,0 32.72993976606303,34.68407442591144,0 32.73033478867671,34.6840014050956,0 32.73045080951962,34.683608772527,0 32.73155437702782,34.6826965659586,0 32.73369962211454,34.68129871683285,0 32.73419974940805,34.68110260606231,0 32.73463909396583,34.68117956371452,0 32.73494363359764,34.68107240036357,0 32.7349715173956,34.68097142852311,0 32.73506158105568,34.68106546574463,0 32.73622549101122,34.68061034061067,0 32.73752752258897,34.68120059281152,0 32.73827497861481,34.68123442676513,0 32.73934147125731,34.68128269345932,0 32.74002037828578,34.68123073566728,0 32.74074205011004,34.68114552140787,0 32.74153259767323,34.68105895790462,0 32.74225553181066,34.68108414966147,0 32.74274727695829,34.6811500584213,0 32.74313525463928,34.68128405922836,0 32.74383690215627,34.68145969842706,0 32.74475039314616,34.68146235939246,0 32.74513942983623,34.68144245581361,0 32.74534995176139,34.68146185467152,0 32.74606271684741,34.68178976293903,0 32.74610049174125,34.68189365876739,0 32.74609504537752,34.68209772267882,0 32.74613804845222,34.68232543575272,0 32.74648170936771,34.68247834564504,0 32.7461433004914,34.68284148533715,0 32.74600557163734,34.68307575060027,0 32.74595700502987,34.68334399594361,0 32.74593242989668,34.68396640653365,0 32.74591019500804,34.68454352388017,0 32.74598938595506,34.68484761111195,0 32.74619398138166,34.68523451264469,0 32.74633074117681,34.68573687195655,0 32.74650516203861,34.68608000226841,0 32.74665156502701,34.68636091581823,0 32.74660618001152,34.6867583802966,0 32.74649869204907,34.6871245345865,0 32.74639724179558,34.68730273283123,0 32.74640646299924,34.68744145600146,0 32.74642322751215,34.68769367927921,0 32.74642312799302,34.68822701830294,0 32.74642703019504,34.68846805006646,0 32.74645193538053,34.68866875493351,0 32.74627183310449,34.68909860630953,0 32.74611806568218,34.68938809641677,0 32.74587180489117,34.68959372075739,0 32.74566984988741,34.68966116943931,0 32.74555865254548,34.68967618482591,0 32.74474938274932,34.68951113348857,0 32.74458754240331,34.68949947106022,0 32.74415171586458,34.68962177089593,0 32.74401332096134,34.68975171850467,0 32.74397789358288,34.68996301828055,0 32.74360714862873,34.69023141810583,0 32.74332129158872,34.69036691686978,0 32.74289780808194,34.69043473976792,0 32.74261947817234,34.69048472661835,0 32.74239911445689,34.69060848282038,0 32.74224585155014,34.69081798330673,0 32.74219838849229,34.6910226790306,0 32.74200325228396,34.69141278949949,0 32.74200379131587,34.69157533119925,0 32.74171704200959,34.69183201255769,0 32.74143016938999,34.69186912359381,0 32.74102019994061,34.69224226961168,0 32.74067188370901,34.69262397327043,0 32.74061367833877,34.69279193396694,0 32.74063871483083,34.69291215234911,0 32.74072544623525,34.69309046202634,0 32.74069667439825,34.69324715838894,0 32.74055047877728,34.69342773897935,0 32.74023463812964,34.69361746571927,0 32.74002692946887,34.69369731587003,0 32.73960676283104,34.69385226142004,0 32.73935048732406,34.69396696474488,0 32.73890802435816,34.6943266228127,0 32.738747346703,34.69455354268965,0 32.73864776806834,34.69498331235955,0 32.73843969108017,34.69498369981478,0 32.73818005039949,34.69492010790029,0 32.73812525619882,34.69490668807877,0 32.73793304804407,34.69486549510949,0 32.73782747434583,34.69494346334941,0 32.73760148468212,34.6950745483233,0 32.73697084784141,34.69512108305427,0 32.73644711664351,34.69563898006403,0 32.73592404304949,34.69605775237589,0 32.73518264428028,34.69695458072292,0 32.73485134149288,34.69712232518231,0 32.73451909556523,34.69743049309704,0 32.73395908684517,34.69738648720027,0 32.73323202160456,34.69763491945928,0 32.73242332624653,34.69811837864656,0 32.7321377316805,34.69818307891624,0 32.73150284681314,34.69811391650767,0 32.73130707661348,34.69821209404768,0 32.73125493175375,34.69852574176871,0 32.73114895603337,34.69866152710834,0 32.73077230826987,34.69887447269901,0 32.73043059391713,34.69909997703747,0 32.73016011384944,34.69914822632575,0 32.72956558065527,34.69902968676378,0 32.72925158893927,34.69885468688805,0 32.72906157303468,34.69884136995874,0 32.72876971090532,34.69909189526079,0 32.72860299919673,34.69933063877951,0 32.72855106810095,34.69961124509184,0 32.7284654899189,34.69968930285032,0 32.72819433559256,34.69983666999148,0 32.72800291383126,34.70002985949461,0 32.7278310272258,34.70029335731748,0 32.72757114446451,34.70099010605561,0 32.72763938716975,34.70125477659187,0 32.72745799666976,34.70144388321557,0 32.72719748655443,34.70149630395531,0 32.72722635042529,34.70166578609437,0 32.72707000255335,34.70185515461367,0 32.72700744161189,34.70197263630776,0 32.72695586315482,34.70215071766259,0 32.72695462612964,34.7023255808733,0 32.72701738653699,34.70264099209403,0 32.72692638366778,34.7027617481492,0 32.7260441481834,34.70359373713174,0 32.7258858726285,34.70374013844426,0 32.72590187919049,34.70414362390358,0 32.72584575095811,34.7043718927431,0 32.72570095666669,34.70468630101026,0 32.72553980542123,34.70494176490555,0 32.72523414314547,34.70517575075478,0 32.72491230105145,34.70532655238758,0 32.72450221452164,34.70550289690701,0 32.72441523778402,34.70564617878807,0 32.72428099198339,34.70595024856792,0 32.72407831118307,34.70614837236538,0 32.72371939030251,34.70649983022608,0 32.72365749393912,34.70665362092085,0 32.723598767449,34.7069511307747,0 32.72364018306607,34.70731838173589,0 32.72363281051921,34.70776503867982,0 32.72361044106827,34.70796230569979,0 32.72350212338695,34.70815742422562,0 32.72321744681106,34.70868064507509,0 32.7231078685377,34.70905235604509,0 32.72298540237676,34.70917295636337,0 32.72289924591306,34.70920023899118,0 32.72266991462373,34.70901733143129,0 32.72258845772223,34.70897365199971,0 32.72233016905656,34.70902953069852,0 32.72178235224316,34.70911170107821,0 32.7215939317751,34.70907269330625,0 32.72158727027899,34.70912460170997,0 32.72164486259849,34.70928070518998,0 32.72162980514059,34.70933430449736,0 32.72150610519584,34.70933370180927,0 32.72098351508647,34.70911300343864,0 32.72071337601677,34.70906667023399,0 32.72029593174538,34.70909579826536,0 32.719983713443,34.70907003478613,0 32.71962391657976,34.7089540061799,0 32.71944596676475,34.70891677884623,0 32.71937047813167,34.70891814020887,0 32.71922507955768,34.70901958002137,0 32.71899646405853,34.70932318195648,0 32.71885917825424,34.70946275136694,0 32.71870572582976,34.70981000480084,0 32.71850903913797,34.71004623891199,0 32.71813264434618,34.71048935489016,0 32.71853625702652,34.7109276355988,0 32.71842470128107,34.71098768780264,0 32.71859544641428,34.71115300296684,0 32.71859489911905,34.71122918017804,0 32.71846824152777,34.71134802457382,0 32.71864109476643,34.71151161822794,0 32.71891828252745,34.71203757796886,0 32.71879055690018,34.71230531460898,0 32.71894731047377,34.71237533624772,0 32.71927750496275,34.71252757995991,0 32.71968641925591,34.71281352287162,0 32.71962927490129,34.71288769118905,0 32.71991900278028,34.71312803594174,0 32.71983284027672,34.71344791715443,0 32.71987983631387,34.71361955089831,0 32.72016378705582,34.71378888044346,0 32.72019289241882,34.71382365015138,0 32.72007918731392,34.71389061765571,0 32.72001516912109,34.71404612771703,0 32.71990714615295,34.71449056031486,0 32.71969342787582,34.71476133994469,0 32.71972545025783,34.71497445450121,0 32.71963676601725,34.71506058931946,0 32.71955865298796,34.7151346552311,0 32.71942017957635,34.71543869764931,0 32.7197021127603,34.71559763058015,0 32.71992361194045,34.71570432639849,0 32.72006392195612,34.71572925078156,0 32.7204504562611,34.71562898653545,0 32.72074546766743,34.71571872615531,0 32.72092142202931,34.71574382319429,0 32.72102659418695,34.71569758985374,0 32.72131029970839,34.7156089416665,0 32.72162718307899,34.71557239496206,0 32.72209299637367,34.71552791627406,0 32.72202931502759,34.71563668167927,0 32.72219041893141,34.71568594467556,0 32.72191406979846,34.71621266490448,0 32.72173767925773,34.71631478684766,0 32.72166931068353,34.71633440885312,0 32.72135973278228,34.71642325741347,0 32.72118658390021,34.7165265768032,0 32.72095839994025,34.71668170969404,0 32.72018453857108,34.71728555339996,0 32.71987133173298,34.71756873781256,0 32.71963351016291,34.71789395358154,0 32.71949693046555,34.71817452702147,0 32.7190768685753,34.71928354954078,0 32.71846368539632,34.71975969914272,0 32.71831926534501,34.7199603750603,0 32.71789202702713,34.72030896499552,0 32.71735878034107,34.72077855644184,0 32.71771812978801,34.72109975335017,0 32.71819873126217,34.72151876198093,0 32.71836967059882,34.72172445341766,0 32.71826923186686,34.72224130629112,0 32.71829963237533,34.7226928295614,0 32.71822684902687,34.72287302282238,0 32.71791258491981,34.7232985525107,0 32.71745408889851,34.72389697877774,0 32.71751554995673,34.72412296717624,0 32.71732415765961,34.72442062962165,0 32.71752608943645,34.72441120353336,0 32.71723665234692,34.72489240659885,0 32.71743183158983,34.72523710281491,0 32.71697725385692,34.72587374023058,0 32.71638093345151,34.72575275961649,0 32.71645878401094,34.72603785511472,0 32.71604847833105,34.72636568796804,0 32.71577083707249,34.72695805282606,0 32.71544740924807,34.72748422186908,0 32.71529007359585,34.72772302181117,0 32.71495130236463,34.72804425973507,0 32.71459483558233,34.72790361876624,0 32.71418052198803,34.72762033572893,0 32.7136177182147,34.72809670806593,0 32.71323189431404,34.72852534278802,0 32.71268607729213,34.72897749140265,0 32.71223330977061,34.72877734329158,0 32.71208739999507,34.72859954436957,0 32.71187951918782,34.72826866438189,0 32.71166639542515,34.72816583940256,0 32.71159820441952,34.72814624781604,0 32.71129337149152,34.72802756371916,0 32.71080307655761,34.72788993164541,0 32.71050397833196,34.72848333038241,0 32.71105866563811,34.72877451046978,0 32.71093759115457,34.72890911112579,0 32.71087064358731,34.72910707334749,0 32.71080107181922,34.72966555726303,0 32.71075530308961,34.72995375845102,0 32.71074169587747,34.73032323986261,0 32.71036820009938,34.73063685424312,0 32.7103673458551,34.73075402359647,0 32.71034789317525,34.73078412229702,0 32.7102719745371,34.73105034958185,0 32.71024387729705,34.73160723597307,0 32.70965624422751,34.73165344664533,0 32.70955115585791,34.73209979388601,0 32.70908212022724,34.73321241669697,0 32.70889854413258,34.73339733434874,0 32.70852719227648,34.73360785663296,0 32.70819209253776,34.73399111740819,0 32.70772520946488,34.73407285423145,0 32.70730184562728,34.73406631888285,0 32.70663256483458,34.73397448853397,0 32.70619861237636,34.73395019837555,0 32.7060053163471,34.73399790168426,0 32.70578424898439,34.73417819875535,0 32.70563194227957,34.73448272278825,0 32.70539557473151,34.73455675463028,0 32.70451675020363,34.7345346539967,0 32.70409110761381,34.7348378086506,0</coordinates>
						</LinearRing>
					</outerBoundaryIs>
				</Polygon>
			</MultiGeometry>
		</Placemark>
	</Document>
</kml>