<?xml version='1.0' encoding='UTF-8'?>
<kml xmlns="http://www.opengis.net/kml/2.2">
	<Document>
		<name>POLI CHRYSOCHOUS, ANDROLIKOU</name>
		<Style id="PolyStyle70">
			<LabelStyle>
				<color>00000000</color>
				<scale>0.000000</scale>
			</LabelStyle>
			<LineStyle>
				<color>ff0055ff</color>
				<width>2.000000</width>
			</LineStyle>
			<PolyStyle>
				<color>00828282</color>
				<outline>1</outline>
			</PolyStyle>
		</Style>
		<Placemark id="ID_70051">
			<name>POLI CHRYSOCHOUS, ANDROLIKOU</name>
			<snippet />
			<description>&lt;html xmlns:fo="http://www.w3.org/1999/XSL/Format" xmlns:msxsl="urn:schemas-microsoft-com:xslt"&gt;

&lt;head&gt;

&lt;META http-equiv="Content-Type" content="text/html"&gt;

&lt;meta http-equiv="content-type" content="text/html; charset=UTF-8"&gt;

&lt;/head&gt;

&lt;body style="margin:0px 0px 0px 0px;overflow:auto;background:#FFFFFF;"&gt;

&lt;table style="font-family:Arial,Verdana,Times;font-size:12px;text-align:left;width:100%;border-collapse:collapse;padding:3px 3px 3px 3px"&gt;

&lt;tr style="text-align:center;font-weight:bold;background:#9CBCE2"&gt;

&lt;td&gt;6&lt;/td&gt;

&lt;/tr&gt;

&lt;tr&gt;

&lt;td&gt;

&lt;table style="font-family:Arial,Verdana,Times;font-size:12px;text-align:left;width:100%;border-spacing:0px; padding:3px 3px 3px 3px"&gt;

&lt;tr&gt;

&lt;td&gt;DIST_CODE&lt;/td&gt;

&lt;td&gt;6&lt;/td&gt;

&lt;/tr&gt;

&lt;tr bgcolor="#D4E4F3"&gt;

&lt;td&gt;VIL_CODE&lt;/td&gt;

&lt;td&gt;355&lt;/td&gt;

&lt;/tr&gt;

&lt;tr&gt;

&lt;td&gt;VIL_CCD&lt;/td&gt;

&lt;td&gt;6355&lt;/td&gt;

&lt;/tr&gt;

&lt;tr bgcolor="#D4E4F3"&gt;

&lt;td&gt;VIL_NM_E&lt;/td&gt;

&lt;td&gt;POLI CHRYSOCHOUS, ANDROLIKOU&lt;/td&gt;

&lt;/tr&gt;

&lt;tr&gt;

&lt;td&gt;VIL_NM_G&lt;/td&gt;

&lt;td&gt;ΠΟΛΗ ΧΡΥΣΟΧΟΥΣ, ΑΝΔΡΟΛΙΚΟΥ&lt;/td&gt;

&lt;/tr&gt;

&lt;/table&gt;

&lt;/td&gt;

&lt;/tr&gt;

&lt;/table&gt;

&lt;/body&gt;&lt;script type="text/javascript"&gt;

				function changeImage(attElement, nameElement) {

				document.getElementById('imageAttachment').src = attElement;

				document.getElementById('imageName').innerHTML = nameElement;}

			&lt;/script&gt;&lt;/html&gt;

</description>
			<styleUrl>#PolyStyle70</styleUrl>
			<MultiGeometry>
				<Polygon>
					<extrude>0</extrude>
					<altitudeMode>clampToGround</altitudeMode>
					<outerBoundaryIs>
						<LinearRing>
							<coordinates> 32.31229725461316,35.05512981734783,0 32.28766252543429,35.06155408763296,0 32.28574983356869,35.0620526263887,0 32.26978077707668,35.06621394214605,0 32.26978021089171,35.06617583504872,0 32.26978012086321,35.06616981770781,0 32.26981817746055,35.06576450374587,0 32.26984596219201,35.06530501547,0 32.26982610811851,35.06514258837899,0 32.26978524998391,35.06490786387663,0 32.26976666061638,35.06464629111704,0 32.26981533268572,35.06426811160721,0 32.2701028553527,35.06407227476864,0 32.2702731344087,35.06361401412615,0 32.27038619303482,35.06334456014373,0 32.27052036941446,35.06313838828773,0 32.27057701333857,35.06299464748394,0 32.27071187683109,35.06273439500916,0 32.2708139717992,35.06246484580819,0 32.27090464536759,35.06223125565916,0 32.27100800085119,35.06186256052382,0 32.27103072576111,35.06179965632074,0 32.27103054919669,35.0617990468188,0 32.27098871904222,35.06165506636943,0 32.27092501904305,35.06149226044446,0 32.27092502230293,35.06149201708772,0 32.2709260515936,35.06141114120329,0 32.27092616680842,35.06140212795714,0 32.27274481411315,35.06062451156659,0 32.27933620565462,35.05776935277523,0 32.28583843546701,35.05499420248051,0 32.28741442723945,35.05431346093805,0 32.28998874427536,35.05327095292289,0 32.29030896497876,35.05337341625583,0 32.29058318605859,35.05335770439765,0 32.29080441065176,35.05319731355155,0 32.29081807260759,35.05298108531891,0 32.2941344886677,35.05160280510027,0 32.29449024531439,35.0512001536862,0 32.29523538694499,35.05121543506814,0 32.29562244700222,35.05093924334206,0 32.29929739481868,35.04714798156333,0 32.30140306951122,35.04497507378477,0 32.30545733591718,35.04074654297474,0 32.30817144306237,35.03787996043865,0 32.31256203951991,35.03345941362761,0 32.31266875842562,35.03335056019325,0 32.31317441752526,35.03275927321217,0 32.31366952015196,35.03218032128252,0 32.32599303997387,35.01836027625598,0 32.32925474346116,35.01476039126219,0 32.3387142360098,35.0041926501975,0 32.33891099587745,35.00396065243232,0 32.33937258159097,35.00341639281368,0 32.34003018694067,35.00264099031159,0 32.34072137823973,35.00188458427004,0 32.34151644933957,35.0009825807842,0 32.34275261690454,34.9995661938358,0 32.3442390306713,34.99788941569222,0 32.34398450175313,34.99736680310454,0 32.3448312811878,34.9971288360609,0 32.34541789833172,34.99712810022136,0 32.34634552081783,34.99727379937747,0 32.34689289631245,34.99780692676201,0 32.34713860411244,34.99793090845277,0 32.34720351497958,34.99801548600782,0 32.3472735158907,34.99794825410282,0 32.34740199405258,34.99767269659625,0 32.34775019666647,34.99748837129469,0 32.34786859103794,34.99722900155655,0 32.3478657697165,34.99690901168485,0 32.3477522211241,34.99675625654056,0 32.3476606807415,34.99641386677835,0 32.34764336949229,34.99620493635097,0 32.34769164130182,34.99602364306629,0 32.34789820504155,34.99583276634348,0 32.34795561964862,34.9954346197152,0 32.34799412929406,34.99524240285904,0 32.34792213944851,34.99491914965438,0 32.34794676902962,34.9947864774098,0 32.34769242507618,34.99455667603415,0 32.34759666841755,34.9942928888368,0 32.34756508417457,34.99389674285756,0 32.34747409549363,34.99378755474577,0 32.34745326426159,34.99359757633759,0 32.3474833575961,34.99328056026549,0 32.34749262866571,34.99305285922861,0 32.34814923000128,34.99354346825607,0 32.34851579180746,34.99375789168691,0 32.34864549459541,34.99393788869281,0 32.34902207108139,34.99414154472016,0 32.34988534637724,34.99443313067018,0 32.35034753955564,34.99464288658626,0 32.35063951498599,34.9944743762922,0 32.35061601803069,34.9942301454717,0 32.35078707585769,34.99425590950409,0 32.35094245827733,34.99421375846716,0 32.35112612581229,34.9942884295778,0 32.35161633449345,34.99435740144105,0 32.35179496823303,34.99429916345566,0 32.35214551865527,34.99447548527339,0 32.35242180002265,34.99452106258894,0 32.35270479817584,34.99455584646473,0 32.3528440208152,34.99448644827699,0 32.35307410531343,34.99453708172519,0 32.35325290314394,34.99446528617631,0 32.35333112572083,34.99453911813614,0 32.35330492253512,34.99480735776315,0 32.35372299490989,34.99484592082749,0 32.35399804003138,34.9949972367816,0 32.35433680857909,34.99505415205928,0 32.35445926680244,34.99500902253584,0 32.35495864221065,34.99514041980269,0 32.35547303321098,34.9953966659803,0 32.35568696689825,34.99542004928781,0 32.35602365307336,34.99565590916134,0 32.3566938256828,34.99640146802204,0 32.35677380234322,34.99660818105163,0 32.35677108282268,34.99684135572146,0 32.35765648838645,34.996935113937,0 32.35835381848411,34.99704907650455,0 32.35847258981832,34.99675444860689,0 32.35843540282711,34.99626877930763,0 32.35814820197388,34.99602789647309,0 32.35809836358909,34.99606275455939,0 32.35766652462804,34.99579090129362,0 32.35755333059667,34.99532361305369,0 32.35815975432986,34.99503554300183,0 32.35835169362558,34.99496655329828,0 32.35845203221219,34.99483989924936,0 32.35898152597877,34.994648836477,0 32.35937407182079,34.99433195928978,0 32.35983230956342,34.99374986116189,0 32.36011113260855,34.99386051886794,0 32.36025240901961,34.99389688083532,0 32.36049584010203,34.99393404672147,0 32.3608219850825,34.9942267519536,0 32.36107121606312,34.9943317521544,0 32.3612061487427,34.99463108839038,0 32.36126803418921,34.99469393937996,0 32.36145812392953,34.99450019886188,0 32.36174119782797,34.99424482178667,0 32.36191979458013,34.99418928010461,0 32.36212726237568,34.9942017560878,0 32.36217816585758,34.99407471114824,0 32.36236601627853,34.99407347417024,0 32.36261497200977,34.99420287182716,0 32.36304961129721,34.99423339870668,0 32.36333136372188,34.99409189324684,0 32.36362136353529,34.99409145500884,0 32.36391026543366,34.9941859143478,0 32.36428051007767,34.99408577357878,0 32.36434952075038,34.99410258476517,0 32.3643686935829,34.9941542548052,0 32.36465276661093,34.99409682388976,0 32.36483685590935,34.99413622780278,0 32.36516671145849,34.99410898274551,0 32.3657295116486,34.99388561020496,0 32.36592631018316,34.9938908568412,0 32.36679165070633,34.99391391813614,0 32.36687413847418,34.99397408208625,0 32.36713935954477,34.99386902017845,0 32.36738894675091,34.99386501802611,0 32.36748177084242,34.99396989939054,0 32.36763665183248,34.99402467276517,0 32.36790497478035,34.99396427397861,0 32.36808275024926,34.99391507025892,0 32.36830157942752,34.99375608263922,0 32.36831643988837,34.99340802006648,0 32.36850035334854,34.99345409335756,0 32.36859567371031,34.99334175243774,0 32.36854737925383,34.99313901658778,0 32.36875363907247,34.99312872155991,0 32.36895702515157,34.99336837679047,0 32.36929006215696,34.99334121365764,0 32.36934797512489,34.9936511561158,0 32.36945533159176,34.99375019732715,0 32.36959009398429,34.99366792149252,0 32.36958928262455,34.9934238929287,0 32.3695003150191,34.99329821331284,0 32.36949506897265,34.99312557142142,0 32.36971525930944,34.99284755524753,0 32.36993998832968,34.99248922401279,0 32.37010039687833,34.99237739002299,0 32.37016389334939,34.99220230770281,0 32.37035271830393,34.99213533254943,0 32.37044207371076,34.99191283658676,0 32.37055148073111,34.99183333970715,0 32.37078120719658,34.99198392042339,0 32.37107765718268,34.99230762152479,0 32.37134850029487,34.9920270189504,0 32.37141229497235,34.99182515568744,0 32.3715352119147,34.99182908670422,0 32.37156854115683,34.99176090076566,0 32.37181410208157,34.99179256809924,0 32.37199723128857,34.99159163111728,0 32.37205866947732,34.99159508401755,0 32.37243294183379,34.99207115585965,0 32.37260150240024,34.99250991879173,0 32.37273741694101,34.99264191245065,0 32.37295149033932,34.99258108152133,0 32.37291962578183,34.99220587336607,0 32.3728615579844,34.99190783479831,0 32.37289727777816,34.99163135475894,0 32.37280567831215,34.99141935655082,0 32.37290850053763,34.99128326449254,0 32.373110968504,34.99160325537346,0 32.37338017183907,34.99178091961076,0 32.37379804611319,34.99192402751426,0 32.37417498075826,34.99216799632264,0 32.37450985830395,34.99229557798903,0 32.37463410741749,34.99249890116169,0 32.37468783957543,34.99254395550589,0 32.37487400169793,34.99239362778388,0 32.3749379647008,34.99217688301395,0 32.37499950637302,34.99217140919271,0 32.37493430175643,34.99186438833121,0 32.37497792588714,34.99152845252077,0 32.37487601617168,34.99126876139854,0 32.37490681776491,34.99110532655016,0 32.37487982828805,34.99093549248349,0 32.37487095769561,34.99076282302025,0 32.37476840243121,34.99055966945782,0 32.37481673976603,34.99044398431852,0 32.37469528847688,34.99031210439414,0 32.37515535568087,34.98974244129035,0 32.37526415616434,34.98960772374198,0 32.37526731770242,34.98933116274728,0 32.37539755484977,34.98918032185874,0 32.37531017340498,34.98904135422927,0 32.37531132000964,34.98894103396696,0 32.37527871205742,34.98891095285276,0 32.37527693843803,34.98877807030824,0 32.3751274798583,34.98859252447902,0 32.37518671672256,34.98831097608051,0 32.37504863121492,34.98799536094062,0 32.37504962359581,34.98790859709765,0 32.37514479141949,34.9876544436373,0 32.37503463041926,34.98749089424091,0 32.3750376380159,34.98722789139855,0 32.37496834196218,34.98694805837232,0 32.37493159455187,34.98670373000551,0 32.37472786810834,34.98636591274271,0 32.37524392005584,34.98577036283304,0 32.37530668147033,34.98588772866165,0 32.37550008198769,34.98597599826729,0 32.37571710374394,34.98601563888088,0 32.3759709587813,34.98600404469503,0 32.3765948681578,34.98561568739253,0 32.37693319471179,34.98542035473768,0 32.37761812360254,34.98574832728341,0 32.37802864327685,34.98586809586569,0 32.37819024244154,34.98585578551866,0 32.37848954401917,34.98590419232414,0 32.37864651991834,34.98600844450479,0 32.37883954618241,34.98641938617119,0 32.3789563380643,34.98658027177518,0 32.3790009518255,34.98671348434655,0 32.37912698098848,34.98693138444636,0 32.37909883238728,34.98708843948355,0 32.37921263998717,34.98722218699398,0 32.37928761132739,34.98758340899339,0 32.37960132003267,34.98810374505706,0 32.37968667328356,34.98842166012619,0 32.37982952150187,34.98860986275656,0 32.38014416595733,34.98875871335854,0 32.38025776221429,34.98891143801389,0 32.38033323191761,34.98922927601138,0 32.38057526879061,34.98938841317445,0 32.38080415869889,34.98954473620437,0 32.38089327595686,34.98953186511873,0 32.38110701526288,34.98957147218822,0 32.38131130133431,34.98957304342827,0 32.38160581549724,34.98946413272387,0 32.38181314789868,34.98919727828836,0 32.38213481765541,34.98901807275884,0 32.38240426210341,34.98908522241391,0 32.38270911643884,34.98893571425258,0 32.38290280402906,34.98870942687223,0 32.38289242293723,34.98846259012446,0 32.38293383671515,34.98829750064085,0 32.38316497625546,34.98854603158524,0 32.38337776292985,34.98866968735763,0 32.38344428191368,34.98890610760618,0 32.38359769930943,34.98903473022999,0 32.38364753085836,34.98929000429079,0 32.38376063948655,34.98948610815849,0 32.38374718552006,34.98980866588662,0 32.38374166953913,34.98994091372113,0 32.38377991478112,34.99000191436475,0 32.38389502767526,34.989970758083,0 32.38396866249275,34.98981036498733,0 32.38400933417502,34.98972177149645,0 32.3841376250322,34.98965983012878,0 32.38452335701946,34.98906081146224,0 32.38476519552209,34.98865592328355,0 32.38496294962845,34.98865201614746,0 32.3851862978109,34.98871609387624,0 32.38546753001084,34.98861520657005,0 32.38565428136966,34.98841868932465,0 32.38607002448563,34.98895334644897,0 32.3861567413113,34.98915619063251,0 32.38639914766147,34.98943478491848,0 32.3869225277824,34.98983298649465,0 32.38699986733888,34.98989182815976,0 32.38770828770792,34.99069195169032,0 32.38853757023235,34.99155533786721,0 32.38869409553008,34.99178567508037,0 32.38887094824078,34.99213817905492,0 32.38923139318151,34.99256648137961,0 32.38954820890856,34.99301527768318,0 32.38964396801761,34.99318265998488,0 32.389661446737,34.99355775121384,0 32.389692382627,34.99402222730927,0 32.38978523452088,34.99412709100773,0 32.39029399092794,34.99423214756844,0 32.38992851077347,34.99457158756848,0 32.39010697975078,34.99478126014887,0 32.39022327232554,34.99537434728792,0 32.39026884333467,34.99582405039009,0 32.39026502591744,34.99616327184469,0 32.39027962632082,34.99647287437978,0 32.39019226662991,34.99652280011382,0 32.38986301029214,34.99653516987581,0 32.38961384828231,34.99650053538679,0 32.3895748033143,34.99675616397721,0 32.38940211821916,34.99699589289963,0 32.3894140703668,34.99721917478201,0 32.38993690883134,34.99736005186241,0 32.39069916410639,34.99743728110791,0 32.3909373136938,34.99748670977524,0 32.39120355765609,34.99761074622523,0 32.39151403440022,34.99766072305566,0 32.39175325342938,34.99761492864098,0 32.39232704035734,34.99744021526737,0 32.3928270022116,34.99728797890737,0 32.39293622171129,34.99719975598038,0 32.39306288528032,34.99727196135449,0 32.39332076580238,34.99722444530083,0 32.39402262389878,34.9972634159511,0 32.39437639191153,34.99724433172229,0 32.39452459010452,34.99732659278403,0 32.39435937066869,34.99747573997998,0 32.39397421560852,34.99772018878003,0 32.39381324656456,34.99791884118889,0 32.39356349731832,34.99809901086142,0 32.39319005022501,34.99837125021724,0 32.3931041689405,34.99852297723678,0 32.39257653930644,34.99903151927344,0 32.3923933228135,34.99928343272988,0 32.39235333200475,34.99941769868695,0 32.39230398898238,34.99949330989441,0 32.39188038291478,35.00014241891928,0 32.3916469847114,35.00031324399291,0 32.39122033698278,35.00062246486546,0 32.39097816623728,35.0009301120722,0 32.39072404108457,35.00165726647693,0 32.3904980709983,35.0021316863306,0 32.39022002452444,35.00241227622837,0 32.38988966868169,35.00316265541456,0 32.38989901122324,35.00329664107047,0 32.39028331843381,35.00321624536096,0 32.39063758379324,35.00323382331045,0 32.39041013267369,35.00351777471632,0 32.39023562758991,35.00391818699007,0 32.39074508331422,35.00428810117365,0 32.39104095105652,35.00435284677599,0 32.39125145233586,35.00428898219128,0 32.39169856693955,35.00437375855271,0 32.39178455113179,35.00439006144445,0 32.39218790542013,35.00477132029423,0 32.39217592123431,35.00510475667563,0 32.39166810892915,35.00571371649007,0 32.3916009068326,35.00612130088739,0 32.39194795362553,35.00632731192027,0 32.3922249987823,35.00657358267998,0 32.39238182713311,35.00659566184108,0 32.39251533733964,35.00661647119745,0 32.39267476642532,35.00670306786673,0 32.39279540079112,35.00677265987672,0 32.39327410274644,35.00678985837538,0 32.39333866905343,35.00676199672029,0 32.39348429580551,35.00667144683409,0 32.3937561420363,35.00675463034727,0 32.39376888199189,35.00680500615566,0 32.39372151982174,35.00695322184657,0 32.39361613331978,35.00703537540318,0 32.39358601274618,35.00708975930365,0 32.39363134424065,35.00716362372103,0 32.39383347580826,35.00725933090494,0 32.39398196634775,35.00736550844201,0 32.3940763715779,35.00751712809889,0 32.39414212316022,35.00760730340478,0 32.39429266462174,35.00780487208944,0 32.39437943617379,35.00792583162948,0 32.39452068349959,35.00818278177739,0 32.39463604047923,35.00837288571329,0 32.39469335952687,35.00849578759519,0 32.39469446726544,35.00862039945113,0 32.39462358038362,35.00872472749739,0 32.39446341969033,35.00890012256895,0 32.39439973065254,35.00907009906999,0 32.39443280453335,35.00920592348309,0 32.39450573789018,35.00936395103418,0 32.39453086041165,35.009492468588,0 32.39449627086293,35.00968894117315,0 32.39444245375827,35.0099246111436,0 32.39442913644517,35.01014227648619,0 32.3944140477034,35.01027770914258,0 32.39431988014521,35.01052107404673,0 32.39422384812832,35.01070830512651,0 32.39419292141761,35.01082611997687,0 32.39421057615297,35.01091154899648,0 32.39430374012796,35.01095170028483,0 32.39452253941448,35.01100385047567,0 32.394705172291,35.0112150439089,0 32.39491333643382,35.01147484843535,0 32.3951478928531,35.01179095632856,0 32.39511126230261,35.01193716890356,0 32.39508828660313,35.01206163001408,0 32.39509786553347,35.01215137695635,0 32.3951399836674,35.01223604887422,0 32.39524442678882,35.01244470283287,0 32.39524302731277,35.01255623168698,0 32.39523236231778,35.01276610494957,0 32.39511119601899,35.0128930315642,0 32.39515300094806,35.01297431261131,0 32.39522244970605,35.0129858361538,0 32.39550073837386,35.01299256605998,0 32.39583006839057,35.01298441476106,0 32.39608683388031,35.01299970953829,0 32.39628824557771,35.01301336732374,0 32.39649721621261,35.0129976358686,0 32.39664267259198,35.01313884631953,0 32.39666064490395,35.01320024047803,0 32.39661256134171,35.01340762564529,0 32.39650554756905,35.01361345039844,0 32.3964418366539,35.01378571550999,0 32.39647275466152,35.01388222354254,0 32.39661673279013,35.01395907599316,0 32.39680357194823,35.01400221497517,0 32.39704402261479,35.01403924345416,0 32.39725596238753,35.01409837663902,0 32.39749552151147,35.01420758370974,0 32.39762558897109,35.01429618067546,0 32.39771556390135,35.01438006610103,0 32.39778915485512,35.01449006420302,0 32.39788632770892,35.01467139234287,0 32.3979245854433,35.01482484955642,0 32.3979163819512,35.01491547705299,0 32.39779447188896,35.01509526031902,0 32.39769218638051,35.01526286275934,0 32.39766747733429,35.01535454589614,0 32.39769222254552,35.0155533607857,0 32.39771406989806,35.01568357130493,0 32.3978004903212,35.01588143023918,0 32.3980250395477,35.01608581182131,0 32.39813653946345,35.01616234542992,0 32.39835461451443,35.01627386724874,0 32.39849587851906,35.0163620202984,0 32.39865167995089,35.01652341885163,0 32.39877756577586,35.01665287002515,0 32.39893786932289,35.01689139428573,0 32.39906924509044,35.01713219087446,0 32.39912163101457,35.0172963939013,0 32.399145282215,35.01744759785772,0 32.39901106000777,35.01787727642814,0 32.39895182541522,35.01809900174909,0 32.39893445997049,35.01833162870735,0 32.39891674136651,35.01860950459579,0 32.39892287815729,35.01884776184485,0 32.3989444536582,35.0189329949818,0 32.3989815144816,35.0190197966328,0 32.39909507369632,35.01963010473954,0 32.39907707946755,35.0198374016862,0 32.39859994222088,35.0201807452708,0 32.39846385470791,35.02075979777668,0 32.39857141553627,35.02091848017003,0 32.39921320310044,35.02120785871252,0 32.39938616446555,35.02130829245357,0 32.39949406307159,35.02143760422773,0 32.3994116576628,35.02161688126714,0 32.39927969656669,35.02177604953308,0 32.39908799403607,35.02200727604303,0 32.39907793339065,35.02210632879064,0 32.39911225948735,35.02222774349752,0 32.39936884430049,35.02243344211787,0 32.39960630634979,35.02255455394793,0 32.39979905349124,35.02287725491809,0 32.3998026173149,35.02295621692029,0 32.39974779045144,35.02306594541746,0 32.39962406543798,35.023149453641,0 32.39928157930607,35.02323314643308,0 32.39908160664035,35.02334728596271,0 32.39890563629663,35.02352162736225,0 32.39890323998189,35.02352400151845,0 32.39880288206908,35.02351590101337,0 32.39829474661994,35.02383514542064,0 32.39828230603725,35.02394702861704,0 32.3981825831479,35.02407844426554,0 32.39748531374827,35.02473402306327,0 32.39715059049824,35.02491873205882,0 32.39665717597175,35.02492601240382,0 32.39669767265157,35.02528795111273,0 32.39669746740007,35.02569547351401,0 32.3964865143211,35.02579300334778,0 32.39621577806529,35.0258478602338,0 32.39614121390985,35.02612081383151,0 32.39619510088338,35.02628827041443,0 32.39601604956462,35.02652371834728,0 32.39590499056921,35.0264751493968,0 32.39562285947671,35.02635552689188,0 32.39539080508873,35.02634642504528,0 32.39531228062578,35.02638070820352,0 32.39530598301639,35.02654036645006,0 32.39528294530335,35.02660260466354,0 32.39515952501729,35.02665857538224,0 32.39494517795739,35.0266624573626,0 32.39479305742441,35.02669067451429,0 32.39471421655818,35.02675249007316,0 32.39456478747444,35.02693492581271,0 32.39451161170287,35.02707324907473,0 32.39433264071178,35.02688911799635,0 32.39425193360132,35.02670607032367,0 32.39423891738767,35.02650747862736,0 32.39405293185761,35.02620081904455,0 32.39381169473125,35.02553256416304,0 32.39376480614164,35.02534571436908,0 32.39360728834798,35.02491752076374,0 32.39382741540224,35.02471074164849,0 32.3938477472612,35.02457187418909,0 32.39373267081965,35.02446806569839,0 32.39372419087491,35.02430920172304,0 32.39357026734568,35.02423696277562,0 32.39343638431715,35.02406556085742,0 32.39339677306062,35.02382149258438,0 32.39317977106475,35.02362482127501,0 32.39312287627613,35.02352780496588,0 32.39299768144976,35.02341660411249,0 32.39284117271573,35.02337435554901,0 32.39259473224593,35.02337542632032,0 32.39247242191572,35.02333643215998,0 32.39232398734704,35.02325907929055,0 32.39210873475339,35.02298220311381,0 32.39189208324718,35.02289429324338,0 32.39180679306013,35.02267424969304,0 32.3919082060697,35.0223938532669,0 32.39184123773384,35.0222147605181,0 32.39130710427292,35.02171759856054,0 32.39123240337651,35.02157879294051,0 32.39120782117179,35.02115145753368,0 32.39114961649901,35.02098158466954,0 32.39108295164582,35.02088341594698,0 32.39067536036907,35.02128556574939,0 32.39030465139599,35.02159370237789,0 32.39010267530411,35.02156659806697,0 32.38993678751185,35.02148423559028,0 32.38973877500298,35.02145715059991,0 32.38966871864682,35.02181552591497,0 32.38965747090837,35.02226224819633,0 32.38916856865796,35.02243589176835,0 32.38956202871185,35.02283573279355,0 32.38972668291875,35.02308440908283,0 32.38949564376852,35.02323326006766,0 32.38939363281924,35.02328672939702,0 32.38918265759717,35.02317787022915,0 32.38909441706115,35.0230678420144,0 32.3885722298234,35.02289772358177,0 32.38827349750098,35.02263677967018,0 32.38777124930041,35.02228595679718,0 32.38758212567344,35.02228030441682,0 32.38534955883311,35.0205324947262,0 32.38504705560952,35.02060588181337,0 32.38500781249773,35.02023335854668,0 32.38491907565825,35.01994247274895,0 32.38435158087961,35.02016313610123,0 32.3836754991402,35.02026519890229,0 32.38319460906383,35.02073887623821,0 32.38262067757488,35.02040009816971,0 32.38242035257638,35.02048057061367,0 32.38130597109955,35.02000725099744,0 32.38139892759484,35.02015096653069,0 32.38079606615015,35.02055850368224,0 32.38048963236688,35.01985375950198,0 32.38037425855735,35.01898435567498,0 32.38022579423158,35.01879022323511,0 32.37999374307966,35.01848679076841,0 32.37982749924668,35.0181777430584,0 32.37963440288367,35.0180555890252,0 32.37912442647374,35.01782659364171,0 32.37855776384254,35.01751038859037,0 32.37830832087104,35.01727119906894,0 32.37802545387003,35.01707242360519,0 32.37755795076851,35.01687764580701,0 32.37732305130234,35.01666432532117,0 32.3769619365839,35.01639037417167,0 32.37685696298424,35.01605739353816,0 32.37678903295178,35.01594433727978,0 32.37623029901646,35.01551293880195,0 32.37589950434652,35.01503856094875,0 32.37495350785515,35.01388423064358,0 32.37454143321328,35.01345667409682,0 32.37438375336882,35.01312192598395,0 32.37421553570405,35.01270032407943,0 32.37390669759893,35.01232508525467,0 32.3737749077011,35.01188885146833,0 32.3734051183681,35.01122435329606,0 32.37314248049903,35.01113283202346,0 32.37290460730628,35.01103743588602,0 32.3727480575811,35.01089250446497,0 32.37241260398008,35.01054010294011,0 32.3722602376376,35.010317924739,0 32.37180357962156,35.00990085769044,0 32.37163013728516,35.0096486870337,0 32.37144908228545,35.00919851038815,0 32.37125547648854,35.00898007722493,0 32.37072786219507,35.00857194466398,0 32.37050124449647,35.0083586763797,0 32.37033761344242,35.0082570736549,0 32.37003203433866,35.0081747020581,0 32.36980983256308,35.00800756422842,0 32.36977212213876,35.00827707512302,0 32.36985329682587,35.008383459791,0 32.36962877953369,35.00856067540634,0 32.3694611671587,35.0085186960932,0 32.3689351982898,35.00839799807977,0 32.36844150876279,35.00819348968918,0 32.36837543860163,35.00820653180173,0 32.36811771017464,35.00840517943288,0 32.36790881607681,35.00851336854644,0 32.36755935315146,35.00866384553101,0 32.36733642408056,35.0087027792714,0 32.366867853481,35.00874928335404,0 32.3667596966753,35.00883927636188,0 32.36649855318448,35.00890502617451,0 32.3661145407011,35.008907446312,0 32.36602492866139,35.00896097801472,0 32.36589384924184,35.00875251521457,0 32.36575461079429,35.00875479932219,0 32.36446119359945,35.00877600539948,0 32.36383486231489,35.00871773120794,0 32.36354099482168,35.00865539069117,0 32.36285786022643,35.00860111331076,0 32.3623059104764,35.00842111790203,0 32.3618850375918,35.00835777614472,0 32.36115802125178,35.00835873563172,0 32.36079497188711,35.00843592998861,0 32.36025898392671,35.00827828673749,0 32.36000350075336,35.0081695444249,0 32.35877582491696,35.00822880734581,0 32.35853154960823,35.00831804947376,0 32.35787937390055,35.00839073211007,0 32.3575392127667,35.00835914148614,0 32.35692590495076,35.00834318292149,0 32.35629843416928,35.00838269987422,0 32.35608450434177,35.0084188103986,0 32.35571688001853,35.00842479827109,0 32.35545433442866,35.00845829964813,0 32.35521649878476,35.00845864365974,0 32.35497034994776,35.0084767079582,0 32.35453942429766,35.00834877723589,0 32.35419050751802,35.00837269791115,0 32.35368797368513,35.00835982454665,0 32.35306076849118,35.00814583699576,0 32.3524516764813,35.00800092121672,0 32.35223798050502,35.00801701497166,0 32.35185206437389,35.00796948065683,0 32.35133007842781,35.00777188372367,0 32.35118976409476,35.00775298214636,0 32.3509042800785,35.00766844163297,0 32.35067306562234,35.00733528978149,0 32.34958512403092,35.00677296868932,0 32.34938768923776,35.00655570990919,0 32.34914469154824,35.00653598782397,0 32.34891341765356,35.00643853310952,0 32.34857771611019,35.00625797301878,0 32.34828540172064,35.00629566917735,0 32.34818032600842,35.00626814928882,0 32.34805420765899,35.00619154284819,0 32.34797465652416,35.00606194122089,0 32.34786918618501,35.00606777100355,0 32.347524132544,35.00599386632468,0 32.3473172207364,35.00658146548632,0 32.34724103286602,35.0066253301902,0 32.34688999847828,35.00660029376583,0 32.34667738482207,35.0067542483389,0 32.34646298252999,35.00683036183217,0 32.34598648696116,35.00781827454865,0 32.34582303569845,35.00792814865853,0 32.34557985076388,35.00815301148084,0 32.34534841502217,35.00829791841237,0 32.34516300121193,35.00820749420897,0 32.34482704378421,35.00827818678083,0 32.34450023865953,35.00848903615446,0 32.34429268093947,35.00844290513495,0 32.34420048617248,35.00846884980247,0 32.34410904735818,35.00865934661746,0 32.34391502331782,35.00884012699606,0 32.34319072008901,35.00929683374152,0 32.34285989749192,35.00938979711472,0 32.34234264797551,35.00970584817995,0 32.34203382251395,35.00978715249759,0 32.34194631820373,35.00974289141097,0 32.34103095922161,35.01076563709488,0 32.33926016660403,35.01288106666934,0 32.33440266119579,35.01842853381914,0 32.32993133635872,35.02343314959383,0 32.32959628482539,35.02344378986511,0 32.32923524678842,35.02338911682438,0 32.32883746153976,35.02312071597338,0 32.32824702738858,35.02318059059735,0 32.3282365982333,35.02339393467681,0 32.32839937308726,35.02358928090933,0 32.32819379167147,35.02368462289226,0 32.32808099967291,35.02391007034603,0 32.32819768851354,35.02401449852873,0 32.32789690363215,35.02418020647038,0 32.32784654183931,35.02444496167276,0 32.32801912274509,35.02447870327759,0 32.32805789011179,35.02452429276903,0 32.32800931666557,35.02464031290867,0 32.32806279755712,35.02477010009886,0 32.3279499266393,35.0250020127068,0 32.32789162450481,35.02527317165161,0 32.32774761432649,35.02547895838391,0 32.32772667769667,35.02591211520448,0 32.32777136370199,35.02611943751459,0 32.32775930158703,35.02646858494644,0 32.32762984704081,35.02677150344252,0 32.32734314176608,35.02707314188105,0 32.32724801693612,35.02779026170419,0 32.32711552271898,35.02834538683504,0 32.32726367032958,35.02910329430157,0 32.3275790397805,35.02968793318536,0 32.32772975888953,35.03023243281764,0 32.327717618649,35.0305880453317,0 32.32745456537939,35.03088341034677,0 32.32730922131708,35.0311991338217,0 32.32724242650814,35.03152196300018,0 32.32728579131949,35.03183922378236,0 32.32737742271134,35.03206633247273,0 32.32729396729604,35.03246663851075,0 32.32712057267847,35.03287364614285,0 32.3270201898716,35.03310927201964,0 32.32702412457529,35.03349782952321,0 32.32681480718008,35.0342276465281,0 32.32686697065424,35.03469753997041,0 32.32681666898407,35.03529914377122,0 32.32643577019618,35.03576955531638,0 32.32608919159899,35.03614817364251,0 32.32602571875292,35.03641274470459,0 32.32570353532225,35.0366043800172,0 32.32548332021424,35.03680797597203,0 32.32522653060531,35.03688176557657,0 32.32499066682578,35.03685252192734,0 32.32472557085722,35.03690094750801,0 32.32438705523224,35.03691639609538,0 32.32414526612499,35.03707225926071,0 32.32402079079884,35.03729383599033,0 32.32402138116801,35.03744864226603,0 32.32416979442343,35.03779183910702,0 32.32410902298467,35.03793400395196,0 32.32378340810735,35.03810334763838,0 32.32356640145986,35.03824423662768,0 32.32346266928746,35.03837795526125,0 32.32331666597301,35.03864994368048,0 32.32294850238405,35.03877644216941,0 32.32284514312852,35.03898098898561,0 32.32284415249297,35.03926630378147,0 32.32283420902276,35.03937650760066,0 32.32293917821381,35.03985290487805,0 32.32296130392466,35.03995628737462,0 32.32288046088567,35.04023184414209,0 32.3228370005204,35.04046824623439,0 32.32259925220335,35.04089934515029,0 32.3225006575349,35.04121826170726,0 32.32261353336345,35.04144784852168,0 32.32261171193957,35.04180195882748,0 32.32267064285423,35.04221929537187,0 32.32277468238814,35.04236584437788,0 32.32296627170908,35.04259809753932,0 32.32301768660085,35.04282313412274,0 32.32316279961688,35.04303274856522,0 32.32319172812475,35.04328593112516,0 32.32328608795515,35.04362261566459,0 32.32327287040397,35.04390176048145,0 32.32326002033185,35.04415055449583,0 32.32318674583313,35.04451217496399,0 32.32363581761916,35.04543049699764,0 32.32356011858218,35.04558569349548,0 32.32355663086408,35.0456706544043,0 32.32359234195948,35.04577010212131,0 32.32355310863925,35.04596202031178,0 32.3232838660995,35.04624918840387,0 32.32320565197536,35.04640841159659,0 32.32301117052808,35.04682165207544,0 32.32280099977375,35.04710728004878,0 32.3227031533589,35.04734173225504,0 32.32250072488924,35.04782677078354,0 32.32256444971213,35.04813808865147,0 32.32267656220843,35.04835545427901,0 32.32285041913693,35.04849007347462,0 32.32328693908975,35.04867124314887,0 32.32340371738865,35.04906069229869,0 32.32343730586484,35.04963261003873,0 32.32309630312334,35.04992396807184,0 32.32257261207932,35.05025268036398,0 32.32235328116535,35.05052838136567,0 32.32188378100955,35.05084088418812,0 32.32161653192308,35.05117169157286,0 32.32109715491572,35.05170022909832,0 32.32105423418493,35.05189967482178,0 32.32119955652053,35.05216171247078,0 32.32113498275049,35.05247752838087,0 32.32050339499554,35.05298846005176,0 32.31229725461316,35.05512981734783,0</coordinates>
						</LinearRing>
					</outerBoundaryIs>
				</Polygon>
			</MultiGeometry>
		</Placemark>
	</Document>
</kml>