<?xml version='1.0' encoding='UTF-8'?>
<kml xmlns="http://www.opengis.net/kml/2.2">
	<Document>
		<name>POLYSTYPOS</name>
		<Style id="PolyStyle70">
			<LabelStyle>
				<color>00000000</color>
				<scale>0.000000</scale>
			</LabelStyle>
			<LineStyle>
				<color>ff0055ff</color>
				<width>2.000000</width>
			</LineStyle>
			<PolyStyle>
				<color>00828282</color>
				<outline>1</outline>
			</PolyStyle>
		</Style>
		<Placemark id="ID_70466">
			<name>POLYSTYPOS</name>
			<snippet />
			<description>&lt;html xmlns:fo="http://www.w3.org/1999/XSL/Format" xmlns:msxsl="urn:schemas-microsoft-com:xslt"&gt;

&lt;head&gt;

&lt;META http-equiv="Content-Type" content="text/html"&gt;

&lt;meta http-equiv="content-type" content="text/html; charset=UTF-8"&gt;

&lt;/head&gt;

&lt;body style="margin:0px 0px 0px 0px;overflow:auto;background:#FFFFFF;"&gt;

&lt;table style="font-family:Arial,Verdana,Times;font-size:12px;text-align:left;width:100%;border-collapse:collapse;padding:3px 3px 3px 3px"&gt;

&lt;tr style="text-align:center;font-weight:bold;background:#9CBCE2"&gt;

&lt;td&gt;1&lt;/td&gt;

&lt;/tr&gt;

&lt;tr&gt;

&lt;td&gt;

&lt;table style="font-family:Arial,Verdana,Times;font-size:12px;text-align:left;width:100%;border-spacing:0px; padding:3px 3px 3px 3px"&gt;

&lt;tr&gt;

&lt;td&gt;DIST_CODE&lt;/td&gt;

&lt;td&gt;1&lt;/td&gt;

&lt;/tr&gt;

&lt;tr bgcolor="#D4E4F3"&gt;

&lt;td&gt;VIL_CODE&lt;/td&gt;

&lt;td&gt;304&lt;/td&gt;

&lt;/tr&gt;

&lt;tr&gt;

&lt;td&gt;VIL_CCD&lt;/td&gt;

&lt;td&gt;1304&lt;/td&gt;

&lt;/tr&gt;

&lt;tr bgcolor="#D4E4F3"&gt;

&lt;td&gt;VIL_NM_E&lt;/td&gt;

&lt;td&gt;POLYSTYPOS&lt;/td&gt;

&lt;/tr&gt;

&lt;tr&gt;

&lt;td&gt;VIL_NM_G&lt;/td&gt;

&lt;td&gt;ΠΟΛΥΣΤΥΠΟΣ&lt;/td&gt;

&lt;/tr&gt;

&lt;/table&gt;

&lt;/td&gt;

&lt;/tr&gt;

&lt;/table&gt;

&lt;/body&gt;&lt;script type="text/javascript"&gt;

				function changeImage(attElement, nameElement) {

				document.getElementById('imageAttachment').src = attElement;

				document.getElementById('imageName').innerHTML = nameElement;}

			&lt;/script&gt;&lt;/html&gt;

</description>
			<styleUrl>#PolyStyle70</styleUrl>
			<MultiGeometry>
				<Polygon>
					<extrude>0</extrude>
					<altitudeMode>clampToGround</altitudeMode>
					<outerBoundaryIs>
						<LinearRing>
							<coordinates> 33.01132549036273,34.94774602518864,0 33.01119934809744,34.94783119822451,0 33.01108226809942,34.94771978788704,0 33.01096952597449,34.94773995061573,0 33.01092713073716,34.94770271341756,0 33.01087790512275,34.94766530914892,0 33.01080077784318,34.94765364063179,0 33.01062151545639,34.94765022646933,0 33.01057247251718,34.94764441648499,0 33.01053639964549,34.94763075294946,0 33.01032526834539,34.94750776654627,0 33.01025620369217,34.9474903981203,0 33.01019265621315,34.9474948691802,0 33.01004624745816,34.94754355440053,0 33.00997142017614,34.94755585164118,0 33.00988474156756,34.94755719915771,0 33.00980823736467,34.94754469342702,0 33.00969372363489,34.94750762655924,0 33.00959235393634,34.94746041108304,0 33.00950745678018,34.94741553255891,0 33.00943630962808,34.94736542548161,0 33.00933852156525,34.94726264590805,0 33.00915050585872,34.94706891909978,0 33.00910269904742,34.94702047952381,0 33.0090808212964,34.94698398111858,0 33.00906227003782,34.94694235419211,0 33.00902537060757,34.94678367807023,0 33.00895316690687,34.94661420894169,0 33.00890485383057,34.9465476919242,0 33.00867921098825,34.94638254984789,0 33.00824433242158,34.94613280301853,0 33.00802680505694,34.94604321844119,0 33.00779074022576,34.94596257149999,0 33.00770624730777,34.9459403907419,0 33.0076382264662,34.9459200802722,0 33.00708451887625,34.94583285840057,0 33.00697331966614,34.94583867729123,0 33.00690774220547,34.94586583860114,0 33.00698235432417,34.94575594206545,0 33.00701130500039,34.94568727800995,0 33.00700679542945,34.94563295141909,0 33.00696939218648,34.94558615641417,0 33.00689551843666,34.94555645830688,0 33.00680473694576,34.9455363839331,0 33.00672598234145,34.94550039306987,0 33.00663934620998,34.94545925087851,0 33.00627841041523,34.94564813354939,0 33.00613752510317,34.94580625894937,0 33.00600925984207,34.94599600323197,0 33.00568571526829,34.94619874185027,0 33.0051764351516,34.94648480467703,0 33.0050193123616,34.94656133416774,0 33.00481380211115,34.94648356027103,0 33.00459436063235,34.94647305621517,0 33.00449836720671,34.94650652201066,0 33.00401255794295,34.94648708872934,0 33.00381549043784,34.94640530147358,0 33.00359893542868,34.94635179883352,0 33.00324742638941,34.94622439975906,0 33.00310347778575,34.94615297462647,0 33.00310344603682,34.94615295840143,0 33.00311716054543,34.94607477650129,0 33.00311729563517,34.9460283173843,0 33.00310103051537,34.94596606913183,0 33.00297159919987,34.94568500909352,0 33.00292038159593,34.94543230983898,0 33.00290721751539,34.9452886527789,0 33.00292049929521,34.94523172406128,0 33.00310080346951,34.94499389368357,0 33.00320850523352,34.94490535002046,0 33.00354261502734,34.94452101880297,0 33.00360794548449,34.94407700900988,0 33.00354011299401,34.94384562310221,0 33.00352805382061,34.94375429983212,0 33.00358937903482,34.94363298182286,0 33.00373895193135,34.9434439740387,0 33.00380718568921,34.94335137276237,0 33.0038459115247,34.94320359996293,0 33.00384245588418,34.94304825551961,0 33.00379378439674,34.94288470040438,0 33.00372865374363,34.94269289655193,0 33.00395503799806,34.94245998973642,0 33.00407362324784,34.94231979890674,0 33.00426947171548,34.94202390372202,0 33.00442737138118,34.94176249135185,0 33.00431121970296,34.94154133073031,0 33.00430237171292,34.94148870246235,0 33.00429917636493,34.94146969848589,0 33.0043218475716,34.94140353312587,0 33.00498639476935,34.9405547625523,0 33.00520999337459,34.94033793596675,0 33.00534914306392,34.94020382675803,0 33.00558791986814,34.94019799543903,0 33.00560342335864,34.9402534177724,0 33.00591205282691,34.94026694273754,0 33.00609192051401,34.94022291488868,0 33.00630231906521,34.94009487217224,0 33.0066148297057,34.93995689244385,0 33.00685077357054,34.93965916087753,0 33.00698802661293,34.93956231438933,0 33.00712603892198,34.93947675188892,0 33.00725559810006,34.93935698560766,0 33.0071935844903,34.93929399146268,0 33.00719356040525,34.93929396712532,0 33.00737033580148,34.93906294705534,0 33.00752509246905,34.93887340591151,0 33.00760233907546,34.93888436979171,0 33.0076063675118,34.93887293480965,0 33.00761762583738,34.93880954143931,0 33.00761249122299,34.93873190368372,0 33.00754323552039,34.93851392877483,0 33.0075180644658,34.93841511839482,0 33.00751194717494,34.9383158164501,0 33.00752941069906,34.93818755527536,0 33.00755129956357,34.93811550023599,0 33.00762107440656,34.93799643224577,0 33.00783510123939,34.93762534197719,0 33.0079541317203,34.93737307962747,0 33.00799317128918,34.93732652954555,0 33.00807288113451,34.93723148663716,0 33.0084267697283,34.93702736998057,0 33.00884467337744,34.93687183422124,0 33.0089903718358,34.93680100480378,0 33.00909938636041,34.93672063624724,0 33.00915804101281,34.93664475063957,0 33.00919363303924,34.93657335500649,0 33.00922684676205,34.93647632085774,0 33.00926231718224,34.93629804987954,0 33.00925598485541,34.93609475276157,0 33.00925203685852,34.93585411520618,0 33.00927272019776,34.93579797570296,0 33.00934225713026,34.935724511327,0 33.00947669599992,34.93564454520639,0 33.00977685380315,34.93549101922529,0 33.01021735354174,34.93502815514648,0 33.01036384166776,34.93497877370473,0 33.010877648884,34.93469446402286,0 33.01092924552175,34.93463409191035,0 33.01095197767176,34.93443823538009,0 33.01104952169144,34.93412557817023,0 33.01116977993519,34.93373805796974,0 33.01133680220242,34.93318760467083,0 33.01146774607358,34.93275825008364,0 33.01169630466136,34.93255896992865,0 33.01181659576996,34.93243786180592,0 33.01186470425196,34.93233327317284,0 33.01187806197706,34.93226832054822,0 33.01196761732147,34.93221326814871,0 33.01213067977308,34.93206463368126,0 33.01237795498123,34.93190608183564,0 33.01287516352419,34.93150531115572,0 33.01308501006721,34.93136107395113,0 33.01320397519832,34.93132913574778,0 33.01329487306921,34.93133022649454,0 33.01338577418233,34.93134452775044,0 33.01344860029697,34.93134342015851,0 33.01377207912365,34.9312630198115,0 33.01391242937606,34.93122337209309,0 33.01420918663424,34.9312255399737,0 33.01440168107924,34.9312497362574,0 33.01451396518864,34.93123541166607,0 33.01459550248299,34.93121338427166,0 33.01459553532252,34.93121339778925,0 33.01463159502751,34.93122659141092,0 33.0146890770282,34.93122988644532,0 33.01475323646592,34.93120565883047,0 33.01478932183096,34.9311726284508,0 33.01485080865078,34.9311506033231,0 33.01490828642706,34.93114288989015,0 33.01490831926709,34.93114290611199,0 33.01506336239419,34.93121773161064,0 33.01506339523429,34.93121774783247,0 33.01512556492774,34.93124886767546,0 33.0151255977667,34.93124887758721,0 33.01540622921421,34.93132926505147,0 33.01561258258442,34.93134160194285,0 33.01575165177183,34.93132662733424,0 33.01588868916663,34.93127646428853,0 33.01617173234008,34.93110347069853,0 33.01643208223242,34.93101523634939,0 33.01677075442502,34.93093236503334,0 33.01722109153098,34.93085534536362,0 33.01810176213507,34.93072573838299,0 33.01826295413526,34.93072501204583,0 33.01835897993879,34.93074799236764,0 33.0183590116844,34.93074800678587,0 33.01847163005596,34.93081494315055,0 33.01847165961388,34.93081496387913,0 33.01884423772318,34.93106841095861,0 33.01884427165751,34.93106842267203,0 33.01899438924195,34.93111895466439,0 33.02046416510979,34.93106827246616,0 33.02076090749075,34.93106941563804,0 33.02102359910018,34.93105408028038,0 33.02147085166102,34.93097277167617,0 33.0215627388214,34.93096581974056,0 33.02162787215121,34.93096989618868,0 33.02172188416952,34.93099322486947,0 33.02172191700988,34.93099323748375,0 33.02187592387499,34.93106343009701,0 33.02187595452747,34.9310634472188,0 33.02204902182385,34.93116794311648,0 33.02204905466532,34.93116795933641,0 33.02222922573701,34.931258665287,0 33.02222925748228,34.93125867519701,0 33.02237417242545,34.93130380975673,0 33.022474177336,34.93131331680095,0 33.02260853294722,34.93130978077713,0 33.02271527148346,34.93128672101221,0 33.02271528462553,34.93128674715145,0 33.02307685463202,34.93202951817697,0 33.02303603459828,34.93223391890106,0 33.02300049600071,34.93261572972711,0 33.02303960306872,34.93300181002245,0 33.02302806504391,34.93306876471246,0 33.02293937110684,34.93336000904701,0 33.02289279490842,34.9336559526843,0 33.02289891898673,34.93395453028715,0 33.0229354542075,34.93416086882556,0 33.02298158602792,34.93436700631364,0 33.02310052035598,34.93458655867724,0 33.02339436021301,34.93486824772524,0 33.02352412545412,34.93501106358908,0 33.02380135100474,34.93541864512019,0 33.02405245344152,34.9356565508655,0 33.0240634791465,34.93597720354528,0 33.02391859851463,34.93642874687201,0 33.02405100575734,34.93658843472175,0 33.02416035963039,34.93691012252324,0 33.02420377986486,34.93723798919167,0 33.02439147914227,34.93752455103786,0 33.0244846200093,34.93798490713861,0 33.0245653281187,34.93849475635027,0 33.02419245126033,34.93863221829711,0 33.02419796754333,34.93868522891403,0 33.0240468067821,34.93877554145718,0 33.02394819670871,34.93891912290533,0 33.02362921379377,34.93893636584446,0 33.02365218501322,34.93910238715662,0 33.0239902263848,34.93938049624733,0 33.02413027486536,34.93953967761828,0 33.02404883453429,34.93962086185632,0 33.02407020659344,34.93972022753107,0 33.02395504231598,34.93980606799167,0 33.02394887635719,34.94003719223327,0 33.0238313905445,34.94016388975675,0 33.02371027640078,34.94017970932974,0 33.02358536533865,34.94035062534365,0 33.02347494520199,34.94064404730015,0 33.02338805610175,34.94075672653342,0 33.02322453608473,34.94069242866139,0 33.02294677806886,34.94063550521654,0 33.02282733889104,34.94067843791078,0 33.02259971366968,34.94083219346956,0 33.02256524019734,34.94139064987707,0 33.02258786944646,34.94159239261959,0 33.02254957991742,34.94170078307167,0 33.02256274421691,34.94196609327201,0 33.02307358698931,34.94194249237741,0 33.0231793568211,34.94193750082276,0 33.02346916449085,34.94182135186743,0 33.02354359917534,34.94176296944254,0 33.02363871370643,34.94170380501016,0 33.02375941953846,34.94162328046586,0 33.02387529016816,34.94158933128125,0 33.02394442316971,34.94160795668396,0 33.02399617490618,34.94164333597785,0 33.02408069894845,34.94168968735632,0 33.02421215679518,34.941725432944,0 33.02432910668845,34.94176536305974,0 33.02451773316072,34.94178759513735,0 33.02456081765623,34.94178736107675,0 33.02460810008718,34.94179717356387,0 33.02493864819881,34.94177875832671,0 33.02511563340372,34.94178565211682,0 33.02564842166635,34.94158455198698,0 33.02601624399452,34.94159536764857,0 33.02614365921317,34.94155347036779,0 33.02617130989479,34.94156204428966,0 33.02617174784967,34.94158294580814,0 33.02591297617788,34.94188921841001,0 33.02554043040254,34.94213761243656,0 33.02545240399587,34.94217571209804,0 33.02538768612432,34.94219571229046,0 33.02537656930552,34.94222069702697,0 33.02538567540407,34.94223568511411,0 33.02543523306628,34.94224566717468,0 33.02548680959296,34.94224565636679,0 33.02551816353293,34.94225314523121,0 33.02552625814118,34.94226813261871,0 33.02552687478762,34.94229743098148,0 33.02552010817949,34.94232167293435,0 33.02543519662697,34.94234748084012,0 33.02534373529299,34.94237321703643,0 33.02536749824273,34.94251858044382,0 33.02542972319589,34.9425537153494,0 33.02551648284348,34.94258089620538,0 33.0255551927799,34.94261093745727,0 33.02549859503127,34.94266207882898,0 33.02562044388578,34.94269948084166,0 33.02575393360837,34.9426861284867,0 33.02584495429328,34.94269277167707,0 33.02591575516512,34.94271940396162,0 33.02595014459536,34.94273605246442,0 33.02595248979907,34.94271616807652,0 33.02595116835059,34.9427053718534,0 33.0259358033677,34.94269672044201,0 33.02593336786654,34.94266276655178,0 33.0259325157453,34.94263706677783,0 33.02598337965284,34.94262601060916,0 33.02603986200761,34.94265414226755,0 33.02611181833382,34.9426581472318,0 33.02615735716212,34.94269085778005,0 33.0262060038998,34.94270620867744,0 33.0262704562433,34.94263218141055,0 33.02629933604053,34.94264562910329,0 33.02632481289429,34.94259910405173,0 33.02639078056369,34.94262891647359,0 33.02645830382217,34.9426755844826,0 33.02651616382756,34.94273523434756,0 33.02653485166233,34.94274820193937,0 33.02654973555543,34.94283658544018,0 33.02657285983982,34.94288193616301,0 33.02663330814215,34.94291491189796,0 33.02663517498019,34.94291593011199,0 33.02662925017002,34.94293240065552,0 33.02657861983854,34.94295179803486,0 33.02653217066264,34.9429724862386,0 33.02649546638526,34.94297508677948,0 33.02649417481624,34.94295190932598,0 33.02640200888588,34.94293898836608,0 33.02635475252299,34.9429586265039,0 33.02611065076076,34.94307074669219,0 33.02603860880905,34.94308791468596,0 33.02586345914759,34.94307522110815,0 33.02546082350995,34.94327750105166,0 33.02535188642105,34.94332611756533,0 33.02520548479018,34.94355209937508,0 33.02482640563476,34.9437090715277,0 33.02467494453909,34.94392162411915,0 33.02424933543335,34.94380472049502,0 33.02359839952416,34.94403381710627,0 33.02361160477147,34.94370699157454,0 33.02336897898879,34.94373685529337,0 33.02308808131153,34.94370926554635,0 33.02300663137074,34.94373134996196,0 33.0226992106172,34.9437199216809,0 33.02240918461166,34.94375015200202,0 33.02228885205421,34.94367701085375,0 33.02224903662173,34.94367753918129,0 33.02212222395318,34.94374886054645,0 33.02186801611614,34.94373689492442,0 33.02167625742254,34.94362006076061,0 33.02155840458922,34.94381620183589,0 33.02142557408845,34.94391992116297,0 33.02126171149685,34.94397613557433,0 33.02112077435689,34.94396246643516,0 33.02090528430484,34.94400038566361,0 33.02074133940354,34.94383607560086,0 33.02058989025551,34.94385483501022,0 33.02041756255125,34.94384863155913,0 33.02028699835907,34.9438035960328,0 33.01996770056945,34.94386308963932,0 33.01972625562196,34.94401307670667,0 33.0194475786472,34.94401455040649,0 33.01901921940387,34.94394282872194,0 33.01890616014536,34.9439525602446,0 33.0187862532959,34.94398646203265,0 33.01872336984944,34.94391228532886,0 33.01866633204156,34.9438992422074,0 33.01861086759622,34.94392102400947,0 33.01854967944898,34.94398005761639,0 33.01837390407873,34.94408086400656,0 33.01814722480101,34.94416632449042,0 33.01771372193861,34.94422806834045,0 33.01767142592713,34.94423049485567,0 33.01763411869067,34.94422282544681,0 33.01739119347663,34.94416895186215,0 33.01724534887362,34.94415508692369,0 33.01705415765466,34.94413485232385,0 33.01695336882951,34.94413904819125,0 33.01685020728765,34.94415200085669,0 33.01657319250027,34.94423953146465,0 33.0164836154235,34.9442742083832,0 33.01630366405566,34.94440434778154,0 33.0162107238322,34.94445121146646,0 33.01597497488858,34.94454387969076,0 33.01587779118905,34.94459702127995,0 33.0157718125609,34.94468664595986,0 33.01569272911917,34.94476824249006,0 33.01564439538489,34.94486379375268,0 33.01560833566532,34.94498690302806,0 33.01557735224622,34.94502908881013,0 33.0152863560196,34.9452856312377,0 33.01528108702198,34.94531553704536,0 33.01527741359413,34.94533638502149,0 33.01505535289102,34.94540323169345,0 33.01504984159184,34.94541369083845,0 33.01503887749471,34.94544325299163,0 33.01501993332418,34.94545885649021,0 33.01501893988939,34.94548020532519,0 33.01504088548987,34.94551633217122,0 33.01504288269351,34.94553029066256,0 33.01509973749351,34.94560500545436,0 33.01512068312105,34.94562635246282,0 33.01515596423167,34.94563335943747,0 33.01512424170605,34.94572506828878,0 33.01510373465635,34.94579710189411,0 33.01512568050587,34.94583988492693,0 33.01512366637404,34.94587099193411,0 33.01513424030463,34.94588661971642,0 33.01513335423351,34.94595592944389,0 33.01510431329342,34.94598548663888,0 33.0150953376757,34.94602341116954,0 33.01506051942483,34.94605796753423,0 33.01507375129997,34.94607268995004,0 33.01507713675355,34.94611690767265,0 33.01512435861042,34.94620680742914,0 33.01512257393834,34.9462474849522,0 33.01517284106476,34.94626328085932,0 33.01520709788723,34.94627697930583,0 33.01540045707289,34.94627474373006,0 33.01544897838279,34.94628032557249,0 33.01549092792682,34.94628083224728,0 33.01553131834777,34.94629205537838,0 33.0155833082633,34.94629370105407,0 33.01556720593677,34.94640151847103,0 33.01555530883631,34.94643523279974,0 33.01553025957205,34.94650622589141,0 33.01543032164204,34.94654522843441,0 33.01538335701689,34.94665141182875,0 33.01504376682986,34.94670897677926,0 33.01477261220862,34.94662826752687,0 33.01464570549465,34.94649736013014,0 33.01460631906011,34.9465729133197,0 33.0145463596407,34.94656235928849,0 33.01450994590741,34.94654133584503,0 33.01442556067838,34.94659768744421,0 33.01439656064736,34.94657591309179,0 33.01416246133272,34.9467910890286,0 33.01395995617919,34.94663803601622,0 33.01347452819989,34.94675260653606,0 33.01340178148941,34.94684113018283,0 33.0133935971121,34.94701063980189,0 33.01331723800061,34.94727954742434,0 33.01296898352066,34.94734085659042,0 33.01297724493007,34.94719591383323,0 33.0128915125897,34.9471199643646,0 33.01287783829633,34.94697695120413,0 33.01269315996598,34.94690016739316,0 33.01243289876904,34.94702125263863,0 33.01214083148717,34.94710730259404,0 33.01201039774752,34.94717299958425,0 33.01190973153656,34.94726526965256,0 33.01184150746472,34.94736157941884,0 33.01146167471695,34.94762038381671,0 33.01132549036273,34.94774602518864,0</coordinates>
						</LinearRing>
					</outerBoundaryIs>
				</Polygon>
			</MultiGeometry>
		</Placemark>
	</Document>
</kml>