<?xml version='1.0' encoding='UTF-8'?>
<kml xmlns="http://www.opengis.net/kml/2.2">
	<Document>
		<name>PRASTIO KELLAKIOU</name>
		<Style id="PolyStyle70">
			<LabelStyle>
				<color>00000000</color>
				<scale>0.000000</scale>
			</LabelStyle>
			<LineStyle>
				<color>ff0055ff</color>
				<width>2.000000</width>
			</LineStyle>
			<PolyStyle>
				<color>00828282</color>
				<outline>1</outline>
			</PolyStyle>
		</Style>
		<Placemark id="ID_70573">
			<name>PRASTIO KELLAKIOU</name>
			<snippet />
			<description>&lt;html xmlns:fo="http://www.w3.org/1999/XSL/Format" xmlns:msxsl="urn:schemas-microsoft-com:xslt"&gt;

&lt;head&gt;

&lt;META http-equiv="Content-Type" content="text/html"&gt;

&lt;meta http-equiv="content-type" content="text/html; charset=UTF-8"&gt;

&lt;/head&gt;

&lt;body style="margin:0px 0px 0px 0px;overflow:auto;background:#FFFFFF;"&gt;

&lt;table style="font-family:Arial,Verdana,Times;font-size:12px;text-align:left;width:100%;border-collapse:collapse;padding:3px 3px 3px 3px"&gt;

&lt;tr style="text-align:center;font-weight:bold;background:#9CBCE2"&gt;

&lt;td&gt;5&lt;/td&gt;

&lt;/tr&gt;

&lt;tr&gt;

&lt;td&gt;

&lt;table style="font-family:Arial,Verdana,Times;font-size:12px;text-align:left;width:100%;border-spacing:0px; padding:3px 3px 3px 3px"&gt;

&lt;tr&gt;

&lt;td&gt;DIST_CODE&lt;/td&gt;

&lt;td&gt;5&lt;/td&gt;

&lt;/tr&gt;

&lt;tr bgcolor="#D4E4F3"&gt;

&lt;td&gt;VIL_CODE&lt;/td&gt;

&lt;td&gt;133&lt;/td&gt;

&lt;/tr&gt;

&lt;tr&gt;

&lt;td&gt;VIL_CCD&lt;/td&gt;

&lt;td&gt;5133&lt;/td&gt;

&lt;/tr&gt;

&lt;tr bgcolor="#D4E4F3"&gt;

&lt;td&gt;VIL_NM_E&lt;/td&gt;

&lt;td&gt;PRASTIO KELLAKIOU&lt;/td&gt;

&lt;/tr&gt;

&lt;tr&gt;

&lt;td&gt;VIL_NM_G&lt;/td&gt;

&lt;td&gt;ΠΡΑΣΤΙΟ ΚΕΛΛΑΚΙΟΥ&lt;/td&gt;

&lt;/tr&gt;

&lt;/table&gt;

&lt;/td&gt;

&lt;/tr&gt;

&lt;/table&gt;

&lt;/body&gt;&lt;script type="text/javascript"&gt;

				function changeImage(attElement, nameElement) {

				document.getElementById('imageAttachment').src = attElement;

				document.getElementById('imageName').innerHTML = nameElement;}

			&lt;/script&gt;&lt;/html&gt;

</description>
			<styleUrl>#PolyStyle70</styleUrl>
			<MultiGeometry>
				<Polygon>
					<extrude>0</extrude>
					<altitudeMode>clampToGround</altitudeMode>
					<outerBoundaryIs>
						<LinearRing>
							<coordinates> 33.10794671674862,34.78868644144829,0 33.10809861758496,34.78866906264284,0 33.10816265732103,34.78864374146988,0 33.10918472767951,34.78832072872867,0 33.10924879698526,34.78830088692565,0 33.11372263907285,34.78691528561368,0 33.11628496373277,34.78611380971822,0 33.12036810390761,34.78486302713611,0 33.12317526658649,34.78400560588656,0 33.12417466554169,34.78138753258627,0 33.12531906514322,34.77846152341462,0 33.13199594162771,34.77813065473212,0 33.13316190036347,34.77809436688016,0 33.14204271177788,34.7775812649141,0 33.14612696823028,34.77969679917756,0 33.15088113692846,34.78221988128784,0 33.1516428496187,34.78264395123905,0 33.15281825006829,34.78330178699903,0 33.15698875619749,34.7852923291133,0 33.15951657835677,34.78653568897614,0 33.16430777007609,34.78889208616634,0 33.16441566338553,34.78887853039148,0 33.16425298665035,34.79021399412418,0 33.16418882457232,34.79074070696824,0 33.16374248726285,34.79415260040511,0 33.16355356578057,34.79558238528835,0 33.1632001349858,34.79836624948244,0 33.16301906505813,34.79992077911676,0 33.16281880830759,34.80162452297083,0 33.16147951208094,34.80157606375102,0 33.15981619384322,34.80151381326057,0 33.15956242095039,34.80148007659304,0 33.15948866896376,34.8014472827276,0 33.15938407974375,34.8013848018795,0 33.15912147897513,34.80147882303113,0 33.1587379328723,34.80147833137979,0 33.15838798533597,34.80150008240572,0 33.15702165108537,34.80169258030391,0 33.15573606563498,34.80187962204209,0 33.154188010669,34.80208295230506,0 33.15343414149291,34.8021985125923,0 33.15172495407773,34.80221288181853,0 33.14999552612178,34.80225495193922,0 33.14714902924977,34.80232321358007,0 33.14681928753041,34.8023338604686,0 33.14685873628713,34.80278905103047,0 33.14683809985124,34.80301104061184,0 33.14677686184929,34.80334398351244,0 33.14646587848683,34.80405401061331,0 33.14658027335425,34.80405416856592,0 33.14637072080222,34.80452011840013,0 33.14640546733634,34.80468341052514,0 33.14639496405117,34.80469606968669,0 33.14637545701306,34.80471958419289,0 33.14642842883051,34.80488104245756,0 33.14659385092995,34.80504838071135,0 33.14657127260445,34.80528230147218,0 33.14662628062816,34.8054039119293,0 33.14680240925475,34.80574141202239,0 33.1470489529383,34.80586936269767,0 33.14723321004268,34.80583315650843,0 33.147011820065,34.80601515223508,0 33.1463668721724,34.80616617706236,0 33.14615641879061,34.80640287553743,0 33.14635076250377,34.80684066654117,0 33.14680362871267,34.80695371262607,0 33.14686976182834,34.80703887718599,0 33.14705002348819,34.80715762190572,0 33.14742197282931,34.80720978716457,0 33.14822856923969,34.80727773810338,0 33.14877537485327,34.80711000949822,0 33.14921324019438,34.80745970515058,0 33.14947222020776,34.80769345388127,0 33.14973753731973,34.80795734884083,0 33.15002451962232,34.80813396192296,0 33.15022323355721,34.80823753471116,0 33.15055088276387,34.80834128217377,0 33.15073116981073,34.80845090585597,0 33.15089639609008,34.80872457946984,0 33.15113146746831,34.80907430664789,0 33.15152507898303,34.80935436359636,0 33.15205464595221,34.80981386350484,0 33.15223434591813,34.81022427960902,0 33.1517220831253,34.81032993527413,0 33.1517808422766,34.81042116498074,0 33.15115715595371,34.81098242006508,0 33.1507294983291,34.81114895166122,0 33.15031087124277,34.81047691186338,0 33.14971417060463,34.81043356627136,0 33.14952249744699,34.81049103441429,0 33.1495550007143,34.81081617997888,0 33.14958737799424,34.81120513156013,0 33.14975218850829,34.81168845218293,0 33.14946454636448,34.81183694010238,0 33.14931328672286,34.81194611439567,0 33.14917275716452,34.81221633558734,0 33.14931649043604,34.81218614807194,0 33.14979208061563,34.81200449464833,0 33.15000934759751,34.81204732647362,0 33.15027103884614,34.81198083681186,0 33.15069814497915,34.81209687216815,0 33.15090411084736,34.81226425868714,0 33.15084794384823,34.81272297230768,0 33.15068910026189,34.81294151858115,0 33.1509132555058,34.813227424729,0 33.15111179086248,34.81342822347872,0 33.15111897231299,34.81352242108012,0 33.15083887576359,34.81357977208344,0 33.15064711819732,34.81367370231585,0 33.15065414883944,34.81384385849747,0 33.1504770778791,34.81396515286028,0 33.15048776459247,34.81414746694777,0 33.15059044149397,34.81438763525718,0 33.15088788515085,34.81487417121739,0 33.150732464902,34.81522033213264,0 33.15055162209344,34.81538415826478,0 33.15032721951658,34.81521978414646,0 33.15008819656197,34.81499766154009,0 33.14996241484597,34.81526182647732,0 33.14994726041883,34.81547145132934,0 33.14942784241145,34.81545251519723,0 33.14953784468259,34.81571092348999,0 33.14964486365246,34.81561991901767,0 33.14976997944483,34.81569300915675,0 33.14979919680458,34.81582065879132,0 33.15015622475358,34.81598521373481,0 33.15037732245569,34.81596120631198,0 33.15035493287163,34.81610397836511,0 33.14992719394898,34.81629481395184,0 33.14944753314425,34.8166587621767,0 33.14914528720244,34.81673127098365,0 33.14890599528818,34.81664283210451,0 33.14870010896437,34.81642986741305,0 33.1484201006181,34.81643859910341,0 33.14821688566153,34.81673000119614,0 33.14785954272912,34.81672039553951,0 33.14769688882204,34.81699362282222,0 33.14747566297564,34.8170814295562,0 33.14744596809668,34.81719076956482,0 33.14764434161811,34.81747360816411,0 33.14775854293497,34.81747680311977,0 33.14811522702394,34.81781454907311,0 33.1488553275991,34.8180221693872,0 33.14893935464826,34.81837776859249,0 33.14878769854378,34.81867835734629,0 33.14897895750784,34.8188366133486,0 33.14888999845964,34.81920494991438,0 33.14879659981658,34.81959165443664,0 33.1486349728337,34.81964138686362,0 33.14825833040193,34.81951321071103,0 33.14827159909182,34.81960758667211,0 33.14810297378428,34.81978497007125,0 33.14821669940751,34.82012925182903,0 33.1482295771949,34.82041789243267,0 33.148458115884,34.82056806732445,0 33.14811404676531,34.82097277686914,0 33.14793245356415,34.82090592332555,0 33.14767564861007,34.82142175944502,0 33.14744081065949,34.82106065871571,0 33.14708387250089,34.82117117532245,0 33.14692284606796,34.82092118133686,0 33.14692987540124,34.82077132962068,0 33.14658040742985,34.82052107758688,0 33.14632459091362,34.82054847597849,0 33.14611633899381,34.82035392209284,0 33.14592776267308,34.82041471436977,0 33.14573951472887,34.8203145441887,0 33.14547713567989,34.82025867506787,0 33.14539004244278,34.82006428961664,0 33.145228669395,34.81998635693808,0 33.14478454018187,34.82002965028491,0 33.1437691570102,34.81950697435986,0 33.14353287174559,34.81955007147067,0 33.14333835700849,34.81953411876791,0 33.14297477805974,34.81960021022724,0 33.14269215550726,34.81957205784727,0 33.1424159426976,34.81969932688683,0 33.14224037230604,34.81997659950099,0 33.1423205942507,34.82023758384479,0 33.14177540535792,34.82024790913181,0 33.14181604425216,34.82012585811508,0 33.14156000767007,34.82025870332068,0 33.14143237123422,34.82014196203499,0 33.14133127582163,34.82020842289601,0 33.14133777262273,34.8203194411032,0 33.14155286861866,34.82045295868885,0 33.14188871651716,34.82077536097163,0 33.14213123745395,34.8206702478704,0 33.1426367862529,34.82030463783339,0 33.14344387739305,34.82057774990693,0 33.14336925278899,34.82086071763471,0 33.14314732991768,34.82077159618148,0 33.14312023799084,34.82085481329584,0 33.14336228063735,34.82097726577997,0 33.14363798883332,34.82109421342989,0 33.14365108004431,34.82127184563812,0 33.14353667032987,34.82126613473041,0 33.14350921003083,34.82152696575963,0 33.14329397529458,34.8214600566272,0 33.14294982589293,34.82188695444126,0 33.14305635264551,34.82244769827679,0 33.14309673730884,34.822447755357,0 33.14314337811764,34.8226753887007,0 33.14327793423386,34.8227033322357,0 33.14325693222119,34.82309183018455,0 33.1429810559318,34.82305258809625,0 33.14329697155297,34.82325840045869,0 33.14349872334395,34.82333638990031,0 33.14347796370729,34.82361388260557,0 33.14337693481046,34.82364704356679,0 33.14333591638842,34.82395225995995,0 33.14375957185413,34.82413602167373,0 33.14409629669314,34.82404768839799,0 33.14421728675716,34.82412556401886,0 33.14408241398525,34.82424748399083,0 33.14414294116831,34.82427532128961,0 33.14381229673916,34.82468003862283,0 33.14393977988077,34.82506023436311,0 33.14399291010698,34.82521868389946,0 33.14414122145861,34.82510788377353,0 33.14416754607804,34.82539654201061,0 33.14359486776915,34.82566215626819,0 33.14374917059025,34.82590659233077,0 33.14339213748934,34.82605040053917,0 33.14333112305007,34.82626123031574,0 33.14308875351575,34.82628864121667,0 33.14294750344082,34.82623848725194,0 33.14263793533998,34.82621029795024,0 33.14200577292431,34.82594852982754,0 33.14192457084888,34.82615377993719,0 33.14158168076293,34.82597012798393,0 33.14140025654842,34.82582000726234,0 33.14121871310674,34.825730941815,0 33.14083398592982,34.82623548024299,0 33.14121021757136,34.8265690432744,0 33.14108838655158,34.82689079504084,0 33.14101429038936,34.82691844105904,0 33.14092044279018,34.82673514200495,0 33.1407723167471,34.82675158109893,0 33.14057082326264,34.82654592674031,0 33.14040984110819,34.82627927535918,0 33.14051790880971,34.82610181677714,0 33.1404710148863,34.8259962909551,0 33.14019434907208,34.8263289198688,0 33.13983077299985,34.82637835025825,0 33.13984366813812,34.82664478868463,0 33.13968851709823,34.82680552828941,0 33.13960747356048,34.82693307051512,0 33.1392574485586,34.82693811593475,0 33.1388327640739,34.82723167530751,0 33.1386645753805,34.82719257819129,0 33.13828862530359,34.82673134684376,0 33.13826209578999,34.82654814317316,0 33.1385382017751,34.82648193919817,0 33.13887481141725,34.82645467502429,0 33.13876755566525,34.82624915435451,0 33.13867979907634,34.82636558601245,0 33.13838369993326,34.82633740478767,0 33.13804022284729,34.82643126211666,0 33.13777723349094,34.82665289664867,0 33.13766973032689,34.82656393225563,0 33.13751461093293,34.82670801832316,0 33.137279051992,34.82669657265971,0 33.13715813799536,34.8265798374625,0 33.13690916759107,34.82654617006121,0 33.13679467927872,34.82657375438939,0 33.13679439120714,34.82670696511391,0 33.13673377848185,34.82672352622976,0 33.13670681013545,34.82674568900617,0 33.13658528455623,34.82691757390202,0 33.1366853571749,34.82732845189588,0 33.13670499133423,34.82758935083871,0 33.13687924546714,34.82793928367219,0 33.13704725573616,34.82806163801744,0 33.13693944161013,34.82811698420935,0 33.13696621957424,34.8281836300143,0 33.13711417601773,34.82824490006413,0 33.13696575258913,34.82840009366316,0 33.13697905837278,34.82847226971501,0 33.13681741236861,34.82852198732424,0 33.13701232096687,34.82865548225395,0 33.13676270687625,34.82891598542009,0 33.13646691106085,34.82874348656774,0 33.13629867349953,34.82872104058467,0 33.13605673209058,34.82854862010857,0 33.13584105300412,34.82867596052188,0 33.13568697322313,34.82833715741651,0 33.13531109514283,34.82784816563804,0 33.1350885347691,34.82804765564581,0 33.13502078586002,34.82824736837011,0 33.13431392696737,34.8282907227758,0 33.13397023135546,34.82847892569565,0 33.13370101004625,34.82846742543914,0 33.13368777574423,34.82836194657999,0 33.13305117628427,34.82848250788247,0 33.13269587972645,34.82859066998856,0 33.13144427296484,34.82727454006912,0 33.13123321987933,34.82730478537973,0 33.1310564751646,34.8272927630097,0 33.13086039425421,34.82700093487356,0 33.13102298178835,34.82696826521832,0 33.13104885689935,34.82687191079381,0 33.13071629960302,34.82641059750553,0 33.12993160536136,34.82541960613487,0 33.12984904003931,34.82536775705366,0 33.12969710169528,34.82507625031941,0 33.12969574098573,34.82507363935842,0 33.12972211625929,34.82475393428133,0 33.13039992265813,34.8238121861974,0 33.13051422611299,34.82369480618627,0 33.13058316876079,34.82346215452147,0 33.13047489807705,34.82343142654132,0 33.13052084434003,34.82328337843367,0 33.13086605948748,34.8231757526888,0 33.13068994537356,34.82288395307263,0 33.13037109435237,34.82267657589339,0 33.13024349393486,34.82236604098646,0 33.13044921614451,34.82216416091566,0 33.13023320359439,34.82186759770493,0 33.13009382052838,34.82172632224594,0 33.12998018414551,34.82154746726339,0 33.12974391244622,34.82138723542042,0 33.12953881824655,34.82130933666024,0 33.12937930249347,34.82124796593143,0 33.12908372301879,34.82083842756726,0 33.12912422726785,34.82057516997163,0 33.12880277912344,34.82026198679359,0 33.12866001668884,34.82035816160838,0 33.12849466169124,34.82035790814929,0 33.12812407636243,34.82034323293272,0 33.12815577618776,34.82019281268887,0 33.12843598192453,34.81983117752052,0 33.12863033473968,34.81961282575006,0 33.1284596046666,34.81946914936977,0 33.12832003454104,34.8194148605297,0 33.12800079419916,34.81938850832482,0 33.12764124173986,34.81953842373785,0 33.12706815499195,34.81956340157953,0 33.12650701936925,34.81934858561926,0 33.1263301264479,34.81917204833331,0 33.12609992659162,34.81894230992913,0 33.12563866248815,34.81878141865909,0 33.12552325059058,34.81878356063413,0 33.12545939107383,34.81839811597982,0 33.12525152650611,34.81820976120896,0 33.12463504733651,34.81822504735572,0 33.12443518948285,34.81822705571145,0 33.12386696872122,34.818065990282,0 33.12320046337452,34.81780494948962,0 33.12242980305867,34.81754838282553,0 33.12185618854441,34.81728980217346,0 33.12165945690272,34.81715949365683,0 33.12160078706209,34.81697137006484,0 33.12165554746295,34.81642361587052,0 33.1216227474133,34.81600571986231,0 33.12177524757556,34.81579007460062,0 33.12194173357271,34.81561159472552,0 33.12184659613504,34.81537002262857,0 33.12170894101245,34.81525605694674,0 33.12150925894906,34.81518609898087,0 33.12132353144256,34.81516723204987,0 33.12080252952537,34.81528711201501,0 33.12041354060811,34.8155232694503,0 33.11997327993952,34.81601701369456,0 33.11938185596463,34.81615534485177,0 33.11923845273942,34.81609243861773,0 33.11911223997246,34.81590188382432,0 33.11897254329651,34.81546292097553,0 33.11890258353196,34.81529102873928,0 33.11866654400118,34.81512350922521,0 33.11833199144369,34.81495583087475,0 33.11819992099766,34.81486276322195,0 33.11803156488378,34.81464196201222,0 33.1179054952354,34.81439337191065,0 33.11753702237434,34.81428831313183,0 33.11701376417874,34.81417371603921,0 33.11613857933597,34.81409800470533,0 33.11594159735028,34.81407911144666,0 33.11570655809667,34.81350070827762,0 33.11548987937671,34.81347946038128,0 33.11468722823047,34.81367545754807,0 33.11444786496232,34.81372381159211,0 33.11362872522034,34.81375263522269,0 33.11315298720483,34.81377738265276,0 33.11304920109444,34.81363096471391,0 33.11314847311682,34.8133200669411,0 33.11344760557078,34.8130002153588,0 33.11363087199992,34.81287052237926,0 33.11379213047429,34.81253187073808,0 33.11379966127775,34.81174958436017,0 33.11373587515848,34.81135949047932,0 33.11352759581159,34.81135914589277,0 33.11256888613205,34.81207485458904,0 33.111983591811,34.81201584536088,0 33.11159003257348,34.81181787227867,0 33.11139719047918,34.81126274428875,0 33.11141179511354,34.81104688190438,0 33.11200142337869,34.81048377650071,0 33.11246403641037,34.81006438122147,0 33.11238002730258,34.80989013893744,0 33.11192423370132,34.80982438132568,0 33.11166573689715,34.80964520476731,0 33.1116127104641,34.80946172784002,0 33.11177930327058,34.80924379944694,0 33.11195712351905,34.8090374946792,0 33.11226765131246,34.80865730806946,0 33.11239198217992,34.80845555745869,0 33.11251651241589,34.80817255830715,0 33.1123964835886,34.80776612069209,0 33.11222218752202,34.80768458258388,0 33.11181977824469,34.80766069751804,0 33.11157857387842,34.80731905431786,0 33.11121407483176,34.80675899595976,0 33.11166307777923,34.80614458586506,0 33.11213456108577,34.80554181819207,0 33.1119103757816,34.80514913380568,0 33.11135022405127,34.80464245485524,0 33.11114822215512,34.8044625149776,0 33.11088653929111,34.80422772684078,0 33.11077773023582,34.8040382622367,0 33.11066976771272,34.80350628741247,0 33.11051720669182,34.80333477607582,0 33.11034268050493,34.80320829419208,0 33.10986229950178,34.80303623052679,0 33.10950203234542,34.80290042081197,0 33.10945850184441,34.80282823976152,0 33.10949152960531,34.80272914716522,0 33.10956833468453,34.80260308864034,0 33.11003903436287,34.80227038518709,0 33.11057533906394,34.80191976335241,0 33.11109009476026,34.80144291517338,0 33.11144058457746,34.80111000400738,0 33.11150645670467,34.80098392629508,0 33.11156164581064,34.80075868273813,0 33.11151833642247,34.80059636820915,0 33.11136602272242,34.80032570996266,0 33.11111543430012,34.80002784695249,0 33.11095210743262,34.79979322314848,0 33.11078886986482,34.79952254615323,0 33.11060429228107,34.79904452339351,0 33.11062667940033,34.7988282380251,0 33.11069248547152,34.7987292008817,0 33.11084579421604,34.79859425652022,0 33.11143657202349,34.79829780284565,0 33.11157893000015,34.79817185240505,0 33.11165608076304,34.79790157789515,0 33.11164626087019,34.79745088879967,0 33.11158132095975,34.79719840411407,0 33.11136318781352,34.79703579704466,0 33.11086103264886,34.79684567289235,0 33.11048968480111,34.79678195568287,0 33.11030406741033,34.79672756241374,0 33.1101622899867,34.79661916252475,0 33.11003161823545,34.7964386736743,0 33.11005398426546,34.79623140201267,0 33.11016391841179,34.79596118344963,0 33.11021908488614,34.79574495311063,0 33.11020867133043,34.79553762633921,0 33.11012181835392,34.79531214396734,0 33.10994748718813,34.79511355444049,0 33.10972940770734,34.79493291787595,0 33.10927137651674,34.79458061917834,0 33.10925705883052,34.79456546319741,0 33.10907521898447,34.79437297839794,0 33.108944710579,34.79412939421093,0 33.1089013195324,34.79400313245435,0 33.10895613023939,34.79393111730008,0 33.10916390574762,34.79385936167199,0 33.10925612768693,34.79385951691305,0 33.10932779818987,34.79385963826052,0 33.10982993282308,34.79404976887166,0 33.11046302826499,34.79430321152007,0 33.11095450873245,34.79438515775859,0 33.11131509593831,34.79437674785648,0 33.11201437480213,34.794377916466,0 33.11240802716632,34.79425238431634,0 33.11258306751041,34.79416254098969,0 33.11262721244395,34.79398234556573,0 33.11244212913696,34.79371163394314,0 33.11199493065222,34.79339541718466,0 33.11155844019876,34.79316935189565,0 33.11122015411631,34.79299753073141,0 33.11098018012495,34.79283488601435,0 33.11090416477772,34.79264547598645,0 33.11092626050051,34.7925463648552,0 33.11104686910409,34.7923753113487,0 33.11142956544336,34.79225877806132,0 33.11186704594513,34.79207923989085,0 33.11194370412899,34.79200726008353,0 33.11194407949033,34.79185403165001,0 33.11173681966254,34.79171848408628,0 33.11162767096017,34.79167323456414,0 33.11131091013232,34.79163665048566,0 33.11078651225305,34.79161774483687,0 33.11049173651821,34.79152711511188,0 33.11022976171222,34.79142752692727,0 33.10977194847816,34.79099410924746,0 33.10925170180975,34.79050370246391,0 33.10913973174352,34.79039815286182,0 33.10876099302111,34.79013259671216,0 33.10859358030245,34.78985691605004,0 33.10839543663032,34.78945178689446,0 33.10826591348503,34.78909174413674,0 33.10811734962763,34.78876882939073,0 33.10794671674862,34.78868644144829,0</coordinates>
						</LinearRing>
					</outerBoundaryIs>
				</Polygon>
			</MultiGeometry>
		</Placemark>
	</Document>
</kml>