<?xml version='1.0' encoding='UTF-8'?>
<kml xmlns="http://www.opengis.net/kml/2.2">
	<Document>
		<name>PRASTIO PAFOU</name>
		<Style id="PolyStyle70">
			<LabelStyle>
				<color>00000000</color>
				<scale>0.000000</scale>
			</LabelStyle>
			<LineStyle>
				<color>ff0055ff</color>
				<width>2.000000</width>
			</LineStyle>
			<PolyStyle>
				<color>00828282</color>
				<outline>1</outline>
			</PolyStyle>
		</Style>
		<Placemark id="ID_70147">
			<name>PRASTIO PAFOU</name>
			<snippet />
			<description>&lt;html xmlns:fo="http://www.w3.org/1999/XSL/Format" xmlns:msxsl="urn:schemas-microsoft-com:xslt"&gt;

&lt;head&gt;

&lt;META http-equiv="Content-Type" content="text/html"&gt;

&lt;meta http-equiv="content-type" content="text/html; charset=UTF-8"&gt;

&lt;/head&gt;

&lt;body style="margin:0px 0px 0px 0px;overflow:auto;background:#FFFFFF;"&gt;

&lt;table style="font-family:Arial,Verdana,Times;font-size:12px;text-align:left;width:100%;border-collapse:collapse;padding:3px 3px 3px 3px"&gt;

&lt;tr style="text-align:center;font-weight:bold;background:#9CBCE2"&gt;

&lt;td&gt;6&lt;/td&gt;

&lt;/tr&gt;

&lt;tr&gt;

&lt;td&gt;

&lt;table style="font-family:Arial,Verdana,Times;font-size:12px;text-align:left;width:100%;border-spacing:0px; padding:3px 3px 3px 3px"&gt;

&lt;tr&gt;

&lt;td&gt;DIST_CODE&lt;/td&gt;

&lt;td&gt;6&lt;/td&gt;

&lt;/tr&gt;

&lt;tr bgcolor="#D4E4F3"&gt;

&lt;td&gt;VIL_CODE&lt;/td&gt;

&lt;td&gt;207&lt;/td&gt;

&lt;/tr&gt;

&lt;tr&gt;

&lt;td&gt;VIL_CCD&lt;/td&gt;

&lt;td&gt;6207&lt;/td&gt;

&lt;/tr&gt;

&lt;tr bgcolor="#D4E4F3"&gt;

&lt;td&gt;VIL_NM_E&lt;/td&gt;

&lt;td&gt;PRASTIO PAFOU&lt;/td&gt;

&lt;/tr&gt;

&lt;tr&gt;

&lt;td&gt;VIL_NM_G&lt;/td&gt;

&lt;td&gt;ΠΡΑΣΤΙΟ ΠΑΦΟΥ&lt;/td&gt;

&lt;/tr&gt;

&lt;/table&gt;

&lt;/td&gt;

&lt;/tr&gt;

&lt;/table&gt;

&lt;/body&gt;&lt;script type="text/javascript"&gt;

				function changeImage(attElement, nameElement) {

				document.getElementById('imageAttachment').src = attElement;

				document.getElementById('imageName').innerHTML = nameElement;}

			&lt;/script&gt;&lt;/html&gt;

</description>
			<styleUrl>#PolyStyle70</styleUrl>
			<MultiGeometry>
				<Polygon>
					<extrude>0</extrude>
					<altitudeMode>clampToGround</altitudeMode>
					<outerBoundaryIs>
						<LinearRing>
							<coordinates> 32.70240805086418,34.80108281614397,0 32.70157107056762,34.80109651773236,0 32.70121684790461,34.80113844781625,0 32.70105547136242,34.80172196334784,0 32.70071270456713,34.80222916095854,0 32.70065578592561,34.80263072919298,0 32.70015768928101,34.80267179737933,0 32.699786503532,34.80224587241891,0 32.69976545017409,34.8018168144412,0 32.69968579162356,34.80145957844273,0 32.69966041881814,34.80105405929928,0 32.69953080520743,34.80080777333622,0 32.69972441773446,34.8002919122464,0 32.69955812405438,34.80000713656876,0 32.69967587442024,34.79977232814213,0 32.69973504941733,34.79958678465594,0 32.69974562060437,34.79930970573687,0 32.69965572245623,34.79923484897641,0 32.69951702557859,34.79896488547406,0 32.69936900339371,34.79895054288901,0 32.69936298959473,34.79868685196296,0 32.69956355683116,34.79831866622794,0 32.6995073385626,34.79815269782554,0 32.6987504412726,34.79841353642868,0 32.69811396623442,34.7987480365641,0 32.6979603650406,34.79891280445623,0 32.69778900422815,34.79873608991208,0 32.69719670929473,34.79859939428727,0 32.69701267096567,34.79795609709232,0 32.69689300487305,34.79771393009938,0 32.69701293777668,34.79764599860142,0 32.69684445464846,34.79759822568929,0 32.69665825439075,34.79758381896512,0 32.69649214839962,34.79759718266971,0 32.69627428998018,34.79744776682083,0 32.69607140353187,34.79740616847704,0 32.695829125029,34.79726408817486,0 32.69577620725811,34.79721778525642,0 32.69572757653788,34.79713847368458,0 32.69572345094755,34.79708650447968,0 32.69568259564753,34.79654916383714,0 32.69528911097556,34.79630672133733,0 32.69527760140208,34.79614258645663,0 32.69503866425817,34.79614502049026,0 32.69500567672562,34.79611916346254,0 32.69496352247069,34.79608721937194,0 32.69492322862144,34.79604921494843,0 32.69482362929357,34.79590400516238,0 32.69477155553648,34.79581231841853,0 32.69484035031154,34.79559720119715,0 32.69465129968749,34.79552850141383,0 32.69428433089605,34.79510229046356,0 32.69418488988072,34.79490889331274,0 32.69426477709988,34.79486276288278,0 32.69432288426845,34.79482703907535,0 32.69437191152834,34.79479726998141,0 32.69412609014131,34.79464121744312,0 32.69409315949413,34.79454131757625,0 32.69403585644524,34.79446795203257,0 32.69394504844031,34.7943727320995,0 32.69385413823518,34.79430521893325,0 32.6937295403006,34.79426532622339,0 32.69361445110788,34.79424920432746,0 32.6934105651633,34.79424275394109,0 32.69318271227507,34.79423030582247,0 32.693107693371,34.7941752523917,0 32.69294240199803,34.79415774754275,0 32.69274052965306,34.79411140275739,0 32.69261186749981,34.79407357649594,0 32.69254369380379,34.79406923778229,0 32.69243758395311,34.79407938599617,0 32.69231369401761,34.79411657516147,0 32.69222179029526,34.79415659722786,0 32.69211918630526,34.79402403942845,0 32.69207940986853,34.79393889021903,0 32.69196351834746,34.79378582484297,0 32.69193116733894,34.79375739313367,0 32.69183681297032,34.79361585404964,0 32.69182112751313,34.79357126717674,0 32.69184494791878,34.79334812023031,0 32.69182224467388,34.79319904335946,0 32.69181297218249,34.79305441310737,0 32.69179059135062,34.79297818896426,0 32.69173997528429,34.79291344364266,0 32.69164129357249,34.79284096736191,0 32.69163735889281,34.7928091973581,0 32.69162536305453,34.79276570515321,0 32.69153897160278,34.79269586242462,0 32.69136865624518,34.7925448129966,0 32.69124438541738,34.79259174664533,0 32.69120595002441,34.7926593735947,0 32.69103589526261,34.79269674092075,0 32.6908192741563,34.79275326822949,0 32.69069799811186,34.79280862850663,0 32.69059033408016,34.79289090643256,0 32.69048241136074,34.79300492470654,0 32.69039236064658,34.79301324957486,0 32.69014907300068,34.7929559326156,0 32.69003097686026,34.79288318294913,0 32.69000085414604,34.7927697078037,0 32.6899648748723,34.79269086782776,0 32.68994045677218,34.79258370745851,0 32.68973120234105,34.79231380797791,0 32.68983611840773,34.79229073312058,0 32.68987457354731,34.79227237112808,0 32.68990236955549,34.79222120238587,0 32.68992152365196,34.79217428271168,0 32.68990623854003,34.7921042467476,0 32.68986890612609,34.7920270592599,0 32.68983434928641,34.79195629448319,0 32.68979665510999,34.79188645650844,0 32.68973994011113,34.79179150239617,0 32.68975785286224,34.79165151253257,0 32.68979602235556,34.79159467756518,0 32.68981169895464,34.7915548642198,0 32.68986425329678,34.79140714880496,0 32.68987700269984,34.7913115189495,0 32.68985579907057,34.79127286554688,0 32.68981141101601,34.7912179665432,0 32.68977767872563,34.79112845719717,0 32.68977458385846,34.79103779544569,0 32.68973893014688,34.79093005287891,0 32.68965851983744,34.79085335947434,0 32.68955064351211,34.79077517887902,0 32.68937910640635,34.79073224758029,0 32.68931061314493,34.79068249637817,0 32.68929185982447,34.79064703667201,0 32.68925956154043,34.79056054980782,0 32.68925628769604,34.7905180477863,0 32.68925400780886,34.79045701079147,0 32.68929121201016,34.79036003173643,0 32.68930971216685,34.79030506409148,0 32.689365437326,34.79017869528631,0 32.68945058245133,34.79008400200701,0 32.68953940542229,34.78995693779814,0 32.68959144700688,34.78986805819403,0 32.68962320557791,34.78978830635989,0 32.68957878451566,34.78962261659899,0 32.68954113065871,34.78948083442999,0 32.68954628420298,34.78938770837659,0 32.68950331432256,34.78931625764879,0 32.68937154274003,34.78922476363876,0 32.68922469077217,34.78912409023277,0 32.6891348155181,34.78897580220355,0 32.68909864755579,34.78887248154258,0 32.68892810374958,34.78871133446617,0 32.6888062817195,34.78843593874289,0 32.68876244031311,34.78827509094815,0 32.68874063849442,34.78820782903864,0 32.68871956267561,34.78813289129035,0 32.68874820952691,34.78808744648484,0 32.6887592563555,34.78807699622069,0 32.68880436790862,34.78770651805338,0 32.68879671677794,34.78732639821798,0 32.68878255629065,34.78712063917149,0 32.68870057743079,34.78691881462616,0 32.68854299606293,34.78707654926625,0 32.68843783968718,34.78719599067192,0 32.68822839164569,34.78731489176425,0 32.68804035746608,34.78735677027419,0 32.68784198925929,34.78738574020102,0 32.68741452008528,34.787366386947,0 32.68702008938394,34.78734312550414,0 32.68622285917785,34.78725757576723,0 32.68598342719466,34.78719634269837,0 32.68564523189818,34.78709174476431,0 32.68543736708366,34.78699210722822,0 32.68534490528286,34.78679879824227,0 32.68522621697335,34.78662677773287,0 32.68498285011396,34.78638983263763,0 32.6847977797885,34.78626021921761,0 32.68427255402458,34.78595003577704,0 32.6832340963743,34.78516898458434,0 32.68292796318808,34.78507318410684,0 32.68232181007993,34.78486674802901,0 32.68133200301926,34.7844600349157,0 32.68109672566464,34.78432734386342,0 32.67991563843757,34.78338171301509,0 32.67935396062538,34.78206857309853,0 32.67900481377684,34.78163744052094,0 32.67781634812453,34.78017135926569,0 32.6776412505802,34.78001087111521,0 32.67722543372054,34.77988296243529,0 32.67583391713091,34.77965770426946,0 32.6749307109559,34.77961907801223,0 32.67368370807158,34.7795776868165,0 32.67316801020144,34.77949276097911,0 32.67152788874608,34.77918946898315,0 32.67225946209746,34.77880965983319,0 32.67245637522378,34.7788840505779,0 32.67275169644778,34.77890791756693,0 32.67329242025266,34.77908937440029,0 32.67383507127604,34.77896469152418,0 32.67458364436055,34.77905116936721,0 32.67535057558526,34.77895955850088,0 32.67589941284563,34.77869720265576,0 32.67612859150557,34.77855810765835,0 32.67627620616079,34.77846641476403,0 32.67648516420561,34.77847389522957,0 32.67717061950843,34.77870730701679,0 32.67758835578258,34.77875734239881,0 32.67802901619636,34.77886171093498,0 32.67831929254837,34.77886642939662,0 32.67845970241415,34.77867583231335,0 32.67852284034012,34.77845932601296,0 32.67893286881592,34.77795590374123,0 32.67898107091207,34.77763733548829,0 32.6790479847097,34.77749585530314,0 32.67984679255395,34.77678442002203,0 32.68028781089624,34.77680904212111,0 32.68044656917765,34.7767907474191,0 32.68052053293875,34.77670826087522,0 32.6805059869003,34.77653287953729,0 32.6802828433577,34.77616636555292,0 32.68039395520696,34.77591648964004,0 32.68041708742026,34.77568231683495,0 32.6806126368401,34.77539130530573,0 32.68061771993186,34.77519150179556,0 32.6811047735858,34.77415122660385,0 32.68129181559379,34.77361235140314,0 32.6813152143514,34.77346259234265,0 32.68132949113957,34.77334202741507,0 32.68131224075589,34.77327245470034,0 32.68127280793413,34.77319543466984,0 32.68124727746636,34.77313702103618,0 32.68126557775136,34.77307132209566,0 32.68136092726199,34.77281962621304,0 32.68146115166692,34.77251311188122,0 32.68156137534996,34.77220659023587,0 32.68163395318602,34.77202421246978,0 32.68176981333357,34.7718282023794,0 32.68184613182294,34.7717372510111,0 32.68202939662187,34.77162134356331,0 32.68207464018432,34.77152289099153,0 32.68211192264533,34.77130372332432,0 32.68211863642145,34.77101124234911,0 32.68210214787361,34.77084294411732,0 32.68208075840354,34.77073312052686,0 32.68213142789156,34.7706348677866,0 32.68224814873514,34.77049660857607,0 32.68229333611045,34.77040546026394,0 32.68228945537142,34.77033230499286,0 32.68222811904518,34.77021127482192,0 32.6821623910485,34.77008290520708,0 32.68215873619467,34.76998049912942,0 32.68218624533551,34.76987461815403,0 32.68225387131955,34.7697580027507,0 32.68259187615235,34.76923110182835,0 32.6827520682535,34.76922472145421,0 32.68288087001696,34.76925107036139,0 32.68311600930659,34.76933289218367,0 32.68339963902807,34.76947351011114,0 32.68349733937131,34.769496022917,0 32.68383539009957,34.76950530913076,0 32.68416044792554,34.76947063448249,0 32.68446834640264,34.76935539811727,0 32.68467153748025,34.76932719689002,0 32.68492666697941,34.76931039255221,0 32.68521312705992,34.76931027984569,0 32.68563576350129,34.76923028211913,0 32.68588120414038,34.76918917451048,0 32.68608402667707,34.76914411181387,0 32.68637449281539,34.76912359589959,0 32.68671212994776,34.76914546912439,0 32.68698025496138,34.76917700122829,0 32.68729211427353,34.7692328456077,0 32.68743371283645,34.7692195575335,0 32.6874175208271,34.76910108606947,0 32.68739604385689,34.76903676150754,0 32.6873574905697,34.76897234531564,0 32.68719263054299,34.76878148353222,0 32.68702308719496,34.76861603599808,0 32.68677793031152,34.76844817523807,0 32.6866582600935,34.76838162640177,0 32.68661217654084,34.76834526017934,0 32.68625929373053,34.76789989394311,0 32.68600950385116,34.76760207184411,0 32.6858638341932,34.76715435215606,0 32.68578271715248,34.76690707307204,0 32.68541792407783,34.76635535383068,0 32.68495373604731,34.76575159927199,0 32.68486073484447,34.76549941279094,0 32.68481306928249,34.76541977179484,0 32.68478629255718,34.76531473219002,0 32.68479020225483,34.76525522263924,0 32.68485243003767,34.76523572291849,0 32.68495763598442,34.76523347199696,0 32.68517458600306,34.76522629954008,0 32.68554176375945,34.76528546995765,0 32.68580172551073,34.7652882153245,0 32.68605285269933,34.7653658386117,0 32.68613341472903,34.7653717083688,0 32.68708860439541,34.7653044868889,0 32.68788228777016,34.76509537366477,0 32.68791221639314,34.7652944923524,0 32.68775108094119,34.76536175259406,0 32.68774957126463,34.76556336164307,0 32.68778502504239,34.76592608211796,0 32.68780369337645,34.76608692306479,0 32.68793512839115,34.76668460846491,0 32.68813624495971,34.76731335161277,0 32.68827484617636,34.76760011684442,0 32.68841441095574,34.76781154233102,0 32.68866404954441,34.76795227018557,0 32.6889236876877,34.76799723507037,0 32.68978273620094,34.76798939454979,0 32.69005937960196,34.76797588310584,0 32.69025751393872,34.76794101231195,0 32.69062938221857,34.76781768099031,0 32.69079078433906,34.76780172412739,0 32.69103904528783,34.76760145815268,0 32.69148312826743,34.76767777304037,0 32.69179896687881,34.76773801417872,0 32.69241851904042,34.76818643629772,0 32.69276088439769,34.7683963181566,0 32.69325735087966,34.76865636048208,0 32.69332573983198,34.76867601596974,0 32.69353293154745,34.76865123555412,0 32.69408128231851,34.7685106349684,0 32.69461970133715,34.76831928646338,0 32.69457977234082,34.76812839092798,0 32.69511003438362,34.767987441923,0 32.69589970758574,34.76796155455646,0 32.69646294150328,34.76773023509948,0 32.69671256532931,34.76767621167456,0 32.69710136184403,34.76783599932637,0 32.69746914535138,34.76803407524194,0 32.69776038741562,34.76832810867662,0 32.69777678032387,34.76876798515215,0 32.69770873231901,34.76942030408264,0 32.69767332551792,34.76972232444088,0 32.69769814974394,34.76993627046824,0 32.69789752804663,34.76996725896512,0 32.69819803541525,34.7696596921494,0 32.6982732415436,34.76957292572786,0 32.69840714788266,34.76960359336362,0 32.69843834675404,34.7698488987287,0 32.69844625187569,34.77011161032612,0 32.69846211729711,34.77020021424236,0 32.69846735167614,34.7703772789201,0 32.69849105405726,34.77072728170719,0 32.69838676190165,34.77112061332677,0 32.69827332848958,34.77163572261428,0 32.6982084136645,34.77188421345735,0 32.6980756944465,34.77209142064794,0 32.69792144310919,34.77233432876836,0 32.69785355151142,34.77251218551943,0 32.69775866016507,34.77278807269538,0 32.69766389326919,34.77305033095881,0 32.69787795322147,34.77345807586093,0 32.69791399722511,34.77350727849741,0 32.69803256327984,34.77362863293946,0 32.69809005925373,34.77368747843114,0 32.698278214224,34.77376607688722,0 32.69835590031366,34.77378418675704,0 32.69856422408978,34.77378137455722,0 32.69896846394274,34.77375628839894,0 32.69948880495821,34.77391832807486,0 32.69953625760932,34.77391515487745,0 32.69980380924628,34.77400506277124,0 32.69998204099709,34.77408224317869,0 32.70004929642754,34.77416292075041,0 32.70009376375201,34.77424873364196,0 32.70018291789072,34.77443345087558,0 32.69993584144121,34.77452449691074,0 32.70033352986982,34.77474953994363,0 32.70142597229374,34.77523079953798,0 32.7011412736681,34.77574899229305,0 32.70080175621832,34.77611901145144,0 32.70060221401993,34.77650917445639,0 32.7008260095141,34.77662310357265,0 32.70203355706143,34.77683522293894,0 32.70226604532478,34.77704404902217,0 32.70246434853266,34.77701972935529,0 32.70263651199016,34.77693599449765,0 32.70288858609914,34.7770218625386,0 32.70310705283307,34.777007577372,0 32.70377543682805,34.7768930050559,0 32.70385796627755,34.7768467835148,0 32.70397771292657,34.77667561763364,0 32.70403196961502,34.77650156011493,0 32.7040525066951,34.77624273231694,0 32.70422147741592,34.77616923249671,0 32.70450516160211,34.77619629172041,0 32.70497088893116,34.77627756169717,0 32.70501592141427,34.77648444253301,0 32.70480893872453,34.77665916784515,0 32.7047551609046,34.77675136195636,0 32.70455964676916,34.77699951938523,0 32.70396319504252,34.77771419049338,0 32.70379406144388,34.778268234503,0 32.70376368167259,34.77847715160307,0 32.70374456361749,34.77872888824289,0 32.70372634872285,34.77885233806807,0 32.70369042050852,34.77902796525554,0 32.70362526951699,34.77920177786872,0 32.70361313756124,34.77928249360181,0 32.70355912714008,34.77956256454003,0 32.70351758345407,34.77971440567002,0 32.7035576538636,34.77977162494693,0 32.70377609163589,34.77995328182451,0 32.70382796051434,34.77997730023125,0 32.70407624435238,34.78002606344484,0 32.70418566520934,34.7800883829452,0 32.70431801213272,34.78017932789432,0 32.70433631740788,34.78023495075177,0 32.70450659855878,34.78068720481863,0 32.705015371217,34.78069451004368,0 32.70520172700181,34.78050538158256,0 32.70501747467442,34.78039517120587,0 32.70514012828595,34.78021997821584,0 32.70537561761999,34.78044448369,0 32.70554205718405,34.7806211256412,0 32.70561605397956,34.7807878018066,0 32.7057063975635,34.78109710710981,0 32.70581164131647,34.78117560610411,0 32.7060589991497,34.78135740537664,0 32.70612771544612,34.78145278129812,0 32.70625305307485,34.78171949750426,0 32.70635566374757,34.78192908034355,0 32.7064531253095,34.7820483590131,0 32.70645289167526,34.78208161857964,0 32.70645164294252,34.78227805910853,0 32.70642728171395,34.78245374465696,0 32.70639202317567,34.78253434535832,0 32.70647209907722,34.78267302016764,0 32.70644881683354,34.78268813913832,0 32.70639916233054,34.78279241792592,0 32.70637880416342,34.78290488407014,0 32.70638446284188,34.78302820068981,0 32.7063602761217,34.78313202795259,0 32.706268428371,34.78320661279285,0 32.70614044221303,34.78331853878439,0 32.70601909015572,34.78341441761493,0 32.70592038172527,34.78353721081148,0 32.70586750225267,34.78363611250157,0 32.70579406939147,34.78375504262241,0 32.70567550806475,34.78391793937759,0 32.70546834207769,34.78415811531662,0 32.70538936924275,34.78425688603949,0 32.70530624967171,34.78438147518408,0 32.70526969541266,34.7844777784585,0 32.70519381570011,34.78460068490414,0 32.70519004550014,34.78467303112598,0 32.70519615426202,34.78473202547095,0 32.70542105971531,34.78486076687985,0 32.70553146174192,34.78493100590264,0 32.70566778788666,34.78502549717617,0 32.70571307309997,34.78507932892369,0 32.70572246197393,34.78513565925436,0 32.70570832538937,34.78529103875658,0 32.70562908951796,34.7854273293692,0 32.70550303496649,34.78565890321503,0 32.70538079595175,34.78588074412338,0 32.70534422174335,34.78597972647289,0 32.70525637476477,34.78641235491593,0 32.70524921181804,34.78650344408003,0 32.7052615985307,34.78659731289218,0 32.70531485938738,34.78691017749971,0 32.70534332802353,34.78703628882563,0 32.70533297885996,34.78711664205092,0 32.70528043515947,34.78716730104095,0 32.70510922855242,34.78726399027249,0 32.70497823663411,34.78733837556836,0 32.7049322339433,34.7873863864578,0 32.70490559600307,34.78746397775917,0 32.70493715680069,34.78761422592027,0 32.70501002684333,34.78792013202874,0 32.70505831115652,34.78801150065404,0 32.70537241299338,34.78841170249778,0 32.70565237998704,34.78878185479725,0 32.7056861228484,34.78889479588023,0 32.70568621894984,34.7888951188336,0 32.70490293619123,34.78891320223932,0 32.70490136915662,34.78891323810429,0 32.70541745440936,34.78935318857295,0 32.70566337879022,34.78992873066793,0 32.70518618071603,34.79035865699383,0 32.7055872895917,34.79074299682236,0 32.70558837843068,34.79074254782715,0 32.70588639816218,34.79061964908809,0 32.7058864808262,34.79061975656099,0 32.70610581567016,34.7909042040976,0 32.70587338420671,34.79140252762749,0 32.70555111155009,34.79150650830647,0 32.70547199225986,34.7916239179726,0 32.70547196809206,34.79162395397231,0 32.70541373928607,34.79163963268789,0 32.70509724239674,34.79167116088985,0 32.70502961783452,34.79163909544247,0 32.70502944983978,34.79163901570734,0 32.70494532416499,34.7916744499204,0 32.70483346580036,34.7917474345334,0 32.70481058400051,34.79185605302001,0 32.70484724121845,34.79192268820778,0 32.70489609285194,34.79199742006864,0 32.70489598797282,34.79202685952318,0 32.70486935029966,34.79205548012757,0 32.70481605766982,34.79211724928349,0 32.70475267157535,34.79215139229007,0 32.70475188220423,34.79215181766481,0 32.7046878735352,34.79213958469109,0 32.70458936081738,34.79212403262469,0 32.70435374593762,34.79211772459185,0 32.70421500191534,34.79213935505543,0 32.70421403759615,34.7921395050579,0 32.70399782402798,34.79233471770144,0 32.70387927511683,34.79238117247122,0 32.70371824023299,34.79244335866456,0 32.70371817458278,34.79244338284403,0 32.70353704447006,34.79249601584243,0 32.70353585762319,34.79249636091311,0 32.70327112915741,34.79249404903261,0 32.70327076966213,34.79249404545184,0 32.70318969860755,34.79252890535227,0 32.70314916060969,34.79254717002303,0 32.70300030343788,34.79259653112098,0 32.70299923347301,34.7925968863876,0 32.70276654161407,34.79258964129342,0 32.70236417689756,34.79249517088751,0 32.70217440034011,34.79237116953025,0 32.70198022033481,34.79233473160706,0 32.70169856789009,34.79236105013896,0 32.70169806943848,34.79236109669445,0 32.7008741576542,34.7927318792942,0 32.70096043326317,34.79286082801204,0 32.70105373021503,34.79307600000374,0 32.70111869925535,34.79324095444824,0 32.7012073923004,34.79364513196484,0 32.70132667843717,34.79399305258741,0 32.7015847805614,34.79472245738412,0 32.70162565626732,34.79489355444971,0 32.70172507458238,34.79506986115271,0 32.7018729863609,34.79519868076814,0 32.7020636706859,34.79530590691092,0 32.70225109330721,34.79536609591147,0 32.70246164813733,34.79540858252847,0 32.7026799228951,34.7954375658278,0 32.70310086178718,34.79546986483148,0 32.70327366128418,34.79551563839239,0 32.70357421450885,34.79569638214186,0 32.70373351861105,34.79579114325789,0 32.70389129423875,34.79588561198097,0 32.70400594243916,34.79600646034449,0 32.70413294372423,34.79615973688902,0 32.70420368270692,34.79629034022238,0 32.70437912958526,34.79669416718427,0 32.70443778068043,34.79681628537257,0 32.70459110253941,34.79700821658461,0 32.70496553280747,34.79725449157978,0 32.70503394680957,34.79731747071609,0 32.70519050704481,34.79746603104827,0 32.70535176406773,34.7976399514319,0 32.70553009075545,34.79779988808014,0 32.70561718214644,34.79794264566991,0 32.70572387308516,34.79814235035391,0 32.7059257577648,34.79884709911305,0 32.70599184520814,34.79899036456293,0 32.70612022072932,34.79914364230001,0 32.70568164190035,34.79956719961078,0 32.70553540216783,34.7998030131972,0 32.70521607394177,34.80006150812301,0 32.70496840729112,34.80039363448168,0 32.70460130012117,34.80047945930761,0 32.70443782552297,34.8003501275192,0 32.70429963585987,34.80061295495371,0 32.70410051121612,34.80078756298276,0 32.70405412125812,34.80091233032752,0 32.70396987758365,34.80112811006477,0 32.70311963167681,34.80112059416205,0 32.70281205304549,34.80100061454152,0 32.70240805086418,34.80108281614397,0</coordinates>
						</LinearRing>
					</outerBoundaryIs>
				</Polygon>
			</MultiGeometry>
		</Placemark>
	</Document>
</kml>