<?xml version='1.0' encoding='UTF-8'?>
<kml xmlns="http://www.opengis.net/kml/2.2">
	<Document>
		<name>PSATHI</name>
		<Style id="PolyStyle70">
			<LabelStyle>
				<color>00000000</color>
				<scale>0.000000</scale>
			</LabelStyle>
			<LineStyle>
				<color>ff0055ff</color>
				<width>2.000000</width>
			</LineStyle>
			<PolyStyle>
				<color>00828282</color>
				<outline>1</outline>
			</PolyStyle>
		</Style>
		<Placemark id="ID_70087">
			<name>PSATHI</name>
			<snippet />
			<description>&lt;html xmlns:fo="http://www.w3.org/1999/XSL/Format" xmlns:msxsl="urn:schemas-microsoft-com:xslt"&gt;

&lt;head&gt;

&lt;META http-equiv="Content-Type" content="text/html"&gt;

&lt;meta http-equiv="content-type" content="text/html; charset=UTF-8"&gt;

&lt;/head&gt;

&lt;body style="margin:0px 0px 0px 0px;overflow:auto;background:#FFFFFF;"&gt;

&lt;table style="font-family:Arial,Verdana,Times;font-size:12px;text-align:left;width:100%;border-collapse:collapse;padding:3px 3px 3px 3px"&gt;

&lt;tr style="text-align:center;font-weight:bold;background:#9CBCE2"&gt;

&lt;td&gt;6&lt;/td&gt;

&lt;/tr&gt;

&lt;tr&gt;

&lt;td&gt;

&lt;table style="font-family:Arial,Verdana,Times;font-size:12px;text-align:left;width:100%;border-spacing:0px; padding:3px 3px 3px 3px"&gt;

&lt;tr&gt;

&lt;td&gt;DIST_CODE&lt;/td&gt;

&lt;td&gt;6&lt;/td&gt;

&lt;/tr&gt;

&lt;tr bgcolor="#D4E4F3"&gt;

&lt;td&gt;VIL_CODE&lt;/td&gt;

&lt;td&gt;300&lt;/td&gt;

&lt;/tr&gt;

&lt;tr&gt;

&lt;td&gt;VIL_CCD&lt;/td&gt;

&lt;td&gt;6300&lt;/td&gt;

&lt;/tr&gt;

&lt;tr bgcolor="#D4E4F3"&gt;

&lt;td&gt;VIL_NM_E&lt;/td&gt;

&lt;td&gt;PSATHI&lt;/td&gt;

&lt;/tr&gt;

&lt;tr&gt;

&lt;td&gt;VIL_NM_G&lt;/td&gt;

&lt;td&gt;ΨΑΘΙ&lt;/td&gt;

&lt;/tr&gt;

&lt;/table&gt;

&lt;/td&gt;

&lt;/tr&gt;

&lt;/table&gt;

&lt;/body&gt;&lt;script type="text/javascript"&gt;

				function changeImage(attElement, nameElement) {

				document.getElementById('imageAttachment').src = attElement;

				document.getElementById('imageName').innerHTML = nameElement;}

			&lt;/script&gt;&lt;/html&gt;

</description>
			<styleUrl>#PolyStyle70</styleUrl>
			<MultiGeometry>
				<Polygon>
					<extrude>0</extrude>
					<altitudeMode>clampToGround</altitudeMode>
					<outerBoundaryIs>
						<LinearRing>
							<coordinates> 32.54423020108471,34.88842698714124,0 32.54422012459542,34.88849707016285,0 32.54407923128544,34.8886113855102,0 32.54384111662055,34.8889105419659,0 32.54369717846112,34.88898549871444,0 32.54356407760213,34.88899589287087,0 32.54305449434709,34.8884194229947,0 32.54294182583703,34.88843275713253,0 32.54260385910982,34.88810465372512,0 32.54234156380802,34.88807207756781,0 32.54211276788439,34.88810434102121,0 32.54197493836978,34.88825520421853,0 32.54191305485433,34.88830819895261,0 32.54154684889442,34.88844636773057,0 32.5414704814218,34.88858919055218,0 32.54141423206575,34.88876867032997,0 32.54169322345481,34.88920318084878,0 32.54173306806718,34.88931864435808,0 32.54169487242561,34.88938496943411,0 32.54163165509343,34.88949474754773,0 32.54147231310141,34.8896369410452,0 32.5412530749978,34.8897631296034,0 32.54106600052013,34.88982963623563,0 32.5407746904398,34.88989027173839,0 32.54049945232541,34.88992236658569,0 32.5402458671039,34.8900040711078,0 32.54020351558324,34.89013919727805,0 32.54017290160137,34.89037073745838,0 32.53984710256407,34.89073839493734,0 32.53987520536062,34.89111091259549,0 32.53994615160231,34.89129623201277,0 32.54005621489013,34.8913542176907,0 32.54031769576819,34.8914418084389,0 32.54038339669997,34.89151253008423,0 32.54038258998469,34.89159844902366,0 32.54023874903704,34.89177198460754,0 32.54003792758215,34.8919555708533,0 32.5399728649753,34.89215304246964,0 32.54018050917225,34.89258919544397,0 32.54039633477986,34.89282751424481,0 32.54049530864526,34.89305727719272,0 32.54095408934867,34.89300031281359,0 32.5409785008484,34.89343008966043,0 32.54052912332543,34.89349492492375,0 32.54011896348559,34.89342200916895,0 32.53997112054319,34.89334816048278,0 32.54002998990605,34.89347351668673,0 32.54012727079733,34.89354704241634,0 32.54038214414276,34.89366583729557,0 32.54095304349577,34.89412252992031,0 32.541223546265,34.89425964780929,0 32.54112791059303,34.89434756782915,0 32.54089640932521,34.89443201799403,0 32.54045513471549,34.89430682889263,0 32.54043286734117,34.89432230976296,0 32.54078235820401,34.8947984219858,0 32.54080977670745,34.89490795509594,0 32.54076462677847,34.89500400625072,0 32.54086090915079,34.89518427987985,0 32.54067578350723,34.89537838206205,0 32.54052671277685,34.89543471624803,0 32.54008351826945,34.89517672116189,0 32.53987842319897,34.89514156521346,0 32.53967264154678,34.89517930795015,0 32.53943045765134,34.89539127127978,0 32.53920203927814,34.89548354980033,0 32.53950483420686,34.8955479725047,0 32.53968751602972,34.89561423200347,0 32.53983181108666,34.89572971832224,0 32.53991057200659,34.89575625899338,0 32.54010378744118,34.8957106222428,0 32.54020824703445,34.89569306266818,0 32.54034381898057,34.89572777579512,0 32.54049970349286,34.89595529653188,0 32.54065333531096,34.89608646425169,0 32.54065257855439,34.8961671757376,0 32.5405855515363,34.89623705033541,0 32.54005636940204,34.89638469516115,0 32.53978448828533,34.89639337722492,0 32.53986148889015,34.89660737783841,0 32.54004309928955,34.8967881949993,0 32.540023157062,34.89689221885089,0 32.53989745993988,34.8971517930858,0 32.53993688103979,34.89732910096379,0 32.54004921065344,34.89748343857544,0 32.54033414913488,34.89743057649586,0 32.54017324947826,34.89773679503194,0 32.53990227320487,34.8979850284958,0 32.54000450996286,34.89820439787639,0 32.53996188349149,34.89836816305219,0 32.53968419288559,34.89865801317851,0 32.53948185792073,34.89866453303402,0 32.53932557776702,34.89847866840807,0 32.53913691086486,34.89837591730625,0 32.53890931776776,34.89837967129794,0 32.53865536324228,34.89849782302232,0 32.53862216758513,34.89866685542037,0 32.53923180023428,34.899376369099,0 32.53945021048639,34.89934130991681,0 32.53961959690283,34.89947778582367,0 32.53959049215968,34.89954790260866,0 32.54015792442242,34.90004102866624,0 32.54009648581475,34.90018905125616,0 32.54009256426004,34.90026974349572,0 32.54011375706468,34.90036882173174,0 32.54007637839316,34.9006471869514,0 32.53997345760971,34.90083660402701,0 32.53999540900059,34.90085497086551,0 32.5402057779847,34.90098041966415,0 32.5402248147866,34.90100150677643,0 32.5402257658383,34.90102777361423,0 32.54020829104874,34.90104975925722,0 32.54017868548187,34.90105954318678,0 32.53976999328682,34.90108540802958,0 32.53974681941828,34.90109396231421,0 32.53973553692408,34.90111270454473,0 32.53974129780146,34.90113307800384,0 32.53976147105674,34.90114578436513,0 32.54078657777406,34.90141461165598,0 32.54046903459879,34.90157401255069,0 32.54017157305554,34.90161377563457,0 32.53969510185154,34.90153262711487,0 32.53937600894027,34.90152017558339,0 32.53926897489733,34.90147523282629,0 32.53921262680953,34.90141759165547,0 32.53923528763446,34.90136045823007,0 32.53905544495053,34.90132806663791,0 32.53893101760607,34.90145224388799,0 32.53893336901319,34.90153818006007,0 32.53907693055248,34.90173176543109,0 32.53871913135043,34.90180238112234,0 32.53860270994872,34.9017469617627,0 32.53839699760881,34.90177689067939,0 32.53753171000666,34.90170366195424,0 32.53679933033148,34.90161305554441,0 32.53645796754831,34.90161607471111,0 32.53580936977632,34.9016900273222,0 32.53521194453548,34.90169921314631,0 32.53499545986113,34.90153119285122,0 32.53459039397786,34.90125260707712,0 32.53448561156775,34.90130400751982,0 32.53426866579591,34.90151871520768,0 32.53374229727263,34.90136692506678,0 32.53353959772976,34.90141248635097,0 32.53336138804966,34.9015415211017,0 32.53322351944313,34.90174892418737,0 32.53303641793398,34.90181541448462,0 32.53228579821729,34.90164915727616,0 32.53207094685638,34.90164256656006,0 32.53172896500985,34.90171065977282,0 32.53158843180653,34.90153270739534,0 32.53117166928163,34.90148836365017,0 32.53094459709999,34.90143742923135,0 32.53059685238093,34.90111493890967,0 32.53011034035102,34.90109357278326,0 32.52989023350178,34.90097498740284,0 32.52915815327496,34.90118635559023,0 32.52883236775818,34.9012128887826,0 32.52855043045835,34.90128136264931,0 32.5280770823706,34.90120539733413,0 32.52788508780048,34.90137692170104,0 32.52784726718501,34.90140002001696,0 32.52780179209375,34.90141006559507,0 32.52775501671599,34.90140565614851,0 32.52771347188854,34.90138740749089,0 32.52747635951419,34.9012301451444,0 32.52700445330289,34.90133383486168,0 32.52670385259351,34.90137093859305,0 32.52641646551918,34.90134824609507,0 32.52591813608196,34.90124086650442,0 32.52582745809551,34.90113873570484,0 32.525854908234,34.9009123994649,0 32.52581815563241,34.90078978933575,0 32.52570570709219,34.90065106731056,0 32.52546478717235,34.90054009545685,0 32.52536730390062,34.90049519309781,0 32.52529579638925,34.90022277149801,0 32.52523034903999,34.90002254127244,0 32.52499551479806,34.89992111048013,0 32.52476901334355,34.89965322991761,0 32.52457344336342,34.89967416078121,0 32.52417596835829,34.89967157508939,0 32.52377065319983,34.89978549001491,0 32.52325255734851,34.89971551173238,0 32.52282808606343,34.89971829825054,0 32.5224834502557,34.89982705200431,0 32.52229979324377,34.90000901004366,0 32.52194125696629,34.90016207429274,0 32.52162388269035,34.90023770512669,0 32.5212153347321,34.89998527757047,0 32.52094810808467,34.89975042835197,0 32.5210496481488,34.89970113977436,0 32.52131954624183,34.89965850247206,0 32.52163574451919,34.89970496765742,0 32.52195338364044,34.89960158903656,0 32.52212377626488,34.89939734463488,0 32.52242740853124,34.89934937300678,0 32.52243553046293,34.89920512079368,0 32.52251059548768,34.89910570829462,0 32.52267976033419,34.89902910917118,0 32.52293490169102,34.89911957347871,0 32.52318527960693,34.8990046515848,0 32.52339003971955,34.89872847698649,0 32.5235180896406,34.89872376153129,0 32.52373842925745,34.89893055276918,0 32.52414931609783,34.89893877675681,0 32.52547956371153,34.89899636040428,0 32.52550344112208,34.89899651581732,0 32.52555898110003,34.89882703528427,0 32.52565153083128,34.8987675377865,0 32.52590909798628,34.89869866274241,0 32.52621668334304,34.89870588363222,0 32.52624554999318,34.89867210409352,0 32.52626550432401,34.89857555372438,0 32.52620477293416,34.89829296314092,0 32.52596564126027,34.89776098159664,0 32.52571634883091,34.897296872028,0 32.52568747127844,34.89723686095606,0 32.5255359807348,34.89692204925522,0 32.52554284969163,34.89686722028778,0 32.52564173838042,34.89680776644229,0 32.52575923104657,34.89679285096977,0 32.52605546078313,34.89682967966034,0 32.52615838057844,34.89684247471061,0 32.52663042428951,34.89656595243945,0 32.52680844806228,34.89652268903721,0 32.52677768261756,34.89642319622472,0 32.52680170459605,34.8962326078729,0 32.5269652682559,34.89604292410425,0 32.52705916190362,34.89584233575189,0 32.52711717047986,34.89565486419077,0 32.52711806670879,34.89565197047222,0 32.52698314688465,34.89549954416342,0 32.52678085144883,34.89542768420537,0 32.52680095440218,34.89531545654897,0 32.52722803642754,34.89509612670017,0 32.52735554369256,34.89536085959276,0 32.52758535737027,34.89513678866357,0 32.52760845210985,34.89511426957793,0 32.52779373850736,34.89497437047016,0 32.52779092595487,34.89490931123806,0 32.52778334557631,34.8947339125053,0 32.52762457388749,34.89442194333863,0 32.52761615815017,34.89430691662033,0 32.52774490529179,34.89410916740653,0 32.52797149072872,34.89396169864825,0 32.52805499171462,34.89385249513752,0 32.52797565287251,34.89352536256013,0 32.52800626217182,34.89330868672617,0 32.52821269712469,34.89327866721173,0 32.52885002557687,34.89329324448454,0 32.5288791907732,34.8932281099797,0 32.52886125765708,34.89311302389564,0 32.52872336528762,34.89293967738897,0 32.52831084281515,34.89263129254258,0 32.52823625226307,34.8924714169248,0 32.5282089995949,34.892003525809,0 32.52831581818972,34.89177688998547,0 32.52836210766559,34.89157860638762,0 32.52823732607679,34.89136092358107,0 32.52834029997042,34.8912048126689,0 32.52831048166533,34.89100603543067,0 32.52877522000039,34.89082613407672,0 32.52865036411443,34.89061629204962,0 32.52869960064348,34.89044154352037,0 32.52899090004241,34.89049046115993,0 32.52969262903258,34.89106723270125,0 32.52980499053368,34.89092424476279,0 32.52984818086583,34.89071810158676,0 32.52958151343917,34.89041327594749,0 32.52934109993069,34.89034901152663,0 32.52918782750135,34.89012592070838,0 32.5291915456333,34.89006846059304,0 32.52950960858523,34.88997122481039,0 32.52959946992475,34.88985944862954,0 32.52964583160082,34.88965332407115,0 32.52971314628653,34.88957798485581,0 32.52947515208982,34.88930660489265,0 32.52934149828978,34.8891542012928,0 32.52936804081523,34.88874403261972,0 32.52955720694066,34.88837221927256,0 32.52997465522365,34.88803731697343,0 32.53016538842283,34.88773825441508,0 32.53025579761683,34.8875150156714,0 32.53026466315218,34.88729684695952,0 32.53023412564405,34.88717541303691,0 32.53026451070165,34.88707488892005,0 32.5303351933332,34.887021255347,0 32.53062581577066,34.88692987170899,0 32.5308903894239,34.88672081277621,0 32.53116612178756,34.8865286125482,0 32.53162302699359,34.88608950923412,0 32.53202206369396,34.88578432477697,0 32.53213515122932,34.88555563612261,0 32.53221222037558,34.88530619745968,0 32.53236078026629,34.88515607438264,0 32.53254553842212,34.88500804912857,0 32.53271353177627,34.88447941757673,0 32.53276886262217,34.88413471424974,0 32.53272818940256,34.88388824897165,0 32.53263255677135,34.88370857515218,0 32.53271847963612,34.88347971021189,0 32.53295545297695,34.88331523365511,0 32.53298997118417,34.8832557696899,0 32.53291407305935,34.88314337025147,0 32.53303719906482,34.88304903842401,0 32.53321378328695,34.88304644344592,0 32.53351353331279,34.8831845300702,0 32.53389056287526,34.88352828169133,0 32.5343407444979,34.88355728698382,0 32.53439460744352,34.88360612750259,0 32.53441641303826,34.88369393055003,0 32.53480042833939,34.88377846513017,0 32.53508681441656,34.8838940798576,0 32.53538752150924,34.88393144639758,0 32.535903627554,34.8839310262043,0 32.5360247003179,34.88381429547613,0 32.53654838296996,34.88397059520235,0 32.53727842897196,34.88408717953456,0 32.5373185791104,34.88391024363099,0 32.53739899516644,34.88378392687422,0 32.53770760035981,34.88370383189429,0 32.53803480451578,34.88357163083708,0 32.53825346595969,34.88342754321624,0 32.53853432694879,34.88364942969637,0 32.53874932196717,34.88365453371439,0 32.53921610544499,34.88384403309548,0 32.53950349475015,34.88385332688588,0 32.53972852795223,34.88399465151235,0 32.53992074799353,34.88401452829373,0 32.54010763544617,34.88412017147736,0 32.54023757138827,34.88426461852698,0 32.54039869897635,34.88422088077507,0 32.54066780759408,34.88424870832796,0 32.54117333461586,34.88416986043358,0 32.54145509076161,34.88405601123695,0 32.54195781695162,34.88427557143773,0 32.54246774189631,34.88445227628452,0 32.54252091350726,34.88457571429264,0 32.54335786611881,34.88463885413663,0 32.54336009112644,34.88488507238792,0 32.5430851088128,34.88500083273804,0 32.54327022363101,34.88529670868124,0 32.54325897200196,34.88553165070422,0 32.5434097342112,34.88587020559507,0 32.5434709338136,34.88610374304055,0 32.54356222355345,34.88626659382359,0 32.5437921948577,34.88660751798105,0 32.54388205321759,34.88692330329327,0 32.54414645303208,34.88721408470833,0 32.5441881200246,34.88735796842165,0 32.54414218450857,34.8876710285505,0 32.54407760159376,34.88779931653181,0 32.5440892326827,34.88800829109423,0 32.54420641588675,34.88830746417721,0 32.54423020108471,34.88842698714124,0</coordinates>
						</LinearRing>
					</outerBoundaryIs>
				</Polygon>
			</MultiGeometry>
		</Placemark>
	</Document>
</kml>