<?xml version='1.0' encoding='UTF-8'?>
<kml xmlns="http://www.opengis.net/kml/2.2">
	<Document>
		<name>PSEVDAS</name>
		<Style id="PolyStyle70">
			<LabelStyle>
				<color>00000000</color>
				<scale>0.000000</scale>
			</LabelStyle>
			<LineStyle>
				<color>ff0055ff</color>
				<width>2.000000</width>
			</LineStyle>
			<PolyStyle>
				<color>00828282</color>
				<outline>1</outline>
			</PolyStyle>
		</Style>
		<Placemark id="ID_70211">
			<name>PSEVDAS</name>
			<snippet />
			<description>&lt;html xmlns:fo="http://www.w3.org/1999/XSL/Format" xmlns:msxsl="urn:schemas-microsoft-com:xslt"&gt;

&lt;head&gt;

&lt;META http-equiv="Content-Type" content="text/html"&gt;

&lt;meta http-equiv="content-type" content="text/html; charset=UTF-8"&gt;

&lt;/head&gt;

&lt;body style="margin:0px 0px 0px 0px;overflow:auto;background:#FFFFFF;"&gt;

&lt;table style="font-family:Arial,Verdana,Times;font-size:12px;text-align:left;width:100%;border-collapse:collapse;padding:3px 3px 3px 3px"&gt;

&lt;tr style="text-align:center;font-weight:bold;background:#9CBCE2"&gt;

&lt;td&gt;4&lt;/td&gt;

&lt;/tr&gt;

&lt;tr&gt;

&lt;td&gt;

&lt;table style="font-family:Arial,Verdana,Times;font-size:12px;text-align:left;width:100%;border-spacing:0px; padding:3px 3px 3px 3px"&gt;

&lt;tr&gt;

&lt;td&gt;DIST_CODE&lt;/td&gt;

&lt;td&gt;4&lt;/td&gt;

&lt;/tr&gt;

&lt;tr bgcolor="#D4E4F3"&gt;

&lt;td&gt;VIL_CODE&lt;/td&gt;

&lt;td&gt;213&lt;/td&gt;

&lt;/tr&gt;

&lt;tr&gt;

&lt;td&gt;VIL_CCD&lt;/td&gt;

&lt;td&gt;4213&lt;/td&gt;

&lt;/tr&gt;

&lt;tr bgcolor="#D4E4F3"&gt;

&lt;td&gt;VIL_NM_E&lt;/td&gt;

&lt;td&gt;PSEVDAS&lt;/td&gt;

&lt;/tr&gt;

&lt;tr&gt;

&lt;td&gt;VIL_NM_G&lt;/td&gt;

&lt;td&gt;ΨΕΥΔΑΣ&lt;/td&gt;

&lt;/tr&gt;

&lt;/table&gt;

&lt;/td&gt;

&lt;/tr&gt;

&lt;/table&gt;

&lt;/body&gt;&lt;script type="text/javascript"&gt;

				function changeImage(attElement, nameElement) {

				document.getElementById('imageAttachment').src = attElement;

				document.getElementById('imageName').innerHTML = nameElement;}

			&lt;/script&gt;&lt;/html&gt;

</description>
			<styleUrl>#PolyStyle70</styleUrl>
			<MultiGeometry>
				<Polygon>
					<extrude>0</extrude>
					<altitudeMode>clampToGround</altitudeMode>
					<outerBoundaryIs>
						<LinearRing>
							<coordinates> 33.46891059600257,34.97564643516029,0 33.46886901749848,34.97570983671778,0 33.46878677143654,34.97577109663986,0 33.46852946890651,34.97585723071774,0 33.46821751236417,34.97594589345435,0 33.4681165145188,34.97593596968034,0 33.46780305309115,34.97543962556902,0 33.46763230049388,34.97528518740108,0 33.46762813762392,34.97510133781381,0 33.46758555655779,34.97502796653064,0 33.46748435072652,34.97498932283838,0 33.46742101175792,34.97495281841319,0 33.46739120353184,34.97490122491123,0 33.4673635527111,34.97476344720992,0 33.46738233595516,34.9746496110244,0 33.4673565414261,34.97457042938301,0 33.46723617825058,34.97459392658175,0 33.46700121430464,34.97466156625263,0 33.46690428084656,34.97463094361644,0 33.46685036931276,34.97454039577583,0 33.46679815676514,34.97449120941393,0 33.46672893299615,34.97441566684648,0 33.46629228247594,34.97430491812055,0 33.46611113353126,34.97444700695195,0 33.46544974640616,34.97445554998266,0 33.46544822648466,34.97404653756403,0 33.46544631441559,34.97279443587723,0 33.46545589234413,34.97256582743732,0 33.46487976110746,34.97252006245515,0 33.46451479461314,34.97241940998299,0 33.4645062068125,34.97239303297327,0 33.46471742797218,34.97234733674716,0 33.46465459619985,34.97217764111559,0 33.46453513940254,34.97212416966318,0 33.46444134452134,34.97193279867258,0 33.46433628856835,34.97193440201067,0 33.46429735111091,34.97197475520944,0 33.46269096669682,34.97201725059042,0 33.46245687203209,34.97199069398827,0 33.46213202771149,34.97179803022006,0 33.46190509301273,34.97158429023755,0 33.46145991696907,34.97119239653031,0 33.46117079406193,34.97067590177032,0 33.46058077016163,34.97038918822641,0 33.46046266946629,34.97031508664918,0 33.46017486799173,34.96998347155255,0 33.46022116111667,34.96978472537631,0 33.46005252008771,34.96947329097606,0 33.45995279591361,34.96920749395828,0 33.45981907634025,34.9690979077929,0 33.45962272254825,34.96904138912126,0 33.45835165022164,34.96904119289837,0 33.45770177687627,34.9683085778424,0 33.4576170098063,34.96818389518084,0 33.45766556988085,34.96766860941666,0 33.45736929529016,34.96751047208217,0 33.4574807381676,34.96720602039409,0 33.45649345832254,34.96731588790897,0 33.45531107701962,34.96685201110138,0 33.45504399465779,34.96687726491182,0 33.45468559936426,34.96660361639278,0 33.45432577915745,34.96655819085285,0 33.45442559661198,34.96616673041954,0 33.45441103050251,34.96606933565693,0 33.45438255532918,34.96598460925151,0 33.45426975347666,34.96583376338972,0 33.45405166817223,34.96561918202174,0 33.45381593380155,34.96536950888491,0 33.45381591506742,34.96536948732076,0 33.45375296327487,34.96542936521656,0 33.45348778937979,34.96555042887027,0 33.453403439628,34.96561271666247,0 33.45334473307458,34.96563230199872,0 33.45319127544219,34.96553410577125,0 33.45304293801517,34.96551141961456,0 33.45296945832285,34.96541098486796,0 33.45293838386305,34.9653220166896,0 33.45288391476832,34.96525637083449,0 33.45275462970596,34.96527622266034,0 33.45264390116383,34.96524758522703,0 33.45258723898284,34.96521100028973,0 33.45253301407099,34.96518989900965,0 33.45248110928199,34.96516297938664,0 33.45226743471781,34.96523736840278,0 33.45215909144074,34.96521453131825,0 33.45205759268646,34.96515293629445,0 33.45195613662362,34.96509908785958,0 33.4518477298226,34.96506463138264,0 33.45173244552557,34.96506312308193,0 33.45163112793641,34.96503445061833,0 33.45155818901179,34.96503278557642,0 33.45148755009372,34.96502142794707,0 33.45143314826643,34.96496739963111,0 33.45136864261057,34.9647875331495,0 33.45138466912546,34.96470807078554,0 33.45135856323537,34.96466556202193,0 33.45126420566493,34.96461943345395,0 33.45119961622537,34.96459214845817,0 33.45108482056357,34.96451164777294,0 33.45100926478381,34.96446157485097,0 33.45085630009506,34.96445245970355,0 33.45075039509631,34.96444510597232,0 33.45067490320663,34.96440665285642,0 33.45062763367768,34.96436615511619,0 33.45061092136199,34.96432167687798,0 33.45060783339476,34.96418806038222,0 33.45056039659671,34.9641165776949,0 33.45048942890745,34.96404518407498,0 33.45040218263541,34.96400871424839,0 33.45024388027286,34.96388341377828,0 33.45019908493776,34.96386615441294,0 33.45011637055983,34.96379673766669,0 33.45008554447273,34.96375231075619,0 33.45002397817607,34.96367894485633,0 33.44997413070338,34.96359779137421,0 33.44988384726986,34.96343544677789,0 33.44979856667209,34.96332730873483,0 33.44978171744241,34.96325765410999,0 33.44980230319332,34.96315106201705,0 33.44991227853907,34.96304220165251,0 33.45000436225498,34.9626738956372,0 33.4500130216552,34.96253636214049,0 33.44998429723591,34.96244544457556,0 33.44997599830205,34.96221888706989,0 33.44986970788609,34.96213987347639,0 33.44960572599933,34.96204789614286,0 33.44947528841869,34.96185471157414,0 33.44936644287373,34.96173891446016,0 33.44933311583885,34.96166738265532,0 33.44931082455888,34.96155966290571,0 33.44927911403486,34.96140231042216,0 33.44927910951243,34.96140228429758,0 33.44925575523205,34.9612861491627,0 33.44924805143412,34.96116804150733,0 33.44919117491518,34.96109078347528,0 33.44914874598673,34.96107544941226,0 33.44901668256846,34.9610159010621,0 33.44895969965366,34.96091927711263,0 33.44887488873251,34.96076202973358,0 33.44887487546065,34.96076200544422,0 33.44883857249515,34.96070862204603,0 33.44893410157744,34.96053978015483,0 33.44932225177524,34.95985182092465,0 33.44946571030484,34.95956054378436,0 33.44959607609751,34.95937017711908,0 33.44973165830889,34.9591805517974,0 33.44989430265723,34.95893852633309,0 33.45006329527207,34.95870426543003,0 33.45054001304701,34.95823522836829,0 33.45085363171379,34.9579251473135,0 33.45105743143426,34.95771411892422,0 33.45128949354415,34.95748221816141,0 33.45161818820694,34.95704747335745,0 33.45178954072629,34.95667042456955,0 33.45206033559547,34.95602821821771,0 33.45212604981371,34.95593711540572,0 33.45236138550523,34.95572856350386,0 33.45308486322174,34.95523565943797,0 33.45331599886812,34.95498414410877,0 33.45351027203461,34.95470956689961,0 33.45315989476371,34.95459303941147,0 33.45239490176686,34.95447872830907,0 33.45138895290733,34.95432394616468,0 33.4514164066111,34.95423366917138,0 33.45119464276073,34.95412838187209,0 33.45130816610317,34.95307374058164,0 33.4508731840703,34.95291172202396,0 33.45109946865637,34.9519311351771,0 33.45171138772916,34.95175042937989,0 33.45221673722295,34.95037745099173,0 33.45227553620315,34.94978876603348,0 33.45253396742686,34.94973119580958,0 33.452720066462,34.94965704698813,0 33.45290207411418,34.94948579622604,0 33.45299619133233,34.94938057790946,0 33.45304817866892,34.94928180500152,0 33.45305034359266,34.94914319188832,0 33.4529858289369,34.94896916072746,0 33.45277183245481,34.94885583262599,0 33.45259882197977,34.94880997641261,0 33.45265713362446,34.94794866386216,0 33.45253178539411,34.9479010271882,0 33.45277357756345,34.94713415109215,0 33.45232862618148,34.94619761691672,0 33.45214071128469,34.94566842832333,0 33.45165721405836,34.94576001350625,0 33.45152252250099,34.94577004229266,0 33.4515582372182,34.94563636682177,0 33.45209042460236,34.94547829101082,0 33.45242640522599,34.94550061247525,0 33.4528359831645,34.94547522202096,0 33.45292782878089,34.9453375653302,0 33.45305929124335,34.94517492562318,0 33.45338146443473,34.94518321476328,0 33.45370061282065,34.94516684500941,0 33.45371705653707,34.94484163998413,0 33.45377156624549,34.94466943159404,0 33.45378980003021,34.94462369902056,0 33.45377239944656,34.94448524721923,0 33.45374629402522,34.94444424599095,0 33.45368813392637,34.94428920331212,0 33.45360679803155,34.94428950704641,0 33.45346441749201,34.94428242786553,0 33.45337188217207,34.94426298513174,0 33.45311474976131,34.94423045649386,0 33.45293536533948,34.94421742557203,0 33.45235248876376,34.94411304607315,0 33.45207319184497,34.9440836427763,0 33.45191944569296,34.94402637297897,0 33.45165660294207,34.94396341950951,0 33.451201536674,34.94390574619899,0 33.45101743125246,34.94370550454641,0 33.45082981320588,34.94353876274344,0 33.45061250276832,34.94335082015356,0 33.45048423805547,34.94322038975308,0 33.45031498238749,34.94303074679901,0 33.45000218663689,34.94262092191219,0 33.44981776284829,34.9423613151807,0 33.44977121715926,34.9423006006306,0 33.4496012701189,34.94206426527899,0 33.44939839275308,34.94177626451184,0 33.44925051644072,34.94159764199458,0 33.45058131416927,34.94143819890201,0 33.45156228622832,34.94056956334117,0 33.45160427601062,34.93745755727466,0 33.45152177106928,34.9369820642666,0 33.45083096879109,34.93528516861024,0 33.45080170206643,34.9350176720776,0 33.45100113378273,34.9347531641716,0 33.451086761991,34.93421439623938,0 33.45110267248733,34.93379661535568,0 33.45158783602486,34.9339636225846,0 33.45169551129206,34.9337745047305,0 33.45156035955863,34.93259162651345,0 33.45167346466044,34.93245966606423,0 33.45165172897735,34.93216058351526,0 33.45236076537218,34.93216837165232,0 33.45270573503209,34.93229587926457,0 33.45321752802235,34.93203634482762,0 33.45344892250792,34.93184064132342,0 33.45375582462505,34.93137442519727,0 33.45477122496269,34.93098505545181,0 33.45521289760617,34.93075194802209,0 33.45611246948658,34.93059360531817,0 33.45670496477074,34.93053862176787,0 33.45721120914745,34.93039788973453,0 33.45738575171963,34.9299274236181,0 33.4576979547854,34.92939969922068,0 33.45760092023976,34.92913581632654,0 33.45698681095664,34.92889826554782,0 33.45681437779852,34.92872231236213,0 33.45700800915884,34.92793058410295,0 33.45708335943332,34.92775464374586,0 33.4568983474559,34.92744746286963,0 33.45693226263936,34.92731275560692,0 33.45700099608353,34.92720646563554,0 33.45726207042914,34.92696079415089,0 33.45726121068219,34.92680582732726,0 33.45706149873838,34.92650887368921,0 33.45683746079849,34.92628949620313,0 33.45634599816202,34.92606296591179,0 33.45599326981406,34.92585222622046,0 33.4556997801631,34.92560863791345,0 33.45547032372602,34.92530363698329,0 33.4554347394775,34.92513656604988,0 33.45546377244657,34.92501411253929,0 33.45555742129517,34.92493627641382,0 33.4556809355901,34.92488687558505,0 33.45578988898993,34.92489054501222,0 33.4558890976809,34.92492279826719,0 33.45641546096142,34.92519405811704,0 33.45708636847935,34.92563605526767,0 33.45724497322251,34.92566400589352,0 33.45786324791893,34.92554341112607,0 33.45807107261956,34.9255181585447,0 33.45816035759047,34.92554636928041,0 33.45821997881455,34.92558284794824,0 33.45833456487244,34.92570883850721,0 33.45859134780848,34.92615244993732,0 33.45875221359418,34.92628373077332,0 33.4588282555243,34.92633501080001,0 33.45900685051363,34.92639550814437,0 33.45910786320486,34.92638560472476,0 33.45922964476721,34.92639058825197,0 33.45953929907743,34.92634383408716,0 33.46001330832743,34.92644525588948,0 33.46036142170106,34.92644393747943,0 33.46041583814581,34.92621436181486,0 33.46039781340312,34.92548044518419,0 33.46052028206817,34.92496963252632,0 33.46043567889062,34.92478072243816,0 33.46000823738636,34.92428919561513,0 33.45991661146254,34.92408884374009,0 33.45989470138572,34.92390542992396,0 33.45994966146325,34.92377333378229,0 33.46023430446164,34.92362889991113,0 33.46074978286834,34.92367855414393,0 33.46186335356695,34.92361124999923,0 33.46257802788256,34.92317846226901,0 33.46418354636661,34.92392926167675,0 33.46439891733947,34.92384815928327,0 33.46437667542983,34.92360740586746,0 33.4642852323875,34.92344146145162,0 33.46431848328103,34.92316346164723,0 33.4666644760092,34.92381986807679,0 33.46788509910863,34.92351867795651,0 33.47102473069471,34.9234211964132,0 33.47103203630498,34.92255702768892,0 33.47124735924732,34.92221854366868,0 33.47158786759886,34.92202148906681,0 33.47212688835511,34.92203333297257,0 33.47240351290693,34.92191745908843,0 33.47248161337991,34.92162749564311,0 33.47216315286746,34.92099889053761,0 33.47230051354618,34.92075413162576,0 33.47239484975267,34.92059035655113,0 33.47270116545781,34.92075361309315,0 33.47406119947511,34.92124201140926,0 33.47427385043692,34.92139870273738,0 33.47475590174366,34.92156131129632,0 33.4754148553784,34.92223017872432,0 33.47577644718172,34.92207376821019,0 33.47611640396572,34.92268271296649,0 33.47604380271842,34.92317656207447,0 33.47602398786624,34.92331134469071,0 33.4748887567759,34.92471926858306,0 33.47434964353347,34.9252745188081,0 33.47409614897909,34.92577457495644,0 33.47384908980953,34.92673011878956,0 33.47251961654086,34.92718964302281,0 33.47156557457041,34.92710865209092,0 33.47079302114657,34.92697968059532,0 33.47021483950871,34.92698391070629,0 33.46838243133714,34.927878477635,0 33.46792125912262,34.92887576572102,0 33.46737160135966,34.92946147305474,0 33.46656417318319,34.92960871456692,0 33.46553529808637,34.93087604945099,0 33.46542851618229,34.93114321181426,0 33.46539436304396,34.93178885606909,0 33.46555418758277,34.93218356945142,0 33.46538819473073,34.93258068576964,0 33.46505621126428,34.93286162219979,0 33.46477024457355,34.93296527729467,0 33.46455428322479,34.93297550872434,0 33.46455566890814,34.93300151502459,0 33.46510525029957,34.93305451218573,0 33.46535283250186,34.93355932997555,0 33.46600101078172,34.93427070500717,0 33.46564556133676,34.93452129989958,0 33.46588975324794,34.93508198638278,0 33.46581303717437,34.93526760769073,0 33.46586536342883,34.93533274341303,0 33.46612174042717,34.93531783572622,0 33.46705333154151,34.9359326443242,0 33.46704663585316,34.93599967044177,0 33.4669701951683,34.93604738565177,0 33.46710097246125,34.93610443634623,0 33.46727074861477,34.93634705704123,0 33.46745421757856,34.93643709883298,0 33.46744134906727,34.93653876531855,0 33.46701174782181,34.93642042938812,0 33.46689223182952,34.93653243674214,0 33.46727176959146,34.93662705619965,0 33.46726837489216,34.93683526735523,0 33.46741810384135,34.93693185260562,0 33.46758873043627,34.93677878815796,0 33.46782386428878,34.93696428184526,0 33.46790018165908,34.93692351117232,0 33.46787746576089,34.93711298125354,0 33.46773917562197,34.9371738597745,0 33.46779633052227,34.93761872106603,0 33.46767095813033,34.93774683948234,0 33.46731472611454,34.9375993125584,0 33.46686386745558,34.93792727505819,0 33.4674689632501,34.93827659759812,0 33.46747736123445,34.93844787153213,0 33.46759354312155,34.93853941592609,0 33.46774272597139,34.93849716869311,0 33.4681388427528,34.93877233680614,0 33.46823746836228,34.93907878163844,0 33.46816168491147,34.93925832238732,0 33.4684900171136,34.93956504261652,0 33.46866045719911,34.93993238180291,0 33.46854443787213,34.94017387887531,0 33.46852600843518,34.94027309965325,0 33.46841282466656,34.94051230414401,0 33.46808903352035,34.94095490404897,0 33.46808343287514,34.94112593883269,0 33.46822556843131,34.94134027311267,0 33.46823807605303,34.94177275808833,0 33.46828703986198,34.94186116603638,0 33.4686795261622,34.94218001755037,0 33.46883344974772,34.9423574426689,0 33.46889541882133,34.94250608574491,0 33.4690563652595,34.94276680407651,0 33.46929749534865,34.94291976426801,0 33.4695061549891,34.94334277697742,0 33.46954207615922,34.94354194702859,0 33.46962707229755,34.94365153204603,0 33.46960405322083,34.94436768219611,0 33.46968472402676,34.94456962773607,0 33.469560832587,34.94478082577388,0 33.46954526697017,34.94487538871134,0 33.46956299920346,34.94498881147445,0 33.46985414437007,34.94550038872332,0 33.46984429480864,34.94558807063081,0 33.46981174885972,34.94569398511194,0 33.46992339903776,34.9460533329419,0 33.46993365531662,34.94627984313871,0 33.46988431005546,34.94638555308863,0 33.46979372237545,34.94661555151713,0 33.46983476945833,34.94684238972645,0 33.46989523731053,34.94691004309085,0 33.47033425448307,34.94727988278812,0 33.47035837204918,34.94734482003424,0 33.47029519361903,34.94760973484273,0 33.47052471581909,34.94778088033572,0 33.47062343929652,34.94790438437676,0 33.47070219355523,34.94805075194122,0 33.47086129637049,34.94824650089462,0 33.47114699149644,34.94823580468122,0 33.47132955490716,34.94819857792169,0 33.47157723087496,34.94794959583815,0 33.47187268682453,34.94802446387176,0 33.47217146581361,34.948067033725,0 33.47234233233144,34.94805968898494,0 33.472612211781,34.94798877973692,0 33.47364029620986,34.94743437702036,0 33.47418164347624,34.94753044559196,0 33.47438796700253,34.94741033550854,0 33.47444505824755,34.94734399661186,0 33.47497462819487,34.94680945076529,0 33.4751077819504,34.94671393065809,0 33.4753767289031,34.94653214993343,0 33.47556795062242,34.94631254984512,0 33.47588255879064,34.94657471964751,0 33.47594194351137,34.9465384227748,0 33.47630599306168,34.94610354737663,0 33.47654848106028,34.9457962037057,0 33.47714175413105,34.94626668685248,0 33.47759425093322,34.94666001414083,0 33.47754022973798,34.94690204822479,0 33.47859599033897,34.94763745300119,0 33.47876435718276,34.94798059389927,0 33.47907605151418,34.94834952882476,0 33.47941898479784,34.94859972655624,0 33.47943185016097,34.94883168267538,0 33.47977071835523,34.94891163703638,0 33.47986882045318,34.94882481552432,0 33.48089046049694,34.94960529777899,0 33.48078178862612,34.94975331818522,0 33.48060360633452,34.94998486819627,0 33.48067121533106,34.95001830043599,0 33.48094730710405,34.9498064554629,0 33.48125417067567,34.95007952643894,0 33.48165823474906,34.94975212037008,0 33.4817385394056,34.94969947693389,0 33.48222840602265,34.94949664716132,0 33.48231501229408,34.9497512180421,0 33.48254522077114,34.950010111405,0 33.48273493515242,34.95023265666001,0 33.48293717246952,34.95044409044107,0 33.48307866697397,34.95070644262995,0 33.48326871079766,34.95108496454439,0 33.48341531808195,34.95165483303449,0 33.48338769197292,34.95187056632622,0 33.48344883297325,34.95203524123681,0 33.48307977642205,34.95241352732508,0 33.4832332911456,34.95269217875147,0 33.4835406898156,34.95304950401911,0 33.48375034137779,34.95328826500989,0 33.48375129567307,34.9536312692048,0 33.48376374805267,34.95379703111035,0 33.48386062480423,34.95396608947002,0 33.484408490586,34.95433865827717,0 33.48446902319888,34.95444802095798,0 33.48471892730822,34.95469123582912,0 33.48474909064549,34.95518156289343,0 33.48469702290583,34.95526603034303,0 33.4851050312592,34.95596419095979,0 33.48528817651603,34.9561297458353,0 33.48542912732277,34.95629859520323,0 33.48545338461746,34.95636079742453,0 33.48530116010472,34.95659250092687,0 33.48540795083751,34.95657655799587,0 33.48589802246082,34.95641183208665,0 33.48630698110471,34.95643776541966,0 33.48676834673996,34.95644642341745,0 33.48745504266395,34.9563600552607,0 33.48799806917452,34.95637865615912,0 33.4884701540965,34.95655145074369,0 33.48872724636694,34.95672854316651,0 33.48912061984432,34.95688835138967,0 33.48960826789776,34.95695314605057,0 33.49001198856617,34.95695747728769,0 33.49068401194385,34.95681480301926,0 33.49084914997442,34.95672410254374,0 33.49188467641035,34.95689871329991,0 33.49301771633415,34.95681342862193,0 33.49403506862789,34.95688366765272,0 33.49460777796403,34.95688181549212,0 33.49648570048869,34.95805470644869,0 33.49747568222823,34.95832236064537,0 33.49782567524813,34.95870684359382,0 33.49810893694766,34.95893156336663,0 33.49794669159388,34.95959182909894,0 33.49786822747615,34.96005781557303,0 33.49772382507619,34.96008216620292,0 33.49758697463955,34.96000602401896,0 33.49767977113915,34.95983548233475,0 33.49756457228919,34.95945099923153,0 33.49773775823084,34.95914305244858,0 33.49797894929349,34.95909568020771,0 33.49777541741607,34.95883109521554,0 33.49691149439653,34.95895941490135,0 33.49647646581905,34.95860587482969,0 33.4961736170216,34.95891030583841,0 33.49614309728054,34.95918393740342,0 33.49618329746749,34.95927928699869,0 33.49618655643878,34.95968445222237,0 33.49658626389277,34.95977451311709,0 33.49699668566703,34.9605282478356,0 33.4970812859904,34.9605839754871,0 33.49631809084246,34.96081162918156,0 33.49633939478812,34.96112025126176,0 33.49628839621916,34.96149527818189,0 33.49623406604363,34.96169698693482,0 33.4961553992227,34.96184406794607,0 33.49465931368862,34.96193628423756,0 33.49445848642002,34.96196495865731,0 33.49378492418236,34.96243085056004,0 33.49363883648954,34.9625844310618,0 33.4929425220329,34.96354034982067,0 33.4924415460056,34.96402976474688,0 33.49234740962705,34.96424268545407,0 33.49244273852255,34.96537600809062,0 33.49282610381916,34.9666876250242,0 33.49268795501647,34.96671689492542,0 33.49212949823996,34.96678563635353,0 33.49158347262789,34.96687201439408,0 33.49114196487961,34.9672023057488,0 33.490917406813,34.96734435555777,0 33.49077135620453,34.96740311998751,0 33.48977869602017,34.96769122117937,0 33.48966943075814,34.96787566444517,0 33.48941226320693,34.96843346131573,0 33.48928170482927,34.96867386372724,0 33.48905618613934,34.96893906433838,0 33.4887273345369,34.96931835054365,0 33.48813872095458,34.96999339811553,0 33.48799668299473,34.9701414198359,0 33.48781339667789,34.97028027557445,0 33.48631710439744,34.971053296096,0 33.48613366723043,34.97113055579838,0 33.48581518501846,34.97115876837005,0 33.48545174584939,34.97119012911217,0 33.48475852699148,34.97121892771378,0 33.48429460651006,34.97119491873098,0 33.484073382335,34.97114600896189,0 33.48363100010241,34.97106973912599,0 33.48290403450941,34.97106163925818,0 33.48247326356393,34.97111156487973,0 33.48188249464384,34.97116288837448,0 33.48139555037465,34.97121289424678,0 33.48096877222893,34.971339759358,0 33.48071793909789,34.97141094171807,0 33.48068066980277,34.97148179763377,0 33.48058697373249,34.97146962879575,0 33.48040715055063,34.97147298146879,0 33.48022750312403,34.97154097590722,0 33.4800109500216,34.97163569797711,0 33.4795172921627,34.97195348466113,0 33.47918444292943,34.97216328914976,0 33.47911686626779,34.97210798316161,0 33.47920937350633,34.97168616311826,0 33.47871862107669,34.97168382415376,0 33.47865908540931,34.97183165486387,0 33.47852508340643,34.97214888293635,0 33.47837979532022,34.97244765363712,0 33.47824482505673,34.97264481137407,0 33.47805821027773,34.97289746635679,0 33.47786407392339,34.97313781740063,0 33.4775990026437,34.97346444090972,0 33.47740997193669,34.97368263493699,0 33.47725668508867,34.97379056698287,0 33.47712594235675,34.97392309387416,0 33.47693542129638,34.97411109991192,0 33.47677472265443,34.97424366294314,0 33.4765914482464,34.97433932635492,0 33.47649788259107,34.97436715532849,0 33.47636134987076,34.9743710514933,0 33.47608796297077,34.97439294375016,0 33.47599008810329,34.97442784014334,0 33.47589391965578,34.97449951586369,0 33.47585228954143,34.97455372009863,0 33.4757204329727,34.97471865141924,0 33.47556024437925,34.97485038243888,0 33.47551459289068,34.97492644103274,0 33.47463442420556,34.97533367961894,0 33.47455509780549,34.97540874629806,0 33.4744602660318,34.9754746736058,0 33.47434392058214,34.97565334988347,0 33.47415538120539,34.97574956833534,0 33.47392553306687,34.975767790917,0 33.47383154493591,34.97576358839514,0 33.47375560465664,34.97573747395896,0 33.47365306078156,34.9757160695082,0 33.47360922881185,34.97567141821099,0 33.47340837515691,34.97563088568226,0 33.47309838950586,34.97562185183243,0 33.47271209139946,34.97553613292492,0 33.47234108147882,34.97543195260867,0 33.4720317417469,34.97532061484076,0 33.47192197049097,34.97526935941254,0 33.47185912887059,34.97530180959151,0 33.47169942785168,34.97549789420815,0 33.47155554974363,34.97556746671494,0 33.47127179521527,34.97568016692157,0 33.47114984672824,34.9756841322415,0 33.47108275859421,34.97571084562556,0 33.47074536014848,34.97577664443008,0 33.47064580237624,34.97577476686816,0 33.47038550010998,34.97583793656848,0 33.47013777056162,34.97589300013347,0 33.47001588518055,34.97590501015669,0 33.46981532051279,34.97589435898385,0 33.46951084505679,34.97586230481362,0 33.4694334441723,34.97582355088476,0 33.46928083387068,34.97566442063369,0 33.46920736528833,34.97558887247423,0 33.46896867217711,34.97554045614566,0 33.46891059600257,34.97564643516029,0</coordinates>
						</LinearRing>
					</outerBoundaryIs>
				</Polygon>
			</MultiGeometry>
		</Placemark>
	</Document>
</kml>