<?xml version='1.0' encoding='UTF-8'?>
<kml xmlns="http://www.opengis.net/kml/2.2">
	<Document>
		<name>PSYLLATOS</name>
		<Style id="PolyStyle70">
			<LabelStyle>
				<color>00000000</color>
				<scale>0.000000</scale>
			</LabelStyle>
			<LineStyle>
				<color>ff0055ff</color>
				<width>2.000000</width>
			</LineStyle>
			<PolyStyle>
				<color>00828282</color>
				<outline>1</outline>
			</PolyStyle>
		</Style>
		<Placemark id="ID_70261">
			<name>PSYLLATOS</name>
			<snippet />
			<description>&lt;html xmlns:fo="http://www.w3.org/1999/XSL/Format" xmlns:msxsl="urn:schemas-microsoft-com:xslt"&gt;

&lt;head&gt;

&lt;META http-equiv="Content-Type" content="text/html"&gt;

&lt;meta http-equiv="content-type" content="text/html; charset=UTF-8"&gt;

&lt;/head&gt;

&lt;body style="margin:0px 0px 0px 0px;overflow:auto;background:#FFFFFF;"&gt;

&lt;table style="font-family:Arial,Verdana,Times;font-size:12px;text-align:left;width:100%;border-collapse:collapse;padding:3px 3px 3px 3px"&gt;

&lt;tr style="text-align:center;font-weight:bold;background:#9CBCE2"&gt;

&lt;td&gt;3&lt;/td&gt;

&lt;/tr&gt;

&lt;tr&gt;

&lt;td&gt;

&lt;table style="font-family:Arial,Verdana,Times;font-size:12px;text-align:left;width:100%;border-spacing:0px; padding:3px 3px 3px 3px"&gt;

&lt;tr&gt;

&lt;td&gt;DIST_CODE&lt;/td&gt;

&lt;td&gt;3&lt;/td&gt;

&lt;/tr&gt;

&lt;tr bgcolor="#D4E4F3"&gt;

&lt;td&gt;VIL_CODE&lt;/td&gt;

&lt;td&gt;222&lt;/td&gt;

&lt;/tr&gt;

&lt;tr&gt;

&lt;td&gt;VIL_CCD&lt;/td&gt;

&lt;td&gt;3222&lt;/td&gt;

&lt;/tr&gt;

&lt;tr bgcolor="#D4E4F3"&gt;

&lt;td&gt;VIL_NM_E&lt;/td&gt;

&lt;td&gt;PSYLLATOS&lt;/td&gt;

&lt;/tr&gt;

&lt;tr&gt;

&lt;td&gt;VIL_NM_G&lt;/td&gt;

&lt;td&gt;ΨΥΛΛΑΤΟΣ&lt;/td&gt;

&lt;/tr&gt;

&lt;/table&gt;

&lt;/td&gt;

&lt;/tr&gt;

&lt;/table&gt;

&lt;/body&gt;&lt;script type="text/javascript"&gt;

				function changeImage(attElement, nameElement) {

				document.getElementById('imageAttachment').src = attElement;

				document.getElementById('imageName').innerHTML = nameElement;}

			&lt;/script&gt;&lt;/html&gt;

</description>
			<styleUrl>#PolyStyle70</styleUrl>
			<MultiGeometry>
				<Polygon>
					<extrude>0</extrude>
					<altitudeMode>clampToGround</altitudeMode>
					<outerBoundaryIs>
						<LinearRing>
							<coordinates> 33.68048442200809,35.23110920303507,0 33.68096261622698,35.23089802638582,0 33.68115216260306,35.23077534225466,0 33.68132782373984,35.22983616033546,0 33.68148477758449,35.22919244056723,0 33.68205834440852,35.22941507142309,0 33.68231395405088,35.22875342158825,0 33.68353176098156,35.22901100276966,0 33.68348317577266,35.22906359366254,0 33.68329296576477,35.22935019522114,0 33.68309057249017,35.22962352942696,0 33.68283857920498,35.22987397783778,0 33.68261408801823,35.23003740088715,0 33.68219265558894,35.23028301204639,0 33.68199571484704,35.23036520024976,0 33.68179195810993,35.23047638310701,0 33.68157427883899,35.23061080928306,0 33.68110367712003,35.23088565009613,0 33.68107068539299,35.23094954021115,0 33.68203960221845,35.23118152850716,0 33.68297671577693,35.23140789624173,0 33.68354246708369,35.23153790293764,0 33.68405866868472,35.23165081306831,0 33.68402817237247,35.23180155957954,0 33.68437700576506,35.23173588331153,0 33.68455610842061,35.23163062687492,0 33.68466224325341,35.23208174905756,0 33.68525822819846,35.23202915074029,0 33.6858360074297,35.23191005209612,0 33.68598955200433,35.23170358992739,0 33.68550866158501,35.23159338418299,0 33.68509893596983,35.23155226861365,0 33.68540339814118,35.2314173078051,0 33.6855716931035,35.23111524334912,0 33.68590412103402,35.23119733457009,0 33.68594571287932,35.23110733306152,0 33.68662926337162,35.2313959192701,0 33.68730296494423,35.23177142629216,0 33.6874010679241,35.23168689561832,0 33.68755534101277,35.23156729703729,0 33.68770910049192,35.23138689284264,0 33.68856455658552,35.23173491829276,0 33.68958483766634,35.23201326554544,0 33.68974778280687,35.2316677545274,0 33.6913390858624,35.23204379791456,0 33.69144820509796,35.23159434846733,0 33.6914740508915,35.23147018022832,0 33.69158415403555,35.23097969277202,0 33.69163882304136,35.23076799707334,0 33.69173762211881,35.23035045892782,0 33.69183247398146,35.22988371572958,0 33.69188371166094,35.22968362302927,0 33.69202816274422,35.22923976227725,0 33.69211691310104,35.22888598473676,0 33.69225398417596,35.22840452187874,0 33.69231516632561,35.22812908410219,0 33.69234544923901,35.22795517237346,0 33.6925528963635,35.2274501413206,0 33.69265965765763,35.22749131716311,0 33.69464465443028,35.22781121816053,0 33.69457317115742,35.22843832325938,0 33.69509375356817,35.22853916581454,0 33.69607996439421,35.22865587062925,0 33.69608009107901,35.22867070287074,0 33.69607661712755,35.22879309574999,0 33.69605285768618,35.22888422492878,0 33.69568230959273,35.22984195399048,0 33.69547970321288,35.23019137571188,0 33.69533949795417,35.2306923016714,0 33.69679903736434,35.23091211133939,0 33.69680336941843,35.23094531094215,0 33.69687247355905,35.23097647642756,0 33.69688922388467,35.23104116784433,0 33.69687975464582,35.23111763790192,0 33.6967346834716,35.23167332011928,0 33.69669028214633,35.23175111072715,0 33.69675593745882,35.23179114397999,0 33.69674009608068,35.23183276583709,0 33.69699619813382,35.23194923759266,0 33.6968025941929,35.23203839728763,0 33.69673626650024,35.23209525990711,0 33.69666775793485,35.23213386244988,0 33.69655652150107,35.23214779244647,0 33.69649609687595,35.23218468714489,0 33.69644369948172,35.23221322949301,0 33.69634632364764,35.2322018420591,0 33.69631258626976,35.23227046462463,0 33.69627740729204,35.23241851617101,0 33.69623960748216,35.23249681035814,0 33.69619958433451,35.23255186104903,0 33.69620271593458,35.2326814178143,0 33.69628683739088,35.23287298272616,0 33.69632218566458,35.2329199463157,0 33.69631281507099,35.23300804432816,0 33.69628117397607,35.2330962713529,0 33.6960645675915,35.23317269061413,0 33.69578346982732,35.23331052557,0 33.69561398092967,35.23344731109136,0 33.69553748943263,35.23355283518245,0 33.69548740830807,35.23368440942314,0 33.69548508229067,35.23378682662667,0 33.6955336822632,35.23388134092613,0 33.69556284926185,35.23397752444803,0 33.69585929758536,35.23413652319921,0 33.69585668052773,35.23420480716327,0 33.69581225975313,35.23424970021416,0 33.69580624079744,35.23429437249632,0 33.69583891521486,35.23437295634652,0 33.69603886918559,35.23455298216926,0 33.69615312401704,35.2346284710735,0 33.69612860015143,35.23475464717277,0 33.69612466754585,35.2350435004835,0 33.69603779916673,35.23536433905137,0 33.69600034922508,35.23580914820549,0 33.69593395737866,35.23631217108686,0 33.69593805497638,35.23642570667747,0 33.69639483291976,35.23647545712533,0 33.69641236579405,35.23645924515186,0 33.69645789892768,35.2365024814853,0 33.69648350695817,35.23651200042491,0 33.69658930182563,35.23648400345473,0 33.6964947598444,35.2373690027107,0 33.69640052290877,35.23783030017336,0 33.69619121644239,35.23855683323643,0 33.69719850377771,35.23874528564099,0 33.69721512761482,35.23877019207927,0 33.69742896856877,35.23883050467666,0 33.69733185551637,35.2393984306327,0 33.69685857151931,35.23930318038094,0 33.69668865241703,35.24000329082794,0 33.69735587954649,35.24011452698294,0 33.69762699149786,35.2402424274044,0 33.69736352373722,35.24059781090927,0 33.69775750782847,35.24077291527475,0 33.69795774545256,35.24060951686167,0 33.69916177399281,35.24083797988752,0 33.69910137370485,35.24057746613216,0 33.69999812948137,35.24069635187084,0 33.70033436824284,35.24011542007965,0 33.70074362289104,35.23990945169166,0 33.70052942919072,35.24115455812706,0 33.70181069449832,35.24134437190835,0 33.70177000764603,35.24311804537122,0 33.70066490663145,35.24303282954703,0 33.70055264758402,35.24390957769437,0 33.7001047963348,35.24391732059775,0 33.70037690388581,35.24440512104281,0 33.70053519228658,35.24455702659618,0 33.70023007738772,35.24485585109625,0 33.70004352005604,35.24482430531624,0 33.69994659860184,35.24523696995897,0 33.69971882072585,35.24601098283321,0 33.6995587353189,35.24638108550724,0 33.69942969030561,35.2467097979874,0 33.69992031807062,35.24680655274473,0 33.69968618284469,35.24757201661947,0 33.69822370836042,35.24740360214841,0 33.69824098284744,35.2474653183422,0 33.69823719418368,35.24751170209697,0 33.69818572123165,35.24761159038535,0 33.69821349054082,35.24767668024754,0 33.69823144224745,35.24781737856027,0 33.69818213688787,35.24792584077399,0 33.69819307333742,35.24798072510607,0 33.69898276549242,35.24804656791688,0 33.69891487145283,35.24867198425549,0 33.69823862631464,35.24865528263543,0 33.69828709146443,35.2486927793452,0 33.69832957183524,35.24876465270792,0 33.69831736659685,35.24880593370258,0 33.69834307277176,35.2488744687368,0 33.69834386787616,35.24896718791693,0 33.69839669406787,35.24926909295226,0 33.69839699454123,35.24934602480963,0 33.69839558755286,35.24938414458574,0 33.69849013124959,35.2494248094869,0 33.69857879228027,35.24951187015104,0 33.69860672460703,35.24959584712877,0 33.69860948057759,35.24967310011407,0 33.69859399320712,35.24972462700232,0 33.69860258108864,35.24984485059944,0 33.69863870930229,35.24990817407101,0 33.69901709262352,35.25033869892591,0 33.69918578115318,35.25048196043855,0 33.69934623150777,35.25064072417571,0 33.69943698639015,35.25067028012001,0 33.69953097319934,35.25070318842993,0 33.69956713371799,35.25073036476018,0 33.69962600581329,35.2508005140991,0 33.69965383641093,35.25087247165391,0 33.69974906117724,35.25099211758835,0 33.69978627283812,35.25106627338253,0 33.69979029198078,35.25116187176459,0 33.6998247258895,35.25127156742042,0 33.69987164620602,35.25137260532035,0 33.69991091712732,35.25155782473023,0 33.70003854743103,35.25203787429998,0 33.70006422659906,35.25210297576416,0 33.70008159211042,35.25217499374153,0 33.70010081462678,35.25221952637963,0 33.700128218004,35.25224169021076,0 33.70022059776861,35.2522737807078,0 33.70027920708406,35.25227344155688,0 33.7003759402419,35.25230664516945,0 33.70037605503082,35.25233813108436,0 33.70033846619319,35.2523486512646,0 33.70033672743491,35.25238987186206,0 33.70038145246516,35.25247890160295,0 33.70044895167381,35.25253860961077,0 33.70083027127523,35.25282144042242,0 33.70093519078375,35.2529085276997,0 33.70103131043783,35.25300793978573,0 33.70107250874531,35.25312422090364,0 33.70107267357303,35.25317450364229,0 33.70106376330553,35.25328276714828,0 33.70106060881592,35.25332109174343,0 33.70096927393008,35.2533462173685,0 33.69933731707896,35.25335363345938,0 33.69930430536411,35.25422160781155,0 33.69929701990345,35.25471955902937,0 33.69951986721374,35.2550881453362,0 33.69973693452585,35.25545676552369,0 33.69973774959997,35.25555160088052,0 33.69964835886268,35.25658587065146,0 33.69963537046245,35.25772386224362,0 33.6996544958573,35.25815909840042,0 33.69981394005626,35.25912060094583,0 33.69980207582715,35.25959689227946,0 33.69983180494749,35.25996650513326,0 33.69979091786998,35.26028944619691,0 33.69976612109658,35.26040231902302,0 33.69976847137981,35.26053611961519,0 33.69976876000034,35.2605525633798,0 33.69980495985856,35.26072925983463,0 33.69977299290483,35.26107498989223,0 33.69976072549574,35.26166114465226,0 33.69979278447206,35.26230780320408,0 33.6998104357189,35.26240424736564,0 33.69992035993312,35.26276438701142,0 33.69992543161285,35.26286980671001,0 33.69988022733421,35.26302269654204,0 33.6997986840437,35.26314852659932,0 33.69970755861603,35.26323577404964,0 33.69947475332877,35.26337418367327,0 33.69933830039886,35.26357833236694,0 33.69883274547907,35.26417904572924,0 33.6983803081209,35.26464231834318,0 33.69811433185912,35.26525377975818,0 33.69800057879835,35.2656598254081,0 33.69773768234332,35.26625331475586,0 33.69764993275722,35.26641514993575,0 33.69738592099684,35.26666795836448,0 33.69715003369055,35.26695033932249,0 33.696976230673,35.26684527784117,0 33.69678499548942,35.26675771105815,0 33.69664041688518,35.26670787512185,0 33.69646502273238,35.2666666621997,0 33.69619174491906,35.26661756739728,0 33.69599604842331,35.26661024840033,0 33.69452872257743,35.26660179138529,0 33.69394670923668,35.26657135225796,0 33.69361205306543,35.26656904923293,0 33.69341330685562,35.26659588818951,0 33.69321110476321,35.26666461597892,0 33.69309973960187,35.26672026346532,0 33.6929492932821,35.26676696959529,0 33.69269736181194,35.26676851588164,0 33.69254707092311,35.26677553707668,0 33.69242480313969,35.26680385383276,0 33.69221952938909,35.26688102982971,0 33.69189192891911,35.26702428927837,0 33.69123686590321,35.26695842734257,0 33.69070039483819,35.26683482210667,0 33.68955834884169,35.26692599628342,0 33.6891345446734,35.26691784421011,0 33.68861962477753,35.26702322980216,0 33.68846635702101,35.26701169743149,0 33.68827819341313,35.26699754030466,0 33.6877426943514,35.2669927570576,0 33.6870490642382,35.26700243867091,0 33.68665039293851,35.26703521134722,0 33.68675441935182,35.2675927371134,0 33.68676559208028,35.26787479686605,0 33.68684530785816,35.26816990597804,0 33.68698676608368,35.2684604424533,0 33.68723243651357,35.26889816673123,0 33.68739516847489,35.26926880522543,0 33.68745965741537,35.26958933415113,0 33.68608398336004,35.26946625211127,0 33.68599501766288,35.26990587602796,0 33.68549446615368,35.26976937726083,0 33.68535408498721,35.27021773690932,0 33.68464682115492,35.26998951425369,0 33.68450238713174,35.26995655280867,0 33.68444160284762,35.27007512168657,0 33.68401902141743,35.2700268439877,0 33.68392731037947,35.27014136455711,0 33.68364856083181,35.27005427170253,0 33.68350316295992,35.27051954648889,0 33.68310571880457,35.27039934420015,0 33.68286764819106,35.27086514233545,0 33.6825943285023,35.27081179512007,0 33.68254912731375,35.27094716312569,0 33.68188336968409,35.27075669176294,0 33.68186649083687,35.27120012927466,0 33.68176370128444,35.27122181945173,0 33.68165305635788,35.27153489427567,0 33.68154099488645,35.27167908349021,0 33.68108705724097,35.27157608264113,0 33.68110567212735,35.27133952876142,0 33.68063646856931,35.27125772304286,0 33.68044093841951,35.27127148980806,0 33.68031783681204,35.27132707169777,0 33.68018715907115,35.27128734682891,0 33.68011630480272,35.27146174851036,0 33.6798164978042,35.27211985618052,0 33.67971044462478,35.27207789676022,0 33.67984335202883,35.27174622239126,0 33.67954093776688,35.27169206190825,0 33.6795494491988,35.27162507052988,0 33.67943431891318,35.27159596394965,0 33.67950207210184,35.271382354421,0 33.67965024898795,35.27138648141508,0 33.67959278776411,35.27102233131964,0 33.67950366653489,35.27084927380434,0 33.67950917515533,35.27078477804259,0 33.67962796764586,35.27052873205136,0 33.67953391915017,35.27048958938932,0 33.68001940094388,35.26997610412655,0 33.67965813683098,35.26979713793084,0 33.67964273198474,35.26976251284392,0 33.68014734064741,35.26936793062228,0 33.67911967479027,35.26903402434115,0 33.67921757354053,35.26881032883831,0 33.67945157397955,35.26823131278317,0 33.67958081977865,35.26782750557438,0 33.67965343599778,35.26742437147435,0 33.68022878515406,35.26753767041542,0 33.68044248124286,35.26670090889856,0 33.6799312409461,35.26666163327684,0 33.67953017586499,35.26660190127288,0 33.68009993931667,35.26460029690895,0 33.68022487129576,35.26435661303067,0 33.68049725816726,35.26367076419905,0 33.68060293110032,35.26329330000789,0 33.6807201970203,35.2628562640073,0 33.68111950515477,35.26288872941759,0 33.68121900342096,35.26249642235013,0 33.68021504486302,35.26245744112048,0 33.68041326178547,35.26157861539713,0 33.68009814320204,35.26149112816562,0 33.68034903441109,35.26112772392528,0 33.68058072245777,35.26070557235789,0 33.68064981306325,35.26022352790649,0 33.68073183787357,35.25991066047322,0 33.68076140168653,35.25983115303936,0 33.68085485321556,35.25943888100755,0 33.68128813535723,35.25919841888397,0 33.68002310324727,35.2590220578369,0 33.68011599485285,35.25887655069791,0 33.68025285444401,35.25872316443014,0 33.68040954378401,35.25858122835265,0 33.68069671757711,35.25819807128077,0 33.68066134215484,35.25801327978123,0 33.68070573097666,35.25792747220973,0 33.68074116011579,35.25778159376632,0 33.68070265686571,35.25755982230061,0 33.68064268451669,35.25746766394921,0 33.68062232042437,35.25735276840742,0 33.6806494401177,35.25726413664805,0 33.68066870945229,35.25720853191094,0 33.68073798598711,35.25706477416011,0 33.68082776899646,35.25701339670616,0 33.68081877077544,35.25694870114449,0 33.68076831788199,35.25698367055605,0 33.68067839953599,35.25701886195476,0 33.68047548893679,35.25702694013141,0 33.68040800629815,35.25704813129793,0 33.68015817680114,35.25717671619912,0 33.68036538839047,35.2563338462741,0 33.68069160669038,35.25522669496885,0 33.68018139665419,35.2552318759381,0 33.67963674021818,35.25516325307122,0 33.67991805446247,35.2537418718144,0 33.68137042555601,35.25388396353028,0 33.68145655193033,35.2534904186595,0 33.6811458160848,35.25341354714388,0 33.68016441775747,35.2533681949291,0 33.67905304280133,35.2532865656917,0 33.6792178944391,35.25277229282358,0 33.67907104248312,35.25274074342129,0 33.67930983932591,35.25230467553504,0 33.6790215447684,35.25221379865974,0 33.67919774631777,35.25170871100313,0 33.67892636757514,35.25161773893653,0 33.6791761279886,35.25114461213437,0 33.67848637232805,35.25091261822626,0 33.67886865961246,35.25010576589666,0 33.67924672785328,35.24947005197388,0 33.67885635238,35.24930575139459,0 33.67835303540761,35.24911895804544,0 33.67780400568456,35.24885842338212,0 33.6784673895041,35.2479575023973,0 33.67807679183407,35.2477654517867,0 33.67841095176162,35.2472733536654,0 33.67807676928383,35.24708561167818,0 33.6780487740694,35.24710889227825,0 33.67705866409478,35.24668433247139,0 33.67662869122447,35.24650174633328,0 33.67633827748906,35.24683172802106,0 33.67520513027007,35.24629104994074,0 33.67529606277074,35.24624095368661,0 33.67540896156963,35.24625882248112,0 33.67558337303967,35.24621622640336,0 33.67587434383974,35.24551738642209,0 33.67540198182389,35.24541715461753,0 33.67574036642577,35.24475392390301,0 33.67587220554783,35.24433695914736,0 33.6759196775098,35.24394358920697,0 33.67679350962882,35.24394795467064,0 33.67724869405786,35.24377429215163,0 33.67710549735391,35.24350223230358,0 33.67558967639128,35.24387796872821,0 33.67547146639205,35.24431944923614,0 33.67526081958884,35.24430244679853,0 33.6751429839117,35.24478937017756,0 33.67412712937431,35.24453599350991,0 33.67425729022714,35.24419897244955,0 33.67380231035245,35.24411061579767,0 33.67379575578673,35.24398794960014,0 33.6737508025285,35.24391094248222,0 33.6737445863647,35.24382917499144,0 33.67381569597384,35.24371971054103,0 33.67390387404831,35.2436646848377,0 33.67389615385418,35.24340114448308,0 33.67382421757427,35.24341063444254,0 33.67367989502705,35.24337508110147,0 33.67354706497834,35.24338945365282,0 33.67344829636691,35.2435036174773,0 33.67336456820294,35.24342682596446,0 33.67294312987691,35.24337463530838,0 33.67303451964831,35.24303783105612,0 33.67266349962792,35.24305352699694,0 33.67278947717834,35.2428801339947,0 33.6727275692938,35.24276232011667,0 33.67257808412478,35.24277224036707,0 33.6724074914011,35.24290952424283,0 33.67241393122411,35.24301855795171,0 33.6723925246279,35.24310956752174,0 33.67225894355091,35.24303305219274,0 33.67235523758805,35.24261896377135,0 33.67249326840737,35.24256366212292,0 33.67260647921598,35.24218583628026,0 33.67240103916971,35.2421278983732,0 33.67242203396891,35.24198690103698,0 33.67248722811844,35.24183202397025,0 33.67256900379184,35.2416725100079,0 33.67265575456172,35.24144480124379,0 33.67274883235262,35.24131249171682,0 33.67283629541485,35.24117112480581,0 33.67341927580712,35.24066343726209,0 33.67301341851543,35.24048391347235,0 33.67263912220294,35.24077230041632,0 33.67200118276957,35.24049408183051,0 33.67212088253629,35.23989580884554,0 33.67213970648852,35.23982753629343,0 33.6721665018504,35.23971831883771,0 33.67218543931144,35.23966367888946,0 33.67108428831656,35.23946982924122,0 33.67122175306208,35.23901006783228,0 33.6712129013275,35.23894422034922,0 33.67124228123265,35.238796675042,0 33.67125174606348,35.23867465164562,0 33.6714046147864,35.23867638075166,0 33.67146840360628,35.2384131887104,0 33.67095812090847,35.23834844636628,0 33.67105182654318,35.23802101195944,0 33.67109481530203,35.23777822438164,0 33.67113980071308,35.23777797494266,0 33.67121379247398,35.23739792125177,0 33.67098847344701,35.23735171515955,0 33.67039032983129,35.23729702908921,0 33.67043292861996,35.23700678753832,0 33.67043075922914,35.23674315817474,0 33.67049324519317,35.23652662698392,0 33.67036286809514,35.23562730300353,0 33.6703637245069,35.23562697376631,0 33.67053217846613,35.23555039751516,0 33.67072292239998,35.23542703167461,0 33.67085627428731,35.23535532670584,0 33.67104141802832,35.23527736197116,0 33.6713268690557,35.23519857293964,0 33.67161571628964,35.23513216096298,0 33.67225205261462,35.23503295493383,0 33.6723346559039,35.2350094967101,0 33.67242895506796,35.23498312331528,0 33.67258908114406,35.23493005138997,0 33.67303122512055,35.2347902128294,0 33.67321950315269,35.23469869234267,0 33.67337624189197,35.23460303937453,0 33.67330527760217,35.23427600712042,0 33.67316865281955,35.23426384227422,0 33.67334005594527,35.23340123833201,0 33.67351875536529,35.23342178599918,0 33.67362020656454,35.23299039612978,0 33.67381716866389,35.23225522758226,0 33.67388554372977,35.23205833692538,0 33.67392555264985,35.231816852822,0 33.67403782121388,35.23142417662721,0 33.6741061496386,35.23143241233524,0 33.67427292815613,35.23064738211195,0 33.67475125538109,35.23070934056543,0 33.674837373659,35.23032973414073,0 33.6744274117457,35.23028031990093,0 33.67447627971155,35.22984060588632,0 33.67441820349386,35.22980215512768,0 33.67455522208714,35.22922839436965,0 33.67462347739222,35.22922801398342,0 33.67483681623241,35.22899417957411,0 33.67490246016178,35.22886287656579,0 33.67519339857556,35.22902050862341,0 33.67570677533682,35.22911889243474,0 33.67572849130613,35.22906684853282,0 33.6764886680191,35.22931312736629,0 33.67648813923587,35.22924942580666,0 33.67658430343986,35.22893036575551,0 33.67707253707256,35.2290782101201,0 33.67776568676368,35.22925386189723,0 33.67767101966455,35.22975244444277,0 33.67810951821423,35.22986002376858,0 33.67831050338491,35.22856743445479,0 33.67888995728599,35.22865105577539,0 33.67893389549714,35.22884192286926,0 33.6792805921059,35.22894422153785,0 33.67995237983252,35.22909681537752,0 33.68044724291322,35.22919248608096,0 33.68052217001967,35.22886775194916,0 33.68098870359324,35.22895199797659,0 33.68048442200809,35.23110920303507,0</coordinates>
						</LinearRing>
					</outerBoundaryIs>
				</Polygon>
			</MultiGeometry>
		</Placemark>
	</Document>
</kml>