<?xml version='1.0' encoding='UTF-8'?>
<kml xmlns="http://www.opengis.net/kml/2.2">
	<Document>
		<name>PYRGOS LEMESOU</name>
		<Style id="PolyStyle70">
			<LabelStyle>
				<color>00000000</color>
				<scale>0.000000</scale>
			</LabelStyle>
			<LineStyle>
				<color>ff0055ff</color>
				<width>2.000000</width>
			</LineStyle>
			<PolyStyle>
				<color>00828282</color>
				<outline>1</outline>
			</PolyStyle>
		</Style>
		<Placemark id="ID_70604">
			<name>PYRGOS LEMESOU</name>
			<snippet />
			<description>&lt;html xmlns:fo="http://www.w3.org/1999/XSL/Format" xmlns:msxsl="urn:schemas-microsoft-com:xslt"&gt;

&lt;head&gt;

&lt;META http-equiv="Content-Type" content="text/html"&gt;

&lt;meta http-equiv="content-type" content="text/html; charset=UTF-8"&gt;

&lt;/head&gt;

&lt;body style="margin:0px 0px 0px 0px;overflow:auto;background:#FFFFFF;"&gt;

&lt;table style="font-family:Arial,Verdana,Times;font-size:12px;text-align:left;width:100%;border-collapse:collapse;padding:3px 3px 3px 3px"&gt;

&lt;tr style="text-align:center;font-weight:bold;background:#9CBCE2"&gt;

&lt;td&gt;5&lt;/td&gt;

&lt;/tr&gt;

&lt;tr&gt;

&lt;td&gt;

&lt;table style="font-family:Arial,Verdana,Times;font-size:12px;text-align:left;width:100%;border-spacing:0px; padding:3px 3px 3px 3px"&gt;

&lt;tr&gt;

&lt;td&gt;DIST_CODE&lt;/td&gt;

&lt;td&gt;5&lt;/td&gt;

&lt;/tr&gt;

&lt;tr bgcolor="#D4E4F3"&gt;

&lt;td&gt;VIL_CODE&lt;/td&gt;

&lt;td&gt;129&lt;/td&gt;

&lt;/tr&gt;

&lt;tr&gt;

&lt;td&gt;VIL_CCD&lt;/td&gt;

&lt;td&gt;5129&lt;/td&gt;

&lt;/tr&gt;

&lt;tr bgcolor="#D4E4F3"&gt;

&lt;td&gt;VIL_NM_E&lt;/td&gt;

&lt;td&gt;PYRGOS LEMESOU&lt;/td&gt;

&lt;/tr&gt;

&lt;tr&gt;

&lt;td&gt;VIL_NM_G&lt;/td&gt;

&lt;td&gt;ΠΥΡΓΟΣ ΛΕΜΕΣΟΥ&lt;/td&gt;

&lt;/tr&gt;

&lt;/table&gt;

&lt;/td&gt;

&lt;/tr&gt;

&lt;/table&gt;

&lt;/body&gt;&lt;script type="text/javascript"&gt;

				function changeImage(attElement, nameElement) {

				document.getElementById('imageAttachment').src = attElement;

				document.getElementById('imageName').innerHTML = nameElement;}

			&lt;/script&gt;&lt;/html&gt;

</description>
			<styleUrl>#PolyStyle70</styleUrl>
			<MultiGeometry>
				<Polygon>
					<extrude>0</extrude>
					<altitudeMode>clampToGround</altitudeMode>
					<outerBoundaryIs>
						<LinearRing>
							<coordinates> 33.19764810454141,34.77036148610237,0 33.19770605758892,34.77065931380553,0 33.1977483087953,34.77080167229794,0 33.19775887222626,34.77083671473082,0 33.19792313841756,34.77100984367596,0 33.19794166506479,34.77104270243021,0 33.19797338030022,34.77113250300438,0 33.1979839616563,34.77115440840774,0 33.19800516650555,34.77117194428417,0 33.1982835738172,34.77131233983422,0 33.19831007323332,34.77133645039739,0 33.19834977926561,34.77140436302186,0 33.19836033361545,34.7714459725501,0 33.1983919236658,34.7716233536643,0 33.19840232011842,34.77177881784944,0 33.19841519478297,34.77205908693276,0 33.19845748094696,34.7721773598781,0 33.19849720040266,34.7722365147386,0 33.19854490083654,34.77228035068205,0 33.19861643924205,34.77235486136342,0 33.19867468506227,34.77244687660743,0 33.19949528586857,34.77385769592709,0 33.20010936148894,34.77496178481417,0 33.20057355272929,34.77574804015654,0 33.20080411858017,34.77613857073585,0 33.19910361252256,34.77640456994084,0 33.19651264438323,34.77626122970695,0 33.19244904469879,34.77605868883571,0 33.19233433680153,34.77603173707559,0 33.19229284121326,34.77597584452283,0 33.19218783066707,34.7758344054656,0 33.19213118091275,34.77573981007361,0 33.19185644264346,34.77528104611807,0 33.19183793104133,34.77523942604951,0 33.19181415474667,34.77516714841763,0 33.19177989498612,34.775009469482,0 33.19177198137449,34.77497661923434,0 33.19166334186973,34.7748736029227,0 33.19157585922274,34.77481658716486,0 33.19147247517786,34.77474860845987,0 33.19134784817967,34.77468936484586,0 33.19088638081802,34.77452687184375,0 33.19085986882819,34.77451151827836,0 33.1905736493308,34.7742725704643,0 33.19029590144149,34.77369425865615,0 33.19027737721746,34.77366139694183,0 33.19023497649386,34.7736241310411,0 33.19009183538647,34.77352764599482,0 33.19006799655308,34.77349915921726,0 33.18990389930642,34.7732231132968,0 33.18982436310389,34.77310983726786,0 33.18966298962114,34.77287760402428,0 33.18950724947939,34.77261750126273,0 33.18939182168452,34.77242070012112,0 33.18936621607974,34.77237368463254,0 33.18928161079042,34.77224104824346,0 33.18911860294921,34.77195135860949,0 33.1889959883807,34.7717539696614,0 33.18886980703857,34.77158849420265,0 33.18873169874043,34.77142492205004,0 33.1885851670612,34.77129399654726,0 33.18846713582202,34.77119915547753,0 33.1883971743157,34.77113675739653,0 33.18832683820296,34.77105031339932,0 33.188261521236,34.77096592053471,0 33.18820386407057,34.77084085091621,0 33.18815046450033,34.77064797945734,0 33.18811439491551,34.77048654486787,0 33.18802465349241,34.7702011512986,0 33.18792358006382,34.7699766138083,0 33.18788708783698,34.76987564795412,0 33.18786866612256,34.76978984020992,0 33.18775863865597,34.76956805862473,0 33.18769996327972,34.76948899634725,0 33.18757161021231,34.76933340913778,0 33.18741287344847,34.76907512458301,0 33.18680908344452,34.76816915863139,0 33.18664235324909,34.7679349047027,0 33.18649362440525,34.76770393493165,0 33.18644395134677,34.76761200159643,0 33.18624063245213,34.7673267858338,0 33.18619051642788,34.7672436269856,0 33.185987797962,34.76692968480783,0 33.18578249060198,34.76661947646981,0 33.18572441573703,34.76651265268723,0 33.18554599583538,34.76624279377732,0 33.18547077761617,34.76611691115547,0 33.18540299564601,34.76596227767857,0 33.18536317817269,34.7658596113934,0 33.18532557827028,34.7657446989738,0 33.18529955018153,34.76566651158757,0 33.18526279242462,34.76563802545619,0 33.18521043043124,34.76563464530641,0 33.18514009805872,34.76565490172835,0 33.18508710168891,34.76572017146454,0 33.18494395540573,34.76607293060352,0 33.18490288007098,34.76615839831555,0 33.18483107629167,34.76625682428926,0 33.18473511612393,34.76635269336813,0 33.18456230875473,34.76651354351026,0 33.18437888181133,34.76665043152256,0 33.18424918644589,34.76672662912865,0 33.18410456507953,34.76679724388062,0 33.18399630179048,34.76684872139644,0 33.18373349263726,34.76694153694077,0 33.18364169255761,34.76700589100719,0 33.18343702866863,34.76727991733276,0 33.18327142820502,34.76741228482738,0 33.18317053382556,34.76745624855588,0 33.18303391688718,34.76745182229472,0 33.18272227187583,34.76738938282145,0 33.18254654001142,34.76733907445092,0 33.18233935691718,34.76725045576345,0 33.18223621363919,34.76719431754578,0 33.1820819141694,34.76699523264578,0 33.18192179753621,34.76675640089852,0 33.18189208076839,34.76677863566088,0 33.18165268423574,34.76710048832221,0 33.18110616949652,34.76680895139811,0 33.18121569988642,34.76639775731589,0 33.18115387601366,34.76627120122954,0 33.18091479088138,34.76601145359312,0 33.18074010232527,34.76606107613718,0 33.18053012997974,34.76569998460876,0 33.18050418516177,34.76565545843327,0 33.18049596606615,34.7652248614786,0 33.18049149770057,34.76502637081806,0 33.18043161462264,34.76475007330789,0 33.18042267119854,34.76470880683878,0 33.18035824909328,34.76467676698196,0 33.18023938726725,34.76484797996319,0 33.17977252630021,34.76442820598143,0 33.1790688716973,34.7644721307559,0 33.17878787884275,34.76426450708504,0 33.17831090357248,34.7641490811254,0 33.17809684235109,34.76409096707769,0 33.17784109062821,34.76403800770932,0 33.17759284063644,34.76397697509091,0 33.17758731555683,34.76395711132994,0 33.17719929444346,34.76362657517688,0 33.17706302429802,34.76340237616333,0 33.17695535803784,34.76323143885356,0 33.1769162841067,34.76307342251663,0 33.17686151077401,34.76268934505986,0 33.17685556064741,34.7626692988817,0 33.17645419168272,34.76266026257556,0 33.17624988234991,34.76235894827726,0 33.17572491900243,34.76224613541994,0 33.17557121309066,34.76232392342486,0 33.17527626060691,34.76250684929867,0 33.17489077625783,34.76255219270084,0 33.17477478900916,34.762575766593,0 33.17420486271472,34.76311414569467,0 33.17413846728455,34.76317530838939,0 33.17400761916531,34.76313352879482,0 33.17284610848075,34.76253480410153,0 33.17299599002366,34.76224243196291,0 33.17209276934989,34.76246039802729,0 33.17203132880898,34.7622830167429,0 33.17198147579206,34.76212344546671,0 33.17190148032169,34.7619376318935,0 33.17223015384387,34.76183718721079,0 33.17234183305373,34.76165717040272,0 33.17242607634654,34.76150155074604,0 33.17255488444801,34.76112202042843,0 33.17203439689537,34.76094168649566,0 33.1720477514955,34.76085055955456,0 33.17212066200811,34.76035294134747,0 33.17214298176006,34.76020060955753,0 33.17211039114839,34.75997980999475,0 33.17208854710985,34.75983181895815,0 33.1720204941254,34.75950987310978,0 33.17203619942948,34.75940572030299,0 33.17205047703573,34.75915201059087,0 33.17205764097407,34.75907124927041,0 33.17206204594842,34.75897793717983,0 33.17208388209867,34.75866055278285,0 33.17223036402123,34.75834003624151,0 33.17237895432612,34.75800075258126,0 33.17250079178003,34.75772255457105,0 33.17254628292177,34.75767796057392,0 33.17263354881792,34.75759281364464,0 33.17283581324539,34.75739545979682,0 33.17276782111056,34.75730713270988,0 33.17251195161978,34.75697473492904,0 33.17209162194894,34.75667576908351,0 33.17167023206845,34.75637604603357,0 33.1714387173071,34.75657267472094,0 33.17111240133613,34.75689191164259,0 33.17107593950789,34.75689938821968,0 33.17095971590519,34.75692369351346,0 33.17084520041811,34.75727513892091,0 33.17060319510286,34.75757943158212,0 33.17026579870894,34.75771627976996,0 33.17042271858413,34.75787063676254,0 33.17041813948299,34.75788379280588,0 33.16965890509913,34.75824199260048,0 33.16960878020726,34.75824569261532,0 33.16949490555054,34.75822863503646,0 33.16943539339968,34.75838837408638,0 33.16942569373733,34.75872302399178,0 33.16941655576945,34.75873805326754,0 33.16939603553004,34.7587474299806,0 33.16935959229632,34.75874362601689,0 33.16933684027768,34.75872667680875,0 33.16919657665834,34.75816999419438,0 33.16914208747556,34.7580646420382,0 33.16900028187307,34.75763610599724,0 33.16939503379139,34.75730921450455,0 33.16966111839931,34.75693759918984,0 33.16977137750981,34.75679586899414,0 33.17031171066561,34.75632004721204,0 33.17047054109612,34.75617333636156,0 33.17050955989146,34.75613729443585,0 33.17075281593665,34.75579087748354,0 33.17085943469594,34.75573409713802,0 33.17151083473459,34.75551609836565,0 33.17195743031991,34.75530073288214,0 33.17192678553139,34.75525343582262,0 33.17171134500069,34.75495474164294,0 33.17201274208482,34.75490122282589,0 33.17219819129745,34.75460357889932,0 33.17178649980325,34.75428862391983,0 33.17194261543857,34.75425646385907,0 33.17243730499504,34.75430339770794,0 33.17290156962739,34.75407663806551,0 33.17304383445082,34.75372167328766,0 33.17305561063945,34.75369228057318,0 33.17332168254325,34.75302788707602,0 33.17358927162116,34.75296532300947,0 33.17371125335946,34.75295863690398,0 33.17373335124376,34.75293476438197,0 33.17390904365555,34.75274109294548,0 33.17424396298745,34.75256320352548,0 33.17443190995586,34.75237983374426,0 33.17454795912066,34.7524188865343,0 33.17462941079772,34.75244091060598,0 33.17464698939733,34.75256625370642,0 33.17471471012009,34.752545800627,0 33.17500920664861,34.75246421903092,0 33.17555666302258,34.75207830429562,0 33.1757076601189,34.75192119404183,0 33.17572802721102,34.7519051032814,0 33.17599764173597,34.75174392261884,0 33.17602407737063,34.75172956556721,0 33.17602692141686,34.75169814996346,0 33.17603481172116,34.75146253207282,0 33.17603582837381,34.75143156353041,0 33.17604017216883,34.75129677403844,0 33.1760728677099,34.75114740475318,0 33.17607953641151,34.75111694818157,0 33.17614901619042,34.75079967046626,0 33.17650619785507,34.75076652124051,0 33.17652554231645,34.75072840005707,0 33.17652857672076,34.75072239100996,0 33.1765430103899,34.75069387121832,0 33.17660509927131,34.7505714787326,0 33.17622621333253,34.75010162943317,0 33.17575221871981,34.74994558500772,0 33.17571744586247,34.74993411177353,0 33.17551468092588,34.7498670540033,0 33.17568648411318,34.74925132289665,0 33.17638296155445,34.74924592426329,0 33.17661517302833,34.74932139362674,0 33.17705278837194,34.7491639603123,0 33.1772147268922,34.74903629476209,0 33.17738593769629,34.74881275382681,0 33.17722043841498,34.74834065564326,0 33.17699768214765,34.74805650460878,0 33.17715518484087,34.74785739012116,0 33.17719394393893,34.74783487195836,0 33.17731700248443,34.74780116831302,0 33.17733105202784,34.74757181000715,0 33.17736322346347,34.74740075453272,0 33.17742506970094,34.74719213057394,0 33.17753493542043,34.74687263402944,0 33.17753969635882,34.74671302286563,0 33.17754532399351,34.74656188509858,0 33.17757362881257,34.74646447488558,0 33.17689403476063,34.74600199223647,0 33.17680028982331,34.74593302931822,0 33.17673974616161,34.74573620944614,0 33.17652357874634,34.7457879091133,0 33.17610782795595,34.74555060733435,0 33.17605205075329,34.74547304935611,0 33.17604627609502,34.74546501934557,0 33.17589712870799,34.74527764911836,0 33.17585288259355,34.74522235047752,0 33.17617504980821,34.74499453286386,0 33.17644058249717,34.74477978835564,0 33.1764018134001,34.74473846098459,0 33.17593186679716,34.74434536661256,0 33.17595501099215,34.7442126853782,0 33.17574693403754,34.74396116618584,0 33.1756774769005,34.74362120419275,0 33.17488394384204,34.74316450128986,0 33.17539451330338,34.74274379182386,0 33.17538336782155,34.74253824145087,0 33.17530723932134,34.74252688892307,0 33.17542115134386,34.74193370257942,0 33.17535434129994,34.7419401090381,0 33.17470684471274,34.74208320773926,0 33.17442561844771,34.74197152085373,0 33.17429675827188,34.74162336395146,0 33.17396355080324,34.74124018763892,0 33.17385704920171,34.74098485820453,0 33.17374441338865,34.7410264890238,0 33.1732607741748,34.74079856100523,0 33.17299113640924,34.74049663973929,0 33.17303522566409,34.74024782591642,0 33.17269181957848,34.74029846629832,0 33.17277657617879,34.74010368100404,0 33.17261351876819,34.74001068806837,0 33.17251819028464,34.73980641227917,0 33.17213561224108,34.73972708192582,0 33.17218679316224,34.73942089450966,0 33.17231062723499,34.73941175972582,0 33.17231069888351,34.73936999834238,0 33.17183653025632,34.73917583270011,0 33.17190995922519,34.73902279548833,0 33.17203368167061,34.73907862254127,0 33.17219753431597,34.73870760567412,0 33.17162388029853,34.73847028599995,0 33.17137076339198,34.73838646533697,0 33.17115150254209,34.73825164304455,0 33.17100474226111,34.73782623033316,0 33.17125263252741,34.73767803990852,0 33.17102234319003,34.73741328119208,0 33.17060059980975,34.73720861699404,0 33.17010586577359,34.73690642183924,0 33.1701669027199,34.73665690372061,0 33.17004331479344,34.73652683343914,0 33.17006061209089,34.73629020787488,0 33.17005553548218,34.73597467487687,0 33.17042166247748,34.73579414495734,0 33.17061349436988,34.73551596620088,0 33.17054471433983,34.73537969506354,0 33.17000977703246,34.73554610343979,0 33.16970043988395,34.7354343716928,0 33.16926109371327,34.73564729262986,0 33.16905294401052,34.73560064145524,0 33.16903034335841,34.73565165612621,0 33.16912593544486,34.73569817159607,0 33.16897358330172,34.73592535501887,0 33.16869750635486,34.73610134773916,0 33.16830375944819,34.73598487132885,0 33.16779730782901,34.73595177949328,0 33.16719523168918,34.73589072896794,0 33.16686541119846,34.7359538385226,0 33.16669126237112,34.73577730219928,0 33.16659605344979,34.73551734059098,0 33.16669781902547,34.73525761792199,0 33.16670372054261,34.73510450124943,0 33.16667602934138,34.73485390092882,0 33.16650731911195,34.73478409405665,0 33.16645139046879,34.73458914100683,0 33.16656004514145,34.73401129781164,0 33.16668971507688,34.73388153196598,0 33.16672328293426,34.73399293609744,0 33.16699341442096,34.73399326470778,0 33.16748931538277,34.73362265638288,0 33.16749529050884,34.73342777910691,0 33.16836950734331,34.73312931630004,0 33.16886578220277,34.73254061817364,0 33.16924820165203,34.73268955958139,0 33.16968189379305,34.73232721310761,0 33.17005368135662,34.73227511816026,0 33.17010299089566,34.73219876452218,0 33.17017717980672,34.73208388619704,0 33.17008303970124,34.73186597728118,0 33.16972336370356,34.73177178980482,0 33.16963902418048,34.73143900471658,0 33.16976170076759,34.73122084838845,0 33.16948757286445,34.73112678705306,0 33.16944010153914,34.73088767236745,0 33.16946832335281,34.73085504058365,0 33.16909032840763,34.73050270475887,0 33.16939096460388,34.73025643007469,0 33.16872213497879,34.73001094322927,0 33.16875042468768,34.72986774030297,0 33.16832948313958,34.72972935166526,0 33.16811764595224,34.72950301904263,0 33.16820327633845,34.7293898406678,0 33.16807453045429,34.72900699409873,0 33.16881251661021,34.72858549162523,0 33.16849275197254,34.72827832132494,0 33.16846659696026,34.72810828492374,0 33.16828093646122,34.72795492883982,0 33.16781145609502,34.72751402975584,0 33.16771841151748,34.72690952130717,0 33.16776621457642,34.72651495087347,0 33.16774981032997,34.7263835692783,0 33.16762441292453,34.72624550727793,0 33.16749907314318,34.72598369523097,0 33.16713253171849,34.72568070431615,0 33.16696043671126,34.72554584638135,0 33.16677083221776,34.7254098763211,0 33.1665053654643,34.72526836738486,0 33.16631576561669,34.72511767293263,0 33.16612617087171,34.72494244022683,0 33.16609893364289,34.72495713162183,0 33.16563997636321,34.72464092219778,0 33.16570613384341,34.7245581117589,0 33.16554277699984,34.72443142703305,0 33.16540275634218,34.72431948906477,0 33.16514409688428,34.72414471093996,0 33.16491469093641,34.7235658449025,0 33.16486621643081,34.72355173042266,0 33.16492120551088,34.72333639359915,0 33.16498281068147,34.72338374722705,0 33.16507616610355,34.72346238291075,0 33.16514617384245,34.72355735592218,0 33.16520645461429,34.72365395390672,0 33.16533384259095,34.72375934567284,0 33.16552639577968,34.72386480473571,0 33.16581620986997,34.72398672627079,0 33.16607685540266,34.72408298423257,0 33.1662811180243,34.72409028965635,0 33.16719940998323,34.72408634375402,0 33.16704855482546,34.72423998499999,0 33.1671817776062,34.7243508369236,0 33.16722846156104,34.72437051949932,0 33.16730725949706,34.72436678560777,0 33.16759722039851,34.7242487437275,0 33.16774421455307,34.72407545692815,0 33.16747192929298,34.72383409305779,0 33.16710342371069,34.72336843026939,0 33.16688449051576,34.7234549440394,0 33.16642355848237,34.72295643815007,0 33.16614340525107,34.72288579117033,0 33.16620472289966,34.7228012922802,0 33.16603455268668,34.72257472130276,0 33.16595577299645,34.72250972192388,0 33.16566980833245,34.72235177729767,0 33.16560078860533,34.72216729827318,0 33.16609891900938,34.72210228690081,0 33.16614855154673,34.72205922641313,0 33.1660104710822,34.72183646988816,0 33.16578283562295,34.721754411822,0 33.16607482912096,34.72140159962858,0 33.16622762740571,34.72129313033832,0 33.1672444916783,34.72129401309218,0 33.16730880474922,34.72111286041677,0 33.16722522788121,34.72086716373543,0 33.16706371922333,34.72078078397086,0 33.16696838112245,34.72070701320746,0 33.16677872636949,34.72043664681548,0 33.16700605584015,34.72003334395138,0 33.16713497431394,34.72007625825076,0 33.16719138265105,34.71986223088263,0 33.16726461063026,34.71989600394351,0 33.16753915149295,34.71976681231184,0 33.16763365677894,34.71958887851111,0 33.16768535584364,34.71937649985432,0 33.16779645494268,34.71913247716405,0 33.16817327829834,34.71897819143852,0 33.16843121491091,34.71905975066047,0 33.1688821413688,34.71880828114393,0 33.16892099575406,34.71844678801461,0 33.1687647052367,34.71823083246002,0 33.16908242214734,34.71779945303609,0 33.16957014745685,34.71799534853972,0 33.16962397040506,34.71769251901215,0 33.16965482281357,34.71746994673151,0 33.16953029108019,34.71718286619368,0 33.16930453466171,34.71665866956599,0 33.16910528503048,34.71621172581639,0 33.16906950856329,34.71612564553062,0 33.16897458628016,34.715960951749,0 33.16893233190854,34.71584111949264,0 33.16856114938555,34.71589402874467,0 33.16839017591795,34.71567934866882,0 33.16833987392317,34.71549356593999,0 33.16829916367983,34.71534751299706,0 33.16817292949629,34.71484489297471,0 33.16770957649195,34.71485717501,0 33.16706178614972,34.71492472316218,0 33.16709302757527,34.71463428018274,0 33.16752209717009,34.71450212520435,0 33.16755313555814,34.71420498715734,0 33.16747082374172,34.71406381937366,0 33.16692324552116,34.71404168337391,0 33.16637133437551,34.71247931573794,0 33.16653263242797,34.7124592468384,0 33.16655487602739,34.71235500026164,0 33.16688864058295,34.71238124149149,0 33.16670846446208,34.71169241660545,0 33.16675802152627,34.71168516317926,0 33.16664604483568,34.71132440042734,0 33.16660117852989,34.71135816682609,0 33.16659005661374,34.71133201597696,0 33.16656998234231,34.7112848163316,0 33.16655341227404,34.71124521128127,0 33.16653195117378,34.71122174831719,0 33.16579531441182,34.71066381464698,0 33.16549748680815,34.71044412299461,0 33.16458555623893,34.70977142748577,0 33.16457574195343,34.70978114506435,0 33.16439511532548,34.70995998989393,0 33.16436094349257,34.70997929950047,0 33.16432677708112,34.70998811057282,0 33.16429554903516,34.70998239409376,0 33.16428030474972,34.70997605477784,0 33.16426822884691,34.70997103274343,0 33.16424676855907,34.70995080113867,0 33.16423702647693,34.70992251893567,0 33.16423704845425,34.70988779699329,0 33.16425366115983,34.70985633854514,0 33.16545196381336,34.70872098915711,0 33.16550665025718,34.70867829970119,0 33.16553790432234,34.70864686806162,0 33.16558283611971,34.70859608310008,0 33.16562384978504,34.70856709377984,0 33.165682431581,34.70853894687231,0 33.16575858544692,34.70850760556417,0 33.1658484001934,34.70848517287329,0 33.16592064046837,34.70847078172188,0 33.16766323394047,34.70824004599746,0 33.1676974019128,34.70824011346604,0 33.16772179967773,34.70825469902573,0 33.16774228773082,34.70827492955895,0 33.1677511249641,34.70829357872369,0 33.16775301278597,34.70829756332656,0 33.16775299174927,34.70833148386836,0 33.16773149729617,34.70836051464848,0 33.16770415622182,34.70837176656729,0 33.16598986343636,34.70860174405291,0 33.16591371657615,34.70861855109514,0 33.16584440502321,34.70863294727093,0 33.16577899249918,34.70865542699285,0 33.16573407526887,34.70868117908676,0 33.16567939186217,34.70871821642372,0 33.16564130126383,34.70875528707263,0 33.16490084145255,34.70948967050857,0 33.16489632331118,34.70949415151929,0 33.16542866027616,34.70989581183881,0 33.16545660691906,34.70991689893728,0 33.16555261306475,34.70998933685345,0 33.1655851548722,34.71001389014025,0 33.16557804351726,34.71002137749564,0 33.16590145627106,34.71026639698712,0 33.1659260938937,34.71028506172505,0 33.1662839917561,34.71055620469109,0 33.16630568853961,34.71057264132539,0 33.16649871103879,34.71071887375872,0 33.16655175878131,34.71075906269848,0 33.167433778715,34.70991292888893,0 33.16748253901937,34.70999620906683,0 33.16764461418823,34.70996019873994,0 33.16762465222909,34.70989196240532,0 33.16749166641784,34.70943737449814,0 33.16750355645919,34.70943515856758,0 33.16753498606207,34.70942930177965,0 33.16751748490334,34.70936378627963,0 33.16743917384255,34.70907062142834,0 33.16743528243413,34.70904800168437,0 33.16743529746458,34.70902458057451,0 33.16744214170776,34.70900763525484,0 33.16745289353692,34.70898504406772,0 33.16746555847645,34.70897898771563,0 33.16748316484367,34.70897056812811,0 33.16750757226431,34.70896819436223,0 33.16753880612171,34.7089763322609,0 33.16754730502466,34.70898363510186,0 33.16756612465912,34.70899980863722,0 33.16758368062851,34.70902810867757,0 33.16783497348437,34.70997593056629,0 33.16783549686583,34.70997941222303,0 33.167839756898,34.71000772602711,0 33.16784177958442,34.71002116956359,0 33.16784175858469,34.71005508919423,0 33.16783783053305,34.71009223065033,0 33.16781730716167,34.71012933817044,0 33.1677899489264,34.71016643166065,0 33.16733691153431,34.71063606319723,0 33.16735362978755,34.71067540471194,0 33.16739894598476,34.71072494132375,0 33.16745371118753,34.71077751190045,0 33.16754663202288,34.71086090442552,0 33.16766524105903,34.71093680728162,0 33.16777480804195,34.71100944382655,0 33.16792851662623,34.71107617702052,0 33.16805484469944,34.71113604974104,0 33.16816312754256,34.7111796306363,0 33.16828731117274,34.71123159117118,0 33.16839523599615,34.71127076416753,0 33.16849969426936,34.71130155819503,0 33.16865211229675,34.71134450968694,0 33.16880058137502,34.71138342787491,0 33.1688173918889,34.71138770549658,0 33.1691557930797,34.7113341684724,0 33.16952030712929,34.71123281449419,0 33.16997728991088,34.71118287739657,0 33.17014035855752,34.71117029156228,0 33.17048216856869,34.71107003825416,0 33.17070969047049,34.71105677460572,0 33.17117258943727,34.7109729168623,0 33.17203689513791,34.71083333306272,0 33.17229767450765,34.71076843830342,0 33.17272350538757,34.71070145120485,0 33.1730516735516,34.71065526664766,0 33.17350685400035,34.71054148220995,0 33.17442697511495,34.71040035150416,0 33.17450115188151,34.71038895258849,0 33.17453032342275,34.71038447016917,0 33.17517425182297,34.71028551673375,0 33.17568225964471,34.71014838759304,0 33.17635046687359,34.71005276623456,0 33.17739683629001,34.70984154299339,0 33.17786972249772,34.709760868025,0 33.17816088746595,34.7097097286766,0 33.17870608742333,34.70964857601337,0 33.17914969137572,34.70959530313056,0 33.17940349435377,34.70956981477148,0 33.17955226479786,34.70955487374236,0 33.17976724493047,34.70951650573792,0 33.18060966914067,34.70924664007511,0 33.1807943756154,34.70920416926806,0 33.18171010132829,34.70903137555737,0 33.18261221507261,34.70884076249347,0 33.18305794509229,34.7086912971055,0 33.18322409474988,34.70868352642444,0 33.18351047482371,34.70864931289334,0 33.18377927398905,34.70860375136358,0 33.18427881205482,34.70842608801115,0 33.18517735274193,34.70826256224482,0 33.18532575442725,34.70823406383669,0 33.18569135055481,34.70821129684243,0 33.18601171762747,34.70808823447697,0 33.18602278834292,34.70808556725579,0 33.18606779346503,34.70807472597878,0 33.18625390539032,34.70799789334536,0 33.1862873994036,34.70798904740614,0 33.18638888761362,34.70796969360931,0 33.1864440674238,34.70795973990216,0 33.18654660679307,34.70796470060988,0 33.18665705735182,34.70797850064412,0 33.18674975511907,34.70798898784182,0 33.18680595684472,34.7079917440291,0 33.18705465275561,34.70799353054822,0 33.18711157959763,34.70799446631552,0 33.18718252188917,34.70797898369497,0 33.18730473114011,34.70796404695809,0 33.1874663152567,34.70792644697837,0 33.18759637561575,34.7078971410636,0 33.1878702711421,34.7078269191876,0 33.18812344757875,34.70775006682362,0 33.18831754083855,34.70769919636945,0 33.18836288075995,34.70769421508369,0 33.18855602432712,34.70765550023404,0 33.18875312973012,34.70762231126113,0 33.18889799286305,34.70759410335636,0 33.18903004176715,34.70756700323258,0 33.18926556110736,34.70751722628776,0 33.18946953380282,34.70746800637244,0 33.18963510489339,34.70743813463231,0 33.1897317108179,34.70742872255087,0 33.18998898319211,34.7073971759156,0 33.19026006408311,34.70736507350766,0 33.19049465930953,34.7073313183538,0 33.19071445719338,34.70730121162004,0 33.19082192200054,34.7072864909528,0 33.19100133652811,34.70726490272104,0 33.19124483158581,34.7072361163991,0 33.19143808312853,34.70722447245651,0 33.19153077535587,34.70722224350121,0 33.19181666600075,34.70718681587467,0 33.19190832742387,34.70716745221667,0 33.19211724459291,34.70711103536954,0 33.19243851924107,34.70702806377062,0 33.19248978796138,34.70702252619735,0 33.19272930455973,34.70697328433857,0 33.1927745579172,34.70696515451777,0 33.19290181132226,34.7069422946935,0 33.193020986689,34.70688368171989,0 33.19318737975885,34.70677973368743,0 33.19326811203523,34.70672831203842,0 33.19336462055831,34.70667522823315,0 33.19352310832802,34.706564646649,0 33.19361069680099,34.70649553515877,0 33.19373279683924,34.70642254560799,0 33.19385489021543,34.70634679203845,0 33.19405576159343,34.70622513988479,0 33.19423399653007,34.70612007537032,0 33.19436596347096,34.70604707937076,0 33.194422079334,34.70600892528557,0 33.19458956170749,34.70593812965345,0 33.19468511417874,34.7058933317348,0 33.19482505283833,34.70584852137964,0 33.19500250599758,34.70581530864475,0 33.19514253600721,34.70580255765359,0 33.19533386631198,34.70579255489419,0 33.19547000265094,34.70579749300133,0 33.19563279921636,34.70581182023715,0 33.19620361579317,34.70712229488964,0 33.19569491054477,34.70723020300863,0 33.1953055016396,34.70731154716466,0 33.19515859389753,34.70733534875711,0 33.19498105071749,34.707337598181,0 33.19484292206956,34.70732436288777,0 33.1947175926197,34.70730228069642,0 33.19457644121873,34.70726472467341,0 33.19442730800875,34.70719400713792,0 33.19430283448148,34.70712328255289,0 33.19368858113003,34.70720356365455,0 33.19363437215046,34.70721684101443,0 33.19358217353191,34.70724448728783,0 33.19324250112584,34.7074612250046,0 33.19311200530701,34.70770831557345,0 33.19301892135014,34.70793218257512,0 33.19319991674764,34.70811786260383,0 33.19323159047813,34.70815931063051,0 33.19326635273895,34.70824829184563,0 33.19358712277128,34.70941116055038,0 33.19344521424618,34.70945484575982,0 33.19342260265612,34.70948137944563,0 33.1934167687364,34.70951177904136,0 33.19346935850569,34.70998766144093,0 33.1935344544619,34.70998765272038,0 33.19355926920139,34.71004458075451,0 33.19358990924907,34.71006834438966,0 33.19402832520461,34.71024571608764,0 33.19454165380678,34.71004003781277,0 33.1948464565807,34.71040204419027,0 33.19509588215337,34.71071099865468,0 33.19508805230956,34.71073310890439,0 33.19484746679125,34.71076906222807,0 33.19478240261608,34.710782888418,0 33.19398226857506,34.71107480662012,0 33.19397872897739,34.71122238364985,0 33.19384864254585,34.71126329470911,0 33.19388174529448,34.71146503499313,0 33.19405668345929,34.71267271591632,0 33.1939521989997,34.71269814414074,0 33.19395271566709,34.71324588480034,0 33.19416585628584,34.71327683441606,0 33.19406564789,34.71414238781566,0 33.19421668529458,34.71418605408972,0 33.19441324069845,34.71428167762132,0 33.19459894052318,34.71437398544231,0 33.19475703923199,34.71447237243207,0 33.19532930469749,34.71487587949773,0 33.19540599533643,34.71478357505977,0 33.19537520831337,34.71470895398803,0 33.19542515047068,34.71457519331858,0 33.19572557979413,34.71441269013634,0 33.19577406907974,34.71446741251,0 33.19603322250948,34.71435962912052,0 33.19629707713722,34.71426197191531,0 33.19642999331787,34.71458946046488,0 33.19695807156555,34.71459864492217,0 33.19719839577465,34.71458538323054,0 33.19739227058406,34.71456548849741,0 33.19747965903741,34.71455885721935,0 33.1979055661875,34.71448539692893,0 33.19790091938136,34.71445172831614,0 33.19801466825118,34.71442826218158,0 33.1981348514712,34.71442672992656,0 33.19828230203316,34.71440683263699,0 33.19837880417088,34.71440173009825,0 33.1984242920725,34.71438795550945,0 33.19851604138625,34.71431041318061,0 33.19854513935041,34.71429612887553,0 33.19902029908582,34.71424204262023,0 33.19927056872966,34.71419204198031,0 33.19945180109752,34.71420070874719,0 33.199601889351,34.71414254631637,0 33.19975841099123,34.71410581007569,0 33.19983767687116,34.7141211114345,0 33.19984413926939,34.7141522312488,0 33.19979997396705,34.71431497548094,0 33.19976746113313,34.71441088644713,0 33.19974932783356,34.71443945576797,0 33.19965215233259,34.71453230673552,0 33.19954593224306,34.71464760548083,0 33.19942155155631,34.71478075769166,0 33.19939709147798,34.71482565118848,0 33.19938082697781,34.71487105502242,0 33.19937911923693,34.71491186819523,0 33.19938654141584,34.71496084274632,0 33.19944710356329,34.71512613243172,0 33.19948024446251,34.71525469247799,0 33.19949407870665,34.71531744087464,0 33.19949049206596,34.7156628155028,0 33.19949868292767,34.71598727389126,0 33.19951522715959,34.71604237158645,0 33.19959312572511,34.71621939693875,0 33.19969121816148,34.71645356205743,0 33.19980478118072,34.71668415804639,0 33.19990181202954,34.71686322878634,0 33.19994468984332,34.71689128964382,0 33.20051842348366,34.71722037784208,0 33.20061786209989,34.71728211525628,0 33.20065257462396,34.71731986927064,0 33.2006674246467,34.71741935426684,0 33.20067034013993,34.71748465541624,0 33.20064953912175,34.71753618062733,0 33.20047643384493,34.71772199040853,0 33.19993039878789,34.71808782263265,0 33.19930131563051,34.71863937527777,0 33.19928789848234,34.71888443963323,0 33.19928384730809,34.71920995998605,0 33.19920683879334,34.71964260295454,0 33.19869373842081,34.72062902897184,0 33.19801238173989,34.72135850333912,0 33.19790294173818,34.72150901799778,0 33.19820044877207,34.72217277524301,0 33.19820819151905,34.72236111884729,0 33.19824780621107,34.72257817190107,0 33.1980523243106,34.72261820398627,0 33.1976851756077,34.72298676392055,0 33.19755727124479,34.72317626600227,0 33.1973185170488,34.72357218430184,0 33.1964930456199,34.72415254797396,0 33.19613069495647,34.72419886960233,0 33.19569825643067,34.72420329799691,0 33.19513464152601,34.72371508399269,0 33.19470342298599,34.72354492965214,0 33.19446009587063,34.72359258492246,0 33.1942504889024,34.72376414490405,0 33.19412312204903,34.72393990325308,0 33.19409919379323,34.72423573890667,0 33.19404131099052,34.72445943463259,0 33.19384671987649,34.72464577567855,0 33.19361428390214,34.72472735667114,0 33.19351030431736,34.72478530591908,0 33.19334485502835,34.72494691679401,0 33.19349120345537,34.72515542995831,0 33.19361322496015,34.72575865556684,0 33.19312644468651,34.72580929106453,0 33.19281889870832,34.72583090590435,0 33.19236027391148,34.72595868188276,0 33.19302876409068,34.72701600248625,0 33.19337320086932,34.72750773009398,0 33.19377171999831,34.72751541288621,0 33.19385969938406,34.72763059844708,0 33.19443978042727,34.72750977168211,0 33.19491491044203,34.72742084174908,0 33.19511633195478,34.72741244847777,0 33.19561348601159,34.72742643344739,0 33.19552574803981,34.72785338359549,0 33.19580533717531,34.72793017038372,0 33.1957373048133,34.72816806676419,0 33.19534409155359,34.72835503467157,0 33.19510821772411,34.72900567381119,0 33.19465775661296,34.72900927372773,0 33.19457020449748,34.72918749558835,0 33.19446050447189,34.72924148559332,0 33.1945896390278,34.72944367572254,0 33.19600368251599,34.72990277292481,0 33.19591450981546,34.7301166423057,0 33.19641109761031,34.73034409210094,0 33.19555422326894,34.73138849945926,0 33.19528039924515,34.73155972688527,0 33.19503289515097,34.73181556642859,0 33.19522807246793,34.73185211112229,0 33.19528173420843,34.73196202469612,0 33.19538804355495,34.73217807534894,0 33.19448868661922,34.73227338783651,0 33.19437240061872,34.73233033064192,0 33.19429478162878,34.73261469389401,0 33.19435100815868,34.73286057818613,0 33.19446646170903,34.73287773542686,0 33.19452981210541,34.7330534138102,0 33.19447118708827,34.73324016493486,0 33.19458341567115,34.73336918108976,0 33.19422215968039,34.73347911714501,0 33.19407656013729,34.7334980978926,0 33.19387329056931,34.73358186305711,0 33.19380047413351,34.7337000393942,0 33.19327305167826,34.73368500796573,0 33.1934111999936,34.7340277729776,0 33.19260189250676,34.73382281796061,0 33.19259355535657,34.73457214297323,0 33.1928598313952,34.73471563345625,0 33.19279133327785,34.73494657658518,0 33.1937533763311,34.73517359690702,0 33.19348398142706,34.73545673011657,0 33.19347352841564,34.73576056583343,0 33.19368669406322,34.73576349037337,0 33.19378613565605,34.7359262504582,0 33.19375313672083,34.73623402718842,0 33.1938525723939,34.73626208755268,0 33.19388954314783,34.73663808941007,0 33.19382169297513,34.73688641136145,0 33.19393952036603,34.73707688372334,0 33.19364139243872,34.73711140818061,0 33.19331789604035,34.73718536890967,0 33.19303550769033,34.73725467428017,0 33.19286974577725,34.73729184014531,0 33.19269437621116,34.73734169197994,0 33.19299645232327,34.73777468147659,0 33.19244978174492,34.73853787132382,0 33.19200818862406,34.73860010314317,0 33.19201362751075,34.73872546402141,0 33.19190111185765,34.73874624342284,0 33.19166453224327,34.73898975005941,0 33.19209702728848,34.73937553850092,0 33.19201258466494,34.73942884545913,0 33.19197299025058,34.73957969591189,0 33.19203046016562,34.74064991454488,0 33.19238192719403,34.7406874125499,0 33.19254743184982,34.74096846752315,0 33.19312707713778,34.7407415517095,0 33.1933234170649,34.74109227870875,0 33.19363561743391,34.74106009088781,0 33.19392160614013,34.74164768651862,0 33.19385913324653,34.74206083252426,0 33.19271214607802,34.74178576245054,0 33.19251448264763,34.74233341186277,0 33.19274781354842,34.74239168130078,0 33.1926406741227,34.74257728475416,0 33.19293850160583,34.74276097350975,0 33.19243147495749,34.74331759875528,0 33.19296774596754,34.74391009141311,0 33.19249819084496,34.74384462099412,0 33.19172077848549,34.74466560904821,0 33.19129304172947,34.74484160106795,0 33.19125328658729,34.74509923434651,0 33.19150634907482,34.74513199164927,0 33.19168337499322,34.74523199023426,0 33.19204876747447,34.74537628620909,0 33.19246060141353,34.74644454073516,0 33.19227775509923,34.74647453457747,0 33.19179568732606,34.74671460720518,0 33.19177470849402,34.74672826135977,0 33.191665488231,34.74679933883318,0 33.19171671459524,34.74697469659569,0 33.19178726712028,34.74713944972876,0 33.1920184597227,34.74747435875978,0 33.1920885146079,34.74797378449828,0 33.19274516258933,34.74785226462865,0 33.19232634792914,34.7481758923162,0 33.19215237980771,34.74830852521936,0 33.19224235936574,34.74839361210048,0 33.19287253831027,34.74876610743059,0 33.19347063501571,34.74907481960957,0 33.19375376287333,34.74911760009101,0 33.19383732004509,34.7491920560219,0 33.19395936779357,34.74935685837044,0 33.19395925877949,34.74943122927839,0 33.19391403221466,34.74954805523602,0 33.19385607277879,34.74957455948418,0 33.193231897518,34.74948893971649,0 33.19310959390257,34.7494994419406,0 33.19289707963474,34.74958422511518,0 33.19248517729112,34.74957849987268,0 33.19198410554779,34.74894051915817,0 33.19182994332515,34.74873849619017,0 33.19138587327457,34.74872742082225,0 33.19130159415295,34.74913638228569,0 33.19038127051764,34.74911419526816,0 33.19027182655486,34.74913533254323,0 33.19025885054931,34.74920437878058,0 33.19031588076172,34.74979941333869,0 33.19037362251092,34.74992165709034,0 33.19051504876401,34.75003335892897,0 33.19097160029936,34.75031006472322,0 33.19096500671034,34.75041630440604,0 33.19095195020721,34.75053847406272,0 33.19092564883219,34.75091030761288,0 33.1909446098044,34.75114406787515,0 33.19098303603447,34.75127160253009,0 33.19109834622317,34.75163295706577,0 33.19135509903052,34.75210069903698,0 33.19129683246455,34.75232906897264,0 33.19123208884372,34.75258399352362,0 33.19125766890737,34.7526955779126,0 33.19137339686191,34.75278069253725,0 33.19167587919517,34.75279693536131,0 33.19181096122191,34.75285019565848,0 33.19206797704769,34.75314794494114,0 33.19224806758503,34.75323312216683,0 33.19232521643745,34.75329163600736,0 33.19241517849223,34.75339265877004,0 33.19251153729266,34.75352025098496,0 33.19265902401723,34.75389225969713,0 33.19307726610783,34.75397767619059,0 33.19318655902804,34.75406278304393,0 33.19339236964051,34.75416923464493,0 33.19373320622717,34.75437144178695,0 33.19384892565834,34.75446717958161,0 33.19390656356369,34.75466379148416,0 33.19391274077098,34.7548444149317,0 33.19388034814346,34.75498781078442,0 33.19409914902297,34.75501458905418,0 33.19419562831413,34.75506249762094,0 33.1942999168283,34.75517598316761,0 33.1942248620345,34.75520987979747,0 33.19425066665323,34.75522125205654,0 33.19427003396594,34.75530180199963,0 33.19429947683693,34.75568666781049,0 33.19437646974234,34.75585649315849,0 33.19462922383568,34.75585455877606,0 33.19470248918704,34.75586454795427,0 33.19491354533504,34.75596989327794,0 33.19501979761736,34.75605409103702,0 33.19522662749485,34.75617005369547,0 33.19545609531441,34.75637980747818,0 33.19547255618742,34.75657008066423,0 33.19546673868188,34.75679899743221,0 33.19545823043392,34.75685296811581,0 33.19533552459254,34.75712804159252,0 33.1953269946523,34.75717285073802,0 33.19536557212604,34.75738140254376,0 33.19536020386057,34.75756839695762,0 33.1953429412366,34.75763874411115,0 33.19530435564389,34.75769953570678,0 33.19528916124022,34.75782581526221,0 33.19536132182449,34.75804305015563,0 33.1953210102107,34.75819334258296,0 33.19533675790468,34.75830199218621,0 33.19542229616751,34.75844409123844,0 33.19549261520126,34.75870128358636,0 33.19577010310931,34.75894375836955,0 33.19583454206465,34.75917059420329,0 33.19584604885964,34.75930822443024,0 33.19581717554598,34.75946107587291,0 33.19595260258561,34.75972491604359,0 33.19597587792655,34.7598656977482,0 33.19602761516738,34.7599679700564,0 33.1960029503122,34.76007077370426,0 33.19591346974159,34.76015955213064,0 33.19576151225932,34.76022843201584,0 33.19552054577937,34.76034928330554,0 33.19539627174679,34.76052367134189,0 33.19532523971126,34.76074716932752,0 33.19534844788879,34.76089408027575,0 33.19528797720375,34.76104713549022,0 33.19525352970481,34.76115378226508,0 33.19527661805553,34.76124192081337,0 33.19513939085721,34.76139092524648,0 33.1950619739814,34.7614774787236,0 33.19508401354214,34.76162689313303,0 33.19526144909332,34.76172956196066,0 33.19534520961097,34.76205593699762,0 33.19530166563182,34.76219400347839,0 33.19508148118084,34.7623047124494,0 33.19476537978527,34.76243148887882,0 33.19462087662949,34.76263436215702,0 33.19455595588101,34.76278765034805,0 33.19442907115661,34.76294349033382,0 33.19432396264724,34.76299897630012,0 33.19426253541925,34.76320679536334,0 33.1939571971802,34.76327730312466,0 33.19380482471413,34.76334515985068,0 33.19370227742981,34.76349162389482,0 33.1937379509867,34.76364106278677,0 33.19385346746782,34.76364395832793,0 33.19388300355187,34.76366823903911,0 33.19389560293316,34.76370802841059,0 33.19388863949025,34.76378618267346,0 33.19387620556087,34.76381716496339,0 33.19372082463252,34.7638410026058,0 33.19360652328611,34.76382063017969,0 33.19356890312345,34.76381617997914,0 33.19353228974046,34.76382139814233,0 33.19350490969251,34.76384941039573,0 33.19350032875705,34.76390622686577,0 33.19347391553591,34.76399469227443,0 33.19343794194419,34.76404897502916,0 33.1934289858068,34.76420964768488,0 33.19341088120581,34.76427997329395,0 33.19335160333383,34.76429176299518,0 33.19331381524914,34.7642701906281,0 33.19326663780394,34.76427650723604,0 33.19321337424883,34.76429195987695,0 33.19316902646594,34.76430457317117,0 33.19314340684939,34.76434798761998,0 33.19316055094014,34.76440872522254,0 33.19320551268865,34.76448659873429,0 33.19319081913198,34.7645409134515,0 33.19318291877524,34.7646636013345,0 33.19322835745901,34.76469950024168,0 33.19322064317222,34.76475528949294,0 33.19320385905738,34.76480878268984,0 33.19319057893589,34.76485558148268,0 33.19323218709249,34.76486067091609,0 33.19326937464989,34.7649234987278,0 33.19375834336356,34.76553879907568,0 33.19364151931922,34.76561702710803,0 33.1942588453653,34.76621995324452,0 33.19406987193747,34.76639619902978,0 33.19432878869353,34.76690094041628,0 33.19486807340409,34.76694590969399,0 33.19498495779723,34.76724608841126,0 33.1950365929058,34.7673787178654,0 33.19532342793371,34.76748995175975,0 33.19540321380514,34.7680160694551,0 33.19532857285911,34.76820903418849,0 33.19526390627794,34.76821176296531,0 33.19529790945762,34.76824407988067,0 33.19532042529025,34.76835078120823,0 33.19537359749069,34.76841893827001,0 33.19541624930928,34.76852210779436,0 33.19545559334318,34.76857103902478,0 33.19547477887322,34.768613878084,0 33.19546051344721,34.76869748170472,0 33.1955597611884,34.76880324215024,0 33.19559401905357,34.76885445678872,0 33.19561048771929,34.76888936102588,0 33.19561123561433,34.76891696705294,0 33.19560180589015,34.76897163234462,0 33.19560461270015,34.76900374146477,0 33.19561490995553,34.76902738735844,0 33.19563033339416,34.76911607260146,0 33.19558520679477,34.76925052040517,0 33.19558159492726,34.76932448472834,0 33.19550847543537,34.7693652264768,0 33.19549615596146,34.7694944138214,0 33.19546223300922,34.76956217607658,0 33.19541941197954,34.76960391211629,0 33.1953616874052,34.76960461684293,0 33.19589175584194,34.76978547795574,0 33.19613037965716,34.76986827786025,0 33.19625086126055,34.7697765620557,0 33.19631880999651,34.76986534462004,0 33.19666049822813,34.77003523952066,0 33.19691550496563,34.77029433795485,0 33.19746687710514,34.77017884141531,0 33.19756697699651,34.76998940932217,0 33.19754548679256,34.769922554032,0 33.19765291897596,34.76988724255678,0 33.19763417246904,34.76982569603447,0 33.19766214152825,34.76981631240389,0 33.19769397706389,34.76981853329824,0 33.19793793738639,34.76992386380981,0 33.19801209008111,34.7700246527051,0 33.19764810454141,34.77036148610237,0</coordinates>
						</LinearRing>
					</outerBoundaryIs>
				</Polygon>
			</MultiGeometry>
		</Placemark>
	</Document>
</kml>