<?xml version='1.0' encoding='UTF-8'?>
<kml xmlns="http://www.opengis.net/kml/2.2">
	<Document>
		<name>SELLADI TOU APPI</name>
		<Style id="PolyStyle70">
			<LabelStyle>
				<color>00000000</color>
				<scale>0.000000</scale>
			</LabelStyle>
			<LineStyle>
				<color>ff0055ff</color>
				<width>2.000000</width>
			</LineStyle>
			<PolyStyle>
				<color>00828282</color>
				<outline>1</outline>
			</PolyStyle>
		</Style>
		<Placemark id="ID_70440">
			<name>SELLADI TOU APPI</name>
			<snippet />
			<description>&lt;html xmlns:fo="http://www.w3.org/1999/XSL/Format" xmlns:msxsl="urn:schemas-microsoft-com:xslt"&gt;

&lt;head&gt;

&lt;META http-equiv="Content-Type" content="text/html"&gt;

&lt;meta http-equiv="content-type" content="text/html; charset=UTF-8"&gt;

&lt;/head&gt;

&lt;body style="margin:0px 0px 0px 0px;overflow:auto;background:#FFFFFF;"&gt;

&lt;table style="font-family:Arial,Verdana,Times;font-size:12px;text-align:left;width:100%;border-collapse:collapse;padding:3px 3px 3px 3px"&gt;

&lt;tr style="text-align:center;font-weight:bold;background:#9CBCE2"&gt;

&lt;td&gt;1&lt;/td&gt;

&lt;/tr&gt;

&lt;tr&gt;

&lt;td&gt;

&lt;table style="font-family:Arial,Verdana,Times;font-size:12px;text-align:left;width:100%;border-spacing:0px; padding:3px 3px 3px 3px"&gt;

&lt;tr&gt;

&lt;td&gt;DIST_CODE&lt;/td&gt;

&lt;td&gt;1&lt;/td&gt;

&lt;/tr&gt;

&lt;tr bgcolor="#D4E4F3"&gt;

&lt;td&gt;VIL_CODE&lt;/td&gt;

&lt;td&gt;458&lt;/td&gt;

&lt;/tr&gt;

&lt;tr&gt;

&lt;td&gt;VIL_CCD&lt;/td&gt;

&lt;td&gt;1458&lt;/td&gt;

&lt;/tr&gt;

&lt;tr bgcolor="#D4E4F3"&gt;

&lt;td&gt;VIL_NM_E&lt;/td&gt;

&lt;td&gt;SELLADI TOU APPI&lt;/td&gt;

&lt;/tr&gt;

&lt;tr&gt;

&lt;td&gt;VIL_NM_G&lt;/td&gt;

&lt;td&gt;ΣΕΛΛΑΔΙ ΤΟΥ ΑΠΠΗ&lt;/td&gt;

&lt;/tr&gt;

&lt;/table&gt;

&lt;/td&gt;

&lt;/tr&gt;

&lt;/table&gt;

&lt;/body&gt;&lt;script type="text/javascript"&gt;

				function changeImage(attElement, nameElement) {

				document.getElementById('imageAttachment').src = attElement;

				document.getElementById('imageName').innerHTML = nameElement;}

			&lt;/script&gt;&lt;/html&gt;

</description>
			<styleUrl>#PolyStyle70</styleUrl>
			<MultiGeometry>
				<Polygon>
					<extrude>0</extrude>
					<altitudeMode>clampToGround</altitudeMode>
					<outerBoundaryIs>
						<LinearRing>
							<coordinates> 32.61874898015216,35.17109728732012,0 32.61809019484357,35.17116803768013,0 32.61785687210133,35.17141477463047,0 32.61799271949257,35.17161937735109,0 32.61801092110774,35.17164743480424,0 32.61766637632061,35.17179569645206,0 32.61765810033668,35.17193424728953,0 32.61762807335649,35.17196202636636,0 32.61730025495789,35.17197877295671,0 32.61689367364789,35.17208241740912,0 32.61659690049169,35.17211797595192,0 32.61658430342972,35.17209810357476,0 32.61654294246644,35.17179271593778,0 32.61660158639553,35.1717359838405,0 32.6164473823905,35.17152195595155,0 32.61639115020625,35.17129684541857,0 32.6168410521222,35.17126915785841,0 32.61695270126641,35.17098561728285,0 32.6169883448331,35.17079830727581,0 32.61697167260783,35.17075744657021,0 32.61694954518156,35.17069093111311,0 32.61708151372989,35.17051931786099,0 32.61740186157343,35.17038023694242,0 32.61699428554942,35.170269570884,0 32.61682430936514,35.17007525215724,0 32.61677870053381,35.17010061287579,0 32.61648601888494,35.16999060779261,0 32.61640286972015,35.16992723418586,0 32.6162878766327,35.16977283224829,0 32.61617953906026,35.16983509908719,0 32.61576568234542,35.16988997649095,0 32.61571659099901,35.16989648568858,0 32.61557504272872,35.17002727800178,0 32.61540400520178,35.17028834629878,0 32.61511577937344,35.17032045710392,0 32.61510200400328,35.17043801122881,0 32.61500605028731,35.17054460733454,0 32.61482485407524,35.1706670177518,0 32.61479211086532,35.17068080504279,0 32.61450642892309,35.17058131780625,0 32.61440042799978,35.17053644697442,0 32.61425532889266,35.17074991054281,0 32.61414645068047,35.17070968152894,0 32.61410199951226,35.17076532911107,0 32.61410827979137,35.17102509168304,0 32.61405719437801,35.17102712563379,0 32.61392944838792,35.17103686827478,0 32.61375579071382,35.17110690838209,0 32.61348623995154,35.17111117123694,0 32.61273135650949,35.17113940586684,0 32.61271183987896,35.17109969378359,0 32.61269472189524,35.1709458546574,0 32.61297131935721,35.17078207265845,0 32.61270467051452,35.17061397547289,0 32.61250340645896,35.17059533726133,0 32.61246586910844,35.17050660277556,0 32.61227037873572,35.17047635103899,0 32.61206675927706,35.1704017927946,0 32.61202112415113,35.17026526006943,0 32.6117798796805,35.17011244965561,0 32.61184280797838,35.16988802891284,0 32.611869226411,35.16962030347984,0 32.6117378443542,35.16939359064889,0 32.61160091098255,35.16931709010107,0 32.61115101319042,35.16901631395862,0 32.61106507464576,35.16894826211575,0 32.61205951979138,35.16877118251865,0 32.61214956088821,35.16869250675467,0 32.61223038398294,35.16853108301513,0 32.61227213334992,35.16829489316543,0 32.61265780858687,35.16798149830676,0 32.61274809823914,35.16787370598252,0 32.61289621859502,35.16730852359729,0 32.61303563339687,35.16709619355167,0 32.61376714268714,35.16664736659552,0 32.61381011204448,35.16659869748507,0 32.61390087801407,35.16643500208833,0 32.61407111191147,35.1662671069117,0 32.61415166828843,35.16613596336659,0 32.61422273557779,35.16595351721895,0 32.61428772147055,35.16565340230017,0 32.61425044483841,35.16553438761407,0 32.61429150831484,35.16541189599429,0 32.61430908512357,35.16535946363909,0 32.61442183650753,35.16530553505479,0 32.61470464660398,35.16519612375747,0 32.61481538158896,35.165110187011,0 32.61488337040308,35.16493177701813,0 32.61498797195507,35.16475922524278,0 32.6151699380778,35.16465111391646,0 32.61543621761165,35.16433080719128,0 32.61574388780927,35.16399379936838,0 32.61579364436362,35.16394521865728,0 32.61590102969515,35.16384037248508,0 32.61598397365681,35.16378815160832,0 32.61614901059924,35.16378345825835,0 32.61642114877934,35.16384902068287,0 32.6165678178033,35.16384798416117,0 32.61664627779365,35.16378444422034,0 32.61665390875856,35.1636960278201,0 32.61666886344846,35.16355495335587,0 32.61666800405379,35.16338743865254,0 32.61662541552951,35.16327614903328,0 32.61663349791589,35.16313503478766,0 32.61655195469618,35.16302351820031,0 32.61649105045066,35.16291023976275,0 32.61650605591664,35.16276351911106,0 32.61656713049303,35.16258883330588,0 32.61665352399746,35.16240111766507,0 32.61668908508384,35.16226204547239,0 32.61662159861228,35.16211484922547,0 32.61651731877964,35.16198249876802,0 32.61633248413448,35.16189108968572,0 32.61612954673678,35.16177322645058,0 32.61608668649691,35.1616939299448,0 32.61610117456505,35.1616074345235,0 32.61617533889254,35.16150999232024,0 32.61634213915756,35.16129827408606,0 32.6164096533067,35.16117444210099,0 32.61636677658209,35.16109702775174,0 32.61622294963912,35.16103408737045,0 32.61593437724002,35.1610154829706,0 32.61580731989265,35.16103714901764,0 32.61568882539699,35.16105735478911,0 32.61553238326138,35.16112985356429,0 32.61534374532821,35.16121534270995,0 32.61522447786399,35.16122782780909,0 32.61513753392108,35.16121226845235,0 32.61506022290752,35.16114218258004,0 32.61501510536079,35.16105910436917,0 32.6150066168785,35.16098000773801,0 32.61512536321334,35.16076048468725,0 32.6152141005614,35.16056713832587,0 32.61521519610287,35.16043915962349,0 32.61513757675372,35.16013756695438,0 32.61513017064447,35.15993237368356,0 32.61512258360388,35.15948061610301,0 32.61514515566609,35.15925301105023,0 32.61523866454345,35.15903710607824,0 32.61527451993553,35.15886415613738,0 32.61523963047935,35.15865692042116,0 32.61523175648077,35.15850630343811,0 32.6154214646694,35.15829471769597,0 32.61557088249229,35.15797185427244,0 32.61559697448122,35.15786848635906,0 32.61560304084501,35.1576953660471,0 32.61566809823724,35.1575903396721,0 32.61571945707443,35.15747959010449,0 32.61568342600968,35.15740598125521,0 32.6155423961687,35.1572847095615,0 32.61523006816466,35.15709845739232,0 32.61494058888852,35.15691986320066,0 32.61487423897066,35.15664092299036,0 32.61487101095356,35.1564828057514,0 32.61492664388686,35.15614057849905,0 32.61483844574143,35.1560045539366,0 32.61468606284494,35.15587192358032,0 32.61450797430867,35.15579749112713,0 32.61441872807067,35.15578379884221,0 32.61433377465541,35.15580401271759,0 32.61414547155009,35.15585185699586,0 32.61394676093232,35.15577730395785,0 32.61394721292797,35.15572460697305,0 32.61397280561395,35.15567958436981,0 32.61409942183114,35.15561067833514,0 32.61416639878394,35.15554895659367,0 32.61415100799531,35.15547358136011,0 32.61403594536008,35.15526399860111,0 32.61394058519991,35.15516181067154,0 32.61381745712145,35.15509145897397,0 32.61379764486243,35.1549972375911,0 32.61374300948762,35.15495551438526,0 32.61366770421713,35.15491931752086,0 32.61343422492508,35.15489161470456,0 32.6133543553915,35.15485350924577,0 32.61325496309823,35.15468730504145,0 32.61320291186058,35.15461171980908,0 32.61310479277503,35.15456409665186,0 32.61293340519966,35.15451040371673,0 32.61292022215853,35.15444445317812,0 32.61297539016192,35.15442406942761,0 32.6131291781835,35.15439296387409,0 32.61323720250338,35.15435406458664,0 32.61331399473747,35.15421711330177,0 32.61327335198654,35.15414723880566,0 32.61316902238154,35.15402241366163,0 32.61314971008898,35.15386984895844,0 32.61306529277911,35.15382795373039,0 32.61286891175811,35.15374964752844,0 32.6127340863588,35.15370745939185,0 32.61257201112824,35.1536368800715,0 32.61252691568195,35.15355192241005,0 32.61256941985473,35.15340536118559,0 32.61269687393585,35.15323859085282,0 32.61277836205616,35.15308849177395,0 32.61278139415725,35.15300193207752,0 32.61271332226005,35.1529243691296,0 32.61258801998439,35.15284082627172,0 32.61243788615396,35.15271385381132,0 32.61225596890309,35.15255281837216,0 32.61209407475022,35.15246153567093,0 32.61190674890353,35.15239645697262,0 32.61189792403339,35.15235687985437,0 32.61190296040857,35.15230420925432,0 32.61209621938984,35.15194584352588,0 32.6122930328503,35.15197333513501,0 32.61248195923564,35.1518520920961,0 32.61264876567105,35.15163849647694,0 32.61236795802103,35.1515201750581,0 32.61181263673621,35.15135132388106,0 32.61203401577817,35.15089452902269,0 32.61218570244684,35.15051043652534,0 32.61217207088389,35.1504395799206,0 32.61229334720734,35.15040017219411,0 32.61237224397445,35.15028738202226,0 32.61231867485134,35.14991430470839,0 32.61215224720265,35.14957172102844,0 32.61210774601201,35.14942754316657,0 32.61209741958897,35.14931659389067,0 32.61214872633798,35.14909274881241,0 32.61222825194631,35.14892097227798,0 32.61231865951728,35.14880824148134,0 32.61232825327397,35.1487402751528,0 32.61225674685024,35.14869975201796,0 32.61233082129013,35.14849962699138,0 32.61242597602119,35.14848130128115,0 32.61251597431875,35.14813733855242,0 32.61266541572984,35.1478857356197,0 32.61256814793435,35.14772648546866,0 32.61282388296256,35.14732314169019,0 32.61321992553123,35.14715317944482,0 32.61333128212474,35.1469650549869,0 32.61320568414583,35.14686994772,0 32.6130479062849,35.14682420364558,0 32.6128999904934,35.1466773538827,0 32.61290367428436,35.14660186715772,0 32.61282274260162,35.1465485657483,0 32.61291149536356,35.14640842212253,0 32.6129046507067,35.14624084816353,0 32.6128911962329,35.14615346319735,0 32.61320259874987,35.14560644380001,0 32.61347446330148,35.14547822731839,0 32.61345090944072,35.14525863618576,0 32.61350408913221,35.14512915663653,0 32.61350787399363,35.14504422623207,0 32.61372317294251,35.14496901221126,0 32.61384945251784,35.14500041743202,0 32.61391106709956,35.14515887697923,0 32.61388655999008,35.14529796054403,0 32.6139519846869,35.14536913076851,0 32.6140638516481,35.14540281185271,0 32.61455444733157,35.14500212298498,0 32.61463354990754,35.1448704313225,0 32.61458319398292,35.14473563362422,0 32.61487747289668,35.14466417607263,0 32.61514108692779,35.14476952458797,0 32.61532900209726,35.144688014591,0 32.6154324983835,35.14450503898252,0 32.61567402388029,35.1442539289634,0 32.61568919442848,35.14418086094575,0 32.61566521597158,35.14400137390732,0 32.61567167736531,35.14393533532367,0 32.61575035263876,35.14384375383237,0 32.6157550733101,35.14367150950901,0 32.6158895961821,35.14353245881098,0 32.61597956087477,35.14343946710263,0 32.61619014337958,35.14339112066389,0 32.61634779782565,35.14317963500906,0 32.61648914726021,35.14314740850532,0 32.61664778783503,35.14257485090211,0 32.61669318274448,35.1424125342872,0 32.61631904158673,35.14161032741972,0 32.61647347446937,35.14143703176217,0 32.61682415345656,35.1406672862409,0 32.61637968207713,35.14003886687185,0 32.61602162246572,35.13953261333452,0 32.61594201604655,35.1394000571247,0 32.61590953161895,35.13928881510543,0 32.61580876551562,35.13894374787836,0 32.61557990027129,35.13881732809803,0 32.61542355173417,35.13863703958799,0 32.61532476529069,35.13835390533085,0 32.61504044188021,35.13830033453562,0 32.61449607282279,35.13807530910388,0 32.61431689870125,35.13760690398886,0 32.61435790470917,35.13719474826186,0 32.61435792200601,35.13719457074097,0 32.6143579289086,35.13719450315787,0 32.61461214582131,35.13688545718604,0 32.61469168196538,35.13671359754129,0 32.61462491872405,35.13640526844186,0 32.61415045973987,35.1351463378762,0 32.61402617196685,35.13475467818296,0 32.61392337287881,35.13454905935755,0 32.61332538793528,35.13410478399224,0 32.61318388500361,35.13379899812595,0 32.61313795338234,35.13351112426844,0 32.61413356788179,35.13208992473578,0 32.61416117005507,35.131937128624,0 32.61421500778299,35.13177837843092,0 32.6140716562607,35.13116570455249,0 32.61405252893577,35.13081069874621,0 32.61392267248389,35.130298972284,0 32.61389351940323,35.13019226702986,0 32.6139186097837,35.12990790424388,0 32.6138528790855,35.12971286766683,0 32.6138529317041,35.12971287774988,0 32.6138530873995,35.12971290078102,0 32.61467751713686,35.12986992400999,0 32.61478317873457,35.12990653320388,0 32.61481135989282,35.12993419845544,0 32.61487320948016,35.12995573028908,0 32.61493517806069,35.1299645779438,0 32.61498179110387,35.12995641240515,0 32.61508289209729,35.12992744339275,0 32.61514245193256,35.12991724478464,0 32.6151863213957,35.12992597714651,0 32.61524301986783,35.12994536332525,0 32.61528402911801,35.12998368049294,0 32.61532006556274,35.1300008214566,0 32.61546967424507,35.13003770474397,0 32.6155700103751,35.13003489067651,0 32.6156884004389,35.13009272329853,0 32.61575518373017,35.13013965920922,0 32.61578614613821,35.13014619698375,0 32.61581199913056,35.13014635826302,0 32.61588738352062,35.13010242671633,0 32.61593125206779,35.13011115880595,0 32.61595252573611,35.13013365399731,0 32.61595941388357,35.13014093841836,0 32.61599537024298,35.13016653587901,0 32.61615522044685,35.13021405395937,0 32.61619368378519,35.13024812526643,0 32.61627909235542,35.13023808727952,0 32.61635633365413,35.13027240209227,0 32.61647233096055,35.1303090722785,0 32.61666827358591,35.13036738640513,0 32.61694950322191,35.13042834770062,0 32.61702123475438,35.13043594245151,0 32.61715564269261,35.13043889734092,0 32.61729539412622,35.13042285388445,0 32.61737032228439,35.13042755060073,0 32.61741912615564,35.13046168571459,0 32.61760190233056,35.13054528796255,0 32.61768695542087,35.13057330594672,0 32.61773090125008,35.13057357977671,0 32.61783179793637,35.13056575201027,0 32.61786277933758,35.13057017372479,0 32.61787537066329,35.1306061973839,0 32.61792023206087,35.13065804863525,0 32.61795107634828,35.13067727001049,0 32.61798726727447,35.13067749496352,0 32.61803162457911,35.13063336963501,0 32.61804398230704,35.1306947642956,0 32.6180670903209,35.13071182313465,0 32.61811115359998,35.13069941267161,0 32.6181632658132,35.13065533516693,0 32.61820200223049,35.13065980466389,0 32.61830475684357,35.13073021952332,0 32.61842370802813,35.13072673158581,0 32.61850139585589,35.13071241581359,0 32.61851150117869,35.13073785092734,0 32.61855769879781,35.13077408305384,0 32.61888540635593,35.13083955432782,0 32.61914353429484,35.13088133358015,0 32.61933899612273,35.13092366093102,0 32.62059236457566,35.13153211714658,0 32.62216674285658,35.13644863672994,0 32.62333369460094,35.1400606814629,0 32.625330310656,35.14624001455976,0 32.625429404733,35.14625220046953,0 32.62567786680171,35.14654421051011,0 32.62604094635654,35.14705190647307,0 32.62658325328005,35.14771140232149,0 32.62626073165186,35.14771538909096,0 32.62597631018949,35.14780095389047,0 32.62579230271236,35.14810502543025,0 32.62585994809716,35.14840470535147,0 32.62596123105254,35.14860803572494,0 32.62614746903616,35.14875437667974,0 32.62615016659623,35.1488328464085,0 32.62627647961854,35.14894979060755,0 32.62628281458399,35.14901956313128,0 32.62608394933677,35.14971579885066,0 32.62606836528052,35.1498839293147,0 32.62610182670858,35.1500671716496,0 32.62652710720767,35.15072041746392,0 32.62696856015242,35.15098085388642,0 32.62703766818765,35.15103961159767,0 32.62748849792442,35.15163844845471,0 32.62718647238938,35.15169146464123,0 32.62676475568035,35.15221621280086,0 32.62653790712316,35.15250297980213,0 32.62656472252997,35.15265004093734,0 32.62645405179169,35.15288273751301,0 32.62638732957602,35.15289388130007,0 32.62633948649636,35.15316150146855,0 32.62651718176064,35.15329789824588,0 32.62682759570394,35.15349842167334,0 32.62692217754273,35.15351048160659,0 32.62702843154171,35.15380202180038,0 32.62721860562277,35.15412284515573,0 32.62729519407695,35.1541895327824,0 32.62762607209091,35.15445930394753,0 32.62754734998985,35.15464609316197,0 32.62773948973661,35.15473360101466,0 32.62786113251037,35.15486391580405,0 32.62804771274681,35.15477855841756,0 32.6283609904565,35.15505686836615,0 32.62839537792449,35.15513771931521,0 32.6283804564191,35.15524421524417,0 32.62822521816272,35.15535567736094,0 32.62843733419716,35.15557004151307,0 32.62838040327295,35.15566765781832,0 32.6283405938364,35.15581434105648,0 32.62830388156937,35.15601001216093,0 32.62829943153307,35.15612232806729,0 32.62848431826689,35.15623859953631,0 32.62880725420449,35.15620298266737,0 32.628937920275,35.15659927256012,0 32.62896846872569,35.1566597760268,0 32.62919057644557,35.15709967403164,0 32.6289634000701,35.1572633818381,0 32.62888730918195,35.15731821430143,0 32.62886559102844,35.15739874719411,0 32.62884885320199,35.15772127476929,0 32.62876270599608,35.15795699234873,0 32.62863510769947,35.15811758107976,0 32.62847819121433,35.15842779386773,0 32.62836350118492,35.15872096073268,0 32.62826269837761,35.15903148864182,0 32.62809049031386,35.15949140047063,0 32.62811758002959,35.15960677691626,0 32.62821460531939,35.15974559160234,0 32.6284859160255,35.16001214153223,0 32.62849888073456,35.16013896198243,0 32.62854623196797,35.1603466296645,0 32.62863542907138,35.16058334063499,0 32.62872597653608,35.16065874785243,0 32.62888929623064,35.16082276809585,0 32.6289331116304,35.16086937205837,0 32.62902501478995,35.16096712344236,0 32.62913544411736,35.16103221073513,0 32.62934255869197,35.16104359284368,0 32.62972448202795,35.16096521329126,0 32.62991469652656,35.16101506850469,0 32.63009005052289,35.16102513542322,0 32.6300726086866,35.16112826515776,0 32.63013031052518,35.16116602691331,0 32.63058208561678,35.16165409696625,0 32.63068755229307,35.16159683994328,0 32.63085915642722,35.16172485932447,0 32.63104804858081,35.16176789867178,0 32.63079446176304,35.16219186104733,0 32.63070636427635,35.16248403292621,0 32.63051259453292,35.16318739022636,0 32.63050877606819,35.16331328486264,0 32.6304497501178,35.16343319618701,0 32.6302668041147,35.16366924756477,0 32.63020459380329,35.16367456792673,0 32.62961491319823,35.1631573556359,0 32.62932475699798,35.16283468375084,0 32.62920249209806,35.16275344974152,0 32.6291140942698,35.16275181533437,0 32.62917399762588,35.16302100272792,0 32.62932535014488,35.16391575478858,0 32.62927767833647,35.16416391409908,0 32.62904332739485,35.16459818935229,0 32.62890042425772,35.16476017893398,0 32.62880393927337,35.16486955000653,0 32.62857873643896,35.16513189912985,0 32.62852169920495,35.16508439999794,0 32.62834314846997,35.16502233831724,0 32.62788766949632,35.16494482974065,0 32.62769485695411,35.16497148566438,0 32.62740211169365,35.16482829921315,0 32.62733587074769,35.1646697479456,0 32.62709690392551,35.16456016620381,0 32.6269621124214,35.16451777496047,0 32.6266003031926,35.16455179406187,0 32.62650078035819,35.16473437801601,0 32.62645789723503,35.16501163359045,0 32.62656486592365,35.16514821673756,0 32.62660398228339,35.16531771249855,0 32.62683871536347,35.1654838493257,0 32.62687626028724,35.16551665773503,0 32.62700849018562,35.16561989178513,0 32.62699059104228,35.16562857481496,0 32.62683920128734,35.16554280037701,0 32.62661384439268,35.16549076513099,0 32.62656285471888,35.16548228085596,0 32.62640735531313,35.16545640635766,0 32.62602101947018,35.16518777797602,0 32.62569748435467,35.1651983337752,0 32.62551778511607,35.1652749253724,0 32.62528319763589,35.16537163016721,0 32.62526437624598,35.16524488692693,0 32.62479295814347,35.16511556732023,0 32.62439362681467,35.16528486061625,0 32.62420853508846,35.16541043888603,0 32.62391627187591,35.16526988211672,0 32.62378316148593,35.16513023274362,0 32.62361969123651,35.16505168473457,0 32.62308431472549,35.16484029309235,0 32.6225943647824,35.1645515421141,0 32.62276607963725,35.16483030390496,0 32.62289355966436,35.16504753722126,0 32.62288303929623,35.16546130509565,0 32.62286875443388,35.16602304261563,0 32.6225753569292,35.16633233822567,0 32.62230689008384,35.16654510726029,0 32.62227690797106,35.16656822924792,0 32.62212410182998,35.16652309660926,0 32.62201508070936,35.16666689431031,0 32.62189049343516,35.16697366178649,0 32.62187788790861,35.1671215046492,0 32.62165557809936,35.16724368980768,0 32.62165101059282,35.16744748488458,0 32.62144351232151,35.16782948121448,0 32.62203174469008,35.16838025394146,0 32.62214312483426,35.16879435762615,0 32.62195509864809,35.16888762255822,0 32.62148767586647,35.16897579146315,0 32.62121444501162,35.16908021327009,0 32.62078283973523,35.16929320860827,0 32.62048983441475,35.16947321472845,0 32.620235166695,35.16969429795881,0 32.62000380321784,35.1700634846032,0 32.62011998214052,35.17010991753873,0 32.62008537187355,35.17024425581155,0 32.61963116275626,35.17061202057447,0 32.61950173923099,35.17081859263152,0 32.61936581717714,35.17095524628363,0 32.61918468435391,35.17107067491006,0 32.61881896064204,35.17104178416503,0 32.61874898015216,35.17109728732012,0</coordinates>
						</LinearRing>
					</outerBoundaryIs>
				</Polygon>
			</MultiGeometry>
		</Placemark>
	</Document>
</kml>