<?xml version='1.0' encoding='UTF-8'?>
<kml xmlns="http://www.opengis.net/kml/2.2">
	<Document>
		<name>SKOURIOTISSA</name>
		<Style id="PolyStyle70">
			<LabelStyle>
				<color>00000000</color>
				<scale>0.000000</scale>
			</LabelStyle>
			<LineStyle>
				<color>ff0055ff</color>
				<width>2.000000</width>
			</LineStyle>
			<PolyStyle>
				<color>00828282</color>
				<outline>1</outline>
			</PolyStyle>
		</Style>
		<Placemark id="ID_70372">
			<name>SKOURIOTISSA</name>
			<snippet />
			<description>&lt;html xmlns:fo="http://www.w3.org/1999/XSL/Format" xmlns:msxsl="urn:schemas-microsoft-com:xslt"&gt;

&lt;head&gt;

&lt;META http-equiv="Content-Type" content="text/html"&gt;

&lt;meta http-equiv="content-type" content="text/html; charset=UTF-8"&gt;

&lt;/head&gt;

&lt;body style="margin:0px 0px 0px 0px;overflow:auto;background:#FFFFFF;"&gt;

&lt;table style="font-family:Arial,Verdana,Times;font-size:12px;text-align:left;width:100%;border-collapse:collapse;padding:3px 3px 3px 3px"&gt;

&lt;tr style="text-align:center;font-weight:bold;background:#9CBCE2"&gt;

&lt;td&gt;1&lt;/td&gt;

&lt;/tr&gt;

&lt;tr&gt;

&lt;td&gt;

&lt;table style="font-family:Arial,Verdana,Times;font-size:12px;text-align:left;width:100%;border-spacing:0px; padding:3px 3px 3px 3px"&gt;

&lt;tr&gt;

&lt;td&gt;DIST_CODE&lt;/td&gt;

&lt;td&gt;1&lt;/td&gt;

&lt;/tr&gt;

&lt;tr bgcolor="#D4E4F3"&gt;

&lt;td&gt;VIL_CODE&lt;/td&gt;

&lt;td&gt;417&lt;/td&gt;

&lt;/tr&gt;

&lt;tr&gt;

&lt;td&gt;VIL_CCD&lt;/td&gt;

&lt;td&gt;1417&lt;/td&gt;

&lt;/tr&gt;

&lt;tr bgcolor="#D4E4F3"&gt;

&lt;td&gt;VIL_NM_E&lt;/td&gt;

&lt;td&gt;SKOURIOTISSA&lt;/td&gt;

&lt;/tr&gt;

&lt;tr&gt;

&lt;td&gt;VIL_NM_G&lt;/td&gt;

&lt;td&gt;ΣΚΟΥΡΙΩΤΙΣΣΑ&lt;/td&gt;

&lt;/tr&gt;

&lt;/table&gt;

&lt;/td&gt;

&lt;/tr&gt;

&lt;/table&gt;

&lt;/body&gt;&lt;script type="text/javascript"&gt;

				function changeImage(attElement, nameElement) {

				document.getElementById('imageAttachment').src = attElement;

				document.getElementById('imageName').innerHTML = nameElement;}

			&lt;/script&gt;&lt;/html&gt;

</description>
			<styleUrl>#PolyStyle70</styleUrl>
			<MultiGeometry>
				<Polygon>
					<extrude>0</extrude>
					<altitudeMode>clampToGround</altitudeMode>
					<outerBoundaryIs>
						<LinearRing>
							<coordinates> 32.8797062033895,35.09080551316659,0 32.87973273337734,35.09055543950198,0 32.87998251275179,35.09050496172567,0 32.88035970135479,35.09056934658312,0 32.88047653768161,35.09022216415197,0 32.88068736001394,35.09024550747007,0 32.8807260255843,35.09010723435591,0 32.88078786196549,35.09002614447195,0 32.88085531825496,35.08984359601661,0 32.88090341688507,35.08961866835686,0 32.8809443383049,35.08953579557733,0 32.88099783437571,35.08944523794957,0 32.88100378810772,35.08943929806528,0 32.88101996894416,35.08942315429343,0 32.88108808945971,35.08936330412242,0 32.88117527615299,35.08919950980584,0 32.88119459703465,35.08898122336473,0 32.88125900956411,35.08858064211451,0 32.88133885915153,35.08838148610563,0 32.88155412609656,35.08803851644593,0 32.88163049239127,35.08796622097074,0 32.88170922908693,35.08791473871089,0 32.88174966804578,35.08791499629555,0 32.88185963407464,35.08808412767679,0 32.88204568136565,35.08893515187231,0 32.88217710663768,35.08893596832685,0 32.88266005231136,35.08890361704407,0 32.88282160635473,35.08892749398502,0 32.88291916207764,35.08899115234068,0 32.88296509506254,35.0889290558951,0 32.8829969189183,35.08872132235672,0 32.88331858908946,35.08861105673472,0 32.8835032125137,35.08858310471769,0 32.88347974496956,35.08868483290424,0 32.88353514239562,35.08871012752525,0 32.88359038858473,35.08875621129134,0 32.88365547028982,35.08883977986279,0 32.88367689590739,35.08902287403086,0 32.88362840809736,35.08909118714993,0 32.88363573296867,35.08912657919168,0 32.88370056523781,35.08924549464694,0 32.88372365605868,35.08931406843391,0 32.88383886210327,35.08945408463244,0 32.88382253330951,35.08961824984541,0 32.88386937150543,35.08978072501903,0 32.88378532259303,35.08987586987266,0 32.88377927416037,35.09001515868276,0 32.88387824754919,35.0900379520123,0 32.88392813379852,35.09012766973685,0 32.88395828532347,35.09015072521614,0 32.88399607386697,35.09016550760548,0 32.88402885393863,35.09017402306993,0 32.88406420469472,35.09017631401561,0 32.88419607597557,35.09010432330455,0 32.88427438001348,35.09010479378357,0 32.88436059830894,35.09005748600066,0 32.88473984099198,35.0900036252291,0 32.88490875112753,35.09004622243923,0 32.88510257015472,35.09013678742768,0 32.88557237349769,35.09001262471991,0 32.88599200145011,35.08993615281158,0 32.88625167332707,35.08998552284847,0 32.88631797151073,35.089888226898,0 32.88618216907169,35.08981465769261,0 32.88604574356093,35.08983046295385,0 32.88602682386849,35.08968518950535,0 32.88614783885733,35.08934089539517,0 32.88610815488401,35.089238811737,0 32.88641990152765,35.08941945638528,0 32.88666844967574,35.08961217601293,0 32.88676443351303,35.08960028769525,0 32.88684494852254,35.08963610663123,0 32.88689496811039,35.0897029156323,0 32.88695558840491,35.08969496850678,0 32.88707924080693,35.08961127294351,0 32.88734336897048,35.08973340423633,0 32.88766933146537,35.08966264186063,0 32.88788507552029,35.08946862555004,0 32.88793275479327,35.0895063162853,0 32.88737670979996,35.09000902182768,0 32.88713514758064,35.0902798425042,0 32.8871040345829,35.09040228775856,0 32.88721284804443,35.09075785620991,0 32.88723705694949,35.09090973812713,0 32.88722909271162,35.0909678944529,0 32.88713982092447,35.09110664986616,0 32.88702144896603,35.09127396734146,0 32.88675918117086,35.09160925505731,0 32.88671347637344,35.09164849687894,0 32.88650823659666,35.09175960160908,0 32.8863978337118,35.09182936680417,0 32.88614377844032,35.0920587411299,0 32.88582013487649,35.09212137891082,0 32.88512428565308,35.09231088028083,0 32.88513856748508,35.09243576033718,0 32.88517868940207,35.09247758426958,0 32.8853904560168,35.09258206826458,0 32.88562755171518,35.09262706715901,0 32.88567221586184,35.09274171230608,0 32.88587245291108,35.09263674924063,0 32.88596598454945,35.09262271028619,0 32.88605407730011,35.09266479627475,0 32.88633455014745,35.09261573867658,0 32.88694842520107,35.09238225331854,0 32.88711915371663,35.09251836359221,0 32.88735778665329,35.09269019574768,0 32.88756141168142,35.09281192324676,0 32.88771961638857,35.0928288217208,0 32.88782798022758,35.0928522911673,0 32.88790583725996,35.09290885926865,0 32.8879684818464,35.09297573895775,0 32.88816456236665,35.09308909064622,0 32.88818188101406,35.09314116595821,0 32.88818143703824,35.09320769978705,0 32.88825870832117,35.09335158795265,0 32.88825260414848,35.09350093303116,0 32.88788366180138,35.0939502066807,0 32.88781672529084,35.09408410111748,0 32.88780372875923,35.09409460678412,0 32.88774240664976,35.09414417553931,0 32.88772789458964,35.09416254372537,0 32.88771339900254,35.09418089119237,0 32.88762635434424,35.09427477749173,0 32.88751899981707,35.09429687615474,0 32.88711547482185,35.09429729888964,0 32.88711519587769,35.09434372232175,0 32.8872865001023,35.09438264066126,0 32.88755293907916,35.09448266279568,0 32.88756841408389,35.09450191601219,0 32.88753091511926,35.09457703116617,0 32.88737051578765,35.09466938711726,0 32.88722202918316,35.09472816366866,0 32.88705242932397,35.09473406600029,0 32.88695295646683,35.09474657595658,0 32.88695674885032,35.09476419040477,0 32.88709690963463,35.09479180599372,0 32.88728386218433,35.094816357757,0 32.88740858434458,35.09481832424004,0 32.88757634404325,35.09479481420031,0 32.8877227006243,35.09476643991535,0 32.88789213714428,35.09478773934716,0 32.8879778337329,35.09479759257806,0 32.88801024590402,35.09481293663085,0 32.88805282842011,35.09485946724869,0 32.88813606111489,35.09494931762433,0 32.88823901553759,35.0950024210785,0 32.88838487276716,35.09505084865383,0 32.88853675325664,35.09507209406408,0 32.88885067172112,35.09505221672616,0 32.88899314362713,35.09502383464348,0 32.88934372172203,35.09477843253092,0 32.8892780632556,35.09468861705867,0 32.88928837113652,35.09460702151797,0 32.88924997580374,35.09452047510577,0 32.88929637761768,35.09437236027153,0 32.88925626101656,35.09425217153706,0 32.88957134815755,35.09436195270333,0 32.89065113176473,35.09473681686908,0 32.89092611550687,35.09485482249299,0 32.89222693512227,35.09530283254434,0 32.89245828438515,35.09555171084895,0 32.8925474714357,35.09580208714457,0 32.89257421094132,35.09604095559663,0 32.89262517905751,35.09623574024749,0 32.89243753000585,35.09627517750882,0 32.89230898333767,35.09629483049066,0 32.89226709950077,35.09634592053511,0 32.89224952004866,35.09639705920864,0 32.89222811184001,35.09653063231286,0 32.8922104594257,35.0965988256505,0 32.89214423549677,35.09665839703833,0 32.8920328780814,35.09671788223491,0 32.89192867163948,35.09672905525663,0 32.89167860032032,35.09674847659434,0 32.89158471991368,35.09677956895754,0 32.89149949451557,35.09685755058607,0 32.89129786655385,35.09691402289413,0 32.8912628556638,35.09698218339781,0 32.89111688879707,35.09701317729225,0 32.89100909095065,35.09704992930089,0 32.89096014209133,35.09712943498944,0 32.89071745930274,35.09703800521228,0 32.8905961361279,35.09698660359347,0 32.89040200316517,35.0969066315757,0 32.89026342779609,35.09682676272658,0 32.89018373178549,35.09678396358966,0 32.89010733037904,35.09678381774585,0 32.89003775552094,35.09681211492342,0 32.88998540353228,35.09687456239934,0 32.88994336517737,35.09696261754192,0 32.88987977106147,35.09722405070288,0 32.88987606316145,35.09728090215712,0 32.88988948405365,35.09739464111561,0 32.8898857646546,35.09745433381179,0 32.88982303047494,35.09750822999172,0 32.88976737309173,35.09753086796606,0 32.88969444450692,35.09753073132871,0 32.88957662435076,35.09746796866901,0 32.88954127566305,35.09740395958605,0 32.88954590639595,35.09712251382319,0 32.88949414980472,35.097039966638,0 32.88941903635235,35.09672423051608,0 32.88941947946281,35.09661618574565,0 32.88941731229672,35.0962977217281,0 32.88930290179859,35.09624631519978,0 32.88913283424397,35.09621470139226,0 32.8891603546771,35.09628015652795,0 32.88915661392193,35.09634555063079,0 32.88911119367933,35.09641086245154,0 32.88905542211432,35.09645909201885,0 32.88894394798306,35.09653849279702,0 32.88884629834514,35.09663497981118,0 32.88874172677817,35.0967257661671,0 32.888647895375,35.09673695850852,0 32.88856341136055,35.09676377905433,0 32.888486625056,35.09685461956735,0 32.88841000030362,35.09690565377943,0 32.88830204356348,35.09697368587235,0 32.88826023447407,35.09700488311211,0 32.88820735478679,35.09719812615949,0 32.8881892121965,35.09739143006194,0 32.88816798355512,35.09748805727563,0 32.88813642459047,35.09756191878393,0 32.88805977912316,35.09761863705866,0 32.88792746457623,35.09769799420488,0 32.88786052759683,35.09777076106702,0 32.88780115902379,35.09785025492833,0 32.88778695899509,35.09792698988232,0 32.88776900264182,35.0980747896478,0 32.8876778199352,35.09829352137177,0 32.88747959792364,35.09835001480448,0 32.88741609245152,35.09851333151198,0 32.88731844744393,35.09860980734899,0 32.88724194893168,35.09862956730876,0 32.88726587248132,35.09872910552429,0 32.88724131013814,35.09879160016411,0 32.88724439226647,35.0988910973624,0 32.88720556722911,35.09904736891763,0 32.88715323923243,35.09910412635105,0 32.88702741572732,35.09921918357448,0 32.88688808014435,35.09931842268997,0 32.88683883671147,35.09947466907158,0 32.88680040371014,35.09953144923191,0 32.88674423817201,35.09968199488271,0 32.88675045434042,35.09986959366326,0 32.88677426928029,35.09999753356062,0 32.8868500954748,35.10021847926829,0 32.88691876352994,35.10042321625647,0 32.88700108735298,35.1006876448409,0 32.88709436300767,35.1008156773223,0 32.88710805441782,35.10086684973457,0 32.88708702627147,35.10091512332311,0 32.88703474998648,35.10096050130447,0 32.88692693522584,35.10099726405994,0 32.88688505660414,35.1010483431908,0 32.88688143976724,35.10108527879494,0 32.88690115404007,35.10118076306909,0 32.88699763419407,35.10137698233637,0 32.88712529972101,35.10159028978735,0 32.88706964210352,35.10161293011013,0 32.88692044707405,35.10157575201436,0 32.88688460469774,35.10185981939793,0 32.88683578258509,35.10191088301141,0 32.88672492533592,35.10185458183865,0 32.88671476456651,35.10180750510243,0 32.88639959566324,35.10151347418047,0 32.88633630887642,35.10141003548918,0 32.88628021435273,35.10131835071548,0 32.88624970855981,35.10119158712499,0 32.88626435239448,35.1010407909659,0 32.88632223138135,35.10090010772998,0 32.88633156966368,35.10077063850591,0 32.88625931877527,35.10067930543963,0 32.88619748701522,35.10058231583078,0 32.88604566276831,35.10014488630529,0 32.88595615702897,35.10004210601819,0 32.88583870478568,35.0999847656997,0 32.88553940593707,35.09993247470744,0 32.88540764756401,35.09996189223909,0 32.88532628517136,35.0999573343891,0 32.88525205856804,35.09991295522624,0 32.8852131872188,35.09973066092214,0 32.88520859741048,35.09961537401931,0 32.88522641493122,35.09952008904012,0 32.88529620936379,35.09941929693473,0 32.88591312492341,35.09900166770861,0 32.88598985073887,35.09889947641376,0 32.8860372150834,35.09878295025054,0 32.88605509116943,35.09867628034747,0 32.88605781463436,35.09848701687548,0 32.88601346408297,35.09835878166987,0 32.88593808050548,35.09820481977796,0 32.88577643994763,35.09798935974096,0 32.88566621691649,35.09787512075716,0 32.88518363728022,35.09744363341537,0 32.88511116509505,35.09739499032559,0 32.88469121644857,35.09723838311165,0 32.88457682829996,35.09725789983231,0 32.88425815628847,35.09726957582018,0 32.8838445422987,35.09722541216779,0 32.8836145689092,35.09716339977238,0 32.88358523757498,35.09714337286546,0 32.88350988971123,35.09698371704996,0 32.8833993407579,35.09693209142905,0 32.88316058285485,35.09689424021007,0 32.88307429878066,35.09683843168009,0 32.882871536381,35.09687043985215,0 32.88280747803297,35.09686878876087,0 32.88269528061821,35.09680150245926,0 32.88250831183543,35.09679371980733,0 32.88228892506226,35.09669474279827,0 32.88201546357522,35.09667099699438,0 32.88206728649293,35.09651319286706,0 32.88206616127126,35.09650857473506,0 32.88204014731036,35.09650598310604,0 32.88193550427673,35.09663210161118,0 32.8817924632211,35.09684981572953,0 32.88172066042305,35.09701380827134,0 32.88171597907025,35.09707400006062,0 32.88163097322567,35.09720508710428,0 32.88155516475838,35.09725957829797,0 32.88150574906248,35.09739075409723,0 32.88135427936208,35.09746506357412,0 32.88124104162381,35.09759886390133,0 32.88113512562693,35.09772061940815,0 32.88112099448007,35.0978219288622,0 32.88106925782866,35.09798949313065,0 32.88097956143893,35.09820795083687,0 32.88094424322323,35.09828506627577,0 32.88074696989062,35.09832863959541,0 32.88067165787509,35.09845379425953,0 32.88065971342237,35.09851646313766,0 32.88067697336282,35.0986085927855,0 32.88062565456104,35.0986826645325,0 32.88065835389915,35.09877275956853,0 32.88063057610549,35.09898878551259,0 32.88054133790627,35.09900737759401,0 32.88031194096337,35.09902503447961,0 32.88012122277861,35.09904276343475,0 32.87999680091065,35.09906513510009,0 32.87989461494677,35.09904912488381,0 32.87981071429294,35.09900072602403,0 32.87970592966958,35.09893498754604,0 32.87962862279738,35.09891450283698,0 32.87954572086263,35.09891434838917,0 32.87946269550313,35.09895035753548,0 32.8793934887162,35.09898639299134,0 32.87931068928003,35.09895459619725,0 32.87911235145391,35.0987621011442,0 32.87890020822118,35.09856278811028,0 32.87875035704364,35.09839426436747,0 32.87862934899483,35.09821092574887,0 32.87855788740532,35.09808871276476,0 32.87846702334538,35.09798228385771,0 32.87838434612715,35.09790751800567,0 32.87826781742359,35.09781741212431,0 32.87807466982451,35.09771077381402,0 32.87792853679849,35.09759517922794,0 32.87779898428546,35.09747961199339,0 32.87773836401019,35.09741844320211,0 32.87764194987965,35.09731198012629,0 32.87755657602071,35.09721005772178,0 32.87751262609682,35.09712178213579,0 32.87747965400471,35.09705840112934,0 32.87736049067654,35.09690981163947,0 32.8772530713106,35.09678295797087,0 32.87720348532579,35.09672632156385,0 32.87710131716589,35.09668540837778,0 32.87651317460964,35.09615816025988,0 32.87653040131152,35.09595463243173,0 32.8765306277797,35.0958822537015,0 32.87651144169879,35.09582792763106,0 32.87643971528573,35.09577349033535,0 32.87634039668851,35.09569863759919,0 32.87622987451088,35.09566899904216,0 32.87614421104707,35.09564846030595,0 32.87627160650394,35.09558614227905,0 32.87632102322532,35.09552375000851,0 32.87616404500481,35.09549317069393,0 32.87600926901793,35.09546343444661,0 32.87584939758523,35.09529116765094,0 32.87573660417022,35.09509637030135,0 32.87546020440342,35.09503921655641,0 32.87580569220543,35.09477878488335,0 32.876042348183,35.09453238958049,0 32.87624551000584,35.09429637455182,0 32.87635099053888,35.09417216465216,0 32.87639181327265,35.09412218775258,0 32.87643733210535,35.09406646190337,0 32.87645901460595,35.09402871117349,0 32.87645005365787,35.09398328252922,0 32.8764442275611,35.09392525712271,0 32.87645056671727,35.09388745019373,0 32.87648458888263,35.09383713280769,0 32.87662049342437,35.09367117404287,0 32.87666053077943,35.0936435765408,0 32.87672507740957,35.09362363531214,0 32.87684793654501,35.09360138257288,0 32.87691254811153,35.09356882963526,0 32.87713428593672,35.09341831296677,0 32.87725456192236,35.09330525962366,0 32.87731934832119,35.09323992223684,0 32.87734112463001,35.0931845172556,0 32.87735369720382,35.09312907952387,0 32.8773420553137,35.09301050393057,0 32.87731208579277,35.09287673178979,0 32.8773159224712,35.09273299356727,0 32.87728592579645,35.0926042647954,0 32.87719492673664,35.09240722281485,0 32.8771859781102,35.09235927206981,0 32.87719582931693,35.09223825375098,0 32.87715381379688,35.09206219395607,0 32.87708546356033,35.09193332710176,0 32.87701093430551,35.09181200327856,0 32.87700794766391,35.09179686100656,0 32.87701416567394,35.09178175150775,0 32.87703415651358,35.09177299652053,0 32.87721842834937,35.0917421376667,0 32.87730913377546,35.09170715817937,0 32.877347670313,35.09167324992716,0 32.8773941205806,35.09159397610475,0 32.87742683777434,35.0915007813708,0 32.87742246357771,35.09145789219114,0 32.87738921089097,35.09136445768565,0 32.87734050848009,35.09129114602646,0 32.8772061406324,35.09117086689689,0 32.87713908177449,35.09108739926448,0 32.87711018143834,35.09104063888458,0 32.87710278831226,35.09098891187411,0 32.87723161779575,35.09099694237115,0 32.87726848436075,35.09098824949988,0 32.87729006494396,35.09096941286346,0 32.87734422608195,35.09088260021734,0 32.87736114294066,35.09087509503028,0 32.87737648458575,35.09087515020832,0 32.8773948663918,35.09088026088287,0 32.87750278959867,35.09106853738616,0 32.87756391300238,35.09111415296757,0 32.87761289861929,35.09113450586469,0 32.87764508274117,35.09114092666468,0 32.8778506913471,35.09113662509396,0 32.87805621709031,35.09114745332149,0 32.87827737462621,35.09110411651708,0 32.87833874138073,35.09110433765566,0 32.87873725207205,35.09117638752728,0 32.87915021610102,35.09128245362545,0 32.87918546607146,35.09122466846765,0 32.87940422623587,35.09127715201144,0 32.87947264105789,35.09132249444376,0 32.87963223017002,35.0911703528036,0 32.87964850985291,35.09112765637191,0 32.87961772736144,35.09100617652952,0 32.87972665643549,35.09096487187256,0 32.8797062033895,35.09080551316659,0</coordinates>
						</LinearRing>
					</outerBoundaryIs>
				</Polygon>
			</MultiGeometry>
		</Placemark>
	</Document>
</kml>