<?xml version='1.0' encoding='UTF-8'?>
<kml xmlns="http://www.opengis.net/kml/2.2">
	<Document>
		<name>STRONGYLOS</name>
		<Style id="PolyStyle70">
			<LabelStyle>
				<color>00000000</color>
				<scale>0.000000</scale>
			</LabelStyle>
			<LineStyle>
				<color>ff0055ff</color>
				<width>2.000000</width>
			</LineStyle>
			<PolyStyle>
				<color>00828282</color>
				<outline>1</outline>
			</PolyStyle>
		</Style>
		<Placemark id="ID_70217">
			<name>STRONGYLOS</name>
			<snippet />
			<description>&lt;html xmlns:fo="http://www.w3.org/1999/XSL/Format" xmlns:msxsl="urn:schemas-microsoft-com:xslt"&gt;

&lt;head&gt;

&lt;META http-equiv="Content-Type" content="text/html"&gt;

&lt;meta http-equiv="content-type" content="text/html; charset=UTF-8"&gt;

&lt;/head&gt;

&lt;body style="margin:0px 0px 0px 0px;overflow:auto;background:#FFFFFF;"&gt;

&lt;table style="font-family:Arial,Verdana,Times;font-size:12px;text-align:left;width:100%;border-collapse:collapse;padding:3px 3px 3px 3px"&gt;

&lt;tr style="text-align:center;font-weight:bold;background:#9CBCE2"&gt;

&lt;td&gt;3&lt;/td&gt;

&lt;/tr&gt;

&lt;tr&gt;

&lt;td&gt;

&lt;table style="font-family:Arial,Verdana,Times;font-size:12px;text-align:left;width:100%;border-spacing:0px; padding:3px 3px 3px 3px"&gt;

&lt;tr&gt;

&lt;td&gt;DIST_CODE&lt;/td&gt;

&lt;td&gt;3&lt;/td&gt;

&lt;/tr&gt;

&lt;tr bgcolor="#D4E4F3"&gt;

&lt;td&gt;VIL_CODE&lt;/td&gt;

&lt;td&gt;204&lt;/td&gt;

&lt;/tr&gt;

&lt;tr&gt;

&lt;td&gt;VIL_CCD&lt;/td&gt;

&lt;td&gt;3204&lt;/td&gt;

&lt;/tr&gt;

&lt;tr bgcolor="#D4E4F3"&gt;

&lt;td&gt;VIL_NM_E&lt;/td&gt;

&lt;td&gt;STRONGYLOS&lt;/td&gt;

&lt;/tr&gt;

&lt;tr&gt;

&lt;td&gt;VIL_NM_G&lt;/td&gt;

&lt;td&gt;ΣΤΡΟΓΓΥΛΟΣ&lt;/td&gt;

&lt;/tr&gt;

&lt;/table&gt;

&lt;/td&gt;

&lt;/tr&gt;

&lt;/table&gt;

&lt;/body&gt;&lt;script type="text/javascript"&gt;

				function changeImage(attElement, nameElement) {

				document.getElementById('imageAttachment').src = attElement;

				document.getElementById('imageName').innerHTML = nameElement;}

			&lt;/script&gt;&lt;/html&gt;

</description>
			<styleUrl>#PolyStyle70</styleUrl>
			<MultiGeometry>
				<Polygon>
					<extrude>0</extrude>
					<altitudeMode>clampToGround</altitudeMode>
					<outerBoundaryIs>
						<LinearRing>
							<coordinates> 33.66917852947488,35.17384882201615,0 33.66904331780266,35.17406182348256,0 33.66893001216204,35.17421454833965,0 33.6686529042674,35.17460433119558,0 33.66840211277982,35.17493392899377,0 33.66835166496255,35.17493534400514,0 33.66812688031203,35.17506794869661,0 33.66744273411789,35.1754194507918,0 33.66731167667569,35.17550517313094,0 33.66719047201162,35.17564493294131,0 33.6671162583937,35.17577670628919,0 33.66710156411344,35.17594642264118,0 33.6670157057265,35.17614044543738,0 33.66684977956262,35.17656636202884,0 33.66622137001239,35.1784568917465,0 33.66602821955494,35.17848176667853,0 33.66608332358875,35.1785211514557,0 33.66665468562805,35.17863971696592,0 33.66687772399269,35.17872315674983,0 33.66790109311339,35.17894506153623,0 33.66838203572095,35.17904030475325,0 33.6689854117942,35.17913222432778,0 33.66931118075667,35.17916746680756,0 33.66969828665066,35.17921559794207,0 33.67019153697915,35.17923932879179,0 33.67123565079921,35.17923883805167,0 33.67184763187462,35.17920104921291,0 33.6727177115907,35.17919886537497,0 33.67266031806033,35.17927326857715,0 33.67241593486724,35.1793381259851,0 33.67189122143121,35.17940718385167,0 33.67137985337226,35.17953172836162,0 33.67081056285375,35.17962918686294,0 33.67030829769934,35.17972287357388,0 33.66928882400285,35.18007644053205,0 33.66915571947236,35.1801539059798,0 33.6690307366529,35.18023926307395,0 33.66889130331482,35.18034230560579,0 33.66871594290179,35.1804727157481,0 33.66841696616407,35.18063462699567,0 33.66830115779205,35.18070306878244,0 33.66808075268405,35.18083372564251,0 33.66705963536187,35.18128315378281,0 33.6662102200893,35.18161451446623,0 33.66530179379105,35.18207563520024,0 33.66501744198685,35.18219122865403,0 33.66471784819976,35.18227916781969,0 33.66437441289564,35.18242613476988,0 33.66437384761869,35.18225009558427,0 33.6638602689237,35.18244138221347,0 33.66326763574081,35.18254867633819,0 33.6628869163209,35.18256640593425,0 33.66254616196222,35.18252059824971,0 33.66224250638221,35.18247386926078,0 33.66200763281525,35.18243772435941,0 33.66180663192564,35.18241376266098,0 33.66122698438997,35.18237534070582,0 33.66053121244717,35.18237494310892,0 33.65994658965656,35.18238387274828,0 33.65950437145462,35.18239906130447,0 33.65935073547094,35.18241132819645,0 33.65883858058725,35.18244706973671,0 33.65779182599353,35.18255560951413,0 33.65726597334214,35.18262738389629,0 33.6571448370254,35.18265099757716,0 33.65668272841037,35.18273104706552,0 33.6565528553662,35.18275885027136,0 33.65645156314176,35.18278544201429,0 33.65588392606685,35.18319998680428,0 33.65580200041734,35.18326814125491,0 33.65500535017027,35.18360579458429,0 33.65413590622752,35.18356882541551,0 33.65409826031492,35.18362111412184,0 33.65324121179611,35.18354761253146,0 33.6532317968795,35.18350353711265,0 33.65224808852782,35.18354004365144,0 33.65209183714298,35.18354088502319,0 33.65153884498588,35.18357159841289,0 33.65068182505391,35.18360741064706,0 33.6500402316622,35.18364899510888,0 33.64986717200782,35.18366032576,0 33.64970250195981,35.18366467593363,0 33.64919516160302,35.18359458556963,0 33.64845912342036,35.18347185572819,0 33.64682742135511,35.18324666625857,0 33.64681872820997,35.18321550776599,0 33.64631583602239,35.18317311885585,0 33.64577907844968,35.18312050738727,0 33.6453650616309,35.18310191120777,0 33.64522156247057,35.18311307679973,0 33.64426466945471,35.18333660426987,0 33.64376257055348,35.18339474873457,0 33.64318107965321,35.18356079618835,0 33.64271303642179,35.18365342799301,0 33.64240511083556,35.18370013523592,0 33.64170893949015,35.18378357102716,0 33.64156116163022,35.18378782063159,0 33.64121898794782,35.18377576403591,0 33.64084744341721,35.18378813248495,0 33.64063623848981,35.18378231551104,0 33.6403316916242,35.18372151617211,0 33.6400611737144,35.18369174116501,0 33.63970543452744,35.18356533509801,0 33.63935171606971,35.18344348641413,0 33.6389734214775,35.18332552691359,0 33.63856631303098,35.18323758723233,0 33.63824210966526,35.18319649130294,0 33.63800595646104,35.18317819447303,0 33.63737914845845,35.18313147974342,0 33.63688507262984,35.1830876053969,0 33.63618030657168,35.18299400516896,0 33.63573710747549,35.18293930189515,0 33.63529736959,35.18288502322168,0 33.63472589626549,35.18284714629018,0 33.63350636567389,35.18278516504602,0 33.63283041826617,35.18274296171631,0 33.63217357288463,35.18273038069039,0 33.63197948858372,35.18273078784095,0 33.6310003982956,35.18280091214543,0 33.63041050919345,35.18283544851239,0 33.63027549345387,35.18090094792565,0 33.63030853185317,35.18067793167622,0 33.63033924514745,35.18047060616136,0 33.6303042114215,35.18008516794599,0 33.63045940652317,35.18008084302272,0 33.63037670217315,35.17869395156732,0 33.63026689203573,35.17730491756983,0 33.63024484500736,35.17713960774736,0 33.63070557211557,35.17707633016275,0 33.63051420099846,35.17605025347486,0 33.63032448856528,35.17606870516305,0 33.62986832459966,35.1744388222835,0 33.63001772672427,35.17445980379944,0 33.63013353075077,35.17445560039347,0 33.63035283237184,35.17442300737074,0 33.6305400917812,35.17440256374584,0 33.63071746069862,35.17442045399267,0 33.63100807906385,35.17452691442077,0 33.63070331626479,35.17345084889322,0 33.63046851949417,35.17262180212072,0 33.63111364509603,35.17256880072247,0 33.63100028132992,35.17124516011584,0 33.6312421519331,35.17110098370324,0 33.63124220011399,35.17103918456468,0 33.63113077278044,35.17026100268482,0 33.63108026030611,35.17000515196651,0 33.63096738486826,35.16956104296298,0 33.63090281665757,35.16917384171508,0 33.63086296363582,35.16885420385732,0 33.63079852813679,35.16829215396493,0 33.63069035777194,35.16784698977509,0 33.63064675101622,35.1678026018714,0 33.63058187907111,35.1678026655561,0 33.63043202660399,35.1678713927815,0 33.63009217488184,35.16805332340038,0 33.62988569604441,35.16811921306707,0 33.62920126397823,35.16841934804425,0 33.62902895388434,35.1685122562494,0 33.62873511595122,35.16861301872807,0 33.62825953803494,35.1687545436628,0 33.62760102466454,35.16891075535356,0 33.62659301249172,35.16925186643837,0 33.62629556307614,35.16931787529526,0 33.62591666495899,35.16938204002193,0 33.62582279507775,35.16850872455108,0 33.62580428498715,35.16791451467898,0 33.62578082933369,35.16767297187766,0 33.62577737557239,35.1675347975083,0 33.62583310301218,35.16713953358511,0 33.62582252472759,35.16706707001564,0 33.62577300068912,35.16698594251211,0 33.62574388066633,35.16687915352641,0 33.62573195042774,35.16676990059198,0 33.62571824091161,35.16642836271988,0 33.62569116424444,35.16622458944936,0 33.62563160448549,35.16567046590767,0 33.62559004823503,35.16522523760021,0 33.62558066479334,35.16487542509967,0 33.62556703720186,35.16473337135313,0 33.62551847789624,35.16451553282712,0 33.62541587415802,35.16407815785374,0 33.62540973114923,35.16402762184737,0 33.62549000818941,35.16397927441854,0 33.62594969067534,35.16370774554791,0 33.62615069532656,35.16360934635971,0 33.62636743699134,35.16355810798379,0 33.62654233568523,35.16351700537946,0 33.62665552844705,35.1634495506369,0 33.62669258537575,35.16340965742454,0 33.62671456784928,35.16335068323875,0 33.62671678044806,35.16311427264775,0 33.6267298759297,35.163013185732,0 33.62676353309168,35.16292949463841,0 33.62683561479974,35.16281096448003,0 33.62696806363974,35.16265758348682,0 33.62719655098299,35.16244687011734,0 33.62731729678831,35.16235583146195,0 33.62749584855128,35.16228127438111,0 33.62758587224246,35.1622526983511,0 33.62797946467769,35.16204366819424,0 33.62816855029726,35.16194813616568,0 33.62815012257569,35.16192406196328,0 33.62827730906002,35.16188818710394,0 33.6284912573603,35.16182146461393,0 33.62857937543593,35.16179683498589,0 33.6288246331226,35.16170059673642,0 33.62907860604426,35.16162725299875,0 33.62925683759356,35.16158094080975,0 33.62955101090127,35.16155696617933,0 33.6296415096472,35.16156858164138,0 33.62971829231731,35.16161663202509,0 33.62972768452121,35.16168225724963,0 33.62970209714923,35.16182103325087,0 33.62983644569834,35.16195897875555,0 33.63002343156874,35.16200908619381,0 33.63023701849981,35.16205175734342,0 33.63043355472534,35.16204944036567,0 33.63058291272283,35.16201515313216,0 33.63097450331406,35.16204791852448,0 33.63109001347363,35.16204731685445,0 33.63154761898929,35.16188167238131,0 33.63192252820388,35.16169271958495,0 33.63207599938401,35.16161083484305,0 33.63254184587353,35.16134652666313,0 33.63284298467609,35.16122090442234,0 33.63310897667631,35.16114654481934,0 33.63341118865722,35.161159558544,0 33.63381968398544,35.16112823432564,0 33.63392602483486,35.16109119255608,0 33.63402246040872,35.16092285626799,0 33.63411080249502,35.16085672077186,0 33.63434153494563,35.16081902749152,0 33.63450220632326,35.16091304789317,0 33.63473475271887,35.16110884912334,0 33.63530329479557,35.16109127559414,0 33.63556894457374,35.16097312941167,0 33.63579939272461,35.16089894947838,0 33.63629685212087,35.16088174341996,0 33.63662606026146,35.16093839031755,0 33.63687564316919,35.16103923701124,0 33.63707145903177,35.16108198953203,0 33.63721396481481,35.16112502214574,0 33.63750740622275,35.16115266700622,0 33.63771222254947,35.16120996545034,0 33.63792541127879,35.16120154544605,0 33.63811251524378,35.16126623318851,0 33.63860274423083,35.16146067028713,0 33.63870437847223,35.16150346498086,0 33.63875419340247,35.16151095064628,0 33.63880761912139,35.16152526327046,0 33.63927275728199,35.16156748776876,0 33.63967362454255,35.16151789947092,0 33.63980782263877,35.16128541230266,0 33.63988561487522,35.16123194321968,0 33.64015766196274,35.16123329849585,0 33.64022737815798,35.16127696634841,0 33.64027131574132,35.16141700405824,0 33.6403090048091,35.16148814947801,0 33.64041631431677,35.16157514639371,0 33.64059419177316,35.16159609699227,0 33.64069255958769,35.16167584422989,0 33.64074968279101,35.16171048069586,0 33.64095923257408,35.16168902795005,0 33.64114633998947,35.16175371096395,0 33.64143032594421,35.16170842563642,0 33.64162603217046,35.16173657702807,0 33.6418654190253,35.16166963585101,0 33.64218592111132,35.16174820474874,0 33.6423466594643,35.16184951102677,0 33.64243574269333,35.16187822639521,0 33.6425691370072,35.16189211326017,0 33.64317064598346,35.1618242740349,0 33.64339070678794,35.16181306140401,0 33.64349482030303,35.16183259669009,0 33.64361739753613,35.16186709863712,0 33.64377646704141,35.16187629757504,0 33.64389249446915,35.16185559269225,0 33.64415547973974,35.1618592171664,0 33.64422270548986,35.16185383718486,0 33.64433249823303,35.16181810019459,0 33.6444422523611,35.16177734079561,0 33.6448751102246,35.16160931337784,0 33.64506431847106,35.16156310883905,0 33.64522918485554,35.16153209939382,0 33.64559608431665,35.16153014474264,0 33.64569380554474,35.16151455820552,0 33.64640968735979,35.16148493754711,0 33.64656165739082,35.16144966665368,0 33.64693273888919,35.16140674745714,0 33.64722171774701,35.16140094491651,0 33.64735773420173,35.1613988922479,0 33.64746639648973,35.16140968072089,0 33.64752131174202,35.16139432147784,0 33.64757130645805,35.16152964681,0 33.64746081214771,35.16224837303443,0 33.64729362183505,35.16352985856135,0 33.6473369048021,35.16358989022545,0 33.64758826327211,35.16366889801323,0 33.6476659618088,35.16368510867413,0 33.64777188495344,35.16374638810465,0 33.64780304976199,35.1637631656773,0 33.64789305619782,35.16382654380349,0 33.64806090563543,35.16391557259065,0 33.64819379969467,35.16395745830634,0 33.64833215586579,35.16396145110581,0 33.64854430926796,35.16398861808564,0 33.64881822612993,35.16401458408277,0 33.64894868048239,35.16402273421659,0 33.64913416144832,35.16403943915707,0 33.64936472886467,35.16407424440773,0 33.64949655813323,35.16407997267444,0 33.64961843422227,35.16409347722821,0 33.65032015118563,35.16414621377348,0 33.65030767240891,35.16450093024128,0 33.65027840122369,35.16466863749484,0 33.65027762346908,35.16478453078262,0 33.65025868232867,35.16487405333203,0 33.65003754085019,35.16604689115027,0 33.65005919155529,35.16605916448931,0 33.65009385694219,35.16608198628175,0 33.65011380237718,35.16611680605651,0 33.65014900388605,35.16621829230771,0 33.6502041667471,35.16623494225333,0 33.65055465542812,35.16619351955735,0 33.65169621644005,35.16615349260074,0 33.65209525875176,35.16616264226916,0 33.65212987652865,35.16619069896667,0 33.65207572230948,35.16651578688192,0 33.65205877351158,35.16654694519435,0 33.65211061078501,35.16657773414207,0 33.65220023441901,35.16660267066697,0 33.65227641704499,35.16666721958306,0 33.65237375431898,35.1667966145235,0 33.6524128264431,35.16695174129895,0 33.65244192026606,35.16714928681544,0 33.65245628621268,35.16722546556785,0 33.65257304197517,35.16720224259007,0 33.6527231442331,35.16713321901526,0 33.65281723286169,35.16708300703046,0 33.65317172819837,35.16707343348397,0 33.65354537610365,35.16712505324102,0 33.65372308370309,35.16717772938589,0 33.65418107428933,35.16727486434016,0 33.65457332241844,35.16731871781016,0 33.65511485850741,35.16736176275477,0 33.65583203302732,35.16748984826184,0 33.65616533262897,35.16755701808467,0 33.65670253989848,35.16767083342069,0 33.6569292532421,35.16774123257066,0 33.65713025171196,35.16782768740966,0 33.65729130531448,35.16794378610561,0 33.65765231935962,35.16816402750585,0 33.65758107657962,35.16800734108464,0 33.65751029553992,35.16790811797377,0 33.65710114505475,35.16759915002309,0 33.65625954740906,35.16709369889819,0 33.65605140905811,35.16695573115561,0 33.65589032094424,35.1668175092132,0 33.65564448145671,35.16667201732003,0 33.6552278377932,35.16634971774937,0 33.65515113290643,35.16617240055771,0 33.65502812173964,35.166088063514,0 33.65497067127448,35.16596473409779,0 33.65496061974913,35.16587231822974,0 33.65487495721268,35.16566207306388,0 33.6547854603906,35.16555528770782,0 33.65465882644058,35.16547168915885,0 33.65453117981853,35.16526167060686,0 33.65445159354699,35.16515911662218,0 33.6543112829083,35.16499307172664,0 33.65429981972218,35.16489656391659,0 33.65429862441471,35.16474732649617,0 33.6543569220187,35.16453073904846,0 33.65441932354879,35.16409766302024,0 33.65446519644807,35.16395059332957,0 33.65460160818503,35.16386778352009,0 33.65479325793,35.16377017805095,0 33.65496261203413,35.16355856593004,0 33.65504764015107,35.16349665256354,0 33.65516445734947,35.16339945111646,0 33.65537593613458,35.16310859799945,0 33.65539576686488,35.1629153512218,0 33.65548051225197,35.16281832297129,0 33.65589587364712,35.16262293537294,0 33.65615017812071,35.16234062850184,0 33.65629205668588,35.1621526822242,0 33.65663779824092,35.16237619884463,0 33.65669868639751,35.16238728032129,0 33.65678717727465,35.16240593067294,0 33.65673459234085,35.16234865157824,0 33.65691064444999,35.16233736450921,0 33.65701288918029,35.16231171822911,0 33.6570739854018,35.16230991040405,0 33.65725706142237,35.16227792051353,0 33.65730692523929,35.16220281439416,0 33.65753204903118,35.16211600183359,0 33.65819019658662,35.16208960306464,0 33.65855148514624,35.16208621365514,0 33.65913518106821,35.16209017193538,0 33.65925505789738,35.16209237252898,0 33.65938921224109,35.16214157005377,0 33.65956153416619,35.16218485478094,0 33.65980514322765,35.16223630876411,0 33.6599461525695,35.16227405681684,0 33.66009999256264,35.16232732692646,0 33.66035169543982,35.1623616950475,0 33.66064524021625,35.16238491511545,0 33.66086959621337,35.162385396847,0 33.66107085421384,35.16235529857782,0 33.66135888739572,35.16226672406052,0 33.66169835252401,35.16211645579348,0 33.66215971075301,35.16188363511915,0 33.66232953127211,35.16181958832478,0 33.66245404117322,35.16180355428079,0 33.66260159408172,35.16181127713656,0 33.66266816134608,35.16182285366208,0 33.66274313526522,35.1618463265915,0 33.66285774314214,35.1618900539423,0 33.66301611177063,35.16195060037777,0 33.66311176068761,35.16196201839715,0 33.66367363744996,35.1620187168318,0 33.66384453404923,35.16200022244763,0 33.66428103642128,35.16177835283647,0 33.6649411669671,35.16144990705695,0 33.66508130614629,35.1613860364516,0 33.66547560177647,35.16210867080432,0 33.66578938724759,35.16263239003632,0 33.66591916586565,35.16286717389358,0 33.66606954864135,35.16320556556435,0 33.66616884450215,35.16342412146142,0 33.66625689832617,35.16359269070573,0 33.66632199940904,35.16371347311579,0 33.6664826978352,35.16407418520149,0 33.6664651968732,35.16410702421741,0 33.66636170787309,35.1641716556973,0 33.66627556706915,35.16423761586196,0 33.66618425650893,35.16433646340656,0 33.66610835819596,35.16445700895684,0 33.66606200013203,35.16453354968417,0 33.66604080737304,35.16456812787296,0 33.66599382470042,35.16466097081233,0 33.66593137417818,35.16478768078775,0 33.66584243023573,35.16496624958353,0 33.66578596787347,35.1650799971321,0 33.66573724836393,35.1651778548916,0 33.66570228419317,35.16524977907484,0 33.66566138797293,35.16534175465354,0 33.66563435910199,35.16539028128604,0 33.66558010878177,35.16546397986175,0 33.66552576433664,35.16552600241783,0 33.66545108561656,35.165585633511,0 33.66506959747382,35.16588800432579,0 33.66479241019633,35.1660888755854,0 33.66460235366505,35.1662000187176,0 33.66458667206459,35.16627016922688,0 33.66466966644518,35.16648324332794,0 33.66366094677807,35.16661737223084,0 33.66376903946025,35.16707392613406,0 33.66342148717214,35.16712198350766,0 33.66331489636393,35.16717971036146,0 33.66295988482068,35.16729813854081,0 33.66259687855093,35.16742100455426,0 33.66235696633792,35.16754099802375,0 33.66212883406723,35.16761942787646,0 33.66196437532343,35.16764644153685,0 33.6617077989224,35.16771759232687,0 33.66127823443713,35.16785898171436,0 33.66082135418171,35.16795817885005,0 33.66050032842865,35.16797751202951,0 33.66023557823091,35.16800532883968,0 33.65951316417863,35.16803563850856,0 33.65954829748441,35.16840907577359,0 33.65958969336625,35.16922643778053,0 33.65956476456218,35.16989952948474,0 33.6594473496997,35.17062990181184,0 33.65944929483853,35.17087080819221,0 33.65939765535791,35.17132149922968,0 33.65936603557005,35.17161845236025,0 33.65932171540898,35.17192245850758,0 33.65931943589396,35.17216687888902,0 33.65923718470646,35.17251298947781,0 33.65929265892113,35.17253712853098,0 33.65915158571512,35.17349807096915,0 33.65933083137719,35.17356558604076,0 33.65948865980868,35.1736127443648,0 33.6595923452863,35.1736398828772,0 33.65970279244081,35.1736688305048,0 33.65983801144784,35.17370133785614,0 33.66005650764114,35.17374077811532,0 33.66021679202907,35.17376111861078,0 33.66040833656476,35.17378451541113,0 33.66061297585621,35.17384973852283,0 33.66075394642758,35.17392927552474,0 33.66097210620384,35.17408869618476,0 33.66109164683151,35.17414739980817,0 33.66122814065375,35.17419902866447,0 33.66132593982839,35.17419849474917,0 33.66139374852951,35.17417019159608,0 33.66143167875065,35.17412808645527,0 33.66146360291081,35.17386953735615,0 33.66152279398046,35.17382731608222,0 33.66158218297628,35.17380953376391,0 33.66169713150212,35.1738263638461,0 33.66184621221365,35.17385697333506,0 33.66205859275073,35.17382787978729,0 33.66224512082218,35.17375702918685,0 33.66243578682055,35.17367218966185,0 33.66272019873322,35.17361127793933,0 33.6628452140886,35.17358701555025,0 33.66302983921675,35.17351531153631,0 33.66316094644878,35.17342730491473,0 33.66327899425698,35.17333673852943,0 33.66334712870731,35.17332127538975,0 33.66338645513699,35.17331459350608,0 33.66343642255121,35.1733250976627,0 33.66349444134693,35.17335711514237,0 33.66357407396562,35.17346446344524,0 33.66368251594766,35.17356303032759,0 33.66375882350562,35.17358416874808,0 33.66383506101376,35.17359668488703,0 33.66391394185742,35.17361134259458,0 33.66413728250807,35.17363383089788,0 33.66427645677077,35.1736373790505,0 33.6644681007026,35.17363632791798,0 33.66466223005049,35.17361801670982,0 33.66478804945831,35.17359361450197,0 33.66486124124654,35.17355441010952,0 33.6648688180556,35.17351772195043,0 33.66484489317764,35.17348120669845,0 33.6648208970312,35.17343606921588,0 33.66480999250821,35.17338654856813,0 33.66479646222313,35.1733370423299,0 33.66481436556533,35.17327874095506,0 33.66486144412525,35.17325692601553,0 33.66490085813872,35.1732610209806,0 33.66495621657374,35.1732887410521,0 33.66506913801482,35.17329243241227,0 33.66516347164605,35.17327035698883,0 33.66522376457046,35.17325924806541,0 33.66530234568135,35.17323725904318,0 33.66535723005273,35.17320677842154,0 33.66540940188946,35.17316553395445,0 33.66544566317442,35.17310497553449,0 33.66552401681361,35.17305496456481,0 33.66563681496632,35.17304356694628,0 33.66570769637453,35.17304317741657,0 33.66580246889235,35.17307499179118,0 33.66595447017389,35.17314683911305,0 33.66621672824094,35.17322446256035,0 33.66641697397944,35.17327258999298,0 33.66657154450916,35.17328964093466,0 33.6667406379843,35.17330511995367,0 33.66684793560891,35.17331795628142,0 33.66698833130021,35.1733260799238,0 33.66705149862703,35.17332727795213,0 33.66713498473682,35.17331637566729,0 33.66720182651413,35.17326976123102,0 33.66722667188679,35.17322883055328,0 33.66721972542023,35.17316060809573,0 33.66719395637344,35.17312932607379,0 33.66714173147988,35.17311504739598,0 33.66712552123772,35.17305908877112,0 33.66714190385751,35.17300391782034,0 33.6671825903038,35.17297470349359,0 33.66722973958506,35.17296150986331,0 33.66738189737332,35.17294773770304,0 33.66754189604698,35.1729296099322,0 33.66773597053464,35.17285050764437,0 33.66783314094103,35.172773158018,0 33.66797286002487,35.17269906563928,0 33.66810427473165,35.17264945896273,0 33.66817514051223,35.17267390474399,0 33.66823615571401,35.17275117260191,0 33.66830448273189,35.17275941826115,0 33.66834897066456,35.17274192757186,0 33.66844866422036,35.17264406791954,0 33.66853330572483,35.17259471888364,0 33.66860536201276,35.17256638826403,0 33.66876477589862,35.1725434658591,0 33.66901903447535,35.172494636541,0 33.66914981858004,35.17243571103047,0 33.66921131866737,35.17289237528893,0 33.66921788110428,35.17305620566948,0 33.6692502438567,35.17343627460467,0 33.66926110805062,35.17357230333138,0 33.66925239228473,35.17369843310169,0 33.66920734702444,35.17385278212222,0 33.66917852947488,35.17384882201615,0</coordinates>
						</LinearRing>
					</outerBoundaryIs>
				</Polygon>
			</MultiGeometry>
		</Placemark>
	</Document>
</kml>