<?xml version='1.0' encoding='UTF-8'?>
<kml xmlns="http://www.opengis.net/kml/2.2">
	<Document>
		<name>SYSKLIPOS</name>
		<Style id="PolyStyle70">
			<LabelStyle>
				<color>00000000</color>
				<scale>0.000000</scale>
			</LabelStyle>
			<LineStyle>
				<color>ff0055ff</color>
				<width>2.000000</width>
			</LineStyle>
			<PolyStyle>
				<color>00828282</color>
				<outline>1</outline>
			</PolyStyle>
		</Style>
		<Placemark id="ID_70004">
			<name>SYSKLIPOS</name>
			<snippet />
			<description>&lt;html xmlns:fo="http://www.w3.org/1999/XSL/Format" xmlns:msxsl="urn:schemas-microsoft-com:xslt"&gt;

&lt;head&gt;

&lt;META http-equiv="Content-Type" content="text/html"&gt;

&lt;meta http-equiv="content-type" content="text/html; charset=UTF-8"&gt;

&lt;/head&gt;

&lt;body style="margin:0px 0px 0px 0px;overflow:auto;background:#FFFFFF;"&gt;

&lt;table style="font-family:Arial,Verdana,Times;font-size:12px;text-align:left;width:100%;border-collapse:collapse;padding:3px 3px 3px 3px"&gt;

&lt;tr style="text-align:center;font-weight:bold;background:#9CBCE2"&gt;

&lt;td&gt;2&lt;/td&gt;

&lt;/tr&gt;

&lt;tr&gt;

&lt;td&gt;

&lt;table style="font-family:Arial,Verdana,Times;font-size:12px;text-align:left;width:100%;border-spacing:0px; padding:3px 3px 3px 3px"&gt;

&lt;tr&gt;

&lt;td&gt;DIST_CODE&lt;/td&gt;

&lt;td&gt;2&lt;/td&gt;

&lt;/tr&gt;

&lt;tr bgcolor="#D4E4F3"&gt;

&lt;td&gt;VIL_CODE&lt;/td&gt;

&lt;td&gt;121&lt;/td&gt;

&lt;/tr&gt;

&lt;tr&gt;

&lt;td&gt;VIL_CCD&lt;/td&gt;

&lt;td&gt;2121&lt;/td&gt;

&lt;/tr&gt;

&lt;tr bgcolor="#D4E4F3"&gt;

&lt;td&gt;VIL_NM_E&lt;/td&gt;

&lt;td&gt;SYSKLIPOS&lt;/td&gt;

&lt;/tr&gt;

&lt;tr&gt;

&lt;td&gt;VIL_NM_G&lt;/td&gt;

&lt;td&gt;ΣΥΣΚΛΗΠΟΣ&lt;/td&gt;

&lt;/tr&gt;

&lt;/table&gt;

&lt;/td&gt;

&lt;/tr&gt;

&lt;/table&gt;

&lt;/body&gt;&lt;script type="text/javascript"&gt;

				function changeImage(attElement, nameElement) {

				document.getElementById('imageAttachment').src = attElement;

				document.getElementById('imageName').innerHTML = nameElement;}

			&lt;/script&gt;&lt;/html&gt;

</description>
			<styleUrl>#PolyStyle70</styleUrl>
			<MultiGeometry>
				<Polygon>
					<extrude>0</extrude>
					<altitudeMode>clampToGround</altitudeMode>
					<outerBoundaryIs>
						<LinearRing>
							<coordinates> 33.17422202240222,35.31321405278198,0 33.17240878062724,35.31275129784663,0 33.17178673448063,35.31259406029292,0 33.17101255688504,35.31239836375193,0 33.16900794854782,35.31189161006476,0 33.16871835442115,35.3110493112849,0 33.16848913366894,35.31066669922864,0 33.16830953700342,35.31028414745533,0 33.16813621241992,35.31009141380472,0 33.16772957039494,35.30995533910553,0 33.16765482614294,35.31012743336677,0 33.16721970486022,35.31019062406494,0 33.16721974920635,35.31016621912587,0 33.16729442141397,35.31003344255119,0 33.16724057566298,35.30962935059524,0 33.1671763809606,35.30945844204083,0 33.16694506457372,35.30932393396728,0 33.16690276875114,35.30893612463196,0 33.16672069732284,35.30810344314193,0 33.1666363689477,35.30808978175916,0 33.16641124634913,35.30818847836099,0 33.16600255064571,35.30827745738974,0 33.16582217168858,35.30832875365204,0 33.16554094966739,35.30835281098513,0 33.1652861632017,35.30839181338808,0 33.16480979997885,35.3084007120392,0 33.16466267622582,35.3083571431961,0 33.16442450213339,35.30835684619851,0 33.16431092037472,35.30806520826081,0 33.16425672007269,35.3078590603595,0 33.16426516134486,35.30776687638523,0 33.16441243426915,35.30773045426744,0 33.16460436867539,35.30769001953723,0 33.16454188554407,35.30749199545348,0 33.16454035011044,35.30742827080916,0 33.16445603546813,35.307407828598,0 33.16438516531505,35.30727351732509,0 33.16426796481995,35.30714863699858,0 33.16424335288692,35.30704285460247,0 33.16427174962368,35.3068923971703,0 33.16426362345027,35.30681510666892,0 33.16423393764166,35.30676897193717,0 33.1642178040552,35.30655066942856,0 33.16423465827104,35.30638121573453,0 33.16422012171627,35.30619409793038,0 33.16428350989658,35.30590403661206,0 33.1643860482727,35.30590687724838,0 33.16445265560369,35.30566427278117,0 33.16451242434692,35.30554232565056,0 33.16450268120732,35.30544469587642,0 33.16469822414165,35.30524021460165,0 33.16475614871906,35.30521994927172,0 33.1647588515475,35.3051386157569,0 33.16476285389914,35.30501814339461,0 33.16486605398234,35.30485933710668,0 33.16474232924394,35.30482617442302,0 33.16464721124406,35.30464756092588,0 33.16470109331899,35.3045437097174,0 33.16468645095441,35.30439698295937,0 33.16481981612967,35.30405605205394,0 33.16468273578659,35.3039874174101,0 33.16453568210927,35.30366814270953,0 33.16458986170706,35.303404135456,0 33.16474968941659,35.3032686294827,0 33.1647054349539,35.30300572248829,0 33.16466664647015,35.30301300889283,0 33.16459791357783,35.30308260979363,0 33.16450556117918,35.30302136667864,0 33.16450271659833,35.30294800799739,0 33.16442822173178,35.30290879373506,0 33.16436417985967,35.30286225591738,0 33.16454191007032,35.3027231041251,0 33.16453497251405,35.30244312728093,0 33.1644664225249,35.30241492253948,0 33.16438909224129,35.30229623727663,0 33.16415058538954,35.30223725570831,0 33.16420672065272,35.30252585241607,0 33.1635760282476,35.30244559622361,0 33.16340312678403,35.3023952534158,0 33.16320476932665,35.30239989474759,0 33.16286354609416,35.30224175388958,0 33.16268760181077,35.30222319326949,0 33.16259086236239,35.30211793019319,0 33.16251535408375,35.30182564054068,0 33.16258434964983,35.30161544561597,0 33.16211478707689,35.30150482015669,0 33.16204591692523,35.30164777426737,0 33.16198890277138,35.30182986487929,0 33.16198729917888,35.30188976835765,0 33.16202708108881,35.30214655841177,0 33.16197167322009,35.30226752234785,0 33.161883450747,35.30239088999996,0 33.16182078396,35.30240670477669,0 33.16171923378758,35.3024799300461,0 33.16164019268546,35.30247982929169,0 33.16127225102822,35.30225685350991,0 33.1610055428149,35.30212936677048,0 33.1607628261912,35.30193344528868,0 33.16068695664519,35.30183432019317,0 33.1606080035985,35.30178776232594,0 33.16060067226537,35.30172173321893,0 33.15978673695061,35.30154708416749,0 33.15991831079874,35.30137120388872,0 33.15989170924476,35.30124402161454,0 33.1599976870957,35.30119525551419,0 33.15999484445626,35.30112189759797,0 33.16012190187195,35.30096801678227,0 33.16020018669336,35.3005817853899,0 33.16038772619573,35.29999152366469,0 33.16047738397107,35.29989750054841,0 33.16048060851569,35.29977035721618,0 33.16053581157723,35.299756979557,0 33.16068995448946,35.29947354074773,0 33.16058606689958,35.29920933305844,0 33.16062344448353,35.29915925490785,0 33.1606386256792,35.29901867860171,0 33.16057053369862,35.29875207162517,0 33.16041839023048,35.29876899234955,0 33.16036189938742,35.29867600494254,0 33.16044401629365,35.29862476242292,0 33.1603296284661,35.29839354908227,0 33.16021025522731,35.29843129670913,0 33.16011493268041,35.29836882282854,0 33.16005397004611,35.29828436736656,0 33.15991265453142,35.29808859464735,0 33.15984897817201,35.29788025305424,0 33.15981971628725,35.29778451352472,0 33.15975027141171,35.29769925155421,0 33.15975356554344,35.29760641832588,0 33.15968829968586,35.29750923632305,0 33.15955868487558,35.29737790377757,0 33.15946215211284,35.29733263745752,0 33.15933883226514,35.29716979936085,0 33.15926097422807,35.29713733314695,0 33.1592019303239,35.29704697425892,0 33.15917386851172,35.29705204811729,0 33.15854561258401,35.29690466072296,0 33.15845436972954,35.29688325527179,0 33.15740142207451,35.29682374259511,0 33.15731974268051,35.29683068404442,0 33.15727050541848,35.29673195383013,0 33.15742329659003,35.29662644021801,0 33.1573421646779,35.29635148073674,0 33.15735939967105,35.29633036055126,0 33.15740455714242,35.29631632405177,0 33.15792245305121,35.2963346185779,0 33.15825113467555,35.2964019973114,0 33.15841019667412,35.29638634660898,0 33.15854684134177,35.296267372541,0 33.15860821683055,35.296213932921,0 33.1586665778354,35.29612854590964,0 33.15861917643423,35.29592662532907,0 33.15854751923315,35.29591589817792,0 33.15836629113632,35.29588876961357,0 33.15812267132551,35.29591485797139,0 33.15792330473621,35.29595915549172,0 33.15745440482453,35.29589748484908,0 33.1573860144488,35.295872641609,0 33.15723760789027,35.29558859977261,0 33.15703281838098,35.29531603524877,0 33.15707922791756,35.29525833605864,0 33.15722592732828,35.29538394876526,0 33.1574130211071,35.29544030325559,0 33.15764458380767,35.29540264837027,0 33.15793637191142,35.29544758655093,0 33.15803508308441,35.2954081077511,0 33.15814804198761,35.29528613370945,0 33.15813615104712,35.29519040256263,0 33.15806584530601,35.29511439881249,0 33.15811625646251,35.29506825513155,0 33.15810634590476,35.29498902841504,0 33.1577848899562,35.29467340708395,0 33.15755973298899,35.29452293887074,0 33.15736880371843,35.29436921317819,0 33.15749999901962,35.29418620317795,0 33.15769554169623,35.29403628275821,0 33.1580499540914,35.29396413138515,0 33.15820112756362,35.29385705947121,0 33.15808058909721,35.29373478219581,0 33.15786523658835,35.29372130022939,0 33.15757735150582,35.29374237857873,0 33.15712845298685,35.29375334467441,0 33.15701782438883,35.29371194268357,0 33.15696963279441,35.29365081934455,0 33.15689754889501,35.29345599236447,0 33.15677287848533,35.29338981761816,0 33.15674665396286,35.29341948818221,0 33.15677880814047,35.29344593455654,0 33.15674452334933,35.29348054613273,0 33.15660580048851,35.29339454907809,0 33.15651313362935,35.29343238379244,0 33.15629412909677,35.29322746167774,0 33.15622000099376,35.29304913403514,0 33.15624443227495,35.29290724188138,0 33.15620642941467,35.29278342017003,0 33.15610213951005,35.2925902008749,0 33.15607421366769,35.29245979141995,0 33.15616895336336,35.29239060424813,0 33.15613099432314,35.29224532952139,0 33.15616541043831,35.29214470783541,0 33.15620577056032,35.29209195273701,0 33.15629037136951,35.29206070696973,0 33.15643144532949,35.29197177800595,0 33.15662909019576,35.29177400389776,0 33.15692322528724,35.29164071729185,0 33.15705040253697,35.29145275169896,0 33.15704040703132,35.29141643171107,0 33.15682717878087,35.29134849164741,0 33.15668030927657,35.2913136433953,0 33.15661600501433,35.29125909922475,0 33.1563431275128,35.29081481504713,0 33.15662923524233,35.29062391225773,0 33.15676296736696,35.29053468141888,0 33.15693867448331,35.29047036430621,0 33.15652945617113,35.29022819158255,0 33.15640228745625,35.29023960984964,0 33.15628279557058,35.29045460908233,0 33.15615736064829,35.29061167312155,0 33.15610296651362,35.29056194999722,0 33.15603859648552,35.29045428796051,0 33.15604689892751,35.29033679090625,0 33.15591987972574,35.29027207580685,0 33.15579473727482,35.290280186351,0 33.15588235197719,35.28985495568688,0 33.15600181655558,35.28965485222997,0 33.15618165179787,35.2895425457206,0 33.15662379625122,35.2894570636936,0 33.15685559399057,35.28960632183752,0 33.15696046431533,35.28964452526223,0 33.15694263895307,35.28947072194163,0 33.15694712683998,35.28923902082497,0 33.15692306103285,35.28916120313289,0 33.15682855983952,35.2889806784536,0 33.15678002957947,35.28902861205508,0 33.156667237638,35.2889142653142,0 33.15680940662603,35.28845269423817,0 33.15680956807133,35.2883699424773,0 33.15686224850582,35.28826243371684,0 33.15699570220311,35.288130204233,0 33.15703168931563,35.28804584386791,0 33.15707441676832,35.28786715481871,0 33.15687842604027,35.28746885949479,0 33.15681923423944,35.28729334752606,0 33.15679940494138,35.28711292063882,0 33.15687440689666,35.28694172176005,0 33.15687550528913,35.28689620944988,0 33.15696840317678,35.28686240241291,0 33.15728260070033,35.28666503555303,0 33.15765930950943,35.28649174711994,0 33.15772489115227,35.28649514277527,0 33.15797098099701,35.28655587151219,0 33.15792803054749,35.2863290753281,0 33.15782637858929,35.28619405624475,0 33.15770493839886,35.2858562685344,0 33.15771938576763,35.2856907825813,0 33.15847378255408,35.28535496031941,0 33.15856794505036,35.28531752592542,0 33.15890075246279,35.28518521849492,0 33.15871262961854,35.2849149897427,0 33.15861149192824,35.28489236063197,0 33.15858584021687,35.28485436034637,0 33.15879344245548,35.28480541415708,0 33.15886138105893,35.28470144490805,0 33.15888555823997,35.28461429344661,0 33.15879996024607,35.28453684441183,0 33.15858391592276,35.28425703340296,0 33.15874145331763,35.28419506932374,0 33.15899716248698,35.28409837460109,0 33.15899642373033,35.28403650183276,0 33.15932588511608,35.28393427681294,0 33.16031577623467,35.28418162857971,0 33.16065362676533,35.28417643639328,0 33.16084232398594,35.28414714755105,0 33.16174951097989,35.28414970846551,0 33.16202399364727,35.2840994341946,0 33.16243755924155,35.28395512317509,0 33.16257797107841,35.28406779330177,0 33.16275808207375,35.28404411601684,0 33.16277509655182,35.28411585144177,0 33.16316267364538,35.28411352744735,0 33.16337014404813,35.28413206834981,0 33.16337338211059,35.28423472265331,0 33.16388257155167,35.28431129428498,0 33.16388904366869,35.28451941517958,0 33.16441235684839,35.28437945200465,0 33.16446018673665,35.28448075577921,0 33.16441343518301,35.28472255800104,0 33.16443026349845,35.28489553782731,0 33.16453150402108,35.28486332260924,0 33.16480276753214,35.2846991384754,0 33.16485953504988,35.28460499535748,0 33.16484257310743,35.28450372990856,0 33.16482214961528,35.28441933497547,0 33.16485851195649,35.284230953772,0 33.16485867008183,35.28414517691188,0 33.16510220844547,35.284134230976,0 33.16525143727147,35.28411754179761,0 33.16532684162154,35.2841457584662,0 33.16539341326241,35.2843145815008,0 33.16578797752987,35.28424335484262,0 33.16588751755898,35.28420269935344,0 33.16615509618575,35.28417490570725,0 33.16621688170354,35.28414826514281,0 33.16625972933348,35.28416237963096,0 33.16636734666417,35.28439312309568,0 33.16648210679918,35.28446919799789,0 33.16653500251707,35.28461550460294,0 33.16659847024983,35.28460714520965,0 33.16678034993853,35.28455393465767,0 33.16725558336835,35.28444483568566,0 33.16742376635631,35.28437895161031,0 33.16787324826142,35.2842838807421,0 33.16816662153965,35.28421674198344,0 33.1687481725242,35.28411057834998,0 33.16898663650052,35.28406024568192,0 33.16953897434116,35.28398497794628,0 33.16978936715868,35.2839768433158,0 33.16994041231466,35.28390249776573,0 33.17036922268805,35.28385660906776,0 33.17036087082658,35.28373144918168,0 33.17039556937788,35.28338902385193,0 33.17040704177217,35.28327579470262,0 33.17034054181256,35.28309851391544,0 33.1702801440605,35.28301198039912,0 33.17027304149085,35.28289640585676,0 33.1707973030197,35.2827968759693,0 33.17110436196433,35.28272490637799,0 33.17149708521049,35.28262179254592,0 33.17183976530644,35.2825447940406,0 33.17201897548551,35.28250452598407,0 33.17214059273964,35.28302079945924,0 33.17217400881531,35.28314494736433,0 33.17226661756024,35.28339124952985,0 33.1724190777451,35.28379672922819,0 33.17236297350096,35.28393646246232,0 33.17280392248338,35.28396108386988,0 33.17297381115838,35.28432042130523,0 33.17310611270202,35.28431816698792,0 33.17353261397025,35.28419815135511,0 33.17368849581355,35.28416217964462,0 33.17392093032142,35.28405880665522,0 33.17435332697314,35.28392915466962,0 33.17469754125567,35.28378975655318,0 33.17466547614354,35.28363063910867,0 33.1748710585828,35.28375621412186,0 33.17496201019203,35.28386478415626,0 33.17495899360542,35.28390816583705,0 33.17468792007539,35.28425493703137,0 33.17472305614202,35.28433692758056,0 33.17489339044544,35.28444317999163,0 33.1750373657459,35.28449155276044,0 33.17506398396753,35.2843999921939,0 33.17501699100674,35.28437342338448,0 33.17493190228468,35.28427450235466,0 33.17494087786191,35.28418292045074,0 33.17498509137242,35.28411789373885,0 33.17513533679086,35.28393970519772,0 33.17515025149287,35.2838143857749,0 33.17512413678543,35.28361430003174,0 33.17545354560806,35.28353513997856,0 33.17611693108803,35.28414089419434,0 33.17642217234167,35.28444253393157,0 33.1767510530087,35.2846743018013,0 33.17699191459879,35.28480232206802,0 33.17711557502809,35.28469400111888,0 33.17729503316708,35.28462430641895,0 33.17721304575391,35.28442897671237,0 33.17704305620131,35.28411785324542,0 33.17780490638521,35.28387768967195,0 33.17811660795768,35.28383947845506,0 33.17846695503232,35.28354581660939,0 33.17899567523723,35.28382359925423,0 33.17908386813185,35.28382852008595,0 33.17937515834814,35.28368663879166,0 33.17925179644118,35.28361660110595,0 33.17912561043668,35.28347907091617,0 33.17898258710212,35.28339900261472,0 33.17877817247167,35.28328456586188,0 33.17858615358532,35.28317797143526,0 33.17906922901837,35.28307213879075,0 33.17915324516224,35.28311360156913,0 33.17988368401532,35.28306123247189,0 33.17997483295854,35.28314801379069,0 33.18015970774744,35.28321716863812,0 33.18028201248565,35.2833512629534,0 33.18037697714296,35.28340056592897,0 33.18047655214707,35.28345226233785,0 33.180527889354,35.28351980848955,0 33.18082916976245,35.28355750329411,0 33.18098653511833,35.28350947206214,0 33.18132756015273,35.2835134655946,0 33.18154077551394,35.28340185820861,0 33.18171155029162,35.28331246572144,0 33.18225245393871,35.2831003062559,0 33.18254101365628,35.28293908585151,0 33.18272564932268,35.28315598394319,0 33.18291516280151,35.2833295484319,0 33.18297831598323,35.28340343854698,0 33.18306213868275,35.28350151394098,0 33.18311177830468,35.28371006149052,0 33.18322757515423,35.28391385858591,0 33.18368934002198,35.28379384658697,0 33.18346495968912,35.28347061989581,0 33.18358352616761,35.28340409904298,0 33.1836622849272,35.28335991262291,0 33.18380659911038,35.2832576315004,0 33.18384994772765,35.283192668665,0 33.18359787592175,35.28307813761129,0 33.18387929937397,35.28286962831139,0 33.18415530529244,35.28304131428384,0 33.18474639804391,35.28298876461475,0 33.18510569793027,35.28294067906868,0 33.18531331205507,35.2829128942315,0 33.18545636006984,35.28291706476088,0 33.18556403283047,35.28298466932397,0 33.18596387735852,35.28293769353446,0 33.18631762470896,35.28291878893172,0 33.18665074211458,35.28293360616655,0 33.18675853853802,35.28292488295825,0 33.18706610121298,35.28298948409228,0 33.18734450533607,35.2829054174254,0 33.18735622246495,35.28293114010967,0 33.18786306459022,35.28275772998329,0 33.18854918112741,35.282604190698,0 33.18857257639989,35.28268214921142,0 33.18861956618522,35.2827087109593,0 33.18870195302221,35.28265577037115,0 33.18889407656781,35.28260535537081,0 33.18955957454453,35.28247749774858,0 33.18978302633106,35.28244398547873,0 33.19019957701479,35.28236085912686,0 33.19030091464365,35.28209020424053,0 33.19034127133083,35.28197053335749,0 33.19040511450061,35.28186856293688,0 33.19052092613478,35.28174254193645,0 33.19101092555177,35.28168198493848,0 33.19180362861445,35.28165829166257,0 33.19203087017108,35.2817083365773,0 33.19225532772683,35.2816547343999,0 33.19237028371154,35.28144435062156,0 33.19244983911567,35.28131829077356,0 33.19277583955589,35.28085101954185,0 33.19312972143232,35.28073447667838,0 33.19318362576337,35.28072489002002,0 33.19343242973859,35.28076852689286,0 33.194073832756,35.28101422028121,0 33.19452451594591,35.28103234619416,0 33.19457415712514,35.28125334260579,0 33.19453757198374,35.28147826889982,0 33.19461858493943,35.28168804757389,0 33.19459485778886,35.28183023224528,0 33.19454282396659,35.28190007947202,0 33.1943172590053,35.28203965268777,0 33.19422306978453,35.28212552739013,0 33.1941748856082,35.28224117391875,0 33.19417857173688,35.28239784841237,0 33.19420194362668,35.28249508827977,0 33.19433696621547,35.28262377389728,0 33.1944229694232,35.28277329883202,0 33.19454730409027,35.28284251904449,0 33.19464904506061,35.2829510848459,0 33.19472726763119,35.28306123429224,0 33.19463512957415,35.28308444177735,0 33.19473370250918,35.28334806868929,0 33.1947786880637,35.28341576772864,0 33.19491638018724,35.28362298236277,0 33.19504490468221,35.28404555765364,0 33.19517004198071,35.28439829450951,0 33.19517476064762,35.2845116395271,0 33.19525000976299,35.28461131481323,0 33.19533352045418,35.28478884906441,0 33.19536680776895,35.28494000154684,0 33.19532203233509,35.28500521325349,0 33.19522285073725,35.28503831622805,0 33.19524185402838,35.28587979579108,0 33.19548827961506,35.28588690994595,0 33.19553569470364,35.2859258812539,0 33.19550477609796,35.28606208703189,0 33.19526298369847,35.2862267051574,0 33.19523770023963,35.28632971552459,0 33.19473839379991,35.28642996549907,0 33.19426030311634,35.2868164461513,0 33.19408606264034,35.28708988921725,0 33.19394761489836,35.28723629133899,0 33.19405619819903,35.28745392029249,0 33.19431495691903,35.28762132718829,0 33.19487146066681,35.2875589152528,0 33.19530023438855,35.28747691266407,0 33.19552083459144,35.2874839999299,0 33.19560710393842,35.28768672401083,0 33.19573038990835,35.28788032382219,0 33.19610457664898,35.28788870728427,0 33.1961108250719,35.28791275507651,0 33.19633702266149,35.28791183290074,0 33.19631293992404,35.28862619211765,0 33.19611512379937,35.28879085588675,0 33.1960911063994,35.28898202051508,0 33.19614259054272,35.28910457022893,0 33.19625822590353,35.2892798450189,0 33.19636120282676,35.28951807391,0 33.19632171041093,35.28978821852897,0 33.19605499353182,35.28980512839471,0 33.19592927785179,35.2898370607712,0 33.19590252195275,35.28999158764324,0 33.19553795814002,35.29007823525757,0 33.19511503966198,35.29044073241781,0 33.19523845452683,35.29054847029231,0 33.19531150549846,35.29066846164455,0 33.1953882012473,35.29079443855509,0 33.19557448579823,35.29075645158924,0 33.19562316963987,35.29097749381759,0 33.19595646086909,35.29094969653001,0 33.19609617529837,35.29092170752007,0 33.19616230207919,35.29094387257157,0 33.19637991597108,35.29126553310083,0 33.19653931080435,35.29118331868666,0 33.19663978255154,35.29117939933502,0 33.19663220864997,35.29133207886166,0 33.19678167315273,35.29133825184577,0 33.19690658398232,35.29137855581753,0 33.19728150264745,35.29137289447715,0 33.1975217539967,35.29129477615942,0 33.19763927125909,35.29136520664751,0 33.19784503990162,35.29140960589476,0 33.19829062694836,35.29167724045697,0 33.19835964795354,35.291706817938,0 33.19864307317525,35.29182827565821,0 33.1986980515268,35.2919675265091,0 33.1986229330733,35.29205909245229,0 33.19858592828307,35.29221217373865,0 33.19867479629102,35.2923978568567,0 33.19872524031188,35.29274010018347,0 33.19889023723065,35.29311725229785,0 33.19873598570054,35.29314030360005,0 33.1983920330586,35.29323973096371,0 33.19839333171158,35.29332093077959,0 33.19835730693863,35.29333534527932,0 33.19815089602483,35.29341793654993,0 33.19817712389548,35.29392223149435,0 33.19835632384849,35.29401844607116,0 33.19846716646572,35.29407795920211,0 33.19838340794678,35.29431792290909,0 33.19847936744789,35.29449433457108,0 33.19849884830128,35.29472170964513,0 33.19835506030259,35.29489753029154,0 33.19827850677732,35.29499113816302,0 33.19831979212382,35.29525034406857,0 33.19822645662883,35.29540093054802,0 33.19835412959439,35.29554440877795,0 33.19848754802351,35.29569434125222,0 33.19851275513758,35.29587532265835,0 33.19856910283637,35.2960470543301,0 33.19872011464941,35.29631515497898,0 33.19889968322122,35.29640232723536,0 33.1989887879676,35.29642561210241,0 33.19907493310854,35.29654053266655,0 33.19907906144827,35.29662173588461,0 33.19905916334874,35.29668551617188,0 33.19911425508182,35.29674820764944,0 33.1991070873031,35.29681315951419,0 33.19903038414689,35.29702072259005,0 33.19911515295897,35.29710896176839,0 33.19935307117699,35.2969618726603,0 33.199568187935,35.29692727892258,0 33.19986460715165,35.29742983449921,0 33.19998992314947,35.29786146587867,0 33.19998705425322,35.29788814160857,0 33.19996206936133,35.2979251494864,0 33.19986838376314,35.29806391972856,0 33.19973358996346,35.2980925133879,0 33.19958266640788,35.29809236861855,0 33.19954409047477,35.29822566370414,0 33.19937682889493,35.29880361615324,0 33.19960025295782,35.29899163371323,0 33.19960266535593,35.29919048623847,0 33.19973929382025,35.29976728550634,0 33.19980344001826,35.30014516217039,0 33.19979778055717,35.30033516921035,0 33.19973276758085,35.30056710017541,0 33.19960320528229,35.30070396168316,0 33.19940827199384,35.30132463280503,0 33.19947787210815,35.30165611637493,0 33.19950719678917,35.30188371814658,0 33.19950664270883,35.30227258121563,0 33.19961695135793,35.3024074639582,0 33.1996815410069,35.3024760182421,0 33.19985666702738,35.30251816510146,0 33.19992925443098,35.30264859215738,0 33.20031166083623,35.30286769087676,0 33.20046253740901,35.30290760553418,0 33.200661985563,35.30290558289598,0 33.20087229721533,35.3028439191358,0 33.20097478736091,35.30279319761758,0 33.20112838801251,35.30281101947665,0 33.20122274857895,35.30279122232795,0 33.20147920769185,35.30249539927129,0 33.20153580916957,35.30249324350827,0 33.20181599457355,35.30257525537051,0 33.20204470349977,35.30285164887616,0 33.20199852699312,35.30310790209654,0 33.20203063802786,35.30327364397095,0 33.20226188309159,35.30366493362041,0 33.20236394724144,35.30391911544642,0 33.20239876756587,35.3040760191336,0 33.20236887605085,35.30425274790811,0 33.20229044259384,35.30444710505232,0 33.20207169365039,35.30475843358337,0 33.20202305023984,35.30484897651755,0 33.20194193133094,35.30503670374276,0 33.20183136806224,35.30507857716348,0 33.20182083071524,35.30517906444293,0 33.20181401095647,35.30524409601726,0 33.20162480204326,35.30544960730528,0 33.20141503812907,35.30557282312382,0 33.20115798238962,35.305739552074,0 33.20085647161284,35.30602965146009,0 33.20085915429336,35.30622082441347,0 33.20079378278443,35.30652324607981,0 33.2009383358883,35.30659113864041,0 33.20098241302153,35.30673637243878,0 33.20094971530757,35.30689605223839,0 33.20081942071395,35.30718389374997,0 33.20066562839718,35.3073870173037,0 33.20059738593398,35.30763135952431,0 33.20054706547645,35.30772810700712,0 33.20041402732554,35.3078659124374,0 33.20022795253579,35.30793349246887,0 33.19997050719421,35.3083664033928,0 33.20001753782564,35.30850922052426,0 33.20027629407402,35.30923542728546,0 33.20119344646279,35.30991627757391,0 33.20173788493715,35.31113882252097,0 33.20211453131726,35.31202242819626,0 33.20213185494496,35.31243148587875,0 33.20216202680975,35.31314389394707,0 33.2021341034169,35.31319160557184,0 33.20040588993245,35.31408453737026,0 33.20029197383544,35.31405952263366,0 33.19832910548706,35.3129357413609,0 33.19744055353376,35.31242700546447,0 33.19404538487803,35.31048300382196,0 33.18505955514762,35.3117511505364,0 33.1803948237693,35.31240919272429,0 33.18032323278482,35.31241929039277,0 33.1792578044159,35.312510752795,0 33.17422202240222,35.31321405278198,0</coordinates>
						</LinearRing>
					</outerBoundaryIs>
				</Polygon>
			</MultiGeometry>
		</Placemark>
	</Document>
</kml>