<?xml version='1.0' encoding='UTF-8'?>
<kml xmlns="http://www.opengis.net/kml/2.2">
	<Document>
		<name>TREMETOUSIA</name>
		<Style id="PolyStyle70">
			<LabelStyle>
				<color>00000000</color>
				<scale>0.000000</scale>
			</LabelStyle>
			<LineStyle>
				<color>ff0055ff</color>
				<width>2.000000</width>
			</LineStyle>
			<PolyStyle>
				<color>00828282</color>
				<outline>1</outline>
			</PolyStyle>
		</Style>
		<Placemark id="ID_70303">
			<name>TREMETOUSIA</name>
			<snippet />
			<description>&lt;html xmlns:fo="http://www.w3.org/1999/XSL/Format" xmlns:msxsl="urn:schemas-microsoft-com:xslt"&gt;

&lt;head&gt;

&lt;META http-equiv="Content-Type" content="text/html"&gt;

&lt;meta http-equiv="content-type" content="text/html; charset=UTF-8"&gt;

&lt;/head&gt;

&lt;body style="margin:0px 0px 0px 0px;overflow:auto;background:#FFFFFF;"&gt;

&lt;table style="font-family:Arial,Verdana,Times;font-size:12px;text-align:left;width:100%;border-collapse:collapse;padding:3px 3px 3px 3px"&gt;

&lt;tr style="text-align:center;font-weight:bold;background:#9CBCE2"&gt;

&lt;td&gt;4&lt;/td&gt;

&lt;/tr&gt;

&lt;tr&gt;

&lt;td&gt;

&lt;table style="font-family:Arial,Verdana,Times;font-size:12px;text-align:left;width:100%;border-spacing:0px; padding:3px 3px 3px 3px"&gt;

&lt;tr&gt;

&lt;td&gt;DIST_CODE&lt;/td&gt;

&lt;td&gt;4&lt;/td&gt;

&lt;/tr&gt;

&lt;tr bgcolor="#D4E4F3"&gt;

&lt;td&gt;VIL_CODE&lt;/td&gt;

&lt;td&gt;204&lt;/td&gt;

&lt;/tr&gt;

&lt;tr&gt;

&lt;td&gt;VIL_CCD&lt;/td&gt;

&lt;td&gt;4204&lt;/td&gt;

&lt;/tr&gt;

&lt;tr bgcolor="#D4E4F3"&gt;

&lt;td&gt;VIL_NM_E&lt;/td&gt;

&lt;td&gt;TREMETOUSIA&lt;/td&gt;

&lt;/tr&gt;

&lt;tr&gt;

&lt;td&gt;VIL_NM_G&lt;/td&gt;

&lt;td&gt;ΤΡΕΜΕΤΟΥΣΙΑ&lt;/td&gt;

&lt;/tr&gt;

&lt;/table&gt;

&lt;/td&gt;

&lt;/tr&gt;

&lt;/table&gt;

&lt;/body&gt;&lt;script type="text/javascript"&gt;

				function changeImage(attElement, nameElement) {

				document.getElementById('imageAttachment').src = attElement;

				document.getElementById('imageName').innerHTML = nameElement;}

			&lt;/script&gt;&lt;/html&gt;

</description>
			<styleUrl>#PolyStyle70</styleUrl>
			<MultiGeometry>
				<Polygon>
					<extrude>0</extrude>
					<altitudeMode>clampToGround</altitudeMode>
					<outerBoundaryIs>
						<LinearRing>
							<coordinates> 33.59000941689629,35.11751578240347,0 33.58998322504046,35.11768482846487,0 33.59007259119907,35.11772380782678,0 33.58966930880349,35.11786653566446,0 33.58925469309173,35.11771468663604,0 33.58927553038102,35.1176910877932,0 33.58946552438238,35.1174035269327,0 33.58973229377762,35.11723346850333,0 33.58991315192075,35.1170698804808,0 33.59026501673134,35.11665172068174,0 33.59043146485158,35.11636079536274,0 33.59062155596123,35.11602854195586,0 33.59089061297098,35.11571802355691,0 33.59124275497659,35.11518923318376,0 33.59147907154191,35.11483670500932,0 33.59179445678714,35.11445721095289,0 33.59191485931962,35.11425798455908,0 33.59200645671786,35.1138024816853,0 33.5920710711014,35.11363016107219,0 33.59219596379793,35.11338118881288,0 33.59233876661543,35.11292174155847,0 33.59246396885435,35.11276458987738,0 33.59262651174794,35.11263413511515,0 33.59261525281642,35.11206026122822,0 33.59254401427649,35.11165104174479,0 33.59237404400858,35.11096275053286,0 33.59199592394947,35.11068814247674,0 33.59203748530799,35.11058474508588,0 33.59143558144203,35.11023030068687,0 33.59065272884919,35.10910793308972,0 33.59030151201127,35.10860438547992,0 33.59004343300281,35.10823190433941,0 33.58991824939121,35.10803499614938,0 33.58983989155743,35.10787635320079,0 33.5895343947598,35.10728653351677,0 33.58930724585642,35.10685215826538,0 33.58890118961549,35.10644376644162,0 33.58864350188328,35.106184267507,0 33.58857849994562,35.10613964581266,0 33.58833944526774,35.10602186877909,0 33.58825633520788,35.10599221052554,0 33.58799027622754,35.10594484477648,0 33.58759452860529,35.10590203177041,0 33.58754898579652,35.1058584329322,0 33.58735030851188,35.1057906605928,0 33.58736056849051,35.10575546184399,0 33.58693492234462,35.10569246324254,0 33.58694484594715,35.1055560051126,0 33.58691036642076,35.10532797818263,0 33.58684737412159,35.10510747619897,0 33.58683013131686,35.10499239637596,0 33.58680893292604,35.10485814046037,0 33.58675517720111,35.10468451768908,0 33.58673414932868,35.10460142508491,0 33.58667497705503,35.10435853093329,0 33.58664987774543,35.10422108487982,0 33.58662716328005,35.10402074496228,0 33.58657924693657,35.10365204875995,0 33.58651736589104,35.10337398608747,0 33.58642392664924,35.10296648223377,0 33.58631852854526,35.10247213967005,0 33.58621088307654,35.10208225898512,0 33.58612294486823,35.10186577203716,0 33.58597102866791,35.10149178220184,0 33.5858564633911,35.10127103572372,0 33.58573163019511,35.10093879356818,0 33.58560517724975,35.10061502951205,0 33.58541742820248,35.1000289311423,0 33.58536193671603,35.0998956192341,0 33.58525066163335,35.09967045740312,0 33.5850986275604,35.09934268240506,0 33.58504530872838,35.09918281189606,0 33.58499938254896,35.09901343290516,0 33.58490062420886,35.09858113952327,0 33.58486067417299,35.09847276073714,0 33.58469776946291,35.09809890948025,0 33.58430090090185,35.09731204583963,0 33.58414994023217,35.09705748303544,0 33.5840220558817,35.09679608805474,0 33.58382803281709,35.09648874176937,0 33.58361088892291,35.0961733109345,0 33.58335041631417,35.09572374743316,0 33.58322394135622,35.09538777661002,0 33.58309716045308,35.09495861607576,0 33.58305570539713,35.09462020077078,0 33.58303072801076,35.09441630295599,0 33.58297303087638,35.09401206627677,0 33.58292739730726,35.09376996912758,0 33.58290535434338,35.09368998767722,0 33.58289713023671,35.09352573207443,0 33.58289683343865,35.0934351727299,0 33.58297926628094,35.09339856184494,0 33.58309408400694,35.092968955911,0 33.5831463054619,35.09241970003082,0 33.58314474357378,35.09206012081,0 33.58383286847459,35.09196677598168,0 33.58449514961872,35.09180247116768,0 33.58511237145813,35.09166316774014,0 33.58563938869734,35.09156147686267,0 33.58598520445749,35.09142347955085,0 33.58646680920005,35.09129721789129,0 33.58693244558647,35.0910470983654,0 33.58720277939484,35.09089706870927,0 33.58717209092499,35.09082285736648,0 33.58834299221431,35.09009836879263,0 33.59253903037008,35.08760439694483,0 33.59402210034876,35.08663623018364,0 33.59524024819076,35.08143719945646,0 33.59568777906102,35.08073498878334,0 33.5959002534311,35.07935914399809,0 33.59589630999261,35.07881681107552,0 33.59629946752526,35.07654740246993,0 33.59668058990826,35.07487654160725,0 33.5973843972837,35.07040184852687,0 33.5975972982107,35.06869631912713,0 33.59766958804622,35.06861808909106,0 33.59784304924412,35.06842554496882,0 33.59798727940918,35.06822116419515,0 33.59809529834968,35.06804691357026,0 33.59811448922914,35.06768141075515,0 33.59809895656515,35.06754970160031,0 33.59806806616787,35.06731024255814,0 33.59803089471508,35.0672085909401,0 33.59808642792824,35.06683092836199,0 33.59820801082112,35.06651883423928,0 33.59822816244627,35.06628511326107,0 33.59839306362384,35.06591889245709,0 33.59860132742124,35.06550453441377,0 33.59858605681631,35.06540876556315,0 33.59877333532221,35.06511431693565,0 33.59892471105213,35.06489192846193,0 33.59900397595329,35.06477173176824,0 33.59914863474192,35.06459591103442,0 33.59926160998018,35.06440730974886,0 33.59938429242835,35.06412464059578,0 33.59942468618154,35.06396204086388,0 33.59940170850008,35.06366299543561,0 33.59939062637622,35.06356902949809,0 33.59941023014626,35.06340653249039,0 33.59950197501386,35.06315820442686,0 33.5995838859062,35.06298685232598,0 33.59961400894431,35.06284139745755,0 33.59960261421886,35.06270469581126,0 33.59953886865643,35.06251696857173,0 33.59950662107042,35.0623718219821,0 33.59954638887945,35.06212375163278,0 33.599586470014,35.06191841607871,0 33.59960532202259,35.06165335399211,0 33.59971779221284,35.06139637616297,0 33.59992431632437,35.06120731254154,0 33.6000997161765,35.06102694964429,0 33.60031763407173,35.06097458699227,0 33.60061896058853,35.06095600115739,0 33.60085810538216,35.06096336388712,0 33.60094011630842,35.06097150471316,0 33.60125859964807,35.06038818596846,0 33.60285488983347,35.05754268602264,0 33.60291644970199,35.05748568907327,0 33.60522700961152,35.05521232642662,0 33.60582073526783,35.05468922195379,0 33.60776999653145,35.05255613476744,0 33.60878763664245,35.05251414046985,0 33.60919852412429,35.05246345073285,0 33.60957871880025,35.05245897641776,0 33.61072730924247,35.05264333865981,0 33.61218944904476,35.05330833680368,0 33.6132781317495,35.05371358628918,0 33.61372287141634,35.05388737198042,0 33.61459671748987,35.05418891451447,0 33.61515696293682,35.05379209087099,0 33.61750518513028,35.05291675065786,0 33.61818000038901,35.0518319547318,0 33.61896602764905,35.05197883434316,0 33.61975827430831,35.05181031789974,0 33.62111713096924,35.05193882286726,0 33.62255808355923,35.05213411787614,0 33.62285382026656,35.05227797165046,0 33.62307206441366,35.05239912700686,0 33.62377812841763,35.05274351449599,0 33.62393371773362,35.05289791142731,0 33.62422623955906,35.05300927650028,0 33.62430219612765,35.05322051674106,0 33.62452670048555,35.05341218182017,0 33.62480796586775,35.05354711828178,0 33.62492863609177,35.05362174302135,0 33.62506725274647,35.05379973985208,0 33.62505127851141,35.05395501918147,0 33.62493917235712,35.05403854914086,0 33.62486028536413,35.05417985719713,0 33.62475815984727,35.05426962105195,0 33.62463368782092,35.05442525442704,0 33.62453059628496,35.05438821118707,0 33.62440637390133,35.05457671986296,0 33.62416742171887,35.05470006423942,0 33.62396791400655,35.05475275532589,0 33.62387164063244,35.05486127444325,0 33.62369612002585,35.05506413690561,0 33.62346319870196,35.05522971921384,0 33.62300292046536,35.0555420687058,0 33.62263005982199,35.05608410640921,0 33.62240980402723,35.05641400755705,0 33.62227646655234,35.05690784831415,0 33.62217008329102,35.05719019728657,0 33.62197449386257,35.0573663452747,0 33.62176208464049,35.05801643677773,0 33.62178581681917,35.05812918588627,0 33.62169823080205,35.05864695614062,0 33.62169716078267,35.05885056649981,0 33.62139022098243,35.05904940184134,0 33.62127141217706,35.05920030550565,0 33.62115845649763,35.05936996608047,0 33.62109055592375,35.05945485526551,0 33.62104028697719,35.05960540774186,0 33.62111025182312,35.05979291861038,0 33.62117553620521,35.06011665868726,0 33.62120598161695,35.06036542914276,0 33.62125927377095,35.06061408256839,0 33.62082492185698,35.06058342869885,0 33.62063639060229,35.06154835331254,0 33.62051414236778,35.06152889914129,0 33.62041301930982,35.06188079953762,0 33.62020181831531,35.06220816321582,0 33.62028785496628,35.06228301997806,0 33.61988179041113,35.06267663631761,0 33.62000487405884,35.06280652013725,0 33.6199808343701,35.06285684111084,0 33.61993851735026,35.06291227449328,0 33.6197982945462,35.06293808967797,0 33.6195287304384,35.06281397289198,0 33.61959455663077,35.0626379455674,0 33.61946601344162,35.06259342390523,0 33.61913851036449,35.06288122222688,0 33.61919978639403,35.06291102793831,0 33.61924244506273,35.06290077036535,0 33.61930398651068,35.06296571306783,0 33.61929841324991,35.06303601832067,0 33.61939036548355,35.06308574600659,0 33.61947553126356,35.06304515278722,0 33.61948789203956,35.06306516925839,0 33.61945221053406,35.06319084447615,0 33.61964237357883,35.06331034716556,0 33.61950711700154,35.06362488408156,0 33.61936144979058,35.06379107372953,0 33.61924815608945,35.06401487229113,0 33.61902696645161,35.06390832994139,0 33.61893158696861,35.06396659193502,0 33.61881966206325,35.06394877983907,0 33.61858865002137,35.06423357934666,0 33.6188087500104,35.06419569124377,0 33.61888207074265,35.06417693400108,0 33.61891748068646,35.06421351874476,0 33.61917019364287,35.06426475179313,0 33.61905627406235,35.06461723367509,0 33.61914486643484,35.06535209520497,0 33.61936891752836,35.06541397812972,0 33.61941164834746,35.06515114776934,0 33.61951484549066,35.06528192680362,0 33.62032574393466,35.06523051203652,0 33.62074099247572,35.06523364009529,0 33.62090755258262,35.0652958143814,0 33.62095941201827,35.06539534110908,0 33.62101107159918,35.06546860834496,0 33.62155159172043,35.06598581145373,0 33.62189281865373,35.06633596263475,0 33.62211120355426,35.06649240923753,0 33.62232308149785,35.06663313325593,0 33.62307290528713,35.06694967007487,0 33.62339382098694,35.0671476063345,0 33.62361919727945,35.06738279837919,0 33.62408169200708,35.06771656230812,0 33.62456399449484,35.06813425901821,0 33.62491139029796,35.0684528558733,0 33.6251438047673,35.06877204439525,0 33.62524741617571,35.06895533900593,0 33.62530056401182,35.06922292935624,0 33.62531634419636,35.06961676491063,0 33.62519206557123,35.07007435011513,0 33.62509949290775,35.07023922896114,0 33.6250028909235,35.07052394518151,0 33.62502115852055,35.07076069908091,0 33.62508037314583,35.07097017382687,0 33.62518058775025,35.07115913589074,0 33.6255792808516,35.07163077610137,0 33.62574684286894,35.07201563563264,0 33.62573948935143,35.07213071460721,0 33.62568306122054,35.07228664846919,0 33.62556078490963,35.07244292195761,0 33.62528213846365,35.0727087706987,0 33.62519919932988,35.07276018048899,0 33.6249555006675,35.07320434691408,0 33.6246635003175,35.07379533626587,0 33.62408365302904,35.07501552780964,0 33.62385561587759,35.07560937238713,0 33.62344550879588,35.0767267229914,0 33.62283587890706,35.07709310541602,0 33.62270613112074,35.07736142930724,0 33.62254343953157,35.07737501033718,0 33.62223510826805,35.07760601390399,0 33.6222240070605,35.07818599624441,0 33.62258088564784,35.07822240107673,0 33.62175921924061,35.07972120757111,0 33.62181419703205,35.07973970901873,0 33.62188736885597,35.0797468469632,0 33.6220343091187,35.07984000820797,0 33.6222183507588,35.08000435431084,0 33.62230083214973,35.08003398369343,0 33.62236474981829,35.08002614253164,0 33.6224055916708,35.0799883671647,0 33.62241416030464,35.07991319166885,0 33.62238511644804,35.0796992145461,0 33.62250244347474,35.07950326858696,0 33.6226600394123,35.07919441847208,0 33.62272744184045,35.07904380842685,0 33.62266998123558,35.07869849572717,0 33.62353317454604,35.0786339554063,0 33.62348642668331,35.07969731356068,0 33.62268205674391,35.07968642005621,0 33.622565472959,35.07998003333994,0 33.62259431762131,35.08016771494849,0 33.62236112217962,35.08015012950357,0 33.62232542094511,35.08026301089177,0 33.62187767881776,35.08027657702578,0 33.6211235128546,35.0802579026031,0 33.62097968832227,35.08117900608628,0 33.62094158577362,35.08127687305509,0 33.62182879586622,35.08136248567669,0 33.62180331596115,35.08161806523783,0 33.62163891921529,35.08163393436988,0 33.62161258377058,35.08177682011878,0 33.62178646229047,35.08180598130441,0 33.62177794992229,35.08188867049945,0 33.62170597319777,35.08203930341987,0 33.62180713558751,35.08212143029269,0 33.62196290701127,35.08217322351125,0 33.6220002633461,35.08227821690138,0 33.62222909416072,35.08232212186991,0 33.62218510801166,35.08254774382652,0 33.62226787722968,35.08261493747218,0 33.62160874345017,35.08247556721908,0 33.6214897017634,35.08244612476482,0 33.61940780428598,35.08150260007292,0 33.61871150253209,35.08128075823699,0 33.6186396908195,35.08145392889426,0 33.62029916698217,35.08213666626158,0 33.61993348332405,35.08333313422694,0 33.6201721391289,35.08346715241922,0 33.61998804949306,35.08450491448473,0 33.61986917590851,35.08449800814341,0 33.61969467477016,35.08559582667808,0 33.61923728151418,35.08554557123301,0 33.61907957495483,35.08644796030527,0 33.61785356500731,35.08628892318612,0 33.61746784795709,35.08726009000988,0 33.61809976347332,35.087422160676,0 33.61801085522129,35.0877531940022,0 33.61769599043419,35.08842347267045,0 33.61809935242547,35.08857919416562,0 33.61792023057426,35.08906846409438,0 33.61731611967603,35.08895884395682,0 33.61683156993096,35.08894628262081,0 33.61659868286687,35.09036952517523,0 33.61611172386078,35.09030791924724,0 33.61597018646778,35.09097765048505,0 33.61525582674903,35.09090771883393,0 33.61545119515903,35.09137444407891,0 33.61584202024873,35.09185777977265,0 33.61597036582348,35.09219128274761,0 33.6160302374124,35.09242966116142,0 33.61609895182328,35.09255660904466,0 33.61595758741363,35.0930665161785,0 33.6158516504554,35.09313865851765,0 33.615358770727,35.09453347388006,0 33.61463135487148,35.09434621797863,0 33.61518734328504,35.09490827897469,0 33.61546961212509,35.09511370426956,0 33.61537574255526,35.09550402822416,0 33.61429984270512,35.09531853858723,0 33.61411465623845,35.09644128213439,0 33.61417583939405,35.0968546877315,0 33.61414004199605,35.09724471647807,0 33.61361713784993,35.09722349594532,0 33.6134423937248,35.09844961419011,0 33.61304544418598,35.09844366622863,0 33.61281058299459,35.09939958121859,0 33.61329465981532,35.09940509012814,0 33.6133365387171,35.0998265493243,0 33.61312365952789,35.10113242031511,0 33.61274575958925,35.10108659472355,0 33.612668851005,35.10115858844377,0 33.61172835120659,35.1009644355912,0 33.61150878812738,35.10137925849616,0 33.61146311792507,35.1017454679895,0 33.61169788952466,35.10207048243936,0 33.61188271473472,35.10218889000241,0 33.61121290616509,35.10194563067024,0 33.61106959600267,35.10220094768083,0 33.61062213874008,35.10321362209044,0 33.61041157964824,35.10483771819133,0 33.61074091151249,35.1048599284949,0 33.61079068166612,35.10504266633598,0 33.61048142321219,35.10511582904079,0 33.61018237844358,35.10526054366092,0 33.60942885556063,35.10547914713806,0 33.60960048250323,35.10642505532805,0 33.60960871692871,35.10753090623565,0 33.60954799765232,35.10847798230536,0 33.6100323059879,35.10850736991438,0 33.61003479599272,35.10884151150952,0 33.6099480189182,35.10888968419826,0 33.61002713065942,35.1091120558324,0 33.60984401108791,35.10922436247185,0 33.60977831540843,35.10950315438616,0 33.60967768362132,35.11029130965679,0 33.60956831773326,35.11120680624915,0 33.6094331279203,35.11125522199646,0 33.60926152093511,35.1116141066049,0 33.60945788217532,35.11197909812929,0 33.60956473768646,35.11202629687868,0 33.60958487188388,35.11212962427896,0 33.60966250446796,35.11215310277917,0 33.6096442663442,35.11230435916519,0 33.609557544647,35.11236048789293,0 33.60958070069317,35.11286955803385,0 33.60891300077609,35.11292065074383,0 33.60862283735782,35.11296188734341,0 33.60848480992562,35.11308221957173,0 33.60923295458606,35.11343106457627,0 33.6082045680198,35.11334447041155,0 33.60748891580037,35.11390655447396,0 33.60709464527581,35.11397340572104,0 33.60697099986635,35.11411060589329,0 33.60679323339973,35.1142344180465,0 33.60614225010045,35.11386549303447,0 33.60597212484338,35.1139985348163,0 33.60653478321012,35.11463557970077,0 33.6062369718593,35.11487230169313,0 33.6057430543051,35.11438990933871,0 33.60539710360862,35.11424822763034,0 33.6052440749216,35.11490799361105,0 33.6054144691556,35.11491055719215,0 33.60552658722879,35.11489975373814,0 33.60571007904354,35.11498761436568,0 33.60588420951523,35.11513194514428,0 33.60598985844483,35.11525547314384,0 33.606078883275,35.11540917088507,0 33.60609233645861,35.11554227010892,0 33.60607322759027,35.11576772397387,0 33.60600037838162,35.11603100577204,0 33.60599741131355,35.11619150291215,0 33.60609746958978,35.11623539177472,0 33.60596571122927,35.11646951053364,0 33.60568939436877,35.11668473272917,0 33.60555122997605,35.11654542760201,0 33.60567944108255,35.11646283864874,0 33.60580737500677,35.11634269167948,0 33.60591007198621,35.11618169607956,0 33.60590429880219,35.11596319558644,0 33.60594919858064,35.11585370691865,0 33.60601850037022,35.11567239127785,0 33.60600512422495,35.1155495351004,0 33.60583261592384,35.11527668019912,0 33.60577820640682,35.11520921779086,0 33.60556767329209,35.11539806789916,0 33.6050207440577,35.11527392869461,0 33.60493901136561,35.11542409055915,0 33.60423355154348,35.1153705806362,0 33.60435221612496,35.11512072935314,0 33.60369451372217,35.11496693876933,0 33.60381134052771,35.11446783739294,0 33.60337470592867,35.11442562240552,0 33.60333664503435,35.11456690434033,0 33.60328167568726,35.11477095154196,0 33.60277847869903,35.1147188231257,0 33.60271841140376,35.11502642772694,0 33.60190358798572,35.11497925922581,0 33.60213348368666,35.11403229554817,0 33.60184213616893,35.11396886636606,0 33.60181871109108,35.11417385422124,0 33.60177365492908,35.1142628553045,0 33.60146353791767,35.11447268046125,0 33.60087255571104,35.11434927375269,0 33.60083398027535,35.11418898255404,0 33.60105821575233,35.11416738402136,0 33.60102050398066,35.11299297682366,0 33.60065902279914,35.11299818300394,0 33.60062354380018,35.11340127123185,0 33.60034491573164,35.11337192112097,0 33.5995219870784,35.113350385259,0 33.59949397595571,35.11349734740483,0 33.59933404778862,35.11350496808495,0 33.5993308026985,35.11391301828312,0 33.59955313531759,35.11391533331369,0 33.59953557472839,35.11407078087225,0 33.59941085363532,35.11406286145702,0 33.59940535842553,35.11416361673049,0 33.59947652455992,35.11423504282938,0 33.59952657470308,35.11426033179995,0 33.59944289032575,35.1144764258495,0 33.59968731162306,35.11439807469782,0 33.59969738032088,35.11431924033117,0 33.59998489662824,35.11431306724105,0 33.60004825945438,35.11417352876845,0 33.60017349485418,35.11415341793094,0 33.6002627193861,35.11384389617913,0 33.6005142921765,35.11395403004264,0 33.60033686237829,35.11425006590235,0 33.60026221025527,35.11423651355939,0 33.59977880425754,35.1143976220377,0 33.59938116231261,35.11454787001518,0 33.59900171607403,35.1143704835675,0 33.59857264858149,35.11434318152347,0 33.59848567015404,35.11463077174897,0 33.59669469743788,35.11429050265092,0 33.59667487936584,35.11439195117996,0 33.59664332714789,35.11476372702251,0 33.59808484556976,35.11510572149513,0 33.59759882946876,35.11517568520409,0 33.59764827446533,35.11537814334493,0 33.59769054017857,35.11553559239044,0 33.59640354002332,35.11571084906044,0 33.59642298944093,35.11555872692888,0 33.59605288363822,35.11554928626499,0 33.59605390880049,35.11569004654689,0 33.59556694500279,35.11563050348187,0 33.59552164184093,35.11599671553652,0 33.59519252488605,35.11597017874931,0 33.59381537085766,35.11599945608256,0 33.59278009748794,35.11592569450045,0 33.59275415540719,35.11612852330897,0 33.59276920685473,35.11631425951887,0 33.59279832896374,35.11655060239316,0 33.59277879102633,35.11669146326859,0 33.59269741828678,35.11681010426604,0 33.59258843315568,35.116900726955,0 33.59223312637965,35.11704322875136,0 33.59203465066058,35.11707798165264,0 33.59181712366501,35.11732116017651,0 33.5915999617089,35.11761501200296,0 33.59070959285637,35.11743365714385,0 33.59017213076087,35.11727287398864,0 33.59000941689629,35.11751578240347,0</coordinates>
						</LinearRing>
					</outerBoundaryIs>
				</Polygon>
			</MultiGeometry>
		</Placemark>
	</Document>
</kml>