<?xml version='1.0' encoding='UTF-8'?>
<kml xmlns="http://www.opengis.net/kml/2.2">
	<Document>
		<name>TSAKISTRA</name>
		<Style id="PolyStyle70">
			<LabelStyle>
				<color>00000000</color>
				<scale>0.000000</scale>
			</LabelStyle>
			<LineStyle>
				<color>ff0055ff</color>
				<width>2.000000</width>
			</LineStyle>
			<PolyStyle>
				<color>00828282</color>
				<outline>1</outline>
			</PolyStyle>
		</Style>
		<Placemark id="ID_70362">
			<name>TSAKISTRA</name>
			<snippet />
			<description>&lt;html xmlns:fo="http://www.w3.org/1999/XSL/Format" xmlns:msxsl="urn:schemas-microsoft-com:xslt"&gt;

&lt;head&gt;

&lt;META http-equiv="Content-Type" content="text/html"&gt;

&lt;meta http-equiv="content-type" content="text/html; charset=UTF-8"&gt;

&lt;/head&gt;

&lt;body style="margin:0px 0px 0px 0px;overflow:auto;background:#FFFFFF;"&gt;

&lt;table style="font-family:Arial,Verdana,Times;font-size:12px;text-align:left;width:100%;border-collapse:collapse;padding:3px 3px 3px 3px"&gt;

&lt;tr style="text-align:center;font-weight:bold;background:#9CBCE2"&gt;

&lt;td&gt;1&lt;/td&gt;

&lt;/tr&gt;

&lt;tr&gt;

&lt;td&gt;

&lt;table style="font-family:Arial,Verdana,Times;font-size:12px;text-align:left;width:100%;border-spacing:0px; padding:3px 3px 3px 3px"&gt;

&lt;tr&gt;

&lt;td&gt;DIST_CODE&lt;/td&gt;

&lt;td&gt;1&lt;/td&gt;

&lt;/tr&gt;

&lt;tr bgcolor="#D4E4F3"&gt;

&lt;td&gt;VIL_CODE&lt;/td&gt;

&lt;td&gt;426&lt;/td&gt;

&lt;/tr&gt;

&lt;tr&gt;

&lt;td&gt;VIL_CCD&lt;/td&gt;

&lt;td&gt;1426&lt;/td&gt;

&lt;/tr&gt;

&lt;tr bgcolor="#D4E4F3"&gt;

&lt;td&gt;VIL_NM_E&lt;/td&gt;

&lt;td&gt;TSAKISTRA&lt;/td&gt;

&lt;/tr&gt;

&lt;tr&gt;

&lt;td&gt;VIL_NM_G&lt;/td&gt;

&lt;td&gt;ΤΣΑΚΙΣΤΡΑ&lt;/td&gt;

&lt;/tr&gt;

&lt;/table&gt;

&lt;/td&gt;

&lt;/tr&gt;

&lt;/table&gt;

&lt;/body&gt;&lt;script type="text/javascript"&gt;

				function changeImage(attElement, nameElement) {

				document.getElementById('imageAttachment').src = attElement;

				document.getElementById('imageName').innerHTML = nameElement;}

			&lt;/script&gt;&lt;/html&gt;

</description>
			<styleUrl>#PolyStyle70</styleUrl>
			<MultiGeometry>
				<Polygon>
					<extrude>0</extrude>
					<altitudeMode>clampToGround</altitudeMode>
					<outerBoundaryIs>
						<LinearRing>
							<coordinates> 32.71808712100633,35.03360996749457,0 32.71794217844393,35.03373445920757,0 32.71746807139724,35.0332457767346,0 32.71600853340619,35.03164278194903,0 32.71333681612811,35.02882465455838,0 32.71020718676526,35.02575915643782,0 32.70986947270648,35.02562407034819,0 32.70941698320389,35.02550081371741,0 32.70926860302974,35.02546039470928,0 32.70907078848308,35.02544560969451,0 32.70881438608018,35.025436352825,0 32.70831188552201,35.02552456063733,0 32.70791121753665,35.02553700826348,0 32.70758093170863,35.025535354699,0 32.70733492866687,35.02553990247628,0 32.70722230028991,35.02556535282972,0 32.70707416788048,35.02563976005023,0 32.70694711849584,35.02571427028477,0 32.70685938625566,35.02569938056899,0 32.70657548196301,35.02560257331162,0 32.70629869307804,35.02549424443279,0 32.7061831924922,35.02543296754524,0 32.70602597638757,35.02531078330186,0 32.70586130499198,35.02524636903012,0 32.70564052165467,35.0251672208443,0 32.70554972268992,35.02509161479707,0 32.70546605784804,35.02500159335715,0 32.70525579795346,35.02492538700689,0 32.7050173821089,35.02485481874792,0 32.70473018770083,35.02472908972705,0 32.70450233792752,35.02465568595773,0 32.70429216528703,35.02456791653431,0 32.70407824160998,35.02451192167849,0 32.70387548300636,35.0243721657753,0 32.70372469756347,35.0243309408742,0 32.70359486246234,35.02430716256573,0 32.70333584540642,35.02417290221655,0 32.70299620579925,35.02401221990969,0 32.70288394445654,35.02398853072287,0 32.70269804324903,35.02394423667026,0 32.70248524536336,35.02373794795621,0 32.70236698939879,35.02357548976551,0 32.70237839024488,35.02345993490341,0 32.70249895424026,35.02331313403558,0 32.70265758172173,35.02324456774026,0 32.7028932113629,35.02321685285016,0 32.70303079964012,35.02314239695651,0 32.70312336038074,35.02298100594628,0 32.7031811928173,35.02276451803769,0 32.70302696187822,35.02271460496368,0 32.70278840335894,35.02266426615795,0 32.70259582853098,35.02257369199859,0 32.70241079338248,35.02241378974158,0 32.70222632399411,35.02217873986163,0 32.70207017945642,35.02191492909877,0 32.70202890283122,35.02179621613526,0 32.70200894225533,35.02164581737855,0 32.70202747976872,35.02151584468635,0 32.70212062389777,35.02127641623679,0 32.70215655549228,35.02116965452322,0 32.70216440374175,35.0210598609106,0 32.70211588272497,35.02097001530781,0 32.70201084577702,35.02092034787388,0 32.70188438156012,35.02091681831785,0 32.70175071655665,35.02093637524873,0 32.70141594037687,35.02106763904747,0 32.70128229977574,35.02108430556639,0 32.70109985562502,35.0210486982538,0 32.70097375861682,35.02099603401403,0 32.70089689580989,35.02093783728282,0 32.70082664638023,35.02093459118598,0 32.70072798708431,35.02097166675442,0 32.7006189393162,35.02098845628469,0 32.70055944692782,35.02095636135982,0 32.70052825816759,35.02089839606757,0 32.70053763253903,35.02083524583395,0 32.70055404241394,35.02072470453859,0 32.70041034674082,35.02067129318094,0 32.70014021800985,35.02039772903829,0 32.69997540343466,35.02031347875994,0 32.69988560265244,35.02019009741085,0 32.69991577214036,35.01972488562986,0 32.69977787175202,35.01961004069377,0 32.69962277935196,35.01965315500112,0 32.69959000622049,35.0197539654108,0 32.69947157655626,35.01988945953452,0 32.69933806014216,35.01990195425452,0 32.69924763537691,35.01986198475949,0 32.69916356473807,35.01968594885457,0 32.69892924027023,35.01961890332375,0 32.69858245852116,35.01960397047798,0 32.69834705591162,35.01968180110661,0 32.69810772826248,35.0195708261363,0 32.69784610504654,35.01958705958204,0 32.69761752024912,35.01946735849646,0 32.69756053202878,35.01923877572237,0 32.69766387473914,35.01898027764039,0 32.69731245238496,35.01887312236651,0 32.69723849366002,35.01877176871658,0 32.6971165178299,35.01867017350506,0 32.69642358595486,35.01855688868254,0 32.6962692224085,35.01850341779108,0 32.69612678502433,35.01828317853447,0 32.69558871406576,35.01815750705809,0 32.69540886457078,35.01794585559701,0 32.69535254664676,35.01762947141658,0 32.69503855736851,35.01751372102625,0 32.69485261169554,35.01740301436898,0 32.69479052688892,35.0171436726574,0 32.69467912147255,35.0170553010738,0 32.6941305571251,35.01690761738535,0 32.69393383933158,35.01681002398652,0 32.69392495683365,35.01657290619554,0 32.69375611390721,35.01631740783836,0 32.69362486527388,35.01603137024547,0 32.69368231556176,35.0154916648796,0 32.69358825557623,35.01522776892852,0 32.69323838229285,35.01491865943078,0 32.6932080579149,35.01469460120261,0 32.6930914924375,35.01458424835766,0 32.69299484089211,35.01466277643237,0 32.69277058329463,35.01467918904846,0 32.69257930468412,35.01456845095949,0 32.69234417176958,35.01461114683102,0 32.69216847387726,35.01455756164837,0 32.69179529893375,35.0145073537266,0 32.69153371048913,35.01451918107961,0 32.69135982146391,35.01493096981469,0 32.69120910330211,35.01510141480341,0 32.69094752056359,35.01511323999965,0 32.69078149559943,35.01519140934482,0 32.69062210402387,35.01509839474076,0 32.69049789965365,35.01529092453347,0 32.68994080325323,35.01556464161726,0 32.68980619432645,35.01572199769001,0 32.68964573302232,35.0157694619587,0 32.68954884342003,35.01587871880301,0 32.68943133876714,35.01589128506652,0 32.68935616680703,35.01595236047835,0 32.68877695672063,35.01632693235565,0 32.68871808717605,35.01634858044871,0 32.68854718916759,35.0163652572977,0 32.68800881151927,35.01628345155855,0 32.68791879257614,35.01619079201701,0 32.68759813193985,35.01625059754588,0 32.68726798326063,35.01615669541314,0 32.68627427203471,35.015602771274,0 32.68568088917133,35.01573579292896,0 32.68542467944132,35.01574324282736,0 32.68490765378239,35.01566153457047,0 32.68415103155686,35.01550833561993,0 32.68304583529407,35.01523982282925,0 32.68296198780622,35.01520611243964,0 32.68279950258647,35.01519328253985,0 32.68252385295205,35.01521819553049,0 32.68221951347046,35.01522817375658,0 32.6817930792368,35.01522554030037,0 32.68152273532861,35.01523271684871,0 32.68111077796391,35.01524430103774,0 32.68087387571666,35.01523388533261,0 32.68070271564135,35.01522036727254,0 32.6805991500332,35.01516526584244,0 32.68041894752371,35.0148993806996,0 32.68036899599825,35.01479224598273,0 32.6802511465894,35.01460517736005,0 32.68016181104806,35.01441006376065,0 32.67998763783197,35.01409044029811,0 32.67992612482131,35.0139872321426,0 32.67990299311022,35.01398076203523,0 32.67988763673067,35.01396798355297,0 32.67988015446409,35.01393619954137,0 32.67985705995502,35.01392496731557,0 32.67979502171392,35.01395321375175,0 32.67977379721802,35.01394992796367,0 32.6797720365803,35.01392769697797,0 32.67980507280818,35.01390247313208,0 32.67984220700965,35.01384711385992,0 32.67985028926161,35.0138011248414,0 32.67983890770535,35.01377408193198,0 32.67976743242023,35.01377370767859,0 32.67978370038278,35.01374740205913,0 32.67978393678942,35.01371682828034,0 32.67976184623795,35.01368613610085,0 32.67979241988651,35.0135823387924,0 32.67975629600014,35.01344150099025,0 32.67970434118372,35.01342288386061,0 32.67968272362811,35.01333104320376,0 32.67959398283296,35.01325719621533,0 32.67959483502718,35.01314712772253,0 32.67955074810061,35.01307351485414,0 32.67965692806557,35.01281723442551,0 32.67953502113529,35.01271733621218,0 32.67939132407682,35.01261298769339,0 32.67915437311774,35.01242234194928,0 32.67900354913002,35.01230612945308,0 32.67893914503104,35.01222592461233,0 32.67886354198809,35.01219294081135,0 32.67874077390648,35.01218626451313,0 32.6784589329674,35.01219633075143,0 32.67826751079423,35.01219218265436,0 32.6781377243768,35.01215886095917,0 32.6780621217211,35.01212587666073,0 32.67797844674985,35.01202013430928,0 32.67793204070494,35.01194891067008,0 32.67787533079866,35.01180964381902,0 32.67780711522522,35.01175601838764,0 32.67769541774072,35.01171985517974,0 32.67755679651285,35.01171599399499,0 32.67745204636358,35.01171533978168,0 32.67737653901648,35.01167053497041,0 32.67728697741908,35.01157539974216,0 32.67718644397382,35.0114979292673,0 32.6771220306468,35.01142068460315,0 32.67703575921323,35.01136694850668,0 32.67696701434959,35.011381296481,0 32.67689065025447,35.01144583781308,0 32.67680351713069,35.01150144708214,0 32.6767126091916,35.01157772123427,0 32.67660021284458,35.01163021806249,0 32.67640504102636,35.01164377537899,0 32.67624603547347,35.0116516480402,0 32.67599848335238,35.0116491008022,0 32.67574570118914,35.01163865255224,0 32.6756120263934,35.01164077067179,0 32.67548907072293,35.01165773396553,0 32.67541696755571,35.01163955060251,0 32.67540648462672,35.01159515100525,0 32.6753999450228,35.01150939933297,0 32.67540053603165,35.01143551591258,0 32.6753684758835,35.01137916074385,0 32.67530393074099,35.01131964752702,0 32.67525380967977,35.01126318001005,0 32.67515704082651,35.01116800049151,0 32.67506737679342,35.01108764305736,0 32.67500692020104,35.01096905155146,0 32.67493208736289,35.01084150465187,0 32.67487763789136,35.01078036683842,0 32.67469097920237,35.0106343899093,0 32.67458687626052,35.01055394654303,0 32.67455797997484,35.01055376540539,0 32.67452509139568,35.01060084139245,0 32.67446605998479,35.01075414197228,0 32.67444602937961,35.01081176028983,0 32.67441251951172,35.01093567263945,0 32.67436867419329,35.01099745923172,0 32.67423084043682,35.01106752283314,0 32.67412958120612,35.01108166474452,0 32.67403215032147,35.0110692312324,0 32.67384458218276,35.01103554513627,0 32.67373982967322,35.01103488681387,0 32.67369629194962,35.01105825631077,0 32.6736558862086,35.01114075393196,0 32.67360803746806,35.01124980452316,0 32.67357030950458,35.01137857025515,0 32.67353389749526,35.01141380803848,0 32.67341030980811,35.01150761008596,0 32.67336662454549,35.01154871272558,0 32.67338052050103,35.0116167794818,0 32.67337271715751,35.01168766518075,0 32.67335051359696,35.01175255012495,0 32.67318362056854,35.01184017242315,0 32.6730527758662,35.01193689048549,0 32.67297262563758,35.01201914828987,0 32.67293147055303,35.01208013211943,0 32.67288768506429,35.01213306185841,0 32.67285793805091,35.01223632962182,0 32.67282806855177,35.01235437854966,0 32.67279868311027,35.01241331267371,0 32.67268630447205,35.01245990250089,0 32.67261400403132,35.01246536031742,0 32.67242639086803,35.01243462225991,0 32.67230375618897,35.01241020525242,0 32.6722085892937,35.01234709759129,0 32.67215891436106,35.01223741732264,0 32.67213050102057,35.01217812081017,0 32.67208016920542,35.01214824695553,0 32.67200828435091,35.01210345581314,0 32.67190408136576,35.01203481761282,0 32.67180315019176,35.01200758052807,0 32.67171256758691,35.01203952440895,0 32.67158934885845,35.0120860433391,0 32.67144052191453,35.01217082756173,0 32.67134929739719,35.01227962189167,0 32.67123676498901,35.01234394541954,0 32.67113912337785,35.01235515419047,0 32.67102757360223,35.01230124528893,0 32.67077384986234,35.01218147690619,0 32.67061919708512,35.01209773806376,0 32.67052536792968,35.01208532413077,0 32.67037326569675,35.01212870399272,0 32.67028982637873,35.01216956143176,0 32.67019834363482,35.01230791449196,0 32.67013261836254,35.01239026729248,0 32.67003128704893,35.01241032070407,0 32.66994111663921,35.01239201736654,0 32.66985528207498,35.01228801683952,0 32.66984514167367,35.01220518652088,0 32.66986736458254,35.01212339072274,0 32.66991943509974,35.01194636703745,0 32.67000025524283,35.01178726241974,0 32.67003742603961,35.01166335586926,0 32.67004856180657,35.0116279575857,0 32.67014993668862,35.01160199545701,0 32.67021149881949,35.01158464902974,0 32.67018993310837,35.01155061586809,0 32.67011078082322,35.01151169283877,0 32.66997709299215,35.01151380471708,0 32.66989061742638,35.01148665853103,0 32.66982960256131,35.01143898316936,0 32.66977516586925,35.01146819706955,0 32.6696827532941,35.01155112064301,0 32.66948717546799,35.01160900122577,0 32.66940032436355,35.01162618736308,0 32.66921239421482,35.01163386835753,0 32.66913663018034,35.01162156748613,0 32.66897810215628,35.01157031943234,0 32.66880567793647,35.01145395785935,0 32.66874105371598,35.01140625858202,0 32.66869411680011,35.01140300704913,0 32.66857482561606,35.01141112048149,0 32.66820079209306,35.01140570415818,0 32.66803820017457,35.01140763122115,0 32.66793330756731,35.01142174630242,0 32.66786790044749,35.01146566846823,0 32.66773413077787,35.01147664493161,0 32.66763666547421,35.01146716105201,0 32.66753220393374,35.01143103175395,0 32.66739200915185,35.01129973427042,0 32.66739197856209,35.01129971255247,0 32.66744261145342,35.01129796191235,0 32.66744299408331,35.0112978989598,0 32.66769859298525,35.0112561005989,0 32.66769897111926,35.01125606557729,0 32.66794935071827,35.0112328406036,0 32.66818884414182,35.01121337943522,0 32.66838632866575,35.0112042757398,0 32.66838668826109,35.0112042190313,0 32.66857639727652,35.01117441968805,0 32.66872361921482,35.01112358751701,0 32.66888860594828,35.01106665773956,0 32.66908279888537,35.0110137321547,0 32.66908322188346,35.01101371077242,0 32.66926256260481,35.01100452012476,0 32.6692626140842,35.01100452387072,0 32.66942940915385,35.0110262752297,0 32.669429457292,35.01102629248783,0 32.66949499587166,35.01105153317889,0 32.669495039602,35.01105155673494,0 32.66960189408648,35.01111364277789,0 32.66960194222472,35.01111366003592,0 32.66963265741771,35.01112392699687,0 32.66969339313154,35.01112431043786,0 32.66969375167351,35.01112424290555,0 32.66974593187874,35.01111447827442,0 32.66984596421018,35.01103831439704,0 32.66994018943505,35.0109959947312,0 32.67004621431104,35.01095343844505,0 32.67021517431315,35.01088787573435,0 32.67039232777497,35.01083252921046,0 32.67047581804101,35.01081822679623,0 32.670475879323,35.01081824499103,0 32.67053503847111,35.01083441122262,0 32.6705350833117,35.0108344311756,0 32.67076190125559,35.01094199396119,0 32.67076194718468,35.01094201571988,0 32.67093988786993,35.01102352070622,0 32.67093993270712,35.01102354156047,0 32.67100450913617,35.01105441812086,0 32.67100455840998,35.01105442546579,0 32.67109968510967,35.0110629258679,0 32.67109973548995,35.01106293051154,0 32.6711589903474,35.01106894579353,0 32.67130527556676,35.0110732541973,0 32.67154338902287,35.01105910916706,0 32.67172016100382,35.01104892899292,0 32.67172048109646,35.01104888659042,0 32.67190183047988,35.01102500971637,0 32.67204320687254,35.0109547546156,0 32.67211260280625,35.01090889028823,0 32.67214216533322,35.01083906131414,0 32.67215664546403,35.01078323303534,0 32.67216551441875,35.01071214566225,0 32.67218552690461,35.01062870736179,0 32.67218886404135,35.01055871469445,0 32.67220051690031,35.0104947704864,0 32.67222603110573,35.01041362672886,0 32.67227123118113,35.01028857019085,0 32.67233864739749,35.01017053618684,0 32.67238488023595,35.01008726868202,0 32.67241133617739,35.01005920582154,0 32.67245970826027,35.0100516066742,0 32.67252879032948,35.01004300781892,0 32.67254825189932,35.01002619382616,0 32.67255401445374,35.00999687170863,0 32.67256629995996,35.00987443051589,0 32.67258609546088,35.00981697051875,0 32.6726506474369,35.00968752922711,0 32.67270996910959,35.00955140327536,0 32.67273561674767,35.00945333646717,0 32.67274318339039,35.0093720910091,0 32.6727532418136,35.00933668685094,0 32.67278660400214,35.00930754188781,0 32.67282943393665,35.00930217038724,0 32.67282947995153,35.00930217051127,0 32.67282954787469,35.00930217159576,0 32.67287358558119,35.00930357391265,0 32.67287361509042,35.00930359202059,0 32.67295866107309,35.0093639487197,0 32.67302389054868,35.0094885566892,0 32.6730651379667,35.00957198348694,0 32.67306518610479,35.00957200074359,0 32.67308440418512,35.00957887897137,0 32.67308462737659,35.00957868216118,0 32.67309969651946,35.00956542587708,0 32.6731055309217,35.00952707438417,0 32.67310936351883,35.00940338442581,0 32.67310859178157,35.00932886272592,0 32.67312661610474,35.00931881444313,0 32.67312666646973,35.00931882269155,0 32.67312700154179,35.00931886866496,0 32.67316108141953,35.00932354957393,0 32.67316112295884,35.00932357312273,0 32.67320227263708,35.00934977556759,0 32.67325433983356,35.00939752161727,0 32.67325492621998,35.00939746189913,0 32.6732750475466,35.00939539952471,0 32.67327831498347,35.00933331930167,0 32.67326981474741,35.00919100792105,0 32.67326551733309,35.00905033221171,0 32.67325337218499,35.00898073140137,0 32.67334700415553,35.00887164547488,0 32.67334703909604,35.00887167531582,0 32.67334728340018,35.00887195451258,0 32.67338256514819,35.00891242323107,0 32.67346770925214,35.00904154208808,0 32.67346774650574,35.00904154128688,0 32.67346830660965,35.00904147789129,0 32.67348547234188,35.00903958330777,0 32.6734712751966,35.0089150569823,0 32.67347659839692,35.00888398217024,0 32.67352234687687,35.00886975279293,0 32.67350282650243,35.00877630669086,0 32.67336673006314,35.00867797853107,0 32.67327608813945,35.00859559072575,0 32.67326686174773,35.00848354891777,0 32.6732976192305,35.00844226726642,0 32.67335616004256,35.00841360366022,0 32.67344248417863,35.00839755896052,0 32.67344253121338,35.0083975780169,0 32.6734425694978,35.00839759344408,0 32.67350060199342,35.00842073581232,0 32.67350065013093,35.0084207530688,0 32.67353598970708,35.00843340132171,0 32.67353604006799,35.00843341047138,0 32.67366005078821,35.00845284867709,0 32.67366024631004,35.00845272120091,0 32.67373905518824,35.00840150153804,0 32.67374202789438,35.00834760360582,0 32.6737280564216,35.00823211735962,0 32.67373883520305,35.00815338550537,0 32.67378478280038,35.00811427551696,0 32.67386386846536,35.00805256486453,0 32.67397850933413,35.00798278458432,0 32.67415446912702,35.00785325671712,0 32.67427249531799,35.00779274915568,0 32.6743207578893,35.00778061210949,0 32.67445278284752,35.00775448790675,0 32.67451378558225,35.00773413604053,0 32.67454205137863,35.00768662306658,0 32.67456276382491,35.00763284207946,0 32.67457832332695,35.00758939739978,0 32.67460393838234,35.00755638298482,0 32.67467327774689,35.00744485202284,0 32.67477899300133,35.00729715878831,0 32.67486355398263,35.00718365381578,0 32.67494045853049,35.00707632375144,0 32.6749796532705,35.00696150912102,0 32.6750486851496,35.00688730589484,0 32.67505702034242,35.0067961340463,0 32.6750528661944,35.00668552475119,0 32.6750742728852,35.00654468077335,0 32.6751210734616,35.00639777959329,0 32.6751598787345,35.00632452661845,0 32.67523634443013,35.00627110832929,0 32.67535469771367,35.00620217948079,0 32.67563950210743,35.00605627226678,0 32.67563951072238,35.00605631014954,0 32.67563955271586,35.0060564959547,0 32.67567218231027,35.00620210242411,0 32.6756722216505,35.00620212776903,0 32.67571097433912,35.00622866911625,0 32.67571102027048,35.00622868997166,0 32.67575685777202,35.00624806860152,0 32.67575720466004,35.00624789375081,0 32.67577893445228,35.00623696706345,0 32.67584378335026,35.00620300610701,0 32.67589633176927,35.00603307150132,0 32.67600595596151,35.00600745818225,0 32.67608779007424,35.00597351538557,0 32.67617038801201,35.00584136011518,0 32.67617040893752,35.00584133222691,0 32.67617074379885,35.00584087249351,0 32.67672741714793,35.00507821702806,0 32.67686167544252,35.00495451715723,0 32.6770217454859,35.00483750135427,0 32.6772310072316,35.00453413618756,0 32.67747961256514,35.00428826875043,0 32.67753434232396,35.00415760422771,0 32.67771794333552,35.00382791246992,0 32.67775269034483,35.00370860048158,0 32.67799504650429,35.00324171537029,0 32.67800916856032,35.00270324652126,0 32.67811991691761,35.00253195171069,0 32.67820514424093,35.00231632747984,0 32.67826494146435,35.00204491342907,0 32.67829834524277,35.00184211150549,0 32.67829595169407,35.00163748487241,0 32.67847422037261,35.00148127725558,0 32.67868236695472,35.00132031412859,0 32.67887281250659,35.00113306789759,0 32.67914973434036,35.00082514298411,0 32.6793058639697,35.00070155579056,0 32.6794796556423,35.00060916189957,0 32.67970075809929,35.00031567512546,0 32.67993426316064,34.99996168735976,0 32.68013013810302,34.99984321758183,0 32.68032332792851,34.99981476374879,0 32.68065911678357,34.99935327329159,0 32.68065622617247,34.99921248409806,0 32.68074171468023,34.99921947864434,0 32.68108485080882,34.99935222365387,0 32.68130095494548,34.99918966150558,0 32.68146990725083,34.99920854986339,0 32.68164107482441,34.99919798437901,0 32.68220579240718,34.99897339966996,0 32.6827380754475,34.99882721539702,0 32.68317233573732,34.99879412879923,0 32.68345630869196,34.99877249176249,0 32.68367834090395,34.99882651771662,0 32.68399751449573,34.99867634430796,0 32.68437852925917,34.99862680892723,0 32.6847065597001,34.99882508390888,0 32.68511277869356,34.99914170500725,0 32.68553504800808,34.99929979601609,0 32.6858942875804,34.99951178535616,0 32.68602521723818,34.99941350112552,0 32.68622408054659,34.99948095861291,0 32.68634047762543,34.99955883411467,0 32.68634755437727,34.99971070438858,0 32.68650337118957,34.99980505232732,0 32.68665015274798,35.00000373633326,0 32.68723784407835,35.00007862776148,0 32.68760956878982,35.00016731233971,0 32.68801298128136,34.99999045027937,0 32.68820111044454,34.99995346416412,0 32.68851908075075,34.99996052821561,0 32.68866690782584,34.99980674779142,0 32.68874713302472,34.99965803925431,0 32.68881084097463,34.99951466891685,0 32.6889086674792,34.99943518964027,0 32.689113656362,34.99934812976306,0 32.68924590739471,34.99929187340173,0 32.68934966396063,34.99908228123729,0 32.68937719303091,34.99892923586499,0 32.68939817312231,34.99877073183178,0 32.68958731514006,34.99838398834223,0 32.68973689854808,34.99799839731279,0 32.68981538391341,34.99764497562824,0 32.68998821662841,34.99745200670893,0 32.68990553560597,34.99727399058106,0 32.69005050172846,34.99727880390829,0 32.69007771670807,34.99716642436319,0 32.69010395915036,34.99696592182735,0 32.6902559662897,34.99691112188432,0 32.69040327240166,34.99639130838662,0 32.69091964584486,34.99587339216467,0 32.69113178802031,34.99549354370771,0 32.69127339920248,34.99553887326097,0 32.69130987597115,34.99547548051399,0 32.69153220323012,34.99527327385633,0 32.69191781743554,34.99504885912317,0 32.6923062987505,34.99509830041753,0 32.69261255185496,34.99512698523112,0 32.6930390450752,34.99494344725057,0 32.6935137087324,34.99470863827471,0 32.69380701432573,34.99492433294308,0 32.69401299939361,34.99492132051197,0 32.6945904134441,34.99460705058497,0 32.69488346536887,34.99442011088716,0 32.69526544428068,34.99423904835763,0 32.69568694488065,34.99406089793661,0 32.69620415743239,34.99386289824097,0 32.69612128317189,34.99370928639423,0 32.69666517104381,34.99390727339826,0 32.69675423588723,34.99367590910168,0 32.69710325221683,34.99371428956356,0 32.69718682434574,34.99355610240957,0 32.69778421285991,34.99365132743007,0 32.69826723427999,34.99405641308795,0 32.69907269297613,34.99430994490913,0 32.69927918462855,34.99445875804752,0 32.69933414816667,34.99460002752374,0 32.69940618573182,34.99466139731442,0 32.69961251299414,34.99505287205344,0 32.69970298390572,34.9948526938796,0 32.69980419028423,34.99475966657023,0 32.70003500970926,34.99474050131809,0 32.6999392691905,34.99498403515631,0 32.69999808976007,34.99527037649445,0 32.70023914251492,34.9956457580839,0 32.70033483762239,34.99562861937913,0 32.70071680178408,34.99588948464697,0 32.70109242156666,34.99611777994852,0 32.70113636958502,34.99641082492562,0 32.7012907605104,34.99650232178372,0 32.70135332354381,34.99648377115202,0 32.7019403653776,34.99664399526636,0 32.70235124838489,34.99678434644702,0 32.70290565480965,34.99690237493687,0 32.70299379108416,34.99701533894767,0 32.70313298147993,34.99691029929381,0 32.70324484204688,34.99693526550126,0 32.70336885364492,34.99709856953366,0 32.70410950574814,34.99743172436796,0 32.70420459067093,34.99750110254003,0 32.70450371039882,34.99760045402656,0 32.70495725826268,34.99798774173776,0 32.70530929060693,34.99806678363692,0 32.70542205586606,34.99819207043677,0 32.70559750375111,34.99853050938129,0 32.70564423168009,34.99867308827295,0 32.70565785378402,34.99883583556806,0 32.70583519286745,34.99914174903434,0 32.70593399529277,34.99915037886706,0 32.70606536968693,34.99921068770838,0 32.7062758565589,34.99926868099107,0 32.70652828023624,34.99944889391895,0 32.70727587657914,34.99973868317743,0 32.70765500728807,34.99994257405267,0 32.70772986055321,35.00007038150834,0 32.7076058402482,35.00012940916928,0 32.7079100149618,35.00044273272889,0 32.70813942887883,35.00061604781954,0 32.70826755213011,35.00067091447595,0 32.70867605282378,35.00069193595646,0 32.70910459457111,35.00067645315147,0 32.7092594213154,35.00090904258616,0 32.70915608115476,35.00106849489992,0 32.70925711294436,35.0012221881077,0 32.70935196376824,35.00132026931134,0 32.70951672976219,35.00137678454323,0 32.70959473446668,35.00139083958429,0 32.70963656579896,35.00139837729805,0 32.7096964159749,35.001327431453,0 32.7102852995374,35.0014886887072,0 32.71098599677347,35.00170854951892,0 32.71119011779206,35.00186128941737,0 32.71143360609013,35.00211185492705,0 32.7123066678192,35.00244339218604,0 32.7128816955986,35.00252804608922,0 32.71374262526792,35.00254682600205,0 32.71446823531743,35.00221266802512,0 32.71474616509138,35.00214016098322,0 32.71504922454761,35.00192000948129,0 32.71525791782687,35.00188673905508,0 32.71543880453937,35.0019285322666,0 32.71558887967613,35.00201766882255,0 32.7159404375808,35.00218300365668,0 32.71614790835686,35.00231728100828,0 32.71634060650843,35.00227865111739,0 32.7166205311479,35.00215205540216,0 32.71721189358757,35.00219586989468,0 32.71737392489271,35.00218479375718,0 32.71745223310925,35.00222080224466,0 32.71754565247844,35.00216321043215,0 32.71751181699778,35.00196514294068,0 32.71759084410598,35.00190220370283,0 32.71782922473526,35.0021962707046,0 32.71789553441545,35.00233908597725,0 32.71789019677473,35.00241162287411,0 32.71852734078669,35.00211262756626,0 32.71919923309836,35.00188636314805,0 32.71953275144848,35.00188667986313,0 32.72007221897638,35.00201070623836,0 32.72039656558947,35.00217061638659,0 32.72085664180803,35.00218738253751,0 32.72142264706525,35.00241180144382,0 32.72191410602323,35.00252371059912,0 32.7221664986816,35.00243390905227,0 32.72290398403223,35.00244938472461,0 32.72320159464816,35.00253791109001,0 32.72344817708893,35.00258661005104,0 32.7238062127196,35.00274535649574,0 32.72435113199309,35.00322825118977,0 32.72478990506256,35.00353251552157,0 32.72535434636234,35.00375427047419,0 32.72572930859944,35.00379039458474,0 32.72593541410257,35.00389430299597,0 32.72604780884553,35.00387373831844,0 32.72668648322618,35.00425416997697,0 32.72706965727383,35.00471119855813,0 32.72736908264509,35.00477201983255,0 32.727475542307,35.00468414020514,0 32.72772537055011,35.00428031127154,0 32.7279176890677,35.00384585862983,0 32.72805817738242,35.0037080076819,0 32.72865238813188,35.00335465770753,0 32.72880466955536,35.00336199036172,0 32.72933375239587,35.00359674913667,0 32.72962155762049,35.00348731222952,0 32.73010828456908,35.00314003462574,0 32.73039288062662,35.00303058062745,0 32.73053823258443,35.00288483299126,0 32.73074832938347,35.00242803282143,0 32.73096214598302,35.00212429422742,0 32.73095685702428,35.00196594822675,0 32.73086367399483,35.00176627809529,0 32.73088423632456,35.00158034992032,0 32.73103718695892,35.00126708245171,0 32.73117595091308,35.00114505030287,0 32.73140524360401,35.00069361967464,0 32.73184185818182,35.00040018509367,0 32.73241411949833,35.00019711654574,0 32.73259786840165,35.0000621058261,0 32.73270982845766,34.99987529596119,0 32.73273146700209,34.99976325595124,0 32.73271966784006,34.99916553579322,0 32.73254265423672,34.99880318690967,0 32.73252575649679,34.99869887736142,0 32.73257968548298,34.99855532797959,0 32.73274635348991,34.9983410738598,0 32.73308881736401,34.99820814328756,0 32.73309260658971,34.99789943520517,0 32.73318408389776,34.9976610723661,0 32.73318106056789,34.99718213678763,0 32.73359376040572,34.99686615165556,0 32.73383065856147,34.99646884531509,0 32.73378306848204,34.99594351743014,0 32.73420252755014,34.99489664671693,0 32.73460762015701,34.99406607877943,0 32.73410351972719,34.99370612452646,0 32.73343592848546,34.99334010688811,0 32.73260080536718,34.99305805047211,0 32.73228858354821,34.99198243110187,0 32.73226834892454,34.99191272339056,0 32.7314482452778,34.98888131107175,0 32.73068674401022,34.98747894204985,0 32.72947339152065,34.98588789494193,0 32.72940678278833,34.98576258431972,0 32.73023672242537,34.9846555562838,0 32.73150284087758,34.98355502780709,0 32.7313949888534,34.98328181821189,0 32.73121500851007,34.98261912697466,0 32.73117117169903,34.98260017928104,0 32.73096525237186,34.98251117509978,0 32.72880170564059,34.98110484093473,0 32.7283879608805,34.98058763080425,0 32.72820475352984,34.98037367900024,0 32.72797911180186,34.98008124282262,0 32.72780902574305,34.9798727256638,0 32.7276618572635,34.97968588400978,0 32.72746235774536,34.97943405169023,0 32.72733645887784,34.97928281958953,0 32.72715812738541,34.97907386111569,0 32.72736118414345,34.97887608155298,0 32.72783812026086,34.97787199374297,0 32.72777164388974,34.97768587836412,0 32.72753908791395,34.97745475440494,0 32.7266399473553,34.9765611348437,0 32.72618947351104,34.97612213137096,0 32.72595292408532,34.97595167405907,0 32.72571844394731,34.97586577220632,0 32.72547142129682,34.97580354279372,0 32.72503477685832,34.97572683038958,0 32.72476300936566,34.97566447950134,0 32.72455740135379,34.97557871566423,0 32.72435660081166,34.97539804021111,0 32.72414282005487,34.97516028445195,0 32.72359095746699,34.97428556816701,0 32.72418565799646,34.9741322479082,0 32.72429936558488,34.97407390787374,0 32.72453523013676,34.97402597785386,0 32.72471990488166,34.97404896028787,0 32.72499650213781,34.97414109819373,0 32.72536350267158,34.97409871248684,0 32.72560480155722,34.97412442224532,0 32.72570875760731,34.97417891136894,0 32.72583075722965,34.97421140392518,0 32.72619521745079,34.97410765605297,0 32.72679907934253,34.97387746711613,0 32.72689442096473,34.97356559173746,0 32.72756284685102,34.97300859423152,0 32.72895297704765,34.97158671482862,0 32.7292788580376,34.97128015819294,0 32.72988290952508,34.97084215497476,0 32.73022572056644,34.97054968307373,0 32.73056902565968,34.97018718376761,0 32.73092856907472,34.9699368085429,0 32.73127057745099,34.96975637768941,0 32.73156098006194,34.96964572591387,0 32.73178284239897,34.9695907683199,0 32.7320891877412,34.96963425791364,0 32.732769130659,34.96984760811209,0 32.73333002465974,34.97003237294442,0 32.73378416575429,34.97007765385203,0 32.73402636314574,34.97007395774486,0 32.73467576910405,34.96998754125549,0 32.73508656207641,34.96986913481699,0 32.73521926421003,34.96973736304372,0 32.73550692280583,34.96943179511369,0 32.73587573878693,34.96903633670797,0 32.73614832874897,34.96879088051104,0 32.73626716555906,34.96871258177788,0 32.73636865863801,34.96868961738154,0 32.73746867527447,34.96854256769814,0 32.73771627649614,34.96858079687857,0 32.73791829164146,34.96869291020327,0 32.73853385677759,34.9692793873621,0 32.73898289494965,34.96951308796073,0 32.73942034561237,34.96979304501923,0 32.74002686314208,34.9700645384529,0 32.74085865325669,34.97034635788983,0 32.74145395879221,34.97052321977299,0 32.74157546372049,34.97061238275911,0 32.74154421759354,34.97097249853105,0 32.74166387046667,34.971327420432,0 32.74214722369313,34.97206794588632,0 32.74208061344108,34.97228529581713,0 32.74171156304647,34.97266744025797,0 32.74173167406207,34.97287424378403,0 32.74202776029992,34.97368475648469,0 32.74257316137235,34.9749027435108,0 32.74277234254865,34.97518716789087,0 32.74468802771709,34.97486948184158,0 32.74473123540335,34.97484945278974,0 32.7448757858616,34.97485518948021,0 32.74513456246482,34.97480329587294,0 32.74529345494778,34.97522289815735,0 32.74577988939045,34.97518729334553,0 32.74568301691649,34.97588299429196,0 32.74504639195894,34.97600313672948,0 32.74501054252185,34.97619476555266,0 32.74507575694146,34.97633240908341,0 32.74480121372698,34.97651107785519,0 32.74491990593592,34.97681945891479,0 32.74495706182096,34.97726953090378,0 32.7454811218542,34.97720332172756,0 32.7459451116476,34.97708710318145,0 32.74677494312035,34.97731830774116,0 32.7468951679806,34.97740648101481,0 32.74673662225329,34.9775461395583,0 32.74614516729689,34.97806712626441,0 32.74588081200238,34.97816829769273,0 32.74568973822767,34.97834792009441,0 32.7454338716416,34.9787459468069,0 32.74512022100038,34.97895970884476,0 32.74493859388913,34.97929732963426,0 32.74473175640689,34.97966295768524,0 32.74613904066022,34.97972873484495,0 32.74649091808573,34.97973695816027,0 32.74670347589488,34.97968573730314,0 32.74727710992047,34.97969883772561,0 32.74811766399161,34.9798503042522,0 32.74886270388888,34.98003268114253,0 32.74957376422147,34.98008173249558,0 32.74995861876675,34.98018637462651,0 32.75058720470961,34.9804141511957,0 32.75093612312723,34.98061402799541,0 32.7512645683741,34.98090648808149,0 32.75150386892231,34.98118138082782,0 32.7515468836336,34.98115073646938,0 32.75167623240498,34.98074343124047,0 32.75174061164406,34.98027507542076,0 32.75173861561889,34.97995047790668,0 32.75183241259623,34.97988278760127,0 32.75227833319494,34.97982040437681,0 32.75275250318762,34.97979623449136,0 32.75309081228246,34.97968247306351,0 32.75358454053773,34.97940351405389,0 32.75389855663185,34.97934637385458,0 32.75422959192243,34.97940649532978,0 32.75512076175256,34.97974211272774,0 32.75569288510906,34.9799879091961,0 32.75598141640866,34.98000974595785,0 32.75649096928638,34.97991835087527,0 32.75741595062362,34.97963550064529,0 32.75831464630203,34.97937718379444,0 32.75914341260188,34.97909094857105,0 32.75933524454104,34.97877714777086,0 32.75953427758315,34.97826571008691,0 32.76012096995424,34.97864449784711,0 32.76041061010881,34.97914701660203,0 32.76079256103186,34.97959321679226,0 32.76127129567849,34.97974670677439,0 32.76155142601123,34.97995602800752,0 32.76228834372237,34.98016506463014,0 32.76248754340855,34.98010052185212,0 32.76262272550348,34.98006925333536,0 32.76297260364606,34.97998832510375,0 32.76342111752064,34.97998157731976,0 32.76353125556144,34.98001136772284,0 32.76387901319158,34.98016818357652,0 32.76413492087696,34.98022206803688,0 32.76442291951692,34.98026730912896,0 32.76472112405886,34.98038289334474,0 32.76492356975227,34.98044824868305,0 32.76530414903979,34.98048805008652,0 32.76578067025529,34.98055171592405,0 32.76628578335068,34.98059793459912,0 32.76662349339055,34.98066097020006,0 32.76689354703085,34.98072955759984,0 32.76730545787819,34.98087493768456,0 32.76751867807501,34.980925692685,0 32.76775693003223,34.98095898584778,0 32.76833673221769,34.98101432066007,0 32.76869955584208,34.98104817319329,0 32.76882774611644,34.98103996191929,0 32.76890612537041,34.98102859897573,0 32.76910587226595,34.98096505958995,0 32.76930190168705,34.98092493552573,0 32.76955466478618,34.98091728371463,0 32.76971799890647,34.98097659838756,0 32.77012299178336,34.98109264766066,0 32.77026170510757,34.98110791536865,0 32.77044670619665,34.98112046158456,0 32.77127254143613,34.98110951812944,0 32.77161788464954,34.98109641958432,0 32.77194152112255,34.98113594524212,0 32.77221515606306,34.98120160781277,0 32.77245670018413,34.98127591202323,0 32.77263456511686,34.98129135224579,0 32.77311558185087,34.98121441636552,0 32.77356065642417,34.98119004145226,0 32.77382046179346,34.98119412959164,0 32.77411206893662,34.98123350686827,0 32.7744454612059,34.98141366142591,0 32.77453786587973,34.98143457490913,0 32.77475149816566,34.98142380991585,0 32.77499254450643,34.981574261733,0 32.77516304186955,34.98162774290633,0 32.77535431904716,34.98176918580722,0 32.77554861277454,34.98199265314255,0 32.77574582097058,34.98231572075022,0 32.77617495777923,34.98255194670661,0 32.7763592132789,34.98267871063192,0 32.77636269557274,34.98269182471391,0 32.7764043703641,34.98284879414782,0 32.77639998871319,34.98297472191026,0 32.77631004549954,34.98312077240258,0 32.77631308439238,34.98319986930907,0 32.77629835320341,34.98327595696061,0 32.7761732946223,34.98334862768891,0 32.77608258257001,34.98361183519642,0 32.77600012457154,34.98370226851249,0 32.77572114994271,34.98390605949235,0 32.77577977735595,34.98419336184117,0 32.77555381124728,34.98445596841061,0 32.77545701562798,34.98510284701882,0 32.77537045745472,34.98527527428779,0 32.7753289404455,34.98563535754507,0 32.77524309273296,34.98569941276934,0 32.77516732514349,34.98585431355768,0 32.77522308136872,34.98603615994816,0 32.77519330158808,34.98623520044674,0 32.77520349679685,34.98630847023867,0 32.77531297651817,34.98644076269101,0 32.77531968688909,34.98650230115244,0 32.77529787268904,34.98657250002542,0 32.77525092216115,34.98667480629028,0 32.77497927238475,34.98684640910618,0 32.77478994703396,34.98694808165013,0 32.77461887752012,34.98697953953585,0 32.7745438008149,34.98702899849502,0 32.77455375095413,34.98714034417561,0 32.77452146119575,34.98717827848374,0 32.77437510138668,34.98724206383249,0 32.77435699782692,34.98728884763022,0 32.77429956191712,34.98736181689804,0 32.77413907775531,34.98740796631602,0 32.77405286077037,34.98752767051468,0 32.77394168513203,34.98765312255708,0 32.77374475747617,34.98782798331691,0 32.77351931068525,34.98800857591591,0 32.77337881289549,34.98826277227679,0 32.77333237930166,34.98828599741014,0 32.77323257910234,34.98830605440306,0 32.77318259333777,34.98832926382993,0 32.77290997992309,34.98864437819275,0 32.77272088413256,34.98871090034577,0 32.77249237273688,34.98881532367741,0 32.772239646084,34.98881419360075,0 32.771710529006,34.98916037823455,0 32.77162413266108,34.98930644076066,0 32.77156307801847,34.98938817909131,0 32.77149531003515,34.98940837874711,0 32.7714308672187,34.98946374208614,0 32.77132015429199,34.98951889655523,0 32.77108481569581,34.98957935167211,0 32.77099853136418,34.98970784063005,0 32.77093428129935,34.9897339139951,0 32.77068168900268,34.98971227796459,0 32.77063881695058,34.9897355178004,0 32.77063743947252,34.98994347081521,0 32.77058712247504,34.99001646976188,0 32.77053355485995,34.99004259104196,0 32.77042659280485,34.99006847252635,0 32.77002427552783,34.99007838220878,0 32.76989940023006,34.99012175574045,0 32.76988488725348,34.99016269718954,0 32.769918640292,34.99044110378094,0 32.76989650416211,34.99055816440048,0 32.76983566083323,34.99060768343964,0 32.76973954874247,34.99060725239983,0 32.76950552766067,34.99046853845817,0 32.76935970143591,34.99045030779889,0 32.76920593816427,34.99055506068017,0 32.76892282200625,34.9908408297592,0 32.76880441944433,34.9909808879985,0 32.76864359447179,34.99107682066855,0 32.76853221379029,34.99123155642746,0 32.76845710925228,34.99128394025585,0 32.76825741687238,34.99133576267525,0 32.76821096637235,34.99136191363374,0 32.76821376611184,34.99147615769524,0 32.7681848790357,34.99153753747952,0 32.76794468533036,34.99179127554427,0 32.76792017694418,34.99194162993871,0 32.767960126788,34.99208742823262,0 32.76792397487216,34.99213945257805,0 32.76774203066388,34.99214746988228,0 32.76744386758644,34.99216060890799,0 32.76670121642971,34.99266851082788,0 32.76637996025006,34.99301598792524,0 32.76632625563639,34.99305215436551,0 32.76599229573014,34.99309312276571,0 32.7657247081744,34.99368508994582,0 32.76544161357779,34.99383855021352,0 32.76534809468605,34.99431448935169,0 32.76526973157313,34.9944537064769,0 32.76510143208256,34.99453334918198,0 32.76504106770782,34.99473788046095,0 32.76488536580124,34.99486309270131,0 32.76474635694668,34.99497320935362,0 32.76460613495841,34.99498926057392,0 32.76485619507906,34.9953651134421,0 32.76488270110981,34.99553666289754,0 32.76494966453181,34.99572356714853,0 32.76488596623027,34.99587498614078,0 32.76410482145082,34.99606714578083,0 32.76409700032722,34.99613386134606,0 32.76447478602616,34.99643292269229,0 32.76449570948484,34.99661203424946,0 32.76402843840384,34.99701042158964,0 32.7638639311615,34.99707339172292,0 32.76383221275536,34.9971293797791,0 32.76382355042494,34.99787119126623,0 32.7636407157175,34.99819198094838,0 32.76343477084693,34.99838523126832,0 32.7632993505562,34.99850901518329,0 32.76353335064445,34.99880591043014,0 32.76354932234441,34.99889852425584,0 32.76317325772018,34.99971451873717,0 32.76314058133906,34.99991310751176,0 32.76315952664476,35.00011193040698,0 32.7633723549903,35.00026764120884,0 32.76337701965281,35.00039661361928,0 32.76323065638082,35.00050214294904,0 32.76317634251197,35.00062781197239,0 32.76314884958806,35.00115259515911,0 32.76305589073346,35.00126747166251,0 32.76288548506703,35.00138351111799,0 32.76286202585215,35.0015821412008,0 32.76293275686581,35.00175692686668,0 32.76307563067299,35.00189714754485,0 32.76328124941948,35.00202855189362,0 32.76340547266294,35.00220054529619,0 32.76346477657358,35.00242989415834,0 32.76348843956269,35.00275010479342,0 32.7633726007498,35.00297713999435,0 32.76320906903237,35.00316754729911,0 32.76324922217586,35.0032284132072,0 32.76372889190729,35.0034611888576,0 32.76376511428546,35.00355844647866,0 32.76347954863437,35.00379988060665,0 32.7634138870355,35.00396797745011,0 32.7634199690774,35.00416067335945,0 32.76348027305886,35.00424135300913,0 32.76395695237265,35.00409636273029,0 32.76415956125017,35.00412762403098,0 32.764632830823,35.00421624403053,0 32.76478668929358,35.00436864957988,0 32.76492134256037,35.00463626579531,0 32.76477037054355,35.00487831325012,0 32.76442130088289,35.00524082750982,0 32.76405241291946,35.00553346615042,0 32.76382377465432,35.0060831266528,0 32.76358879698753,35.00647801597425,0 32.76346205726213,35.00663287626458,0 32.76327868143002,35.00685693559846,0 32.7630399304877,35.00701842235691,0 32.76298434087743,35.0070659189448,0 32.76297851496948,35.00711022970169,0 32.76300982994535,35.00717972215244,0 32.76311812427511,35.00730868126939,0 32.76340335983157,35.00763285160031,0 32.76366070158882,35.00799554699508,0 32.7637367682841,35.00819143483584,0 32.76380776385754,35.00831908756677,0 32.76386127295455,35.00837617430364,0 32.76407449218248,35.00851925191138,0 32.76423131174947,35.00862455630293,0 32.76431618277664,35.00874431396535,0 32.76439797546605,35.00891066831569,0 32.76440278545112,35.00901755589963,0 32.76435934962293,35.00910717229248,0 32.76428419283535,35.00918754967317,0 32.76420610353451,35.00929292500906,0 32.76414135872825,35.00946884642641,0 32.76393534097301,35.0098999233262,0 32.76392792839206,35.00997492270452,0 32.7639421202499,35.01012505541531,0 32.76398832512983,35.01024122522634,0 32.76403544520429,35.0104267505461,0 32.7639435920851,35.01093565374966,0 32.76396119630357,35.01098916675363,0 32.76405422114598,35.01112942526779,0 32.76418541930303,35.01134716313394,0 32.76422417996751,35.01154288163235,0 32.76420876960426,35.01178041920234,0 32.76412482148955,35.01193465283504,0 32.76404134175308,35.01201953899407,0 32.76384282481345,35.01215506234765,0 32.76358359912186,35.01227666724458,0 32.763512607504,35.01235365204132,0 32.76350496355306,35.01246275717269,0 32.76352907447093,35.01257655388401,0 32.76358870029991,35.01275190406349,0 32.76359506597107,35.01283265155623,0 32.76358201922807,35.01292354191358,0 32.76348681796659,35.01310728198059,0 32.76332484390764,35.01335665873054,0 32.76328276322263,35.01344969099981,0 32.76329064044909,35.01351111763374,0 32.76333727181619,35.01356362633743,0 32.76349388676861,35.01370076227462,0 32.76359816909503,35.01381151419015,0 32.76363633289419,35.01389013133534,0 32.76366871226874,35.01400737581383,0 32.76373905025824,35.01423393406009,0 32.76373453807427,35.01428848392072,0 32.7637161626033,35.01434979090434,0 32.7636271119036,35.01444033674698,0 32.7633719469865,35.01457332770447,0 32.76318223452462,35.01463158265065,0 32.76284961574139,35.01477445238908,0 32.76275237347035,35.01485018020626,0 32.76272444614962,35.01489325420429,0 32.76271952693591,35.01500805615034,0 32.76273458102783,35.01523549931171,0 32.76278260087497,35.01549265199939,0 32.76289331866801,35.01567391826713,0 32.76301093754638,35.01585635352916,0 32.76301613029614,35.01590639985769,0 32.76299905675626,35.01597908160937,0 32.76294882781692,35.01605047627567,0 32.76278487690143,35.01618160775602,0 32.76273728064194,35.01627234119691,0 32.76270183117456,35.01640633061162,0 32.76268812567494,35.01659498875926,0 32.7625921600308,35.01689127546156,0 32.76248388681044,35.01716817993184,0 32.76240020058237,35.01728262302564,0 32.76237243725126,35.01729441336618,0 32.76209150791794,35.01741371708,0 32.76198890519513,35.01760768778215,0 32.76196210145876,35.01782746517531,0 32.76193765931794,35.01811437973878,0 32.76182108036166,35.01829439678031,0 32.76156246170545,35.01867514836484,0 32.76143123679952,35.0189407443358,0 32.76139098600344,35.0190678712499,0 32.76141534233783,35.01921149590666,0 32.76171354841932,35.02005541744496,0 32.76166788874335,35.02015011325084,0 32.76149839158496,35.02024887363423,0 32.76135043565061,35.02049124567092,0 32.76119751069835,35.02063637492395,0 32.76078853652778,35.02112543750082,0 32.76066177374642,35.02129588628988,0 32.7606054044903,35.02146683438661,0 32.76064676401708,35.02163124071136,0 32.76077720516033,35.02181352296989,0 32.76083544275158,35.02199547531838,0 32.76080432210762,35.0222014790658,0 32.76067017678999,35.02256773458696,0 32.76055783082629,35.02285023315951,0 32.76051812025397,35.02307017116085,0 32.76056394313476,35.02320315189559,0 32.76065226520377,35.02333283249868,0 32.76066021756579,35.02341323247655,0 32.76058742223869,35.02350024917051,0 32.76042937273456,35.02363229754472,0 32.76038569318754,35.02381029079208,0 32.76043973180261,35.02398523634244,0 32.76060396779385,35.0241956250544,0 32.76073042220707,35.02433945649805,0 32.76081395208251,35.0245494784406,0 32.76076633539824,35.02468203148567,0 32.76063412000659,35.02476178817087,0 32.76043833789824,35.02482029172365,0 32.7602762239767,35.02492436884057,0 32.76015625487703,35.02507755555708,0 32.75983162872532,35.02534510538765,0 32.75981834262702,35.0254254065693,0 32.75989385151892,35.02556551340038,0 32.7599223326412,35.02575082358523,0 32.75988299387585,35.02591486035099,0 32.7597740400133,35.02632315539209,0 32.75978128299268,35.02650836855627,0 32.75979702192723,35.02669362106688,0 32.759915032816,35.02683042804201,0 32.76013040799353,35.02701659361462,0 32.7604541893343,35.02750373384665,0 32.76055108184129,35.02762297667488,0 32.76073710371229,35.02775310317103,0 32.76087690979929,35.02780789759505,0 32.76071040632083,35.02793292011542,0 32.7605816242743,35.02813148806423,0 32.76045721897058,35.028312605784,0 32.76021384746789,35.02849667307401,0 32.76003478483334,35.02859368521391,0 32.75990308196969,35.02859657607375,0 32.75975056882376,35.02853648116205,0 32.75958082878051,35.02851124593967,0 32.75935544473377,35.028548648068,0 32.75919412852075,35.02853393326914,0 32.75912241115591,35.02846023136893,0 32.75916125803401,35.02836956601877,0 32.75938365022819,35.02814697036495,0 32.75948653742999,35.02800768301273,0 32.7594783731371,35.02795873047997,0 32.75939363621337,35.027926896476,0 32.759194160814,35.0279015251316,0 32.75902468189383,35.02783785665754,0 32.75888975360073,35.02769049203707,0 32.7587928868357,35.02756775853826,0 32.75869941272148,35.02757082413326,0 32.75837418176229,35.02792571733171,0 32.7582246843461,35.02804731965071,0 32.75810541999822,35.02809568750185,0 32.75802065454275,35.02806734729342,0 32.75800451747835,35.02794149024884,0 32.75808254133164,35.02771124617962,0 32.75809222159447,35.02753659259023,0 32.75803339350974,35.02744198563279,0 32.75788074207798,35.0274028506412,0 32.75771069560736,35.02742303300394,0 32.75759520345333,35.0275412977792,0 32.75747835785225,35.02785871160918,0 32.75742240427803,35.02796676760167,0 32.7573286927105,35.02800477074658,0 32.75712499597866,35.02797588193393,0 32.7567135177955,35.02789362782159,0 32.75647999409425,35.02787857713757,0 32.75633087355745,35.02794427624709,0 32.756015338106,35.02812101487523,0 32.75584922570333,35.02818663415296,0 32.75556439516454,35.02822026067093,0 32.75544159369814,35.0281637907209,0 32.75542104818523,35.0280623709973,0 32.75548571468865,35.02792291085444,0 32.75555517889507,35.02770311126736,0 32.75556448442663,35.02758435966798,0 32.75550177056022,35.02743732331989,0 32.75538839494516,35.02724463060766,0 32.75538080515391,35.02711182515294,0 32.75538204335023,35.02693014440415,0 32.75533586465407,35.02684957062159,0 32.75516612839322,35.02682432923489,0 32.75483024002295,35.0268716941504,0 32.75448141035793,35.02694695077022,0 32.75445876671248,35.02715298966658,0 32.75446172342502,35.02734167931924,0 32.75440493366028,35.02757201811509,0 32.75402021405399,35.02792662505288,0 32.75379389126597,35.02810027735586,0 32.753653365377,35.02815203660762,0 32.75309795074105,35.02799922481632,0 32.75300013492327,35.02801624199988,0 32.75265903282909,35.02820333485944,0 32.75247119770587,35.02833872929413,0 32.75237689016933,35.02846407507825,0 32.75225303712121,35.02856133259012,0 32.75192951598648,35.02866115665489,0 32.75160590357236,35.02877495529579,0 32.75135490271559,35.02882969204473,0 32.75116805265244,35.02882183626827,0 32.75102003599909,35.02872681136432,0 32.75090563695964,35.02868435133606,0 32.75070539339259,35.02877076949486,0 32.75054330910438,35.02886784664771,0 32.75040620711989,35.02903841281806,0 32.75030356369489,35.02913926084013,0 32.75010344278908,35.0292082087137,0 32.74987397054101,35.02922111572967,0 32.74973766074374,35.02927638384197,0 32.74957142309459,35.02935946377317,0 32.7494989213705,35.02940105531692,0 32.74931957891027,35.0295364839947,0 32.74913639552321,35.02961249723578,0 32.74891117175863,35.02962542202724,0 32.74867795354952,35.02956493617403,0 32.74847464103351,35.0294801311385,0 32.74828335243954,35.02950020215331,0 32.74784074457977,35.02962042245185,0 32.74763173870743,35.02974522773893,0 32.74741457054633,35.02982107845034,0 32.74727809077756,35.02990080077797,0 32.74709403617061,35.03010258972921,0 32.74684672345484,35.03023769636784,0 32.74668081926912,35.03027185832886,0 32.74598047253372,35.03019170840578,0 32.74584908374051,35.03014916478778,0 32.74529090368733,35.02978317154118,0 32.74522288693342,35.02978984079089,0 32.74497600744858,35.0298620542218,0 32.74484386558487,35.0299278181156,0 32.74464400679673,35.02995832454929,0 32.74454165000387,35.03001724049634,0 32.74392635289508,35.03053494817037,0 32.74378947275292,35.03067056819653,0 32.74372497887114,35.03078207201937,0 32.74354577049072,35.03089652805613,0 32.74331973589165,35.03102473961447,0 32.743115598876,35.03105871755662,0 32.74271230484567,35.03102187573209,0 32.74224973513964,35.03095680129256,0 32.74165665356599,35.03133134760452,0 32.7414224379258,35.03141409669872,0 32.74053325389352,35.03160904630131,0 32.74015890305437,35.0316841403404,0 32.73990391442445,35.03170040103632,0 32.73963630166141,35.03169913213694,0 32.73937738146664,35.03166995171632,0 32.73907630125183,35.03159514936583,0 32.73876274448549,35.03148185130527,0 32.73863194437637,35.03135544744542,0 32.7385186063925,35.03116273835033,0 32.73840030284097,35.03107133266113,0 32.73829840715338,35.03106386102576,0 32.73803374094781,35.03124778451299,0 32.73788487469093,35.03127502847276,0 32.73752408059032,35.0312348772729,0 32.73724836784737,35.03117765878017,0 32.73706637665021,35.03108245501002,0 32.73698213436689,35.03098072836541,0 32.73686430418559,35.03082293892005,0 32.73671273931707,35.03063004878129,0 32.73670075808798,35.03052167838469,0 32.73670184177551,35.03036794982442,0 32.73667743774641,35.03021409924997,0 32.73658060134486,35.03009134820285,0 32.73645810593867,35.02999293378701,0 32.73638611647701,35.02996114477915,0 32.73613535350921,35.02998091147285,0 32.73583540210861,35.02999375043319,0 32.73548802962879,35.03000861715278,0 32.73516616503305,35.02991061492789,0 32.7349659060745,35.02989358076237,0 32.73444787249656,35.02989110241212,0 32.73417084601503,35.02967273255997,0 32.73410569265493,35.02990152171957,0 32.73387932017892,35.03012150206091,0 32.73343941071879,35.03081876035132,0 32.73335121536902,35.03085049217788,0 32.73305298382087,35.03086513898254,0 32.73286184456111,35.03094058727329,0 32.73251925766397,35.03100727324706,0 32.73182228223064,35.031425954394,0 32.73164805921008,35.03150739743167,0 32.73081591763292,35.03205215011243,0 32.73054864840549,35.03219234698535,0 32.73034422188653,35.0319936895843,0 32.73016519488395,35.03186677914147,0 32.73007856379038,35.03170633655198,0 32.73002352685125,35.03129294012771,0 32.72995801541742,35.03094699253074,0 32.72985100327926,35.03074855101222,0 32.72953161092713,35.030530665826,0 32.72966916796033,35.03043084621145,0 32.73082156303684,35.0298857519761,0 32.73095248292194,35.0300310781159,0 32.73130592711858,35.02981171550293,0 32.73102384852595,35.02961743037206,0 32.73089327026336,35.02942387276541,0 32.73075332019044,35.02917399872108,0 32.73060270717829,35.02904867351565,0 32.73058914347158,35.02883563327765,0 32.73029933041799,35.02888137750453,0 32.73019994847512,35.02870193079072,0 32.73019032615517,35.02851003125896,0 32.73031867296484,35.02845549487357,0 32.73044430521561,35.02844733941457,0 32.73038886694751,35.02815623685142,0 32.73025300314622,35.0281580442445,0 32.72987053725709,35.02831744258118,0 32.72979698785744,35.02826905645158,0 32.72969619526454,35.02832759737982,0 32.72919227475366,35.02877257417359,0 32.72868557977657,35.02923637149172,0 32.72875948126311,35.02935140197186,0 32.72878413473532,35.02938967368561,0 32.72858102720265,35.02950516293767,0 32.72825290170453,35.02960004041552,0 32.72816696398507,35.02962524094282,0 32.72700726563652,35.03019690525154,0 32.72744825376405,35.03072156025165,0 32.72716841869671,35.03089705534116,0 32.72674914980741,35.03143361239758,0 32.72692422491809,35.03155504285617,0 32.72571290495174,35.03213196973923,0 32.72494248784462,35.03256231234873,0 32.72390511622094,35.0327341125179,0 32.72322436482847,35.03292774065582,0 32.72314154448559,35.03289116321749,0 32.72281345818185,35.03297798261023,0 32.72274011986188,35.03298164879787,0 32.72271047647521,35.03302571456045,0 32.7224370801121,35.03298418758895,0 32.72236160539978,35.03309945070321,0 32.72228771816332,35.03314644839794,0 32.72218529520141,35.03315295205534,0 32.7220788794384,35.03312912453337,0 32.72204083263051,35.03303449921639,0 32.72117601687047,35.03299811425001,0 32.72007515500945,35.03316153551481,0 32.71976842276857,35.0329992580186,0 32.71898291250617,35.03281051046587,0 32.71808712100633,35.03360996749457,0</coordinates>
						</LinearRing>
					</outerBoundaryIs>
				</Polygon>
			</MultiGeometry>
		</Placemark>
	</Document>
</kml>