<?xml version='1.0' encoding='UTF-8'?>
<kml xmlns="http://www.opengis.net/kml/2.2">
	<Document>
		<name>VASILEIA</name>
		<Style id="PolyStyle70">
			<LabelStyle>
				<color>00000000</color>
				<scale>0.000000</scale>
			</LabelStyle>
			<LineStyle>
				<color>ff0055ff</color>
				<width>2.000000</width>
			</LineStyle>
			<PolyStyle>
				<color>00828282</color>
				<outline>1</outline>
			</PolyStyle>
		</Style>
		<Placemark id="ID_70028">
			<name>VASILEIA</name>
			<snippet />
			<description>&lt;html xmlns:fo="http://www.w3.org/1999/XSL/Format" xmlns:msxsl="urn:schemas-microsoft-com:xslt"&gt;

&lt;head&gt;

&lt;META http-equiv="Content-Type" content="text/html"&gt;

&lt;meta http-equiv="content-type" content="text/html; charset=UTF-8"&gt;

&lt;/head&gt;

&lt;body style="margin:0px 0px 0px 0px;overflow:auto;background:#FFFFFF;"&gt;

&lt;table style="font-family:Arial,Verdana,Times;font-size:12px;text-align:left;width:100%;border-collapse:collapse;padding:3px 3px 3px 3px"&gt;

&lt;tr style="text-align:center;font-weight:bold;background:#9CBCE2"&gt;

&lt;td&gt;2&lt;/td&gt;

&lt;/tr&gt;

&lt;tr&gt;

&lt;td&gt;

&lt;table style="font-family:Arial,Verdana,Times;font-size:12px;text-align:left;width:100%;border-spacing:0px; padding:3px 3px 3px 3px"&gt;

&lt;tr&gt;

&lt;td&gt;DIST_CODE&lt;/td&gt;

&lt;td&gt;2&lt;/td&gt;

&lt;/tr&gt;

&lt;tr bgcolor="#D4E4F3"&gt;

&lt;td&gt;VIL_CODE&lt;/td&gt;

&lt;td&gt;223&lt;/td&gt;

&lt;/tr&gt;

&lt;tr&gt;

&lt;td&gt;VIL_CCD&lt;/td&gt;

&lt;td&gt;2223&lt;/td&gt;

&lt;/tr&gt;

&lt;tr bgcolor="#D4E4F3"&gt;

&lt;td&gt;VIL_NM_E&lt;/td&gt;

&lt;td&gt;VASILEIA&lt;/td&gt;

&lt;/tr&gt;

&lt;tr&gt;

&lt;td&gt;VIL_NM_G&lt;/td&gt;

&lt;td&gt;ΒΑΣΙΛΕΙΑ&lt;/td&gt;

&lt;/tr&gt;

&lt;/table&gt;

&lt;/td&gt;

&lt;/tr&gt;

&lt;/table&gt;

&lt;/body&gt;&lt;script type="text/javascript"&gt;

				function changeImage(attElement, nameElement) {

				document.getElementById('imageAttachment').src = attElement;

				document.getElementById('imageName').innerHTML = nameElement;}

			&lt;/script&gt;&lt;/html&gt;

</description>
			<styleUrl>#PolyStyle70</styleUrl>
			<MultiGeometry>
				<Polygon>
					<extrude>0</extrude>
					<altitudeMode>clampToGround</altitudeMode>
					<outerBoundaryIs>
						<LinearRing>
							<coordinates> 33.13563494266987,35.36027158946537,0 33.13568345140149,35.36042459364152,0 33.13567842417205,35.36053060350752,0 33.13566941836537,35.36078607907118,0 33.13569294740127,35.36100671787689,0 33.1357566106683,35.36109863063459,0 33.13577395856517,35.36122083557097,0 33.13587672223801,35.36152125687597,0 33.13589819601165,35.36166668193086,0 33.13580337365816,35.36169637609267,0 33.13573357118139,35.36176826511133,0 33.13552112936241,35.36185488391396,0 33.13537188839953,35.36185602014416,0 33.13525403645524,35.36191017860016,0 33.13501850248971,35.36194106971958,0 33.13488233726226,35.36202780136456,0 33.13482426333832,35.36204401516576,0 33.13471798382653,35.36211313289845,0 33.1344592131617,35.36215349611952,0 33.13439131469737,35.36219005922752,0 33.13437620268876,35.36219819740334,0 33.13422362727035,35.36220747712648,0 33.13391065540776,35.36210899954501,0 33.13385416317116,35.36206565379244,0 33.1337814211937,35.36196774424557,0 33.13373045914634,35.36177070546513,0 33.13356694770798,35.36147977244595,0 33.1333628395443,35.36132421078245,0 33.13341663811875,35.36127771986199,0 33.1333569179202,35.36117457311276,0 33.13320588270224,35.3612924545259,0 33.13296456395434,35.36131518247872,0 33.1327853666342,35.36135906184631,0 33.13281929070612,35.36139561582148,0 33.13281829945532,35.36146760689593,0 33.13284461164614,35.36156544819261,0 33.13281051588942,35.36161090226095,0 33.13289229533395,35.36174482314261,0 33.13292764995636,35.36187663714761,0 33.13295053246848,35.36202473194297,0 33.13294367803125,35.36212320279265,0 33.1329078660187,35.36219446238384,0 33.13284061285514,35.3622371487426,0 33.13282771694916,35.36244088227583,0 33.13261311248365,35.36274958406887,0 33.13259711586487,35.36285754916676,0 33.13248984620945,35.36299729671678,0 33.1324923712931,35.36311096430861,0 33.13249282971778,35.36313158091293,0 33.13257179301326,35.36328152336478,0 33.13260337476446,35.36337641592082,0 33.1326040533681,35.36344553065929,0 33.13265346366967,35.36359502413818,0 33.1326620951495,35.3638123753569,0 33.13274567496789,35.36385576942224,0 33.13270056593984,35.36390680963012,0 33.13269713784216,35.36408274246821,0 33.13251023967551,35.36423527595564,0 33.13250605514875,35.36425292762288,0 33.13241809176941,35.36428675340874,0 33.13241142690624,35.36430100691016,0 33.13235332130107,35.36433012360964,0 33.13234012836849,35.36429750294897,0 33.13231688135442,35.36431890626444,0 33.13230772450336,35.36432733781655,0 33.132259609075,35.36433881087666,0 33.13219081601939,35.36432783981633,0 33.13217841230856,35.36431355760821,0 33.13202431143436,35.36426170691515,0 33.13202090406421,35.36431204330178,0 33.13197669545008,35.36437181655637,0 33.13194519797995,35.36441440296072,0 33.13185716928677,35.36445162388095,0 33.13185532283241,35.36445162048723,0 33.1318372621417,35.36445159331902,0 33.1317667053395,35.36448680307826,0 33.13175015321357,35.36447319416808,0 33.13170454537446,35.36447584253681,0 33.13169133180747,35.36445273041112,0 33.13165148677324,35.36447304479746,0 33.13159266868719,35.36445054298468,0 33.13159079171326,35.36446563761641,0 33.13158844657767,35.3644844950883,0 33.1315422432139,35.3643839061989,0 33.13152206119901,35.36450816529373,0 33.13144988772308,35.36452503549148,0 33.13139771160782,35.36449914711259,0 33.13123684998335,35.36450229823261,0 33.13118035913519,35.36455043338532,0 33.13102610960195,35.36456378149035,0 33.13090427223976,35.364543220702,0 33.13080317071858,35.36451929505907,0 33.13060855886924,35.36441644165197,0 33.13061284824029,35.3643529452084,0 33.13051746977206,35.36436502389041,0 33.13045467170002,35.36427052234737,0 33.13040266865631,35.364167886851,0 33.1303298570017,35.36410189475338,0 33.13024802846854,35.36398970434393,0 33.13010406194558,35.36385636426734,0 33.12992850441888,35.36376101119536,0 33.12979675663495,35.36372413246881,0 33.12919854351548,35.36354119260463,0 33.12902695899281,35.36352123202476,0 33.12895573262148,35.36348716313133,0 33.12883145740275,35.36344622009875,0 33.12867888684192,35.36345073897618,0 33.1286755367978,35.36346567559104,0 33.12869290340208,35.36348472023919,0 33.12877158460281,35.36352219574609,0 33.12880387338925,35.36354330033995,0 33.12882204070571,35.3635752499756,0 33.12881449537609,35.36361123542275,0 33.12878622332998,35.36364650833859,0 33.12875552244,35.36365664904744,0 33.12871945767548,35.36364420615108,0 33.1286216214467,35.36361045113478,0 33.12854591933963,35.36358433236715,0 33.12831731536364,35.36348142216301,0 33.12812664373122,35.36346958120816,0 33.1280388474495,35.36343005259612,0 33.12800252135779,35.3633627576026,0 33.12747679408491,35.36338842912925,0 33.12723715503211,35.36339756558986,0 33.12717340241083,35.36335875376421,0 33.127062304334,35.36335586363666,0 33.12690232739198,35.36333727594921,0 33.12688983238621,35.36336170726666,0 33.12669673758285,35.36332269290331,0 33.12658394737131,35.36333542130075,0 33.12646361643697,35.36338141725099,0 33.12616941748804,35.36332050978545,0 33.12603842706893,35.36331555009865,0 33.12591923147901,35.36323046663978,0 33.12582333343131,35.36311010159753,0 33.12582718443596,35.36310069806871,0 33.12582782681597,35.36309912810922,0 33.12584714103808,35.36308104988885,0 33.12588450083153,35.36309386997073,0 33.12595117358811,35.36309550500311,0 33.12597704499601,35.36308671308578,0 33.12606779613985,35.36305587261719,0 33.12605289442907,35.36303287790569,0 33.1259303100094,35.3629576490955,0 33.12588367675242,35.36291316623523,0 33.12587756347466,35.3628907094808,0 33.12587255576602,35.36287231226089,0 33.12581406480488,35.36283546733957,0 33.12569764544914,35.36278883334634,0 33.12548595706354,35.36271040130018,0 33.12542434327195,35.36267763544117,0 33.12524371262999,35.36264161910443,0 33.1252123794283,35.36261143483478,0 33.12513490773837,35.36253680384801,0 33.12510378957013,35.3625204202532,0 33.12500933577005,35.36240695036227,0 33.12501693399004,35.36235642593778,0 33.12500714300852,35.36227933259258,0 33.12478962149476,35.36222168020362,0 33.1247630227344,35.36221463008117,0 33.12465822299524,35.36226142665478,0 33.12460501712386,35.36236292387682,0 33.12444780955855,35.36243720307753,0 33.12433599170009,35.36252807203262,0 33.12427414434661,35.36261967190273,0 33.12429258852908,35.36272587616925,0 33.12432865958417,35.36275605039506,0 33.12430477813586,35.36280829151202,0 33.12430937198705,35.36285340592587,0 33.12428400119153,35.36293259782647,0 33.12418368910854,35.36292580273128,0 33.12408105281072,35.36299579161417,0 33.1240255401954,35.36304314905527,0 33.12395888739787,35.36302356389518,0 33.12391347070369,35.36301051622003,0 33.1238502639431,35.36304617172966,0 33.12377546745114,35.36301222331891,0 33.12374793891873,35.36301107972368,0 33.12364132598662,35.36301937961751,0 33.12355972931206,35.36300419109945,0 33.12343380649319,35.36302364341089,0 33.12342948992918,35.3630042394512,0 33.12335976870093,35.36297401187628,0 33.1233161053766,35.36299231915853,0 33.1233179167548,35.36301631366824,0 33.12328944044238,35.36301492756487,0 33.12310108545753,35.36300575970314,0 33.1230729506559,35.36304450954778,0 33.1230162936863,35.36303789075848,0 33.122884174818,35.36302123528569,0 33.12279939400555,35.36304177722218,0 33.12276500670922,35.36308994638836,0 33.12273035396954,35.36309580265122,0 33.12262032103673,35.36311439789813,0 33.12261215019785,35.36310162741979,0 33.12258594239249,35.36310140973305,0 33.12256157442641,35.36310120730094,0 33.12246449867246,35.36313025781397,0 33.12240344420331,35.36317804196806,0 33.12235485781298,35.36321260294341,0 33.12228370149879,35.36320398662399,0 33.12221644012878,35.36316810248853,0 33.12219043944573,35.36316587534571,0 33.1221604076319,35.36317647881275,0 33.12213268885587,35.36319662637854,0 33.12212826754836,35.36323241536265,0 33.12210691064286,35.36324057453951,0 33.12201966394121,35.36333602343382,0 33.12200453565505,35.36338843552988,0 33.12191115181811,35.36340112284877,0 33.12182512638631,35.3634037163125,0 33.12178028870048,35.36339292248841,0 33.12173616734509,35.3633784476194,0 33.12157128331859,35.36340644348699,0 33.12154126024789,35.36340243643319,0 33.12142441410165,35.3633864138958,0 33.12132753901632,35.36339858147495,0 33.12125936070857,35.36341455372777,0 33.12115124290965,35.36343988257857,0 33.12105912826292,35.36347659587173,0 33.12093194946848,35.36350107108834,0 33.12078502346027,35.36349094326304,0 33.1206498332319,35.36355791061096,0 33.12051837387543,35.36354398305595,0 33.1204534642326,35.36355459022685,0 33.12032889116032,35.36355556341316,0 33.1203077474105,35.36355552947888,0 33.12023065725852,35.36353764723482,0 33.12021366493632,35.36353370620823,0 33.12012419796716,35.36351295361501,0 33.12010058193641,35.36350714339824,0 33.11992127107943,35.36342569039308,0 33.11993051482941,35.36337476715528,0 33.11996342541548,35.36330826092249,0 33.11991667684957,35.36327897482891,0 33.11982649633996,35.363207001287,0 33.11975318593377,35.36319104212534,0 33.11965184458353,35.36318541607385,0 33.11950563290129,35.36322196269636,0 33.1194904027324,35.36322573377745,0 33.11947982213123,35.3632283537134,0 33.11944939332412,35.36329690167738,0 33.1194511487169,35.36331727638544,0 33.11943124074354,35.36336730154201,0 33.11940638325188,35.36342553588402,0 33.11926074332679,35.36347861643442,0 33.11926567827826,35.36349492461666,0 33.11920919743245,35.36353626233131,0 33.11915861970193,35.36353618060828,0 33.11898713867779,35.36355508459934,0 33.11877204311213,35.36357549144152,0 33.1187484300294,35.36355059978857,0 33.11857766524922,35.36350103959514,0 33.11847964749063,35.36347259193906,0 33.1183730897509,35.36353381666762,0 33.11823388465712,35.36361380017429,0 33.11825752695968,35.36377955940006,0 33.11822347403172,35.36380327539424,0 33.11820503842944,35.36388338764248,0 33.1181419153002,35.36392879023613,0 33.11813122679004,35.36389141803559,0 33.11811878785103,35.36389275611329,0 33.11809791955186,35.36395045267038,0 33.11806135133193,35.36398570955369,0 33.11801486756443,35.3640073680784,0 33.11798261105876,35.3640792606433,0 33.11795415671185,35.36408333648437,0 33.11777967194104,35.36423450828217,0 33.11762428534757,35.36437314747647,0 33.11747467180827,35.36446914591091,0 33.11737854416572,35.36453374787703,0 33.11727688357306,35.36460897330993,0 33.11730112113136,35.36463206459812,0 33.11718986265245,35.36469504690827,0 33.11701725533349,35.36475521044749,0 33.11687377893904,35.36476991637157,0 33.11674916443155,35.36486955200362,0 33.11677552964478,35.36493819132458,0 33.11671316817916,35.36501008288064,0 33.11670568490469,35.36502572802733,0 33.11667158007474,35.3650828827655,0 33.11651044034763,35.36518090298841,0 33.1163831709569,35.36528538567635,0 33.11632846615496,35.36534088990751,0 33.11623445920561,35.36546842006924,0 33.11619200134692,35.36553830648199,0 33.115958638,35.36573833073916,0 33.11591536461597,35.36575450862947,0 33.11581398743748,35.36586145997148,0 33.11580693556664,35.36586190209217,0 33.11578989730452,35.36586297031985,0 33.11578557069609,35.36593631466888,0 33.11578619273735,35.36602053384625,0 33.11577350396956,35.36612306905133,0 33.11576899594915,35.3662697645867,0 33.11572153954992,35.36634915067494,0 33.11559108537893,35.36646167851015,0 33.11549315664049,35.3664975133692,0 33.11534385653177,35.36651899956178,0 33.1152326764968,35.36654869949368,0 33.11507592281203,35.36656609932816,0 33.11504356914865,35.36657283724576,0 33.11497101395887,35.36660206029259,0 33.11481196832085,35.36668112127083,0 33.11467752313094,35.36673047919727,0 33.11458205897642,35.36677514623415,0 33.11451886911983,35.36684567635177,0 33.11441421961731,35.3669161366276,0 33.11439888822353,35.36708047319152,0 33.11439365594494,35.36718437847443,0 33.11451938990459,35.36730480266773,0 33.11462457675809,35.36735184023065,0 33.11484493574207,35.36743167021354,0 33.11497656658155,35.3675154276934,0 33.11505753947381,35.3676310219767,0 33.11505377594386,35.3678116777566,0 33.11496043196878,35.3680050893725,0 33.11488561149316,35.3680837502953,0 33.1146257551335,35.36821575878372,0 33.1144833480792,35.36827777389767,0 33.11438337630179,35.36832130840728,0 33.11416190169283,35.36835557799084,0 33.11395213666059,35.36834911572273,0 33.1137050564667,35.36834394922527,0 33.11349107491623,35.36836600504392,0 33.11341390691531,35.36838828910987,0 33.11330602702837,35.36842342665329,0 33.11316661985241,35.36846598127634,0 33.11303735883863,35.36842976882486,0 33.1128966552941,35.36832697712736,0 33.11288945834634,35.3682210130854,0 33.11290489347428,35.36801660612585,0 33.11274882357692,35.36775893493038,0 33.11260029168613,35.3674720727554,0 33.11254676355626,35.36732460035813,0 33.1124284312321,35.36722999605968,0 33.11241195589902,35.3671865012233,0 33.11233658669181,35.36715309522388,0 33.11216121172732,35.36699047650765,0 33.11200900796771,35.36684623397817,0 33.1118994905821,35.36687389580555,0 33.11168042275883,35.36661136360068,0 33.11171900537578,35.36643552057955,0 33.11163259484467,35.36620333106577,0 33.11158817293698,35.36603662171217,0 33.11157279124633,35.36588853493666,0 33.11155881811534,35.36584681877648,0 33.11151659198757,35.36581542867621,0 33.1114902294994,35.36574814477777,0 33.11145224813342,35.36568423821626,0 33.11138945287725,35.36559719734242,0 33.11132657976994,35.36554071845835,0 33.11123812681551,35.36543529690201,0 33.11121335477903,35.36539450462987,0 33.11118113787046,35.36534758625962,0 33.11116630479712,35.36531088608054,0 33.11116472580736,35.36527964053613,0 33.11117468561964,35.36527490367302,0 33.11127485500424,35.36533755696209,0 33.11131711196782,35.36534917460305,0 33.11133952526608,35.36533902432674,0 33.11133958996727,35.36531321615526,0 33.11131901184623,35.3652534127874,0 33.11127197418918,35.36516436078934,0 33.11122983207627,35.36510723901145,0 33.11114562023972,35.36496378995477,0 33.11105803934784,35.36484206882579,0 33.1110184969371,35.36474012470626,0 33.11098147557007,35.36462528050908,0 33.11093936343421,35.36455593327319,0 33.11087918109014,35.36441999473202,0 33.1107758090319,35.36431318937422,0 33.11074771863068,35.36427306976029,0 33.1107204211304,35.36424789418037,0 33.1106491147954,35.36424845253642,0 33.11060338269787,35.36429999255068,0 33.1105759567948,35.36432507582069,0 33.11055274556397,35.36432367829391,0 33.11053453143941,35.36431278112754,0 33.11050095982723,35.36414564496057,0 33.11044308173607,35.36375366090695,0 33.11041562650411,35.36346292460902,0 33.11040842484181,35.36335967707397,0 33.1104169294096,35.36327547292449,0 33.11044291396674,35.36316345264452,0 33.1104663961753,35.36307563742001,0 33.11048853940522,35.36299282874013,0 33.11057206614301,35.36274914628034,0 33.11060863104462,35.36271592876034,0 33.11061532533318,35.36269149000613,0 33.11063772982066,35.36268422696316,0 33.11069497267955,35.36267116412404,0 33.11086666915351,35.36264318495314,0 33.11094391902224,35.36258609408456,0 33.1109766528801,35.36242790093736,0 33.1109736641198,35.36229749477351,0 33.11082862942734,35.3622042077089,0 33.1107592735557,35.36215959831755,0 33.11063085808992,35.36212202680336,0 33.11012590495082,35.36208551272334,0 33.1102137291902,35.36215714594233,0 33.11022348711795,35.36223323009166,0 33.11011297252335,35.36232948574659,0 33.11001660842168,35.36236743659762,0 33.10991378746879,35.36240793151154,0 33.10980986955027,35.36251846044569,0 33.10966443976706,35.36265065271385,0 33.10957331575455,35.36261993453191,0 33.10952470068142,35.36250099550125,0 33.10949430076931,35.36239159721046,0 33.10943395259148,35.36232221816915,0 33.10943675236409,35.36219861299256,0 33.10941865829825,35.36214085133405,0 33.10935585935271,35.36205720662804,0 33.10931780229038,35.36202521976253,0 33.10919260921943,35.3620250057363,0 33.10917132104545,35.36191901893383,0 33.10923037165802,35.36184644737425,0 33.10925386069036,35.36173849837797,0 33.10928420195611,35.36154430516324,0 33.10938905249703,35.36139302742287,0 33.10942653077551,35.36132653251524,0 33.10950787998144,35.3612879575619,0 33.10953226837209,35.36115216425524,0 33.10954024081405,35.3609504620538,0 33.10946042596738,35.36071193443925,0 33.10933048476393,35.36062274124035,0 33.10923194125166,35.36057638886285,0 33.10915832055543,35.36050970414452,0 33.10906227267457,35.36045996020831,0 33.10889648615112,35.3604481313394,0 33.10865184071383,35.36051162074331,0 33.10855610786299,35.36062549348398,0 33.10838610457471,35.36064082429078,0 33.10826423504123,35.36063857732811,0 33.1081821243383,35.36065066255877,0 33.1081200745922,35.36059893866839,0 33.10791606384905,35.36029635495864,0 33.10787012678648,35.36010406893614,0 33.10783385736384,35.36002182660244,0 33.10776517923716,35.35996873294104,0 33.10768088063529,35.35986399452096,0 33.10766929132462,35.35985684343041,0 33.10764526078226,35.35985145298665,0 33.10760960498655,35.35985410863709,0 33.10756978855437,35.35986151100938,0 33.10750680422392,35.35985189440694,0 33.10747368758762,35.35983349977767,0 33.10745054233205,35.35980697219214,0 33.10742919237827,35.3597261135973,0 33.10739364242098,35.35968733924219,0 33.1073749175704,35.35967603191862,0 33.10736836431411,35.35967207439936,0 33.10720076591824,35.35957086727897,0 33.10711375764038,35.3595530584578,0 33.10711204082429,35.35957614867191,0 33.10709209897558,35.35959309324377,0 33.10704233198852,35.3596018364895,0 33.10695527637224,35.359602365147,0 33.10682585371097,35.35963610175514,0 33.10678201946872,35.35959459616712,0 33.10675861138571,35.35966994466265,0 33.10671701186071,35.35972624425727,0 33.1066243924729,35.35963439577844,0 33.1065489865435,35.35961864406655,0 33.10610524284961,35.35969054944623,0 33.10612413999131,35.35975714078032,0 33.1060956889912,35.3598589687273,0 33.10600600720316,35.3599138266124,0 33.10587995901778,35.35992447506229,0 33.10578990868868,35.35980070875066,0 33.10579189526733,35.35967370523279,0 33.10574253554602,35.35952488111687,0 33.10566646837708,35.35944392674598,0 33.10585251661553,35.3593138471183,0 33.1058633753921,35.35928330266344,0 33.10585132553204,35.35922321861482,0 33.10577865528783,35.35902167281845,0 33.10568770361968,35.35892643027944,0 33.10547010929427,35.3587521828466,0 33.10531034048164,35.35870939061525,0 33.10530456955469,35.35870784527999,0 33.10520128155973,35.35862063534589,0 33.10518180342337,35.3586185638144,0 33.1051553543699,35.35858727489613,0 33.10492445626354,35.35842760695277,0 33.10474228223017,35.35834171348081,0 33.10469764900823,35.35828933904962,0 33.1046073678005,35.35825590142632,0 33.10448463722496,35.35826655456419,0 33.10434108672413,35.35831316784589,0 33.10423166309015,35.35830754304105,0 33.10420840705469,35.35832380225048,0 33.10414707010214,35.3583182620923,0 33.10410821242395,35.35827676385459,0 33.10411828035496,35.35823059761553,0 33.1043050881118,35.35812836764413,0 33.10427214458588,35.35804409324862,0 33.10428315823989,35.35795310264342,0 33.10437721574185,35.35780995985019,0 33.10428893050251,35.35764680349929,0 33.10426743026557,35.35762503222827,0 33.10425923542692,35.35758834254984,0 33.10411740782823,35.35729197306929,0 33.10409446170951,35.35702994079119,0 33.10424615067848,35.35688197475267,0 33.10402817780055,35.35669583856013,0 33.10390975204937,35.35661836364299,0 33.1038262335212,35.35656372559512,0 33.10364575598675,35.35646492941286,0 33.10332018311012,35.35637131108231,0 33.1032629340561,35.35638818956794,0 33.10321415343449,35.35641600888889,0 33.10314420226761,35.35645589943658,0 33.10304634741224,35.35646591514708,0 33.10302307522345,35.35648828726811,0 33.10291858623913,35.35649964977473,0 33.10291189549322,35.35652137228519,0 33.102875430521,35.35651655303173,0 33.10264232156069,35.3565718360071,0 33.10255850388167,35.35660361029704,0 33.10240589468457,35.35662779196632,0 33.10239508955843,35.35663796051129,0 33.10226982364935,35.35666762353477,0 33.10221926645955,35.3566621012166,0 33.1019535813311,35.35649387496585,0 33.10187823799589,35.3564557076006,0 33.10186507648009,35.35641629257617,0 33.10189927680352,35.35633688961683,0 33.10189353404561,35.35631378682299,0 33.10191533335629,35.35622145778517,0 33.1019029134424,35.35621532268583,0 33.10191626665865,35.35618138729799,0 33.10188760117543,35.35604821806351,0 33.1018947139122,35.35602327103555,0 33.10181150712786,35.35598050603318,0 33.10170882479981,35.3559353281587,0 33.10159568069731,35.35592663851822,0 33.1014190825742,35.35593091061588,0 33.10131023721228,35.35602172794445,0 33.10123104942811,35.35618391099957,0 33.10121829783069,35.35630342410187,0 33.10119331952027,35.3563441303552,0 33.10093251806524,35.3562119076697,0 33.10090358235379,35.35618129320965,0 33.10087041618366,35.35618259273225,0 33.10083401054648,35.35615536103789,0 33.10080747142906,35.35615938888326,0 33.10075696772257,35.35613281160287,0 33.10061299384221,35.35602660359694,0 33.10041537318244,35.35582963102151,0 33.10039176699147,35.35581460128152,0 33.10037835623883,35.35580606288205,0 33.10035497799555,35.35579117716539,0 33.1003301437214,35.35577687133528,0 33.10008559741773,35.35576760694175,0 33.09994447926747,35.35552217215528,0 33.0999288890855,35.35546101866755,0 33.09996300318255,35.35541489506373,0 33.10006336807673,35.35539605621474,0 33.09984737570834,35.35524896915066,0 33.09975440345333,35.35529362880661,0 33.09950549733328,35.35536517777361,0 33.09947409037211,35.3553284464699,0 33.09926043970851,35.35523637543325,0 33.0991280787936,35.35512882837765,0 33.09913895655434,35.35509149353193,0 33.0990665840496,35.3548719888181,0 33.09909914511512,35.35478647034251,0 33.09886211222487,35.35475819993592,0 33.09863836620264,35.35472180314549,0 33.09857187544794,35.35478416851993,0 33.09856330085898,35.35489078380154,0 33.0985921675697,35.35494720704565,0 33.0985969215556,35.35502939681995,0 33.09849975905011,35.3550903485736,0 33.09843931176965,35.35506307264535,0 33.09835831951402,35.3549678425457,0 33.09830480326862,35.35482919426356,0 33.09815122205256,35.35459663910623,0 33.09783764906745,35.35435972180234,0 33.09753289055843,35.35423692052699,0 33.09723471573594,35.35413246787927,0 33.09681905773103,35.35393883108294,0 33.09662185795595,35.35389201012389,0 33.09640397570148,35.353840278425,0 33.09578398482537,35.35379228997074,0 33.09552784034487,35.35378080725397,0 33.09512083489287,35.35376255900859,0 33.09439773564252,35.35382847737119,0 33.09359089989822,35.35359098587867,0 33.09332908793466,35.35353073670269,0 33.09319399624726,35.35351737890013,0 33.09232125681699,35.35343108127773,0 33.0920458547729,35.35342680246472,0 33.09185324819017,35.35342381039482,0 33.09148780642342,35.35339936823924,0 33.09141067534566,35.35338077444206,0 33.0910832029295,35.35340128455924,0 33.09077790075431,35.35340071741618,0 33.09060883587451,35.35340249017911,0 33.09044779980362,35.35341645049866,0 33.09027508621183,35.35345652945454,0 33.08990660928095,35.35348079689133,0 33.08986889544833,35.35348191469964,0 33.08958751220376,35.35348138986024,0 33.08910602381886,35.35346147744724,0 33.08887978418053,35.35345154771465,0 33.08836193883531,35.35346602398685,0 33.08769085272949,35.35347802777218,0 33.08708541056829,35.35351828012434,0 33.08652866115943,35.35353383027263,0 33.08640800482468,35.35353719939332,0 33.0858959463714,35.35355642923745,0 33.08545738685444,35.35361835898961,0 33.08544758297108,35.35361974322152,0 33.08545179115459,35.35366965839316,0 33.08543793250204,35.3536727761307,0 33.08521086560631,35.35372386049763,0 33.08491762932199,35.3538112334267,0 33.08459253585375,35.35387953231444,0 33.08426575463618,35.35403100587664,0 33.08384057474049,35.35410148709912,0 33.08347107082792,35.35415251007039,0 33.08303752241164,35.35418341397217,0 33.08269828226365,35.35418705013981,0 33.08221147812982,35.35416809910524,0 33.08182408760627,35.35416820963496,0 33.0812820143732,35.35407280879113,0 33.08085564382096,35.35407196893773,0 33.08056273812851,35.35404288244923,0 33.08009434715684,35.35400751189763,0 33.079816428032,35.35399705410286,0 33.0796238807394,35.35396236819009,0 33.07940306387483,35.35392762753276,0 33.07913924990304,35.35391681999688,0 33.07876626121907,35.3539459355697,0 33.07862173739642,35.35395721662605,0 33.07854390691561,35.35396718144902,0 33.07833507266482,35.35401044415713,0 33.07830000746635,35.35401804113092,0 33.07800801245507,35.3540812973326,0 33.0778683672826,35.35411373591967,0 33.07767014280522,35.35418888759867,0 33.07736515629,35.35431239218547,0 33.07726416370998,35.35435906958615,0 33.07715901186666,35.35442057717484,0 33.07711193422121,35.35447140690562,0 33.07707065698879,35.35450943429694,0 33.07699770903654,35.35453829323694,0 33.07698193199372,35.35458412648238,0 33.07697057167051,35.35466740273024,0 33.07695659460723,35.35470395967758,0 33.07695356432051,35.35471188469209,0 33.076928393899,35.35473173186309,0 33.07687482875691,35.35474882536337,0 33.07673648311717,35.35475866975363,0 33.07646753938861,35.35480366556735,0 33.07642508891491,35.35482078068021,0 33.07636446813811,35.35485708310807,0 33.07632903610823,35.35486713057933,0 33.07617919634055,35.35486582256864,0 33.07615118535239,35.35487217508174,0 33.07605609982105,35.35486962546921,0 33.07598153689683,35.35488768904403,0 33.07591066925072,35.35490879419508,0 33.07577889775254,35.3549226976596,0 33.07568260942418,35.35490935454339,0 33.07549781513438,35.35489583501091,0 33.07538625602782,35.35489628862576,0 33.07535622367442,35.35488948394498,0 33.07530071849563,35.35486644153666,0 33.07517003057512,35.35479232620816,0 33.07503020395063,35.35474652138488,0 33.07499975041313,35.35474342603441,0 33.07486185294407,35.3547407911697,0 33.07482109025392,35.35474391353311,0 33.07470172603433,35.35473827985567,0 33.07457665503873,35.35471374955248,0 33.07447334756935,35.35470764243487,0 33.07436268075126,35.35468499502034,0 33.07430842296996,35.35465757070576,0 33.0742796399729,35.35464638430694,0 33.0742323280122,35.35463684708018,0 33.07406284056513,35.35459840104697,0 33.07393664912644,35.35457662176351,0 33.07389085598337,35.35456871766661,0 33.07373360420042,35.35456840356824,0 33.07348447583584,35.35459488444362,0 33.07342808290846,35.35459308531781,0 33.07333475308236,35.35455445316304,0 33.07319216336621,35.35446884587358,0 33.07306175526236,35.35443991942441,0 33.07302923666301,35.35443918011818,0 33.07287659349397,35.35441248518475,0 33.07280578446152,35.35441352297391,0 33.0727510306241,35.35441493053828,0 33.07269461109091,35.35442257389015,0 33.07250438396058,35.35443702992218,0 33.07238824824931,35.35445332247543,0 33.07227454446569,35.35448243371891,0 33.07223542173374,35.35448741286498,0 33.0722230547803,35.35449345856581,0 33.07200319514654,35.35464275016093,0 33.07198217533134,35.35465080204344,0 33.07194509846506,35.35466017047435,0 33.0718829343677,35.35466173168417,0 33.07186316114014,35.35466607544955,0 33.07185243500719,35.35467381021475,0 33.07177576865661,35.35470670547215,0 33.0716081578284,35.35472896248342,0 33.07158753440442,35.35474241059404,0 33.07155991253146,35.35475618193129,0 33.07146423956827,35.35481213910223,0 33.0714283801004,35.35482724210321,0 33.07136817399026,35.35486219422597,0 33.07124062700888,35.35497659805633,0 33.07109764672226,35.35502116238863,0 33.07109063017358,35.35502721834651,0 33.07108812802858,35.35503834188272,0 33.07108806734568,35.35505823886744,0 33.07107398731689,35.35508586437212,0 33.07107964478792,35.35512094796346,0 33.0710800037312,35.35513882291728,0 33.07107010477747,35.35514521047206,0 33.07104620022545,35.35515494224737,0 33.07098729344619,35.3551676384698,0 33.07084143138589,35.35521253319209,0 33.07081547654568,35.35521922578594,0 33.07069803397898,35.35525895052144,0 33.07069778318206,35.35525902277811,0 33.07058225607186,35.35529244026216,0 33.07031901312688,35.35535648855061,0 33.07024196647399,35.3553785899911,0 33.07023659068683,35.35538633502345,0 33.07023776892007,35.35540522354971,0 33.07024635473368,35.35542480092836,0 33.07025369224399,35.35544875971354,0 33.07025239362341,35.35547000316869,0 33.07024576599833,35.35548314185441,0 33.0702259543567,35.35550063823515,0 33.07020576176863,35.35550767978739,0 33.07011104601715,35.35551861616052,0 33.07008797291192,35.35552565125149,0 33.06998741185951,35.35556389265852,0 33.0699020749712,35.35560452553939,0 33.06984640200448,35.35563712439455,0 33.06982993050879,35.35563911513337,0 33.06980566265609,35.35563232016572,0 33.0697989332861,35.35562705100929,0 33.06978471705639,35.35561592183075,0 33.06976064468511,35.35554471539895,0 33.06976313892491,35.35553696393875,0 33.06977553278801,35.35552215080215,0 33.06979335318318,35.35548306771816,0 33.06979730010122,35.35540281153154,0 33.06978994675742,35.35538458637286,0 33.06977390874591,35.35537882052336,0 33.06975785910302,35.35537743896563,0 33.06973358861422,35.35537131911443,0 33.0696776097378,35.35536918178754,0 33.06965663073316,35.35536374416694,0 33.0695549439724,35.3553658975196,0 33.06950433986016,35.35535601511099,0 33.06943655450799,35.35531068697284,0 33.06943164092043,35.35530190860161,0 33.06943134050103,35.35529413982435,0 33.06943011409062,35.35526244818903,0 33.0694417313991,35.35523245818217,0 33.06947023027946,35.35520148949475,0 33.06948389746537,35.35517420152858,0 33.06948641545,35.35515818715655,0 33.06947329696371,35.35514011762427,0 33.06944843441896,35.35512604342252,0 33.069222291029,35.35510520896666,0 33.0692057989729,35.35511394371918,0 33.06914474856092,35.35515496237109,0 33.06912086089507,35.35515896101187,0 33.06905256272414,35.35514668095839,0 33.06898018710545,35.35512157753016,0 33.06887069872877,35.35511730795619,0 33.06876785697202,35.35509349089158,0 33.0686930887216,35.35504275264911,0 33.06856729250281,35.3549865142835,0 33.06850651163125,35.35493917698908,0 33.06849095265713,35.35493109596655,0 33.06846869898297,35.3549195394272,0 33.06842014322358,35.35491269574099,0 33.06835489519906,35.35491337714004,0 33.06831985973297,35.35492780632719,0 33.06828067545439,35.35495301919316,0 33.06827487629766,35.35496514866557,0 33.06828571239071,35.35505622557653,0 33.06826545701952,35.35508417513262,0 33.06818452211105,35.35516562127672,0 33.06814365538494,35.35520263404351,0 33.06811646064245,35.3552110096238,0 33.0680390915635,35.35520343207496,0 33.06801068715244,35.35520337324631,0 33.06796168919397,35.3552073199837,0 33.06793655110675,35.35521603688957,0 33.06772949170052,35.35534915996466,0 33.06761808307055,35.35543459065015,0 33.06752818893921,35.35548448693349,0 33.06751335985751,35.35548749138715,0 33.06748127400089,35.3554796682448,0 33.06743815644792,35.3554448451578,0 33.06736394912264,35.3553455442127,0 33.06735004271094,35.35531617525416,0 33.06732799228391,35.35525778746117,0 33.06733684458092,35.3551896836583,0 33.067325953132,35.35511681807284,0 33.06732601445716,35.35509658307372,0 33.06729902831511,35.35503683604488,0 33.06725996224779,35.35502326685878,0 33.06718716374301,35.35500220886325,0 33.06701149788359,35.35496542662474,0 33.066966231188,35.35496027421437,0 33.06682010912705,35.35495491528305,0 33.06677978947766,35.3549474128877,0 33.06676291148426,35.35494737804385,0 33.06674272751529,35.3549517211984,0 33.0666977628191,35.35495253472129,0 33.06669250146079,35.35495262956463,0 33.06667707266885,35.35495680783694,0 33.06666901836807,35.35495898910008,0 33.0666658959385,35.35495911611336,0 33.06659038221961,35.35496219987861,0 33.06657184065582,35.35496755704795,0 33.06638075599104,35.35499245715939,0 33.06629923793896,35.35499532410459,0 33.06627659071994,35.35499730062045,0 33.06601424056224,35.35503790330051,0 33.0658548326251,35.35506893806125,0 33.06572632713196,35.35509126745932,0 33.06558410855882,35.35515521793691,0 33.06551486492716,35.3551827284931,0 33.06548416143716,35.35519414301639,0 33.06539872970667,35.35522590414511,0 33.06516195576096,35.35531392959185,0 33.06511088652542,35.35534208451509,0 33.06506915632404,35.35534832557202,0 33.06487555943458,35.35534425626982,0 33.06486884881219,35.35534411475004,0 33.06485446788958,35.35534902684766,0 33.06484307226698,35.35535291968991,0 33.0648389943749,35.35535252707524,0 33.06481166942227,35.35534990160291,0 33.06466246253335,35.35530698863771,0 33.06454351415347,35.35530421107844,0 33.0644476846581,35.35531961983645,0 33.06434717157156,35.3553506247972,0 33.06423808755053,35.35532213717833,0 33.06413920683634,35.35532488479904,0 33.06402272766779,35.35535585649784,0 33.06378003439964,35.35540301583806,0 33.06359036030925,35.35545703511606,0 33.06332991272365,35.35558751516561,0 33.06329018440127,35.35560741850055,0 33.06322369826534,35.35562541769563,0 33.06313657241552,35.35565645070039,0 33.06302595249795,35.3557158495415,0 33.06299355031383,35.35573379928461,0 33.06296150114987,35.35575155323674,0 33.0628449673844,35.3558014779369,0 33.06271583542571,35.35574615191913,0 33.06265827663529,35.35573281167758,0 33.06263117696029,35.35572562644182,0 33.0625009197516,35.35571607439331,0 33.06241383138683,35.35572767141347,0 33.0624064952621,35.35573257237075,0 33.06234507346468,35.35577360490383,0 33.06205294087233,35.3558599275641,0 33.06185464333787,35.35590162134022,0 33.06172040137516,35.35587553116367,0 33.06156629184841,35.35583921134113,0 33.06145765448734,35.35584509491615,0 33.06136967686582,35.35587275683926,0 33.06122281057512,35.35590640662758,0 33.06111240405964,35.35594760485044,0 33.06100707547613,35.35595553336966,0 33.06087111444339,35.35594913455158,0 33.06079061370917,35.35597205646408,0 33.06069624718183,35.3560389462365,0 33.06054795928091,35.35614405691063,0 33.060393602543,35.35618651857781,0 33.06019438097483,35.35622477585238,0 33.06018369771822,35.35622682729289,0 33.06007496633801,35.35626259385072,0 33.05983194165217,35.3562878888883,0 33.05973993317134,35.35627886566622,0 33.05930090224533,35.35640725283862,0 33.05927185560306,35.35641574721924,0 33.05911806078183,35.35654242692843,0 33.05904747040109,35.35657759521724,0 33.05900599310331,35.35658361952932,0 33.05892476555018,35.35657393872987,0 33.05885025753565,35.35653710519772,0 33.05871308155432,35.35639011171842,0 33.05863435894038,35.35637500323059,0 33.05847101302579,35.35637533474322,0 33.05824527073363,35.35644209318512,0 33.05820951643219,35.35647325921588,0 33.05799403649791,35.35670236245111,0 33.05795361928779,35.35689720045539,0 33.05809880990294,35.35713114564336,0 33.05819141300699,35.35721488206614,0 33.05817970187312,35.35723837482237,0 33.05817847681291,35.35724083255925,0 33.05826772288261,35.3572660064262,0 33.05848416862979,35.35732705925761,0 33.05854373474629,35.35736929497538,0 33.05855180869707,35.35743790820577,0 33.05855615705914,35.35744706316376,0 33.05860864272557,35.3575575642769,0 33.05858749497425,35.35768995941174,0 33.05855484199826,35.35778972855314,0 33.05849640050496,35.35791593125752,0 33.05848876789763,35.35796956943913,0 33.0584263925718,35.35802852516218,0 33.05836997470496,35.35803927246742,0 33.05827468661774,35.35801801536092,0 33.0581863514211,35.35802289829856,0 33.05795268908643,35.357959228395,0 33.05783383011943,35.3579342171982,0 33.05766159068627,35.35786185782035,0 33.0575250408448,35.35777870618443,0 33.05744648816165,35.35770994252569,0 33.05745495449683,35.35765494744229,0 33.05741802040362,35.35751436588232,0 33.05736745509024,35.35753115095255,0 33.05732859286868,35.3574971082481,0 33.05723551136303,35.35756414882933,0 33.05714257135028,35.35758704174741,0 33.05709532005006,35.35758354511024,0 33.05700058919869,35.35764786503905,0 33.05692510623163,35.35765653307622,0 33.05687706684093,35.35764012904109,0 33.05677258064203,35.35764330142598,0 33.05671607791503,35.35768053579278,0 33.0565767148003,35.35769993378742,0 33.05635977223943,35.35760574234445,0 33.05627252722051,35.35752101592484,0 33.05618848726338,35.35749466998401,0 33.05606348250728,35.3574319175431,0 33.05589858950621,35.35739692593351,0 33.0558733898778,35.35736868580022,0 33.05582343094297,35.3573364108283,0 33.05554033729922,35.35715352072667,0 33.05540531203962,35.35711315874601,0 33.05497386647424,35.35719984444331,0 33.05491406591887,35.35723095733392,0 33.05473226635738,35.35729644533842,0 33.05432464346946,35.35745177653271,0 33.05406607061329,35.35754630154455,0 33.05404535680965,35.35756000449104,0 33.05385719414461,35.35765402793525,0 33.05333149613053,35.35790331803438,0 33.05309566245165,35.35801079539881,0 33.05302751290409,35.35805920839685,0 33.05279699496041,35.35820546087673,0 33.05271667846869,35.35825641728265,0 33.05278431436315,35.35842080478108,0 33.05274169792422,35.35854356895363,0 33.05266598611502,35.35857289934073,0 33.05259635744043,35.35856595572541,0 33.05251176368618,35.35857120515509,0 33.05247357281586,35.35858606467414,0 33.0524396067172,35.35857648157994,0 33.05232946221919,35.3585554128167,0 33.05222989687304,35.35855429220705,0 33.05219488056881,35.3585523973206,0 33.0521416161332,35.35854951517994,0 33.05200237189985,35.35853698657194,0 33.05151692758344,35.35841435603948,0 33.051446465494,35.35841148542792,0 33.05098367999947,35.35846005378024,0 33.05062111150401,35.35853940363472,0 33.05042358770272,35.35860145479024,0 33.05033401451669,35.3586114460025,0 33.05016495744673,35.35858798320021,0 33.04980823687404,35.35840042669961,0 33.04972923359546,35.35847360396623,0 33.04963302313749,35.35848493863495,0 33.04952452345005,35.35845142046045,0 33.04937347218266,35.35849998882293,0 33.04934768675601,35.35852574080536,0 33.04926849163031,35.3586679937782,0 33.04907206811482,35.3586358396315,0 33.04898188457066,35.3585792698949,0 33.04892741877144,35.35850172417396,0 33.04893090352892,35.35845079330215,0 33.04890235922551,35.35838116916751,0 33.04889718017745,35.35836853849914,0 33.04886463050843,35.35832943921991,0 33.04866793777573,35.35824306414174,0 33.04840174249738,35.35826149327004,0 33.04825322548664,35.35829993137516,0 33.04815865357696,35.35833568966294,0 33.0480443704848,35.35839891698856,0 33.04802198850815,35.35841823873299,0 33.04789082276992,35.35832420620432,0 33.0479094515689,35.3582060709868,0 33.0478819525208,35.35799682417708,0 33.04795357133984,35.3579005397975,0 33.04781131211267,35.35779699035493,0 33.04766716403548,35.35776271212608,0 33.04759608783265,35.35769463677669,0 33.04743967941994,35.35735741920013,0 33.0474849133803,35.35721625067208,0 33.04735639813222,35.35696874574089,0 33.04724746720008,35.356815010235,0 33.04723461572048,35.35669001350876,0 33.04714868255346,35.35660288772443,0 33.04714144534245,35.35628365874778,0 33.04709585387686,35.35603090397372,0 33.04686067951275,35.35594752265388,0 33.04680618668718,35.35587948365443,0 33.04660407830159,35.35582470046623,0 33.0465259798135,35.3557668172152,0 33.04649876824507,35.35569823846402,0 33.04644176359913,35.35555457941403,0 33.04646968026806,35.35534066970553,0 33.0464916296912,35.3552854430347,0 33.04657238762167,35.35521786470841,0 33.04660308566334,35.3551501749387,0 33.04661196815687,35.355096701949,0 33.04666658050927,35.35503708917292,0 33.04683565740977,35.35491888866828,0 33.04680961240692,35.35489654195225,0 33.0466792516688,35.35482582090344,0 33.04659579877642,35.35472132424296,0 33.04659070857274,35.35461521813519,0 33.04663465643331,35.35448960718963,0 33.04657192054479,35.35437356671362,0 33.04657099180182,35.35432542102121,0 33.0466510756889,35.35413213260848,0 33.04661965211782,35.35409105103891,0 33.04649122994942,35.3540925490099,0 33.0463442055878,35.35412431764848,0 33.04631581395946,35.35415367550238,0 33.04628968955938,35.35415540082631,0 33.04622913350512,35.35403847237775,0 33.04629060012189,35.35388080554805,0 33.04627993631603,35.35381480733453,0 33.04622455168816,35.35377902229833,0 33.04608190042401,35.35380545100305,0 33.0460418470021,35.35374116936999,0 33.04608557636143,35.35368153394675,0 33.04612814216937,35.35364418274936,0 33.04619384400956,35.35352218716883,0 33.0461493845058,35.35347394452045,0 33.04610158918538,35.35344709186091,0 33.04612793610119,35.35337850157486,0 33.04612371029425,35.35334015507823,0 33.04601720836037,35.35329534053167,0 33.04583235656266,35.3532485680908,0 33.04574055689428,35.35303706540399,0 33.04577360493513,35.3529167805824,0 33.04566954061013,35.35279351450143,0 33.04553913894052,35.35273616411556,0 33.04548500015068,35.35265402143062,0 33.0453686532008,35.35262434049816,0 33.04531446931583,35.35255556965598,0 33.04532343354883,35.35247802457582,0 33.04528997338792,35.35239503666701,0 33.04513361855756,35.35228859223299,0 33.04497017588682,35.35234974386676,0 33.04489516684916,35.35232550491938,0 33.04486573884066,35.3523388120342,0 33.04477241471378,35.35225925428458,0 33.04478144733127,35.35216120472669,0 33.04472940739026,35.35210224609698,0 33.04464681383356,35.35206818210397,0 33.04454656735047,35.35210629408863,0 33.04440098002837,35.35203464413549,0 33.04426958118424,35.35195054351949,0 33.04414403414732,35.35206973053821,0 33.04409078172935,35.35204821340947,0 33.04407672851579,35.35201965214312,0 33.04404525869989,35.35199283507423,0 33.04369692747402,35.35201968997969,0 33.04334260775552,35.35220968507129,0 33.04280931639661,35.35222274855311,0 33.04265036649501,35.3522420049379,0 33.0422383566056,35.35243454097878,0 33.04207401204827,35.35243951890072,0 33.04199874815796,35.35249105867844,0 33.04169055312605,35.35255544424697,0 33.04124089218909,35.35261683343088,0 33.04094928249118,35.35260369046117,0 33.04072503044104,35.35262457807624,0 33.04058483333834,35.35224713460899,0 33.04057846932797,35.35219808479464,0 33.0408506598453,35.35216125846216,0 33.0409398534465,35.35217394308962,0 33.0409044333421,35.35202853978119,0 33.04044957473181,35.35201859022495,0 33.03986556097905,35.35190670900977,0 33.03977920749679,35.35169878111106,0 33.03970449958403,35.35158627524525,0 33.03931431233272,35.35144095410844,0 33.03946428194045,35.35118274766607,0 33.03950631279854,35.35098313602228,0 33.03974498022873,35.35088204422402,0 33.03980809038351,35.35088486279118,0 33.0400107820278,35.35080241013792,0 33.04016136673822,35.35068239431151,0 33.0404185505792,35.35057599313377,0 33.04060074419937,35.35044089157553,0 33.04064031025373,35.35032597180381,0 33.04092618724581,35.35010105962479,0 33.04099266811664,35.35007178925809,0 33.04109066194903,35.35005596388468,0 33.04116158713784,35.34999995620709,0 33.04117521443521,35.3498314844299,0 33.041274570516,35.34973453101387,0 33.0413139574191,35.34967221175806,0 33.04139144588169,35.34960552129659,0 33.04165516392769,35.34949645797687,0 33.04171413811849,35.34943418231437,0 33.04198085635811,35.34940358201595,0 33.04213879946745,35.34935846998705,0 33.04216594193701,35.34937725420959,0 33.0424970697747,35.34928528084301,0 33.04264516646516,35.34925619356925,0 33.04282022088995,35.34930027476943,0 33.04306962557747,35.34924021132058,0 33.04315372137476,35.34914946235232,0 33.04332793477568,35.3491204334202,0 33.04338590169937,35.34903319189095,0 33.04339187160349,35.34887540118731,0 33.04343370493761,35.34873195561685,0 33.04335746444518,35.34875139862375,0 33.04333704211401,35.34867557048248,0 33.04348318505453,35.34857961159863,0 33.04356315622881,35.34843961263466,0 33.04363232923656,35.34831851666374,0 33.04376630408812,35.34828311175863,0 33.04456448665398,35.34790361484592,0 33.04489021849567,35.34777427214983,0 33.04507696027613,35.34778489208026,0 33.04571735247865,35.34757846180638,0 33.04578272582908,35.34757797015292,0 33.04598620156134,35.34770467057044,0 33.04628820483919,35.34769003954862,0 33.04628928745696,35.34783286578224,0 33.04637494294303,35.34781775383267,0 33.04682790509482,35.34780855824577,0 33.04711420986903,35.34783469867809,0 33.04720252775606,35.34795603992158,0 33.04732366428983,35.34803664678907,0 33.04736995373894,35.34815916983082,0 33.04792957619831,35.34790154058147,0 33.04811369287716,35.34776422482152,0 33.04826943899518,35.34773396393003,0 33.04866457695732,35.34779604642786,0 33.04883269343726,35.34779004126902,0 33.04888733750621,35.34773915272767,0 33.04915376673525,35.34765557636057,0 33.04931373035367,35.34776304628103,0 33.04936171770917,35.34784349073554,0 33.04948890425942,35.34797894259761,0 33.04968788808373,35.34805334257688,0 33.05011183985641,35.34834884685164,0 33.05049640316656,35.34831398384731,0 33.05066657336189,35.34815623043196,0 33.05076788490842,35.34811309494211,0 33.05097975459768,35.34805489857266,0 33.05113269002634,35.34793153835698,0 33.05172763725075,35.3478155170063,0 33.05183905281704,35.34753648887438,0 33.05182723102445,35.34734263047413,0 33.05204242519212,35.3472181282851,0 33.05223150179257,35.34726051507592,0 33.05280051088729,35.34738807040127,0 33.05302003997605,35.34740590719433,0 33.05318356260366,35.34746938868932,0 33.05361884995502,35.34747980019047,0 33.05394228622404,35.34753100228623,0 33.05433496946054,35.34761233696175,0 33.05451766866808,35.34770268706266,0 33.05474636780725,35.34786415266004,0 33.05500036220452,35.34794676475573,0 33.0552237294813,35.3479693397397,0 33.05539741739294,35.34786713256218,0 33.05585387977204,35.34788231712099,0 33.05595601914921,35.34786675449954,0 33.05619853797362,35.34792408849486,0 33.05638734610579,35.34791186805059,0 33.0565282442513,35.34782221448188,0 33.05673245108912,35.34781318257617,0 33.05690799172818,35.34773307049228,0 33.05720250785777,35.34779367071163,0 33.05757373687037,35.34796016972072,0 33.05788025816297,35.34788033719828,0 33.05796530586544,35.34778740604156,0 33.05798349785806,35.34751757850635,0 33.05832378817786,35.34772188565451,0 33.05850428724597,35.34790060259434,0 33.05866233824292,35.34786779613474,0 33.05897437240854,35.34787161487091,0 33.0590304762387,35.34779440355954,0 33.05925192761755,35.34781381090985,0 33.05947558072011,35.3477464232732,0 33.05962602227211,35.34768361519236,0 33.05976473475094,35.34767601749918,0 33.05989003526609,35.34764471920086,0 33.06000942956111,35.3476544408218,0 33.06004396111664,35.34769870197016,0 33.06016131954603,35.34774313824601,0 33.06034230295823,35.34776877150864,0 33.06043275947732,35.34779263441909,0 33.06067351943323,35.34779787610417,0 33.06090091371357,35.34776521397126,0 33.06126481190889,35.34781490232746,0 33.06145151341801,35.34785948336265,0 33.06157901448168,35.34790870301602,0 33.06159123675002,35.34793262832207,0 33.06186397921608,35.34847937096789,0 33.06192084601903,35.34859336590394,0 33.06188721196555,35.34876412445183,0 33.06189849619311,35.34886040815083,0 33.06195924714102,35.3490164511566,0 33.06209926160246,35.34922960246341,0 33.06240969596261,35.34945937994551,0 33.06251329271423,35.34967516624636,0 33.06264219276977,35.34973780191717,0 33.0627608163217,35.34991158962081,0 33.06286142139182,35.35002568575936,0 33.06307476031387,35.35007900637599,0 33.06331870844961,35.350402192367,0 33.06355670924111,35.35050843970165,0 33.06381488535712,35.35051440058587,0 33.06402818740887,35.35057992145519,0 33.06424654801961,35.35061562536011,0 33.06446480815145,35.35068386768058,0 33.0646534177236,35.35070730727279,0 33.0647908752284,35.35067912067195,0 33.06486510380569,35.35076062200043,0 33.06526689502825,35.3508888977128,0 33.06540552459956,35.35101798358529,0 33.06546725571618,35.35105034199827,0 33.0654968999713,35.35105754685873,0 33.0657412311612,35.35111692934403,0 33.06586879752124,35.35113000736143,0 33.06600387401529,35.35111072627028,0 33.06612500531818,35.35107522879985,0 33.06626005196349,35.35106538934703,0 33.06631585404877,35.35112418431377,0 33.06652957606442,35.35123186687478,0 33.06664235200612,35.3512361457765,0 33.06668348396987,35.35124634739476,0 33.0667640240854,35.35129237764587,0 33.06685042979338,35.35130537008994,0 33.0668997157124,35.35134121936893,0 33.06704288814103,35.35136646869618,0 33.06712854718512,35.35135450407185,0 33.06733357476318,35.35134413328684,0 33.06756921591004,35.35128391340466,0 33.06773477455262,35.35125794856668,0 33.0677950762941,35.35119129770596,0 33.06783880130756,35.35116171076333,0 33.06796963697319,35.35118288719253,0 33.06804785355509,35.35118102421059,0 33.06819200290152,35.35115636336887,0 33.06850760444911,35.35106190644753,0 33.06873234509342,35.35106641193764,0 33.06885363675259,35.35097762773098,0 33.06889653883738,35.35094736394068,0 33.06929034413577,35.35085508767358,0 33.069353172353,35.35076888284724,0 33.06935074133963,35.3504849211991,0 33.0693829358906,35.3504559838918,0 33.06964746525131,35.35037018936889,0 33.06971165719279,35.35037773834314,0 33.06981049557032,35.35036242642196,0 33.06994780953863,35.35041936175178,0 33.07016432435804,35.35042114989034,0 33.07027557897037,35.35038360426238,0 33.07036859707492,35.35038716556622,0 33.07056126882994,35.3503781125067,0 33.07067492077736,35.350364853578,0 33.07075724208455,35.35036636840424,0 33.07133577285158,35.35044173040181,0 33.07145772486348,35.35040622980493,0 33.07155910067963,35.35036798846647,0 33.0717363663174,35.35028066359244,0 33.07184842412535,35.35024918860714,0 33.07204286217291,35.35020034361484,0 33.07214828566227,35.35018504208188,0 33.07225615115424,35.35017918901903,0 33.07236475322333,35.35020233988282,0 33.07259592419044,35.3502581117957,0 33.07271770979688,35.35027724149958,0 33.0731186141041,35.35028681293774,0 33.07322237765639,35.35027555504313,0 33.0734464242666,35.35023620928228,0 33.07382429044056,35.35024101147975,0 33.07418811362989,35.35026129863536,0 33.07440885404895,35.35022599038106,0 33.07462725770379,35.35014548819457,0 33.07468499007322,35.35011052964283,0 33.0747040195613,35.35007886698151,0 33.07462764056306,35.34973877736549,0 33.0745876624833,35.3496172911936,0 33.07458277990782,35.34932051085334,0 33.07463729856151,35.34925856711385,0 33.07466395647818,35.34915272733824,0 33.07466274630392,35.34900568846337,0 33.07472881193196,35.34893634806846,0 33.07482522548128,35.34890483942662,0 33.07500971634906,35.34887755221242,0 33.07525493157041,35.34891581012737,0 33.07541473023672,35.34888645007852,0 33.07558263330032,35.34890027326977,0 33.07575894671881,35.34885340943914,0 33.07614133058146,35.34871994494461,0 33.07643217231126,35.34864025734905,0 33.07657365089267,35.3485093186905,0 33.07673537861191,35.34835963732293,0 33.07687710143852,35.34809503672709,0 33.07700017300785,35.34797030982814,0 33.07711666273742,35.34782791101894,0 33.07786193965112,35.34756857162861,0 33.07795510196594,35.34746416109443,0 33.07814773781843,35.34736537931144,0 33.07828758948013,35.34717140735183,0 33.07852229280021,35.34686215976382,0 33.07869213989301,35.34661662895194,0 33.07878798052746,35.34649576590341,0 33.07916345862049,35.34602224855178,0 33.07920773456011,35.34590483603344,0 33.07932411311287,35.34579299898977,0 33.07937670257871,35.3456667736027,0 33.07950873285194,35.34558824547138,0 33.07964707493849,35.34561907881772,0 33.07981627887893,35.34558477080579,0 33.07968604537995,35.34533050276836,0 33.07953416291961,35.34510947265395,0 33.07945699944882,35.34484919600003,0 33.07922831954126,35.34452817487519,0 33.07906971665928,35.34433837403237,0 33.07890317121044,35.34403037886148,0 33.07879535820703,35.34396466943162,0 33.07868349018366,35.34389649006847,0 33.07848815087358,35.34378879619857,0 33.07833069238951,35.34376811258539,0 33.07819803418919,35.34377192746424,0 33.07810007213246,35.34381792043241,0 33.07798709707853,35.34389512415443,0 33.07791884888962,35.34398600077338,0 33.07785540047211,35.34413665444991,0 33.07782551260693,35.34415153829409,0 33.0776179452124,35.34425572393754,0 33.07744371119433,35.3443015661141,0 33.07736411799109,35.34430276813499,0 33.07713048750232,35.34424797312239,0 33.07690024872854,35.34416737540158,0 33.07652599695428,35.34400499105724,0 33.07649450882635,35.34399949546334,0 33.07643791884648,35.34407273564842,0 33.07633648489287,35.34417169606527,0 33.0762534116603,35.34422858298457,0 33.07619868366071,35.34423254929749,0 33.07594361769891,35.34413695928493,0 33.07583765693569,35.34408377338358,0 33.07575664367037,35.34400482754362,0 33.07572540061178,35.3439164716595,0 33.07557027573797,35.34366758419726,0 33.07543636149536,35.34353555667939,0 33.07533557530425,35.34341446279954,0 33.07526447970132,35.34334640357553,0 33.07501285093489,35.34321142559413,0 33.07489038017435,35.34313511436404,0 33.07460221199079,35.34302179569919,0 33.07447311256734,35.3429441126332,0 33.07438875738816,35.3428746675275,0 33.07438581971221,35.34274697580748,0 33.07442123554147,35.34254600829841,0 33.07447119918596,35.34247139852106,0 33.07466443096946,35.34216886743098,0 33.07467455193492,35.34211047810423,0 33.07448265465385,35.34196339264223,0 33.07420779954379,35.34183515874061,0 33.07417829761145,35.34171963836331,0 33.07414530686669,35.34166252122446,0 33.07393208646473,35.34143796649666,0 33.07387594395439,35.3413604274207,0 33.0738389365748,35.34125667180199,0 33.07384195293238,35.34125178900361,0 33.07393461187677,35.34110184240183,0 33.07374628084673,35.34088508433429,0 33.07365432569336,35.34084817492323,0 33.07354927085244,35.3407358029195,0 33.07348672261122,35.34058679015563,0 33.07346759310818,35.3405023833168,0 33.07350452751236,35.34030294832031,0 33.07356400507491,35.34026237180793,0 33.07368972803206,35.33994301124959,0 33.07402097234462,35.33976103898129,0 33.07408712424054,35.33951302599819,0 33.07402594504053,35.33931041675566,0 33.07318901162264,35.33927201837721,0 33.07300970284895,35.33928158494727,0 33.07305252077325,35.33914072429788,0 33.07307435149928,35.3391313385839,0 33.07272792426384,35.33871971631848,0 33.07383872483847,35.33750007338963,0 33.07421664360824,35.33709783933418,0 33.0777672714274,35.33743241986763,0 33.07808969762304,35.33777450020307,0 33.07824924025704,35.33789590902929,0 33.07839202205702,35.33794879498686,0 33.07862198173569,35.33801574869624,0 33.07881272647194,35.33800415267034,0 33.07913541725235,35.33798453702538,0 33.07929816589817,35.33801437504297,0 33.07952779962243,35.33800928826196,0 33.07988018267761,35.3378537630461,0 33.07997271999785,35.33777091666499,0 33.08005689861334,35.33772433996311,0 33.08045909461941,35.33772819766683,0 33.08085485475259,35.3376219541857,0 33.08093384381466,35.33755322628892,0 33.08112990555016,35.33747980568216,0 33.08168980534511,35.33744029806004,0 33.0817895182235,35.33747124163251,0 33.08213792841747,35.33739011851748,0 33.08244990059703,35.33719391695779,0 33.08283941507553,35.3369086883106,0 33.08293714931625,35.33684430080744,0 33.08356141517528,35.33659826630025,0 33.08364517575735,35.33669682719326,0 33.08399524483875,35.33655912170803,0 33.08404919633074,35.33658505470257,0 33.08472479470678,35.33649347910466,0 33.08487391544787,35.33630126661403,0 33.08503012634085,35.33625420859804,0 33.08529501716271,35.33598595410992,0 33.08542053524685,35.33591300713764,0 33.08569026422285,35.33552545011442,0 33.08572060235867,35.33541111678985,0 33.08602700810346,35.33505437902351,0 33.08621238972861,35.33503935531091,0 33.08641921627277,35.33487000462026,0 33.08664066149165,35.33483844302923,0 33.0870721178867,35.33483864324649,0 33.08703578538891,35.33495050695308,0 33.08728513993926,35.33513424880925,0 33.08747840770685,35.33525023451683,0 33.08745826776051,35.33547467500816,0 33.08771397802465,35.33526605427896,0 33.08787651421091,35.33510276795208,0 33.08781772279344,35.334928610407,0 33.0879240316487,35.33474738234919,0 33.08800687727184,35.33463806697114,0 33.08813466921628,35.33455528148072,0 33.0882477692879,35.33435992178354,0 33.08836051085196,35.33429248217699,0 33.08856991509998,35.33427257976454,0 33.08892303899793,35.33410903505693,0 33.08910471714304,35.33407554941375,0 33.08914006246779,35.33402929980002,0 33.08923304269764,35.33390763172754,0 33.08925965695404,35.33383196664501,0 33.08950655405251,35.33366297045092,0 33.08963015051811,35.33352499149707,0 33.08972129969528,35.33345064944479,0 33.08972300384423,35.33336532283999,0 33.08984503650922,35.33326219479817,0 33.09015916919731,35.33317744955465,0 33.09038262141539,35.3329987945465,0 33.09040936862626,35.33287385436908,0 33.0904974279331,35.33285599077842,0 33.09055794566908,35.33271909644579,0 33.09064618310821,35.33263633429307,0 33.0907195525253,35.33262565381817,0 33.09080355585667,35.33248279353918,0 33.09099744159082,35.33238580550714,0 33.09107850340821,35.33224534310892,0 33.09157436842598,35.33221381241677,0 33.09178687035241,35.33228030548706,0 33.09189376906649,35.33234540113443,0 33.09210381803882,35.33235410004738,0 33.09223695698842,35.3323596141355,0 33.09250413956966,35.33229671465411,0 33.09282275962416,35.33213166518521,0 33.09294449216329,35.33187423270927,0 33.09306454337788,35.33177527630124,0 33.09349456682997,35.33147751225976,0 33.09435736867167,35.33124188422907,0 33.09456593791852,35.33116660491999,0 33.094816089276,35.33094109959013,0 33.09513744571065,35.33068300698336,0 33.09526898178676,35.33048795961125,0 33.09565617949659,35.33033427355113,0 33.09583235067763,35.33024257383035,0 33.09599607780858,35.33013858172009,0 33.09624715015686,35.33003167964446,0 33.09635200793156,35.33001142057476,0 33.09648554791708,35.32999734812467,0 33.09663903026356,35.32999046881383,0 33.09686981213076,35.33000520014398,0 33.0971185785144,35.33029091149599,0 33.09712718352539,35.33033898230322,0 33.09712020397399,35.33038267952185,0 33.09699310354581,35.33055422100809,0 33.09688543479,35.33069052272498,0 33.09693691852538,35.33080052893354,0 33.09687837262688,35.33099698889114,0 33.09726593562154,35.33093940865852,0 33.09738582190624,35.3308992377766,0 33.09763325980922,35.33075142941299,0 33.09776882659753,35.33067959088381,0 33.09789051773821,35.33066447275232,0 33.0979759462659,35.33067842900231,0 33.09813859256336,35.330744669183,0 33.09824522235078,35.33076224238897,0 33.09862328549538,35.33075729700217,0 33.09874562789586,35.33073144476765,0 33.09889612884268,35.33067343344099,0 33.09906978210439,35.33058939278542,0 33.09927576715906,35.3305447741586,0 33.09948503395739,35.33043983584834,0 33.09963241758565,35.33038079679409,0 33.09974854687196,35.33034521828433,0 33.09990470407688,35.33027085814219,0 33.10003207462703,35.33023018719798,0 33.10021431124978,35.33020188263588,0 33.10048637766422,35.33017475969582,0 33.1007210258264,35.33014245825493,0 33.10100188418019,35.33009285636917,0 33.10152972282514,35.33006618506814,0 33.10188281360314,35.33006680925887,0 33.10195271390537,35.33005568501606,0 33.10222617866437,35.329970281969,0 33.10256450943601,35.32989010447075,0 33.10271684527507,35.32984436269918,0 33.10294788793328,35.32975888318068,0 33.10337682957287,35.32985779050159,0 33.10360002597192,35.32991032648989,0 33.10391062603887,35.32993745374123,0 33.10404923241045,35.32989373036147,0 33.10418790880279,35.32982240114814,0 33.10426041325655,35.32976936103501,0 33.1043717812183,35.32964379397819,0 33.10451325575118,35.32945591103984,0 33.10462085566504,35.32934056232676,0 33.1047421168151,35.32924875289851,0 33.10515684539548,35.32905418731288,0 33.10538709391344,35.32904275656646,0 33.10570647635107,35.32902690013896,0 33.10597012894254,35.32900034999769,0 33.10614164278319,35.32899441450564,0 33.10653103750596,35.32902070867654,0 33.10684272686007,35.32903994308415,0 33.10697043346887,35.32898545901704,0 33.10710045517403,35.32901684348597,0 33.10722221028575,35.32897758239736,0 33.10740077615786,35.32885739905765,0 33.10747362318378,35.32878204488538,0 33.10754653018371,35.32868314660828,0 33.10767612373939,35.32855110730918,0 33.10773137328642,35.32841963349659,0 33.10778643045124,35.32836294540449,0 33.10797847549145,35.32825594176116,0 33.10805888701346,35.32819583450378,0 33.10815542742226,35.32810528583013,0 33.1082562414359,35.32799466315579,0 33.10846784999068,35.3278350637968,0 33.10860831062797,35.32774805292016,0 33.10888228971071,35.32764465002924,0 33.10906752149859,35.32755840772946,0 33.10917585201595,35.32748103566875,0 33.10927667096746,35.32736833445173,0 33.10940947175146,35.32730277606521,0 33.10954825825541,35.32720814354713,0 33.10962698921064,35.32714318554068,0 33.10966849489886,35.32709963023775,0 33.10974715276956,35.32706375520334,0 33.10984579064307,35.3271439036629,0 33.10996891349554,35.32717798194106,0 33.10998424059256,35.32718222431031,0 33.11008380639202,35.32723017448237,0 33.11023643131676,35.32734261312031,0 33.11034934819436,35.3274563704712,0 33.11043028507569,35.32752159965833,0 33.11063032223583,35.3275932629824,0 33.11072146358302,35.3276321957302,0 33.11082599839445,35.32772031608308,0 33.11086136636185,35.32776538684319,0 33.11106258391407,35.32803994598291,0 33.1111817533832,35.32801937336347,0 33.11136268782361,35.32796151050917,0 33.11147932764171,35.32793954819768,0 33.1116061629529,35.32789405849428,0 33.11178526680971,35.32789228227558,0 33.1119906455672,35.32785592710938,0 33.11237768939283,35.32780741274694,0 33.11246723701498,35.327808255201,0 33.11266060989135,35.32784320280093,0 33.11297731415329,35.32788320432012,0 33.11317979196147,35.32799364565525,0 33.11351036862521,35.32789101937789,0 33.11364806490902,35.32789401871479,0 33.11393184999116,35.3279221910353,0 33.11406860062952,35.32796604396469,0 33.1140066383454,35.32808366109703,0 33.1143918112458,35.32810784544305,0 33.11452860744549,35.32813369457387,0 33.1146585418431,35.32820108017086,0 33.11474029808338,35.32827808039114,0 33.11479005232439,35.32831417123192,0 33.11503658178798,35.32837759407908,0 33.11515565967734,35.32839441131793,0 33.11534714031516,35.32851244818872,0 33.11551483361861,35.32868515084569,0 33.11566170537266,35.32873663688597,0 33.11596307895373,35.32882923255585,0 33.11613385287321,35.32843515094616,0 33.11629927313017,35.32850190036702,0 33.11643018463661,35.32851596567764,0 33.11652734492858,35.32851335542845,0 33.11655433718054,35.32853071159325,0 33.11671085251649,35.32878372085636,0 33.11679671536353,35.3289098913116,0 33.11687073241965,35.32904366005553,0 33.11678834938834,35.32922183669898,0 33.11695866153182,35.32936234117114,0 33.11717456815936,35.32951296155731,0 33.11735092506356,35.3295998095757,0 33.11749355846849,35.32965821016371,0 33.11771183778406,35.32987600339014,0 33.1177877472508,35.32992737021671,0 33.11797985259891,35.32979195905296,0 33.11819723056391,35.32968636570934,0 33.11866016257568,35.32946629505627,0 33.11910026836718,35.32925707246855,0 33.11932387383079,35.32915032801044,0 33.11951785935373,35.32897710151542,0 33.11963399582399,35.32884170959732,0 33.12010740952735,35.32873807929351,0 33.12041396392203,35.32853520581268,0 33.12072566362494,35.3282564150241,0 33.12083348862595,35.32813592371554,0 33.12099129546433,35.32786908677225,0 33.12131785771992,35.3275998089311,0 33.12155666531378,35.32735886134854,0 33.12169289493701,35.32712046020875,0 33.12175292345724,35.32692261116884,0 33.12170689675806,35.32683374371589,0 33.12166830042146,35.32675922592659,0 33.12187909771783,35.3267163865272,0 33.12199280569248,35.32666192322895,0 33.1221700580643,35.32653537637918,0 33.12234084567407,35.32635754645926,0 33.12261667670484,35.32596130309317,0 33.12375444339593,35.32683700511828,0 33.12399273127339,35.3270204042625,0 33.12410846917192,35.32704905842468,0 33.12413991874371,35.3270423288963,0 33.12587995204292,35.32791548445565,0 33.12925927801819,35.32963173698725,0 33.13008031696522,35.32871512920247,0 33.13032375414919,35.32861110579395,0 33.13068128982699,35.32853165999732,0 33.13075580196431,35.32850330230102,0 33.13129214136038,35.32836718534126,0 33.13156705949359,35.32824151469239,0 33.13174267809487,35.32813060716506,0 33.13186524392628,35.3280684271768,0 33.13193756488551,35.32806483831332,0 33.13217519524736,35.32805304563779,0 33.13250481027286,35.32797022045903,0 33.13283997438805,35.32783074296444,0 33.13318993699139,35.32774128104768,0 33.13355201207207,35.32769072084923,0 33.13411221126883,35.32755268834534,0 33.134763186124,35.32743700814238,0 33.13530537147807,35.32747225764808,0 33.13584476153274,35.32754638431151,0 33.13615684936769,35.32741686214323,0 33.13668760047187,35.3277198349077,0 33.13833601382486,35.32775558817799,0 33.14032329564363,35.32781291799309,0 33.14098800204832,35.32761279049809,0 33.14387667391144,35.32686720802796,0 33.14486916708648,35.32661102119472,0 33.14499819137261,35.32661798201612,0 33.14521441401754,35.32666512060525,0 33.14614739590365,35.32687069426026,0 33.14759592395701,35.32724467875325,0 33.14941337164329,35.32769507086938,0 33.15055832811677,35.32797178160404,0 33.15077159019516,35.32821328799496,0 33.15132474288392,35.32860640090299,0 33.15144311886207,35.32887430447402,0 33.15188495009874,35.32923641785548,0 33.1521460323421,35.32965504282051,0 33.15239996873442,35.32988487901365,0 33.152431430264,35.32996018552262,0 33.15242000950298,35.33040065095099,0 33.1524423913623,35.33049938939354,0 33.15248433478219,35.33060185379344,0 33.15239376614235,35.33072634999271,0 33.15235134872326,35.33085954774827,0 33.15234502704554,35.3310088337674,0 33.15227241999442,35.33118394031899,0 33.15220613240275,35.33120976172322,0 33.15208554876556,35.33128733098609,0 33.1520222379127,35.3313304306573,0 33.15191683206921,35.33134632733994,0 33.15182345038703,35.33137087828172,0 33.15162180944709,35.33133358984736,0 33.15145454417361,35.33141849834165,0 33.15142880182968,35.33149372801083,0 33.15135046834388,35.33152076646957,0 33.15124659015522,35.33152556109206,0 33.1510885908792,35.33149449976877,0 33.15095180122417,35.3313968405176,0 33.15086166841004,35.33130418053066,0 33.15008647523558,35.3312747454595,0 33.14999319651044,35.33124870684403,0 33.14949553603178,35.33168727285181,0 33.14927856205662,35.33178691601806,0 33.14916107426787,35.33182130255385,0 33.14907217006532,35.33186436464808,0 33.14895169404362,35.33188764158083,0 33.1487922503303,35.33182696427799,0 33.14872293874603,35.33185894840884,0 33.14853773610231,35.33187966890446,0 33.14842502041061,35.33178944242771,0 33.14831366967255,35.33176707978937,0 33.14811327097633,35.33185810679692,0 33.14797157938135,35.33194921486884,0 33.14778937717855,35.33197487279909,0 33.14766899252623,35.33195373116042,0 33.14756808841268,35.33197580020085,0 33.14746123562924,35.3319620800057,0 33.14724145162157,35.33196300857975,0 33.14715878751799,35.3318999677255,0 33.14704897428145,35.3318627996285,0 33.14706419524259,35.33178138762027,0 33.14694690088027,35.33172199965623,0 33.14694231610388,35.33175530752533,0 33.14681103806355,35.33190565273712,0 33.14675695344918,35.33185375578469,0 33.14672827759185,35.33188949685949,0 33.14636092409416,35.33191119300198,0 33.14597982466998,35.33202787466916,0 33.14589428203359,35.3319019040452,0 33.14564887505021,35.33191883395294,0 33.14575505057055,35.33225582030644,0 33.14576993504537,35.33233727517241,0 33.14577842772763,35.33259515895251,0 33.14587031665442,35.33328747184504,0 33.14594417939009,35.33396125149685,0 33.14586176911484,35.33412210257288,0 33.14585994186351,35.33412566882311,0 33.14579207815646,35.33420427505949,0 33.14561893558939,35.33434365186647,0 33.14552705560708,35.33459038561272,0 33.14564478224985,35.33497298842039,0 33.14565186107419,35.33502900859344,0 33.14524005916002,35.33518294273313,0 33.14519647774831,35.33522732210354,0 33.14500619006277,35.33542109147127,0 33.14476428756165,35.33558344536171,0 33.14446123151231,35.33571588394078,0 33.14432224169726,35.3357197555023,0 33.14415649842631,35.33585781165263,0 33.14398093588307,35.33594433312228,0 33.14361341657696,35.33604413986168,0 33.14317648946736,35.33610588413178,0 33.14300441168099,35.33610835115682,0 33.14277615000042,35.33607819856893,0 33.14249613958133,35.33704040809281,0 33.14247597365488,35.33718680374387,0 33.14206533081718,35.33733264121966,0 33.1419493839657,35.33739213037487,0 33.14187784812776,35.33757438079843,0 33.14170522431952,35.3378317325353,0 33.14141171786746,35.3381336507283,0 33.14128035791392,35.33843580336278,0 33.14097521630013,35.33876075162064,0 33.14058202604051,35.33924962400314,0 33.14047356629742,35.33967247313859,0 33.14013982229663,35.34021294903501,0 33.14006538888042,35.34020199433758,0 33.13951025313528,35.3405889436428,0 33.13938092456957,35.34071213159776,0 33.13910385972455,35.34105338640874,0 33.13883409059071,35.34108282089304,0 33.1385443198272,35.34117865775507,0 33.13818393063146,35.34136318536068,0 33.13768293690138,35.34161970187962,0 33.13770260068501,35.34170717967947,0 33.13788073992408,35.34196571937745,0 33.13800303496233,35.3420336887161,0 33.13812936153634,35.34215114969147,0 33.1381439392413,35.34229556323833,0 33.13819593404732,35.34235326038741,0 33.13821390902965,35.34245700535521,0 33.13826384004675,35.34270315463083,0 33.1381229297042,35.34282361426561,0 33.13797964335655,35.34289526062364,0 33.1377858673736,35.34297632425835,0 33.13757079057162,35.34296177222106,0 33.13744834097403,35.34296294809091,0 33.13716550133007,35.34291236684052,0 33.13683223571402,35.34284273013848,0 33.13671815639354,35.34279985455871,0 33.13656924923471,35.34279285513224,0 33.13618049403519,35.34275024938038,0 33.1359670146025,35.34276145762299,0 33.13577263020262,35.34274354401786,0 33.13557813170471,35.34277647234703,0 33.1353703815978,35.34281615839782,0 33.13522216047188,35.34287355896419,0 33.13535172333549,35.34302221222912,0 33.13553345682451,35.34314924865961,0 33.13563468712956,35.3430165309863,0 33.13580766623133,35.3429869609343,0 33.13584336420642,35.34330630269323,0 33.13593148426037,35.34348946599853,0 33.13574112047137,35.34352307858966,0 33.13574018237703,35.34357324121643,0 33.13582663396871,35.34376318030372,0 33.1358436617455,35.34391979957635,0 33.1358358462911,35.34408722901927,0 33.13585285047369,35.34425401672983,0 33.13592448064622,35.34441275052377,0 33.13598687977727,35.34462977040501,0 33.13621167471975,35.34474195583589,0 33.13622888369277,35.344816550529,0 33.13621946478446,35.34496092819152,0 33.13629358349765,35.34511627607918,0 33.13639354929126,35.34518285792195,0 33.1365200854687,35.34558097081037,0 33.13645036171189,35.3456832294784,0 33.13638463275841,35.34584921716465,0 33.13635751247065,35.34614135024377,0 33.13619170323796,35.34629295294002,0 33.13623848865317,35.34646317456897,0 33.13626032506007,35.34669097983095,0 33.13625110123883,35.34674655371798,0 33.13618762331825,35.34701694054539,0 33.13613116932181,35.34710362721721,0 33.13607546631636,35.34722556580924,0 33.13608670033213,35.34738387074076,0 33.13604026514275,35.3474298994636,0 33.1358314770449,35.3475583900594,0 33.13564928108416,35.34763539904683,0 33.13556267846663,35.34788609206905,0 33.13540311197596,35.34820446631382,0 33.13534002583636,35.3482965655773,0 33.13508013647034,35.348335496434,0 33.13470611537781,35.34835256402175,0 33.13458521803737,35.34839576820138,0 33.13459642215184,35.34860999009034,0 33.13467024167804,35.35002133694072,0 33.13464106346648,35.35046683437617,0 33.13467379448718,35.35140415118405,0 33.13457760554151,35.35141487380722,0 33.13462007187689,35.35170290951054,0 33.13474103826796,35.35247871323838,0 33.13497218727187,35.35366354657654,0 33.13496505759193,35.35388766597494,0 33.13500190728857,35.35446638110265,0 33.13503459219923,35.35468105015786,0 33.13509548855163,35.35488489461196,0 33.13515275962958,35.35522728610773,0 33.13523996668378,35.35586302873804,0 33.13526865287405,35.35607215960366,0 33.13528643115265,35.35628001460118,0 33.13536345729855,35.35668763516979,0 33.13540442717573,35.35690503404051,0 33.13545060523466,35.3570178460397,0 33.13557367588135,35.35759804684375,0 33.13560158805973,35.35772305681986,0 33.13574630831261,35.35826253966585,0 33.13599167785716,35.35902765812196,0 33.13599319117972,35.35909286088858,0 33.1359697492456,35.35919606119487,0 33.13591177307692,35.35916880757119,0 33.13571564391933,35.3593804199087,0 33.13556629999351,35.35943045781139,0 33.13548834924669,35.35943849172995,0 33.13504680110395,35.35965381297817,0 33.13505982718215,35.35976114210058,0 33.13504801493747,35.35985349200754,0 33.1351224082576,35.35995412203007,0 33.13526139816774,35.36008744736106,0 33.13531103855409,35.36013506363862,0 33.1353721248733,35.36025469042366,0 33.13549280126133,35.36042194746432,0 33.13563494266987,35.36027158946537,0</coordinates>
						</LinearRing>
					</outerBoundaryIs>
				</Polygon>
			</MultiGeometry>
		</Placemark>
	</Document>
</kml>