<?xml version='1.0' encoding='UTF-8'?>
<kml xmlns="http://www.opengis.net/kml/2.2">
	<Document>
		<name>VATILI</name>
		<Style id="PolyStyle70">
			<LabelStyle>
				<color>00000000</color>
				<scale>0.000000</scale>
			</LabelStyle>
			<LineStyle>
				<color>ff0055ff</color>
				<width>2.000000</width>
			</LineStyle>
			<PolyStyle>
				<color>00828282</color>
				<outline>1</outline>
			</PolyStyle>
		</Style>
		<Placemark id="ID_70304">
			<name>VATILI</name>
			<snippet />
			<description>&lt;html xmlns:fo="http://www.w3.org/1999/XSL/Format" xmlns:msxsl="urn:schemas-microsoft-com:xslt"&gt;

&lt;head&gt;

&lt;META http-equiv="Content-Type" content="text/html"&gt;

&lt;meta http-equiv="content-type" content="text/html; charset=UTF-8"&gt;

&lt;/head&gt;

&lt;body style="margin:0px 0px 0px 0px;overflow:auto;background:#FFFFFF;"&gt;

&lt;table style="font-family:Arial,Verdana,Times;font-size:12px;text-align:left;width:100%;border-collapse:collapse;padding:3px 3px 3px 3px"&gt;

&lt;tr style="text-align:center;font-weight:bold;background:#9CBCE2"&gt;

&lt;td&gt;3&lt;/td&gt;

&lt;/tr&gt;

&lt;tr&gt;

&lt;td&gt;

&lt;table style="font-family:Arial,Verdana,Times;font-size:12px;text-align:left;width:100%;border-spacing:0px; padding:3px 3px 3px 3px"&gt;

&lt;tr&gt;

&lt;td&gt;DIST_CODE&lt;/td&gt;

&lt;td&gt;3&lt;/td&gt;

&lt;/tr&gt;

&lt;tr bgcolor="#D4E4F3"&gt;

&lt;td&gt;VIL_CODE&lt;/td&gt;

&lt;td&gt;203&lt;/td&gt;

&lt;/tr&gt;

&lt;tr&gt;

&lt;td&gt;VIL_CCD&lt;/td&gt;

&lt;td&gt;3203&lt;/td&gt;

&lt;/tr&gt;

&lt;tr bgcolor="#D4E4F3"&gt;

&lt;td&gt;VIL_NM_E&lt;/td&gt;

&lt;td&gt;VATILI&lt;/td&gt;

&lt;/tr&gt;

&lt;tr&gt;

&lt;td&gt;VIL_NM_G&lt;/td&gt;

&lt;td&gt;ΒΑΤΙΛΗ&lt;/td&gt;

&lt;/tr&gt;

&lt;/table&gt;

&lt;/td&gt;

&lt;/tr&gt;

&lt;/table&gt;

&lt;/body&gt;&lt;script type="text/javascript"&gt;

				function changeImage(attElement, nameElement) {

				document.getElementById('imageAttachment').src = attElement;

				document.getElementById('imageName').innerHTML = nameElement;}

			&lt;/script&gt;&lt;/html&gt;

</description>
			<styleUrl>#PolyStyle70</styleUrl>
			<MultiGeometry>
				<Polygon>
					<extrude>0</extrude>
					<altitudeMode>clampToGround</altitudeMode>
					<outerBoundaryIs>
						<LinearRing>
							<coordinates> 33.68781952272557,35.13861827503052,0 33.68743269848184,35.13857462374817,0 33.6873128383175,35.13859046763184,0 33.68733161227431,35.13869686523337,0 33.68760125590813,35.14022498349371,0 33.68700680582685,35.14038566482964,0 33.68715898059115,35.14076933736965,0 33.68696826475198,35.14086363994229,0 33.6872719305109,35.14154941968234,0 33.68606980034141,35.14198737770733,0 33.6859555848073,35.14190062963582,0 33.68566546973435,35.14198383969821,0 33.68612057100541,35.14296590764944,0 33.68652845300088,35.14296942399017,0 33.68660260966425,35.14335353904896,0 33.68675874820443,35.14336430642943,0 33.68690246494798,35.14358489082272,0 33.68694553226177,35.14391107860412,0 33.68694108569267,35.14477879186793,0 33.68676499176096,35.14477497033741,0 33.68660840693646,35.14569657049824,0 33.68605021070634,35.145617783746,0 33.68581488019944,35.14626094214137,0 33.68617360400211,35.14634650146808,0 33.6859794843576,35.14741954561644,0 33.68583677748926,35.14735778837775,0 33.68515960131478,35.1504773486261,0 33.6851407575606,35.15065263730501,0 33.68503001758047,35.15077005123343,0 33.68484999999212,35.15110474759667,0 33.68492343392898,35.1511972525366,0 33.68488684328681,35.15130130417795,0 33.68492947030402,35.15135875447098,0 33.68488390082686,35.15150900950897,0 33.68507646848252,35.15157715070696,0 33.68501736661175,35.15178901975824,0 33.68496352850002,35.15207008887663,0 33.68504319812892,35.15207733085908,0 33.68507300231914,35.15228100480916,0 33.68482908559672,35.15223238488713,0 33.68466178695946,35.15294485633469,0 33.68399222551156,35.15295633051139,0 33.68404978741284,35.15367907004818,0 33.68381552135169,35.15366500855338,0 33.68364689315293,35.15421979711606,0 33.6837136421987,35.15436172543964,0 33.68396211884603,35.15439493790856,0 33.68429475725548,35.15441228974426,0 33.68413697782285,35.15514393841168,0 33.68419481335091,35.15533976179085,0 33.6841339046925,35.15533625953773,0 33.68417106345334,35.15585911777701,0 33.68396957104014,35.15584487154267,0 33.68380799694275,35.15731081926381,0 33.68423213173735,35.15733279622801,0 33.68425855893945,35.15745102557233,0 33.68486498406923,35.15747197152526,0 33.68487866503153,35.15758679073718,0 33.68515041878881,35.15763748031842,0 33.68539474682535,35.15795641637214,0 33.68614101515613,35.15796960061503,0 33.68581157470122,35.15811769813484,0 33.68610592967161,35.15884022924226,0 33.68568339465497,35.1590097440335,0 33.68604347759391,35.15998606952063,0 33.68596339620696,35.16004223020569,0 33.68602143285195,35.16039007309008,0 33.68583339345923,35.16045142669321,0 33.68623500483301,35.16124353423403,0 33.6863051994486,35.16123214244188,0 33.68659262784196,35.16197816690986,0 33.68646244188564,35.16202013567745,0 33.68649046439126,35.16216840745077,0 33.68668870068485,35.16225799181959,0 33.68694931444603,35.16299867064033,0 33.68673466460984,35.16294766155719,0 33.68655990186219,35.16286344178304,0 33.68624982671309,35.16260956676769,0 33.68613805891091,35.16245352254577,0 33.68608415949123,35.16241259679504,0 33.68609680960378,35.16272313143704,0 33.68610529245065,35.16313539257291,0 33.68603267225514,35.1640538773674,0 33.68656792969195,35.1640178607699,0 33.68663732018493,35.1643088318839,0 33.68651719455927,35.16435349200592,0 33.686337235705,35.16444796874829,0 33.6863116592251,35.16459104753127,0 33.68619204093292,35.16469617634512,0 33.68616637177852,35.16482826056633,0 33.68620709195613,35.16489399932566,0 33.68621531016096,35.16507536842514,0 33.68623626955381,35.1651797008848,0 33.68628488509798,35.16538832875039,0 33.68631392462289,35.16565753937294,0 33.68634181076035,35.16578932018557,0 33.68558544433493,35.16580459819136,0 33.68499754121928,35.16595085691612,0 33.68529425329832,35.16700468823991,0 33.68429991516835,35.16738413549855,0 33.68408398820034,35.16718195025087,0 33.68380102722978,35.16696914706386,0 33.68288358437182,35.16773846751468,0 33.6833484015191,35.16808218586567,0 33.68292931323256,35.16840340116536,0 33.6829971319046,35.16850746996165,0 33.68307902965854,35.16869392128384,0 33.68303941331815,35.16876011405542,0 33.6829859489957,35.16877141055543,0 33.68287181897891,35.16873357131849,0 33.68287947879514,35.16884897433564,0 33.68286677882664,35.16893150788304,0 33.68288796592881,35.16906332720981,0 33.68286866315828,35.16915689302403,0 33.6828894826344,35.16924473423065,0 33.68281015824608,35.1693661250998,0 33.682851015944,35.16944835673588,0 33.68303791188302,35.16980672062132,0 33.68355943663835,35.17088706468072,0 33.6833566547779,35.1709090415325,0 33.68333677669067,35.17095915146282,0 33.6830792264662,35.17110643037823,0 33.68296315288999,35.17118208156057,0 33.68292322408999,35.17126147044888,0 33.68290901256186,35.17138237886447,0 33.6831220833706,35.17137701036197,0 33.68353748386693,35.1712955041467,0 33.6835877357743,35.17123688951622,0 33.68369376524443,35.17117379387722,0 33.68397208404677,35.17168886706621,0 33.68452369356802,35.17272320502869,0 33.68460949724543,35.172668556156,0 33.68470034062315,35.17260971165338,0 33.68487246511473,35.17316704732444,0 33.68480191711221,35.1732257772161,0 33.68491672684464,35.17360427751681,0 33.68474480125412,35.17367608000602,0 33.68464339013625,35.17368498560344,0 33.68439587651856,35.17381971202011,0 33.68415819651172,35.17391688406717,0 33.68399106524982,35.17395532626704,0 33.68389514613045,35.17401419889426,0 33.68375961365341,35.17412584103369,0 33.68354279029719,35.17439236085411,0 33.68343426465523,35.17451213210425,0 33.68270280251495,35.1751232915665,0 33.68215465412801,35.17583496926944,0 33.68206587632211,35.17587139822969,0 33.6820037389197,35.1759956085675,0 33.68197492892901,35.17619159562118,0 33.68194719557234,35.17625702701218,0 33.68178930422815,35.1764467955559,0 33.6814099119039,35.17676563220207,0 33.68123295301832,35.17691034633953,0 33.68103928528625,35.17717598236425,0 33.68072210476974,35.17747775184837,0 33.68027129155814,35.17778832764044,0 33.67997996070631,35.17793606730208,0 33.6795549284973,35.17808427974479,0 33.67934256669343,35.17817713324786,0 33.6790944773285,35.17824518872635,0 33.67923697535667,35.17829438654536,0 33.6794049151689,35.17835177564775,0 33.67969001729015,35.17846267102365,0 33.67980794266754,35.17860783626318,0 33.68001911623651,35.17898163389318,0 33.68022087143103,35.17944298005056,0 33.68050962356637,35.17999133399022,0 33.68090362517078,35.18038076820024,0 33.68116962056803,35.1806334273263,0 33.68120587186075,35.18072071945442,0 33.6813644346555,35.18086982070255,0 33.68161454743955,35.18104340541339,0 33.68186448730615,35.18119615879039,0 33.682089299669,35.1813782181852,0 33.6826569312002,35.18189582901034,0 33.68296370743051,35.18216908778829,0 33.68318331119951,35.18233450796366,0 33.68343913551317,35.18258305314492,0 33.68360911053859,35.18288208004945,0 33.68382503811153,35.18321417934398,0 33.68434824352136,35.18387785965515,0 33.68452805895512,35.18413933220965,0 33.68503461936758,35.18463227777841,0 33.68531096519308,35.18490570159831,0 33.68576510621011,35.18519895083511,0 33.68632099130804,35.18552078681111,0 33.68667798069411,35.18572708715882,0 33.68703021409347,35.18597091165892,0 33.68739767307882,35.186214648696,0 33.68779554839834,35.18645404478988,0 33.68801534797904,35.18664028750532,0 33.6882049461674,35.18685586732811,0 33.68867986465096,35.18720315115716,0 33.68915428218609,35.18756266672941,0 33.68932705140315,35.18766695811943,0 33.6896418732812,35.1878351467477,0 33.69023247545112,35.18826432725417,0 33.69052356878527,35.18848665483602,0 33.69071035417583,35.18861027636859,0 33.69043124058219,35.18875560613185,0 33.69047524505091,35.18878473205516,0 33.69016901783209,35.18897044789333,0 33.69011262132949,35.18900623398516,0 33.68977915059476,35.18916328974043,0 33.6895613034706,35.18926427318921,0 33.68903135741222,35.18949558954292,0 33.68884415476934,35.18953127461028,0 33.6886509514384,35.18949070810845,0 33.68857494835775,35.18948267002074,0 33.68841267507069,35.18945034523946,0 33.68830549535512,35.1894510076277,0 33.68775737222219,35.18954494539464,0 33.6875416063158,35.18957276839703,0 33.68751987683784,35.1895573763418,0 33.68684555913649,35.18965928693608,0 33.68644991341684,35.18968652900551,0 33.6860444671,35.18975549059527,0 33.68525317381948,35.18980996822575,0 33.68487824628246,35.1898870855663,0 33.68462463217257,35.1899051851321,0 33.68448238903716,35.18988932269416,0 33.68438305974552,35.18994973465828,0 33.68432727326768,35.19005865873909,0 33.68430712278452,35.19023166049873,0 33.6842731394326,35.19036484272048,0 33.68421962503717,35.19042277467825,0 33.68410943056715,35.1904832432969,0 33.68403131871077,35.190505849405,0 33.68388835283432,35.19052217225447,0 33.68376994691368,35.19056938800642,0 33.68356514230812,35.1906611344767,0 33.68347394022653,35.19068853372794,0 33.68337263649404,35.19070388530941,0 33.68300842616179,35.19058720865103,0 33.6827423130436,35.19049887336417,0 33.68250387539237,35.19044856209104,0 33.68216944548612,35.19036959456525,0 33.68164284079385,35.19020532436232,0 33.68115472557564,35.19009974223943,0 33.68082943124026,35.19004324144431,0 33.68061842421276,35.1900638963752,0 33.68032287674612,35.19005432764971,0 33.68012324701206,35.19006443297279,0 33.67981496468374,35.19011560359116,0 33.67971881552938,35.19012060510512,0 33.67927686442751,35.19010195741909,0 33.67908095380445,35.19007028201243,0 33.67857622180681,35.19007255324122,0 33.67825134472521,35.19006603992403,0 33.67815772555139,35.19027734071398,0 33.67808072977241,35.19030031802565,0 33.67799661474037,35.19030178499262,0 33.67791355913913,35.19022868034904,0 33.67788785539582,35.19015525463036,0 33.67790509403168,35.19007275953346,0 33.67781067870168,35.18991476529193,0 33.67773024110438,35.18975159094705,0 33.67757116149429,35.18957435428405,0 33.67753071420582,35.1895190304235,0 33.67747083853512,35.18946378188269,0 33.67741922419373,35.18940508439697,0 33.67731609205863,35.18929903176387,0 33.67717916736987,35.18911716646486,0 33.6770738840353,35.18908485841237,0 33.67684993365692,35.18905751402184,0 33.6765773883544,35.18904432284077,0 33.67630511135479,35.18906350075772,0 33.67617280027248,35.1891024958758,0 33.6759839423252,35.18923891832209,0 33.67589122338406,35.18926955809259,0 33.67583049267915,35.18927783816121,0 33.67561345866631,35.18926657134107,0 33.67554840479924,35.18925332162003,0 33.67550407683766,35.18923995626064,0 33.67546652682742,35.18921067259212,0 33.67542009380616,35.18910997444922,0 33.6753747334588,35.18897183604741,0 33.67532453403129,35.18874978281437,0 33.67532077566972,35.18862956165177,0 33.67531322926852,35.18855246824577,0 33.67527827311927,35.18850275111648,0 33.67521857800631,35.18846905330096,0 33.67502733921732,35.18840205807179,0 33.67491523276566,35.18837999607681,0 33.67466465882249,35.1883575525695,0 33.67458599441611,35.18838153298066,0 33.67456146273494,35.18844935415931,0 33.67455843734304,35.18851705464418,0 33.67467367696756,35.1885811542429,0 33.67484982788412,35.18864197132424,0 33.67486821289255,35.18869778230108,0 33.67483987761362,35.18873913951549,0 33.6747790383138,35.1887512496193,0 33.67467764687118,35.18872389430065,0 33.67448425726562,35.18864989386698,0 33.67442673043532,35.18863288342975,0 33.67427623492312,35.18863633812814,0 33.6742155900746,35.18867198907813,0 33.67420352534845,35.18872714581159,0 33.67418271407308,35.18875971040206,0 33.6741699855124,35.1888138621842,0 33.67413116540119,35.1888666836474,0 33.67403491889788,35.1889319599893,0 33.67396278754997,35.18893183141494,0 33.67389913650513,35.18888243041191,0 33.67383769308364,35.18878110037611,0 33.6738101471691,35.18863631552917,0 33.67382273197436,35.18856485810814,0 33.67385212090284,35.18850038751712,0 33.67392894365507,35.18834361587921,0 33.67389926279897,35.18825941468269,0 33.67377148199697,35.18810220857219,0 33.67360402906939,35.18797500814981,0 33.67341118253769,35.18786841810731,0 33.67332410409933,35.18785376000376,0 33.67323751463972,35.18786816318318,0 33.67313080560692,35.18796881120083,0 33.67305902702606,35.18798286512353,0 33.67302712242279,35.18794843037841,0 33.67301601155206,35.18787926802011,0 33.67304178988696,35.18780990065847,0 33.67305412663222,35.18770816015093,0 33.67301178909025,35.18768676233643,0 33.67288814627241,35.18766705206458,0 33.67266934935272,35.18765061131021,0 33.67245820571873,35.18769298230957,0 33.67238334417037,35.18774342539775,0 33.67233466419115,35.18792614919675,0 33.67228477210107,35.18796173949082,0 33.67217038447453,35.18800063074648,0 33.67205880955468,35.18800722700137,0 33.67196604464779,35.18799882169615,0 33.67182271468018,35.18800550198171,0 33.67164171356198,35.18805387428829,0 33.67149691419734,35.1880543942009,0 33.67130755385659,35.18808300905963,0 33.67124924559187,35.1880645754551,0 33.67122030418788,35.18798235792569,0 33.67115537200981,35.18793269034309,0 33.67116789857201,35.18727637814022,0 33.67041075920194,35.18718051683452,0 33.66974674460972,35.18707530771943,0 33.66941656538189,35.1870271057424,0 33.66914756423817,35.18700799309305,0 33.66842214971402,35.18706496851196,0 33.66825067567223,35.18713654236895,0 33.6677638175793,35.1872157404485,0 33.66751266525628,35.18718769674241,0 33.66734802162206,35.18721803232825,0 33.66615398727546,35.18761305363427,0 33.66504438592789,35.18781337664208,0 33.66430794778335,35.18805872764334,0 33.66417850857506,35.18712951490829,0 33.66412664681935,35.18696024799488,0 33.66393547313131,35.18633629389069,0 33.66402731408447,35.18528815622663,0 33.66413898339591,35.18403391359774,0 33.66437441289564,35.18242613476988,0 33.66471784819976,35.18227916781969,0 33.66501744198685,35.18219122865403,0 33.66530179379105,35.18207563520024,0 33.6662102200893,35.18161451446623,0 33.66705963536187,35.18128315378281,0 33.66808075268405,35.18083372564251,0 33.66830115779205,35.18070306878244,0 33.66841696616407,35.18063462699567,0 33.66871594290179,35.1804727157481,0 33.66889130331482,35.18034230560579,0 33.6690307366529,35.18023926307395,0 33.66915571947236,35.1801539059798,0 33.66928882400285,35.18007644053205,0 33.67030829769934,35.17972287357388,0 33.67081056285375,35.17962918686294,0 33.67137985337226,35.17953172836162,0 33.67189122143121,35.17940718385167,0 33.67241593486724,35.1793381259851,0 33.67266031806033,35.17927326857715,0 33.6727177115907,35.17919886537497,0 33.67184763187462,35.17920104921291,0 33.67123565079921,35.17923883805167,0 33.67019153697915,35.17923932879179,0 33.66969828665066,35.17921559794207,0 33.66931118075667,35.17916746680756,0 33.6689854117942,35.17913222432778,0 33.66838203572095,35.17904030475325,0 33.66790109311339,35.17894506153623,0 33.66687772399269,35.17872315674983,0 33.66665468562805,35.17863971696592,0 33.66608332358875,35.1785211514557,0 33.66602821955494,35.17848176667853,0 33.66622137001239,35.1784568917465,0 33.66684977956262,35.17656636202884,0 33.6670157057265,35.17614044543738,0 33.66710156411344,35.17594642264118,0 33.6671162583937,35.17577670628919,0 33.66719047201162,35.17564493294131,0 33.66731167667569,35.17550517313094,0 33.66744273411789,35.1754194507918,0 33.66812688031203,35.17506794869661,0 33.66835166496255,35.17493534400514,0 33.66840211277982,35.17493392899377,0 33.6686529042674,35.17460433119558,0 33.66893001216204,35.17421454833965,0 33.66904331780266,35.17406182348256,0 33.66917852947488,35.17384882201615,0 33.66920734702444,35.17385278212222,0 33.66925239228473,35.17369843310169,0 33.66926110805062,35.17357230333138,0 33.6692502438567,35.17343627460467,0 33.66921788110428,35.17305620566948,0 33.66921131866737,35.17289237528893,0 33.66914981858004,35.17243571103047,0 33.66901903447535,35.172494636541,0 33.66876477589862,35.1725434658591,0 33.66860536201276,35.17256638826403,0 33.66853330572483,35.17259471888364,0 33.66844866422036,35.17264406791954,0 33.66834897066456,35.17274192757186,0 33.66830448273189,35.17275941826115,0 33.66823615571401,35.17275117260191,0 33.66817514051223,35.17267390474399,0 33.66810427473165,35.17264945896273,0 33.66797286002487,35.17269906563928,0 33.66783314094103,35.172773158018,0 33.66773597053464,35.17285050764437,0 33.66754189604698,35.1729296099322,0 33.66738189737332,35.17294773770304,0 33.66722973958506,35.17296150986331,0 33.6671825903038,35.17297470349359,0 33.66714190385751,35.17300391782034,0 33.66712552123772,35.17305908877112,0 33.66714173147988,35.17311504739598,0 33.66719395637344,35.17312932607379,0 33.66721972542023,35.17316060809573,0 33.66722667188679,35.17322883055328,0 33.66720182651413,35.17326976123102,0 33.66713498473682,35.17331637566729,0 33.66705149862703,35.17332727795213,0 33.66698833130021,35.1733260799238,0 33.66684793560891,35.17331795628142,0 33.6667406379843,35.17330511995367,0 33.66657154450916,35.17328964093466,0 33.66641697397944,35.17327258999298,0 33.66621672824094,35.17322446256035,0 33.66595447017389,35.17314683911305,0 33.66580246889235,35.17307499179118,0 33.66570769637453,35.17304317741657,0 33.66563681496632,35.17304356694628,0 33.66552401681361,35.17305496456481,0 33.66544566317442,35.17310497553449,0 33.66540940188946,35.17316553395445,0 33.66535723005273,35.17320677842154,0 33.66530234568135,35.17323725904318,0 33.66522376457046,35.17325924806541,0 33.66516347164605,35.17327035698883,0 33.66506913801482,35.17329243241227,0 33.66495621657374,35.1732887410521,0 33.66490085813872,35.1732610209806,0 33.66486144412525,35.17325692601553,0 33.66481436556533,35.17327874095506,0 33.66479646222313,35.1733370423299,0 33.66480999250821,35.17338654856813,0 33.6648208970312,35.17343606921588,0 33.66484489317764,35.17348120669845,0 33.6648688180556,35.17351772195043,0 33.66486124124654,35.17355441010952,0 33.66478804945831,35.17359361450197,0 33.66466223005049,35.17361801670982,0 33.6644681007026,35.17363632791798,0 33.66427645677077,35.1736373790505,0 33.66413728250807,35.17363383089788,0 33.66391394185742,35.17361134259458,0 33.66383506101376,35.17359668488703,0 33.66375882350562,35.17358416874808,0 33.66368251594766,35.17356303032759,0 33.66357407396562,35.17346446344524,0 33.66349444134693,35.17335711514237,0 33.66343642255121,35.1733250976627,0 33.66338645513699,35.17331459350608,0 33.66334712870731,35.17332127538975,0 33.66327899425698,35.17333673852943,0 33.66316094644878,35.17342730491473,0 33.66302983921675,35.17351531153631,0 33.6628452140886,35.17358701555025,0 33.66272019873322,35.17361127793933,0 33.66243578682055,35.17367218966185,0 33.66224512082218,35.17375702918685,0 33.66205859275073,35.17382787978729,0 33.66184621221365,35.17385697333506,0 33.66169713150212,35.1738263638461,0 33.66158218297628,35.17380953376391,0 33.66152279398046,35.17382731608222,0 33.66146360291081,35.17386953735615,0 33.66143167875065,35.17412808645527,0 33.66139374852951,35.17417019159608,0 33.66132593982839,35.17419849474917,0 33.66122814065375,35.17419902866447,0 33.66109164683151,35.17414739980817,0 33.66097210620384,35.17408869618476,0 33.66075394642758,35.17392927552474,0 33.66061297585621,35.17384973852283,0 33.66040833656476,35.17378451541113,0 33.66021679202907,35.17376111861078,0 33.66005650764114,35.17374077811532,0 33.65983801144784,35.17370133785614,0 33.65970279244081,35.1736688305048,0 33.6595923452863,35.1736398828772,0 33.65948865980868,35.1736127443648,0 33.65933083137719,35.17356558604076,0 33.65915158571512,35.17349807096915,0 33.65929265892113,35.17253712853098,0 33.65923718470646,35.17251298947781,0 33.65931943589396,35.17216687888902,0 33.65932171540898,35.17192245850758,0 33.65936603557005,35.17161845236025,0 33.65939765535791,35.17132149922968,0 33.65944929483853,35.17087080819221,0 33.6594473496997,35.17062990181184,0 33.65956476456218,35.16989952948474,0 33.65958969336625,35.16922643778053,0 33.65954829748441,35.16840907577359,0 33.65951316417863,35.16803563850856,0 33.66023557823091,35.16800532883968,0 33.66050032842865,35.16797751202951,0 33.66082135418171,35.16795817885005,0 33.66127823443713,35.16785898171436,0 33.6617077989224,35.16771759232687,0 33.66196437532343,35.16764644153685,0 33.66212883406723,35.16761942787646,0 33.66235696633792,35.16754099802375,0 33.66259687855093,35.16742100455426,0 33.66295988482068,35.16729813854081,0 33.66331489636393,35.16717971036146,0 33.66342148717214,35.16712198350766,0 33.66376903946025,35.16707392613406,0 33.66366094677807,35.16661737223084,0 33.66466966644518,35.16648324332794,0 33.66458667206459,35.16627016922688,0 33.66460235366505,35.1662000187176,0 33.66479241019633,35.1660888755854,0 33.66506959747382,35.16588800432579,0 33.66545108561656,35.165585633511,0 33.66552576433664,35.16552600241783,0 33.66558010878177,35.16546397986175,0 33.66563435910199,35.16539028128604,0 33.66566138797293,35.16534175465354,0 33.66570228419317,35.16524977907484,0 33.66573724836393,35.1651778548916,0 33.66578596787347,35.1650799971321,0 33.66584243023573,35.16496624958353,0 33.66593137417818,35.16478768078775,0 33.66599382470042,35.16466097081233,0 33.66604080737304,35.16456812787296,0 33.66606200013203,35.16453354968417,0 33.66610835819596,35.16445700895684,0 33.66618425650893,35.16433646340656,0 33.66627556706915,35.16423761586196,0 33.66636170787309,35.1641716556973,0 33.6664651968732,35.16410702421741,0 33.6664826978352,35.16407418520149,0 33.66632199940904,35.16371347311579,0 33.66625689832617,35.16359269070573,0 33.66616884450215,35.16342412146142,0 33.66606954864135,35.16320556556435,0 33.66591916586565,35.16286717389358,0 33.66578938724759,35.16263239003632,0 33.66547560177647,35.16210867080432,0 33.66508130614629,35.1613860364516,0 33.6649411669671,35.16144990705695,0 33.66428103642128,35.16177835283647,0 33.66384453404923,35.16200022244763,0 33.66367363744996,35.1620187168318,0 33.66311176068761,35.16196201839715,0 33.66301611177063,35.16195060037777,0 33.66285774314214,35.1618900539423,0 33.66274313526522,35.1618463265915,0 33.66266816134608,35.16182285366208,0 33.66260159408172,35.16181127713656,0 33.66245404117322,35.16180355428079,0 33.66232953127211,35.16181958832478,0 33.66215971075301,35.16188363511915,0 33.66169835252401,35.16211645579348,0 33.66135888739572,35.16226672406052,0 33.66107085421384,35.16235529857782,0 33.66086959621337,35.162385396847,0 33.66064524021625,35.16238491511545,0 33.66035169543982,35.1623616950475,0 33.66009999256264,35.16232732692646,0 33.6599461525695,35.16227405681684,0 33.65980514322765,35.16223630876411,0 33.65956153416619,35.16218485478094,0 33.65938921224109,35.16214157005377,0 33.65925505789738,35.16209237252898,0 33.65913518106821,35.16209017193538,0 33.65855148514624,35.16208621365514,0 33.65819019658662,35.16208960306464,0 33.65753204903118,35.16211600183359,0 33.65730692523929,35.16220281439416,0 33.65725706142237,35.16227792051353,0 33.6570739854018,35.16230991040405,0 33.65701288918029,35.16231171822911,0 33.65691064444999,35.16233736450921,0 33.65673459234085,35.16234865157824,0 33.65678717727465,35.16240593067294,0 33.65669868639751,35.16238728032129,0 33.65663779824092,35.16237619884463,0 33.65629205668588,35.1621526822242,0 33.65615017812071,35.16234062850184,0 33.65589587364712,35.16262293537294,0 33.65548051225197,35.16281832297129,0 33.65539576686488,35.1629153512218,0 33.65537593613458,35.16310859799945,0 33.65516445734947,35.16339945111646,0 33.65504764015107,35.16349665256354,0 33.65496261203413,35.16355856593004,0 33.65479325793,35.16377017805095,0 33.65460160818503,35.16386778352009,0 33.65446519644807,35.16395059332957,0 33.65441932354879,35.16409766302024,0 33.6543569220187,35.16453073904846,0 33.65429862441471,35.16474732649617,0 33.65429981972218,35.16489656391659,0 33.6543112829083,35.16499307172664,0 33.65445159354699,35.16515911662218,0 33.65453117981853,35.16526167060686,0 33.65465882644058,35.16547168915885,0 33.6547854603906,35.16555528770782,0 33.65487495721268,35.16566207306388,0 33.65496061974913,35.16587231822974,0 33.65497067127448,35.16596473409779,0 33.65502812173964,35.166088063514,0 33.65515113290643,35.16617240055771,0 33.6552278377932,35.16634971774937,0 33.65564448145671,35.16667201732003,0 33.65589032094424,35.1668175092132,0 33.65605140905811,35.16695573115561,0 33.65625954740906,35.16709369889819,0 33.65710114505475,35.16759915002309,0 33.65751029553992,35.16790811797377,0 33.65758107657962,35.16800734108464,0 33.65765231935962,35.16816402750585,0 33.65729130531448,35.16794378610561,0 33.65713025171196,35.16782768740966,0 33.6569292532421,35.16774123257066,0 33.65670253989848,35.16767083342069,0 33.65616533262897,35.16755701808467,0 33.65583203302732,35.16748984826184,0 33.65511485850741,35.16736176275477,0 33.65457332241844,35.16731871781016,0 33.65418107428933,35.16727486434016,0 33.65372308370309,35.16717772938589,0 33.65354537610365,35.16712505324102,0 33.65317172819837,35.16707343348397,0 33.65281723286169,35.16708300703046,0 33.6527231442331,35.16713321901526,0 33.65257304197517,35.16720224259007,0 33.65245628621268,35.16722546556785,0 33.65244192026606,35.16714928681544,0 33.6524128264431,35.16695174129895,0 33.65237375431898,35.1667966145235,0 33.65227641704499,35.16666721958306,0 33.65220023441901,35.16660267066697,0 33.65211061078501,35.16657773414207,0 33.65205877351158,35.16654694519435,0 33.65207572230948,35.16651578688192,0 33.65212987652865,35.16619069896667,0 33.65209525875176,35.16616264226916,0 33.65169621644005,35.16615349260074,0 33.65055465542812,35.16619351955735,0 33.6502041667471,35.16623494225333,0 33.65014900388605,35.16621829230771,0 33.65011380237718,35.16611680605651,0 33.65009385694219,35.16608198628175,0 33.65005919155529,35.16605916448931,0 33.65003754085019,35.16604689115027,0 33.65025868232867,35.16487405333203,0 33.65027762346908,35.16478453078262,0 33.65027840122369,35.16466863749484,0 33.65030767240891,35.16450093024128,0 33.65032015118563,35.16414621377348,0 33.64961843422227,35.16409347722821,0 33.64949655813323,35.16407997267444,0 33.64936472886467,35.16407424440773,0 33.64913416144832,35.16403943915707,0 33.64894868048239,35.16402273421659,0 33.64881822612993,35.16401458408277,0 33.64854430926796,35.16398861808564,0 33.64833215586579,35.16396145110581,0 33.64819379969467,35.16395745830634,0 33.64806090563543,35.16391557259065,0 33.64789305619782,35.16382654380349,0 33.64780304976199,35.1637631656773,0 33.64777188495344,35.16374638810465,0 33.6476659618088,35.16368510867413,0 33.64758826327211,35.16366889801323,0 33.6473369048021,35.16358989022545,0 33.64729362183505,35.16352985856135,0 33.64746081214771,35.16224837303443,0 33.64757130645805,35.16152964681,0 33.64752131174202,35.16139432147784,0 33.64746639648973,35.16140968072089,0 33.64735773420173,35.1613988922479,0 33.64722171774701,35.16140094491651,0 33.64693273888919,35.16140674745714,0 33.64656165739082,35.16144966665368,0 33.64640968735979,35.16148493754711,0 33.64569380554474,35.16151455820552,0 33.64559608431665,35.16153014474264,0 33.64522918485554,35.16153209939382,0 33.64506431847106,35.16156310883905,0 33.6448751102246,35.16160931337784,0 33.6444422523611,35.16177734079561,0 33.64433249823303,35.16181810019459,0 33.64422270548986,35.16185383718486,0 33.64415547973974,35.1618592171664,0 33.64389249446915,35.16185559269225,0 33.64377646704141,35.16187629757504,0 33.64361739753613,35.16186709863712,0 33.64349482030303,35.16183259669009,0 33.64339070678794,35.16181306140401,0 33.64317064598346,35.1618242740349,0 33.6425691370072,35.16189211326017,0 33.64243574269333,35.16187822639521,0 33.6423466594643,35.16184951102677,0 33.64218592111132,35.16174820474874,0 33.6418654190253,35.16166963585101,0 33.64162603217046,35.16173657702807,0 33.64143032594421,35.16170842563642,0 33.64114633998947,35.16175371096395,0 33.64095923257408,35.16168902795005,0 33.64074968279101,35.16171048069586,0 33.64069255958769,35.16167584422989,0 33.64059419177316,35.16159609699227,0 33.64041631431677,35.16157514639371,0 33.6403090048091,35.16148814947801,0 33.64027131574132,35.16141700405824,0 33.64022737815798,35.16127696634841,0 33.64015766196274,35.16123329849585,0 33.63988561487522,35.16123194321968,0 33.63980782263877,35.16128541230266,0 33.63967362454255,35.16151789947092,0 33.63927275728199,35.16156748776876,0 33.63880761912139,35.16152526327046,0 33.63875419340247,35.16151095064628,0 33.63870437847223,35.16150346498086,0 33.63860274423083,35.16146067028713,0 33.63811251524378,35.16126623318851,0 33.63792541127879,35.16120154544605,0 33.63771222254947,35.16120996545034,0 33.63750740622275,35.16115266700622,0 33.63721396481481,35.16112502214574,0 33.63707145903177,35.16108198953203,0 33.63687564316919,35.16103923701124,0 33.63662606026146,35.16093839031755,0 33.63629685212087,35.16088174341996,0 33.63579939272461,35.16089894947838,0 33.63556894457374,35.16097312941167,0 33.63530329479557,35.16109127559414,0 33.63473475271887,35.16110884912334,0 33.63450220632326,35.16091304789317,0 33.63434153494563,35.16081902749152,0 33.63411080249502,35.16085672077186,0 33.63402246040872,35.16092285626799,0 33.63392602483486,35.16109119255608,0 33.63381968398544,35.16112823432564,0 33.63341118865722,35.161159558544,0 33.63310897667631,35.16114654481934,0 33.63284298467609,35.16122090442234,0 33.63254184587353,35.16134652666313,0 33.63207599938401,35.16161083484305,0 33.63192252820388,35.16169271958495,0 33.63154761898929,35.16188167238131,0 33.63109001347363,35.16204731685445,0 33.63097450331406,35.16204791852448,0 33.63058291272283,35.16201515313216,0 33.63043355472534,35.16204944036567,0 33.63023701849981,35.16205175734342,0 33.63002343156874,35.16200908619381,0 33.62983644569834,35.16195897875555,0 33.62970209714923,35.16182103325087,0 33.62972768452121,35.16168225724963,0 33.62971829231731,35.16161663202509,0 33.6296415096472,35.16156858164138,0 33.62955101090127,35.16155696617933,0 33.62925683759356,35.16158094080975,0 33.62907860604426,35.16162725299875,0 33.6288246331226,35.16170059673642,0 33.62857937543593,35.16179683498589,0 33.6284912573603,35.16182146461393,0 33.62827730906002,35.16188818710394,0 33.62815012257569,35.16192406196328,0 33.62821835727866,35.16184333069697,0 33.62897113986354,35.16151835573949,0 33.62899700926447,35.16141606289745,0 33.6289785080864,35.16132129713627,0 33.62895016716055,35.16110253286696,0 33.62892216340777,35.16092754983674,0 33.62898368661929,35.16083966622816,0 33.62931103515338,35.16065554022067,0 33.62951477651225,35.16057421422271,0 33.62957719732596,35.16060307762526,0 33.62991416077733,35.16051376185222,0 33.63020675246702,35.16043197268618,0 33.63047268918784,35.16035032153292,0 33.63077405293527,35.16025389191651,0 33.63114683558772,35.16020087070837,0 33.63171514671808,35.16015412658245,0 33.6320079621224,35.16010152057869,0 33.63219443687267,35.1600859533121,0 33.63223812886207,35.1599908643912,0 33.63229851844357,35.15975704348467,0 33.63237690298982,35.1595523181843,0 33.63248278951258,35.15945690361293,0 33.63266807621416,35.15928810446359,0 33.63280803361035,35.15900278892425,0 33.63287826627503,35.1588929667948,0 33.63302846359269,35.15878272682886,0 33.63328115184898,35.15813926715932,0 33.63342297178385,35.15809474365636,0 33.63350248337517,35.1580359514731,0 33.63354594647434,35.1579116745843,0 33.63360717845821,35.15778730475195,0 33.63368685937868,35.15775040261761,0 33.63373083136294,35.1576917961665,0 33.63380932359481,35.15750166277368,0 33.63416092388753,35.15701092110869,0 33.63444189606973,35.15657892563795,0 33.63452032894877,35.15638149445444,0 33.63451036701029,35.15624290264559,0 33.63448269312284,35.15611170121089,0 33.63442447804889,35.15595268247677,0 33.63434374511742,35.15555955913758,0 33.63477823552414,35.15541302205139,0 33.63526614521947,35.15531494488076,0 33.63526538762314,35.15490390957153,0 33.63551623216187,35.15486333058298,0 33.63548920979763,35.15440152813144,0 33.63472388654684,35.15448380637973,0 33.63464744957497,35.154338023575,0 33.63509698853979,35.1540432997478,0 33.63541746344503,35.15387856858244,0 33.63555367637088,35.15378789488724,0 33.63575851893091,35.15371935052782,0 33.63584716105446,35.1536739061892,0 33.63614712653936,35.15352674238672,0 33.63612715633851,35.1534425928572,0 33.63693425220747,35.15318629982444,0 33.63690139199493,35.15280159862772,0 33.63782347108415,35.15263389099514,0 33.63778627493646,35.15230035931677,0 33.63770215140529,35.15187583807186,0 33.63773952987865,35.15174798428122,0 33.6377633826802,35.15166639412438,0 33.63764815897768,35.15119455234876,0 33.63765460446219,35.15078743782438,0 33.63763668184671,35.15053918390277,0 33.63754651515171,35.14986141085234,0 33.63740523616845,35.14881114700732,0 33.6372880061488,35.14792715416996,0 33.63729722931571,35.14778065369778,0 33.63734297423776,35.14743303382437,0 33.63747957601457,35.14705316655635,0 33.63753753423364,35.14659875536731,0 33.63767144650902,35.14587368327376,0 33.63765961641872,35.14558062968436,0 33.63769639501812,35.14511623063017,0 33.63764444389272,35.14465460333094,0 33.63763780709791,35.14450859184236,0 33.63760039027364,35.14368544146505,0 33.63764979385069,35.14296299237049,0 33.63762077907938,35.14274557527618,0 33.63733692287677,35.14210111871047,0 33.6371969737461,35.14173810410067,0 33.63714667948978,35.14134957286817,0 33.63707099288471,35.14102495460212,0 33.63693307398879,35.14056436177867,0 33.63664733840572,35.13978379633395,0 33.63647644367244,35.13913440274239,0 33.6363802769277,35.13897514571381,0 33.63619622295718,35.1386703404268,0 33.63611641292903,35.13855990483626,0 33.63577805326085,35.13786143948647,0 33.63576175341828,35.13782779143293,0 33.6357238805962,35.13771934123799,0 33.63570765729141,35.1376239683831,0 33.63570568614733,35.13754868482612,0 33.6357384126168,35.13743329403812,0 33.63573767435167,35.13728921272951,0 33.63573727273799,35.13726267705117,0 33.63573546393209,35.13714320836576,0 33.63564777036787,35.13687968225476,0 33.63563276876435,35.13683218473986,0 33.63560974748132,35.1366963643386,0 33.63559830520235,35.13655296201165,0 33.63560795401217,35.13612184922289,0 33.63562860451683,35.13504589982158,0 33.6355489705059,35.13480265848784,0 33.63542664418608,35.13441403324705,0 33.63527070479334,35.13407472869703,0 33.63507548698203,35.13364226295592,0 33.63475083658313,35.13296543935303,0 33.63464223746556,35.13272778259555,0 33.63436481865513,35.13227229636264,0 33.63430009989474,35.13214868863717,0 33.6341707983297,35.13174090692729,0 33.63406226244945,35.13141104700559,0 33.63380811721753,35.1307692744649,0 33.63376652295558,35.1306694341098,0 33.6334652261998,35.13004429097092,0 33.6334542734321,35.13000979884433,0 33.63302971234564,35.12867270299097,0 33.63293179508019,35.1284120465004,0 33.63262527545853,35.12791105328713,0 33.63224158136358,35.12727275102876,0 33.6321810608572,35.12722635396644,0 33.63132336538317,35.12643444167627,0 33.6312754444286,35.12628692632366,0 33.63118800927132,35.12592333706455,0 33.6309815079399,35.12556804928918,0 33.63088357144613,35.12526954886935,0 33.63079000436606,35.12471902647896,0 33.63074359526836,35.12432363401899,0 33.63070381121388,35.12406019140921,0 33.63064244276143,35.12344533029874,0 33.63064053019608,35.12319719990715,0 33.63057933199021,35.12273252938643,0 33.63056909186618,35.1223190198738,0 33.63060495735496,35.12203193306786,0 33.63065397817572,35.12180339256363,0 33.63066595150477,35.12168421410821,0 33.63063179982814,35.12146196898286,0 33.63060810054041,35.12137954737185,0 33.63064283180416,35.12085184177822,0 33.63057346164616,35.12061072892899,0 33.62940055203049,35.12058528724717,0 33.62940772013446,35.12017450120676,0 33.62848108127217,35.12008771090096,0 33.62851605947631,35.11954585981523,0 33.6285869686993,35.11909593016834,0 33.62794386951609,35.11899777036491,0 33.62744185053858,35.11898357532329,0 33.62690022034443,35.11882903804234,0 33.62683057584429,35.11919391210149,0 33.62656452239305,35.1192121716429,0 33.62651553265556,35.11917354423046,0 33.62506048526625,35.11932150219158,0 33.62505663479122,35.11774739757727,0 33.62451256665152,35.1177858024083,0 33.62447648982398,35.1172073530152,0 33.62399825357663,35.11720520343498,0 33.62392117898194,35.11889783882383,0 33.62358132629873,35.11890780207411,0 33.62363572176811,35.1180940725549,0 33.62284635336209,35.1180669656002,0 33.6230111984236,35.11626125137325,0 33.62353644754798,35.11629898979994,0 33.62421521660065,35.11638985407056,0 33.62538584625898,35.11644223125573,0 33.62495405121168,35.11587146648466,0 33.62476415146694,35.1157159492327,0 33.62495853547045,35.11383388132787,0 33.62503029622385,35.11328791718168,0 33.62502161293564,35.11311802775995,0 33.62441589935261,35.11310901208453,0 33.62446748365242,35.1121255582425,0 33.62400150049486,35.11203692162486,0 33.62417942780134,35.11115599256703,0 33.62426919062933,35.11033620710517,0 33.6248750226672,35.11036343026004,0 33.62479510166771,35.1095687961105,0 33.6250015190658,35.10951917941171,0 33.62533557010919,35.10941512240354,0 33.62540260651929,35.10948460843358,0 33.62568802256406,35.10960458218004,0 33.62578724389849,35.10953423817867,0 33.62575501155509,35.10938698167174,0 33.62575412074131,35.10927044691751,0 33.62583277775344,35.10912436578163,0 33.62599059155506,35.10906865520436,0 33.62617153512532,35.10905557624073,0 33.62621842524061,35.10832943194104,0 33.62631757958838,35.10834435787349,0 33.62651743610618,35.10742336647131,0 33.6274026197588,35.10770418871993,0 33.62739962247043,35.10779528914934,0 33.62795816436835,35.10790773592971,0 33.62837934997744,35.10793589888961,0 33.6283472484303,35.1076022675512,0 33.6291078218003,35.10758618484355,0 33.62914274202871,35.1073250339808,0 33.62958589475324,35.10732880243096,0 33.6299421595356,35.10763029583715,0 33.63080350297187,35.10816000340192,0 33.63107147405586,35.10843171647008,0 33.63112863747721,35.10818258657105,0 33.63132569761552,35.10787810824596,0 33.63147862045405,35.10663922271251,0 33.63202516019531,35.10664244368704,0 33.63212728466404,35.10647804691095,0 33.63281235325259,35.10656283194659,0 33.63273522429547,35.10690696917909,0 33.63325823925966,35.10700557021649,0 33.63354813097715,35.10589406895821,0 33.63452402729315,35.10602855304069,0 33.63458061415226,35.10570659641748,0 33.63529815941472,35.10582926327655,0 33.63591295028545,35.10591015801452,0 33.6359121032272,35.10503202321736,0 33.63600941035845,35.10424860383268,0 33.63663063060799,35.10436065490632,0 33.63655447552843,35.10482167136686,0 33.63700483711375,35.10481930583344,0 33.63715749810883,35.10404882535219,0 33.63754441004254,35.10410702149743,0 33.63769144980564,35.10360860502185,0 33.63841212412648,35.10362906865905,0 33.63845733189708,35.10374414225517,0 33.63859745344187,35.10371912792429,0 33.63844464707508,35.10306447449792,0 33.63903031247155,35.10335270395345,0 33.63945984881661,35.10256146105885,0 33.63971163897031,35.10265116807815,0 33.63978491567184,35.10257795331279,0 33.64053938473422,35.10273176475409,0 33.64140481614987,35.1029092608075,0 33.64137717996734,35.10315217029044,0 33.64177638104616,35.10320467855779,0 33.64189849591054,35.1027670599838,0 33.64211327746373,35.10190411562917,0 33.64259389526634,35.10198046723967,0 33.6429529399772,35.10091647777718,0 33.64310084379038,35.10094300374926,0 33.6433431230296,35.10029232822914,0 33.64421232261902,35.10048192349012,0 33.64535147515242,35.10025434412113,0 33.64544035174855,35.10028725141174,0 33.64668734729273,35.10058324296352,0 33.64643875805477,35.10114603582813,0 33.64725578596604,35.10127164591723,0 33.64765190762582,35.10016739230122,0 33.64605787824531,35.09899732027199,0 33.6484289622511,35.09857100020365,0 33.64868826265758,35.09824891890577,0 33.64931787239848,35.09849134517729,0 33.64937658582773,35.09844551304862,0 33.64968706190402,35.09848633331884,0 33.64981199293982,35.0984098007155,0 33.65023665997648,35.09841662709962,0 33.65022375194762,35.09818607207485,0 33.65064088892779,35.09817473108544,0 33.65062559113057,35.09810805326641,0 33.65067653244616,35.09801370955373,0 33.65219443991882,35.09729945626333,0 33.65413556724222,35.10054129890809,0 33.65456329954448,35.10053899036342,0 33.65481296892519,35.10048896783829,0 33.65447120461621,35.10136695994159,0 33.65446535881899,35.10145893266889,0 33.65438876955274,35.10175680392156,0 33.6547176698832,35.10173880313991,0 33.65483486612916,35.10158132874337,0 33.65546010817975,35.1015887667582,0 33.65536936319305,35.10258438766527,0 33.65503331758894,35.10253212020936,0 33.65499301138608,35.10242958011175,0 33.65482187106601,35.10242509623881,0 33.65481593911421,35.10250625361996,0 33.65488841337743,35.10251667886585,0 33.65488971100817,35.10267892073255,0 33.65519926113891,35.10270969835264,0 33.65520735651025,35.10289894524787,0 33.65515501462895,35.10293708660252,0 33.65511752062731,35.10318607176244,0 33.65532819038869,35.1031957498968,0 33.65537347543747,35.10309815560937,0 33.65576914128649,35.10319877392332,0 33.65588625089487,35.10303048230563,0 33.65587187644776,35.10287912792546,0 33.65596374566189,35.10284618075651,0 33.65633962541596,35.10294149591416,0 33.65640777289956,35.10323317632734,0 33.65660571506023,35.10329700379664,0 33.65661922355458,35.10334019747183,0 33.65672468827918,35.10336125963865,0 33.65673556346676,35.10389662330392,0 33.65663040165108,35.10391341799091,0 33.6566333627787,35.10510323073899,0 33.6567779248095,35.1050754058933,0 33.65690474004657,35.10529646037329,0 33.65715481305026,35.105295105077,0 33.65721862533096,35.10504597672947,0 33.65728443329274,35.10504561995722,0 33.65731929168079,35.10528880503428,0 33.65794803895405,35.10572887562264,0 33.65833151428227,35.10594853443864,0 33.6582775035784,35.10659782539521,0 33.65842289513801,35.10667275184826,0 33.65841308211315,35.10708924545829,0 33.6589328079906,35.10706478824056,0 33.65893633385802,35.10750284184761,0 33.65844271103371,35.1075001155692,0 33.65848959276826,35.10841927410064,0 33.65895035879168,35.10842758710876,0 33.65897145185613,35.10859512947592,0 33.6594452052272,35.10861283460969,0 33.65947062818779,35.10912832016867,0 33.65958861796788,35.1096928244957,0 33.66025881646683,35.10971539485509,0 33.66023403709679,35.11009717797123,0 33.66003651283233,35.11008743690388,0 33.66000731271006,35.11054730179903,0 33.66111955098302,35.11054124109139,0 33.66112326372716,35.11100092668578,0 33.66110902427994,35.11168245142634,0 33.66163662746344,35.11181477972742,0 33.66156772953933,35.11224782066571,0 33.66216694486403,35.11228240737414,0 33.6625825390809,35.11239911917465,0 33.66239310474819,35.11338987331277,0 33.66305871399787,35.11349440119943,0 33.66413953299377,35.11366695792479,0 33.66417279203067,35.1137100424417,0 33.66426506491408,35.11372576186209,0 33.66422838537917,35.11407209407338,0 33.66492006526415,35.1141440178689,0 33.66490330795652,35.1145118743318,0 33.66656955580181,35.11463793082906,0 33.66612479979885,35.11579234414811,0 33.66708802202121,35.1160682780376,0 33.66706275284024,35.11619821634593,0 33.66778148618609,35.11635650821437,0 33.66842177252652,35.11496845417627,0 33.6691071910955,35.115078246906,0 33.66979883907202,35.11514473551261,0 33.6695968992472,35.11620587750912,0 33.67047351076072,35.11635246448142,0 33.66991200942284,35.11771305182631,0 33.67043971065764,35.11785075007164,0 33.67108031772239,35.11650594744426,0 33.67218240254999,35.11685678852382,0 33.67207277640415,35.11713321887073,0 33.67335894410467,35.11745598757023,0 33.67344268280015,35.11723378238582,0 33.67434653055176,35.11748835480424,0 33.6742561665223,35.11770519001141,0 33.67420747786075,35.11818679906401,0 33.67501803228753,35.11830127034794,0 33.67599376103652,35.11849053091429,0 33.67673115880996,35.11851345790193,0 33.67663058851793,35.11908729819697,0 33.67817049728044,35.11904624225334,0 33.67820108336378,35.11955985910339,0 33.67829341020704,35.11958097580566,0 33.67827648929874,35.11992179271059,0 33.67873736461981,35.11993543782003,0 33.67874497845055,35.12005978591188,0 33.68077215557081,35.1200376005731,0 33.68073134492664,35.12067059995293,0 33.68119912310637,35.12072205521498,0 33.68122585685605,35.12077057903591,0 33.68217385727176,35.12078688061109,0 33.68213783706474,35.12120352109763,0 33.6832048624224,35.12128404461065,0 33.68328258403187,35.12113217418878,0 33.6839902606388,35.12153380468156,0 33.68398435655897,35.12161496202192,0 33.68571034334105,35.1207277112909,0 33.6861875357435,35.12049269509387,0 33.68714644589571,35.12013546718721,0 33.68776683913797,35.11997773726441,0 33.68817641509334,35.1198597536554,0 33.6886553182318,35.11962206437993,0 33.68900497658267,35.1201025136542,0 33.68916638647723,35.12033930373455,0 33.6893681244718,35.12069067579952,0 33.68953401531783,35.1209855820852,0 33.68961214579796,35.1211451681672,0 33.6897058164156,35.12137083303245,0 33.68981073633342,35.12159797246143,0 33.68987717806594,35.12170376876337,0 33.68996243717799,35.12182022859128,0 33.690083617436,35.12197649283538,0 33.69031423495051,35.12222907434044,0 33.69055126403557,35.12257548394338,0 33.69076184292341,35.12289434596475,0 33.69104314621561,35.12338206689662,0 33.69125890540175,35.12375937144506,0 33.69136633030172,35.12394956437309,0 33.69139320026289,35.12402634900473,0 33.69139135265184,35.12436180898266,0 33.69139684047879,35.12456797088863,0 33.69143934251372,35.12472160422384,0 33.69147839346198,35.1248137465738,0 33.69104372712057,35.12498250902591,0 33.69106837166981,35.1251618436912,0 33.69117666280386,35.12550750843782,0 33.69137432515324,35.12549361021077,0 33.69136136020869,35.12565886964144,0 33.69093073920589,35.12568492356404,0 33.69095612325584,35.12582918916159,0 33.69084073171958,35.1263591792168,0 33.69056759137981,35.12772715260206,0 33.69055484330516,35.12799189130286,0 33.69046894456647,35.12846631808811,0 33.69047382802626,35.12904486236612,0 33.69043339707149,35.12958058027893,0 33.69009611459871,35.12956403636681,0 33.69008981760071,35.12970563767183,0 33.69013518288294,35.12975461938861,0 33.69019562291226,35.13070214967964,0 33.6899412655288,35.13074668334318,0 33.68984028945568,35.13032256095342,0 33.68968830797136,35.13095739349723,0 33.68937855748605,35.1324302073249,0 33.6886528210416,35.13255127925559,0 33.68863122626902,35.13265603666843,0 33.68855651364601,35.1326810816403,0 33.68858080300063,35.13289636950589,0 33.68840859058053,35.1329096580953,0 33.68848630846816,35.13324158739028,0 33.68937734197163,35.13317497184502,0 33.68946906258313,35.13338987590441,0 33.68913285360118,35.13350257934942,0 33.688444590846,35.1363852154237,0 33.6886939633999,35.13695246098983,0 33.68893942257544,35.13773961126416,0 33.6881377781003,35.1379033912899,0 33.68803382640375,35.13761585909985,0 33.68781952272557,35.13861827503052,0</coordinates>
						</LinearRing>
					</outerBoundaryIs>
				</Polygon>
			</MultiGeometry>
		</Placemark>
	</Document>
</kml>