<?xml version='1.0' encoding='UTF-8'?>
<kml xmlns="http://www.opengis.net/kml/2.2">
	<Document>
		<name>VIKLA</name>
		<Style id="PolyStyle70">
			<LabelStyle>
				<color>00000000</color>
				<scale>0.000000</scale>
			</LabelStyle>
			<LineStyle>
				<color>ff0055ff</color>
				<width>2.000000</width>
			</LineStyle>
			<PolyStyle>
				<color>00828282</color>
				<outline>1</outline>
			</PolyStyle>
		</Style>
		<Placemark id="ID_70512">
			<name>VIKLA</name>
			<snippet />
			<description>&lt;html xmlns:fo="http://www.w3.org/1999/XSL/Format" xmlns:msxsl="urn:schemas-microsoft-com:xslt"&gt;

&lt;head&gt;

&lt;META http-equiv="Content-Type" content="text/html"&gt;

&lt;meta http-equiv="content-type" content="text/html; charset=UTF-8"&gt;

&lt;/head&gt;

&lt;body style="margin:0px 0px 0px 0px;overflow:auto;background:#FFFFFF;"&gt;

&lt;table style="font-family:Arial,Verdana,Times;font-size:12px;text-align:left;width:100%;border-collapse:collapse;padding:3px 3px 3px 3px"&gt;

&lt;tr style="text-align:center;font-weight:bold;background:#9CBCE2"&gt;

&lt;td&gt;5&lt;/td&gt;

&lt;/tr&gt;

&lt;tr&gt;

&lt;td&gt;

&lt;table style="font-family:Arial,Verdana,Times;font-size:12px;text-align:left;width:100%;border-spacing:0px; padding:3px 3px 3px 3px"&gt;

&lt;tr&gt;

&lt;td&gt;DIST_CODE&lt;/td&gt;

&lt;td&gt;5&lt;/td&gt;

&lt;/tr&gt;

&lt;tr bgcolor="#D4E4F3"&gt;

&lt;td&gt;VIL_CODE&lt;/td&gt;

&lt;td&gt;135&lt;/td&gt;

&lt;/tr&gt;

&lt;tr&gt;

&lt;td&gt;VIL_CCD&lt;/td&gt;

&lt;td&gt;5135&lt;/td&gt;

&lt;/tr&gt;

&lt;tr bgcolor="#D4E4F3"&gt;

&lt;td&gt;VIL_NM_E&lt;/td&gt;

&lt;td&gt;VIKLA&lt;/td&gt;

&lt;/tr&gt;

&lt;tr&gt;

&lt;td&gt;VIL_NM_G&lt;/td&gt;

&lt;td&gt;ΒΙΚΛΑ&lt;/td&gt;

&lt;/tr&gt;

&lt;/table&gt;

&lt;/td&gt;

&lt;/tr&gt;

&lt;/table&gt;

&lt;/body&gt;&lt;script type="text/javascript"&gt;

				function changeImage(attElement, nameElement) {

				document.getElementById('imageAttachment').src = attElement;

				document.getElementById('imageName').innerHTML = nameElement;}

			&lt;/script&gt;&lt;/html&gt;

</description>
			<styleUrl>#PolyStyle70</styleUrl>
			<MultiGeometry>
				<Polygon>
					<extrude>0</extrude>
					<altitudeMode>clampToGround</altitudeMode>
					<outerBoundaryIs>
						<LinearRing>
							<coordinates> 33.18935550330443,34.81925348489062,0 33.18943910100977,34.81920698131103,0 33.18963568976846,34.81900976886118,0 33.19016805390763,34.8183904347089,0 33.19053697745761,34.81820524264148,0 33.19080045673945,34.8180989081103,0 33.1911211390918,34.81815451039311,0 33.19136470618995,34.81819144864884,0 33.19211678373582,34.8182739697842,0 33.19244701893903,34.81834932145367,0 33.19284933642977,34.81824312070439,0 33.19310308135498,34.81823942887751,0 33.19325134592614,34.81833828303819,0 33.19345260890396,34.81821608854928,0 33.19371626855705,34.81798340243696,0 33.19413323836311,34.81767584984243,0 33.19451179898184,34.81743932683342,0 33.19473206023848,34.817415854963,0 33.19514364747313,34.81751102097344,0 33.19557416746105,34.81776018648456,0 33.19567942833218,34.81780766987855,0 33.19613417345105,34.8178633921442,0 33.19652189034527,34.8179150986369,0 33.19678011761141,34.81812460902951,0 33.19702400087171,34.81832226003711,0 33.19727275546088,34.81846463996628,0 33.19759323702188,34.81866631319404,0 33.19805225216519,34.81908922464007,0 33.19827644726122,34.81924174595003,0 33.1983102468863,34.81926240625838,0 33.19856052292707,34.8194153884416,0 33.19894428418905,34.81977000797349,0 33.19928508567132,34.8198082695459,0 33.1996751553221,34.81989044743532,0 33.20003549970848,34.81994532737057,0 33.20119432792896,34.81930599309184,0 33.20122164326312,34.81926516528986,0 33.2012628471107,34.81920357928883,0 33.20137995186425,34.81902854151816,0 33.2016462048242,34.81863056971091,0 33.20176143523982,34.81865806772773,0 33.20191549436477,34.81886444323727,0 33.20226091983727,34.81914350025303,0 33.20245065423393,34.81925256160733,0 33.20257258908685,34.8192664213335,0 33.20268658924746,34.81927938008167,0 33.20291309008582,34.81935081952416,0 33.2031610342116,34.81938922505894,0 33.20349497329889,34.81941134668662,0 33.20363375598824,34.81948237345425,0 33.20383167323456,34.81983978002327,0 33.20395045290432,34.82003349880905,0 33.20388418847597,34.82013160769463,0 33.20363271675954,34.82025408821686,0 33.20370868117759,34.82031960485144,0 33.20381444009899,34.82036060520499,0 33.2042211157627,34.82039369985209,0 33.2044392901805,34.82044025498769,0 33.20497157962264,34.82050618235871,0 33.20520031332844,34.82007281105293,0 33.20520407329479,34.81973195099205,0 33.20517371900621,34.81953479224741,0 33.20505173763804,34.81926868796496,0 33.20502413780386,34.81920847955955,0 33.20544268918622,34.81899947216587,0 33.20568290241268,34.81890520887565,0 33.20591346194924,34.8191715489189,0 33.20613861499717,34.81906909437528,0 33.20694816322872,34.81873420877124,0 33.20761307676285,34.81917306170985,0 33.20822939114243,34.81926057359632,0 33.20835112860183,34.81927162615222,0 33.20868090722939,34.81930156798431,0 33.20908159408152,34.81934816764288,0 33.20930310015746,34.81937699389172,0 33.2093642817202,34.81937022960339,0 33.20943127276487,34.81929382166357,0 33.20944740652256,34.819272582709,0 33.20949929291451,34.81920427954994,0 33.20979672344028,34.81879593179747,0 33.21010801742997,34.81871723600224,0 33.21067272290062,34.81890329031752,0 33.21113213471957,34.81906556323329,0 33.21124439830123,34.81925338168477,0 33.21131559491035,34.8192741897925,0 33.21149733594864,34.81932730764131,0 33.21131285073338,34.81991865211089,0 33.21160765529923,34.82082969223107,0 33.21161745554116,34.82092650560948,0 33.21155114777316,34.82106552212267,0 33.21192627799832,34.82120900345605,0 33.21206469251197,34.82158407119267,0 33.21214884974797,34.82171639651995,0 33.21221923807662,34.82176466373446,0 33.21296658285186,34.82241458872192,0 33.21386014717056,34.82239365010638,0 33.21377709006211,34.82276843058927,0 33.21394589637717,34.82288319613716,0 33.21421236508627,34.82296086426219,0 33.21432883862027,34.82288661206357,0 33.21437382498955,34.82294550851432,0 33.21426110378901,34.82301666757555,0 33.21451995195391,34.82318417273756,0 33.21488807799679,34.82302338287131,0 33.21501561469223,34.82311952459176,0 33.21584495058583,34.82344238691255,0 33.21632127680913,34.82385170524118,0 33.21653526354317,34.82386426944997,0 33.21659140120627,34.82401301727573,0 33.21645969509029,34.82426694006498,0 33.21648965266905,34.82433202117154,0 33.21689478996804,34.82462045743994,0 33.21693697724773,34.82495197767276,0 33.21706590411317,34.82596510205264,0 33.21697195256578,34.82603937797425,0 33.21685182532824,34.82602378879248,0 33.21657404824871,34.82597399969413,0 33.21639319520124,34.82650669627537,0 33.21652822744348,34.82661833428683,0 33.21666653394936,34.82713270419854,0 33.21702689493252,34.82719805177194,0 33.21747359389708,34.82727895717952,0 33.21776279845154,34.82719244502737,0 33.21858541137701,34.82688640369946,0 33.21914826095641,34.82717805550016,0 33.21921590152006,34.8271254448325,0 33.21941538691794,34.82669808571331,0 33.21929171781002,34.82650281810327,0 33.21962984448216,34.82631720690227,0 33.21961086771857,34.82649377511328,0 33.21960684771372,34.82672302058253,0 33.22016997982605,34.82676992939404,0 33.22006434781395,34.82720975295492,0 33.21997405529454,34.82736458005687,0 33.22052948826935,34.82758496739209,0 33.2206793802177,34.82783601572205,0 33.22011968583281,34.82806172988571,0 33.22029599562984,34.82819817715117,0 33.2208100027835,34.82853005573005,0 33.22095304635313,34.82820488507299,0 33.22104335824066,34.82803146840624,0 33.22230858930294,34.8280974967156,0 33.22251455826083,34.82857783344863,0 33.22267177947089,34.82900237175863,0 33.22264889991582,34.8293152459924,0 33.22226157776653,34.82984159929073,0 33.22217125603206,34.83002740727014,0 33.22188164363743,34.8304732904104,0 33.2216227465857,34.83031509433092,0 33.22124744933095,34.83015991114097,0 33.22103342533332,34.83016594144925,0 33.2208080915639,34.83020913619414,0 33.22062017525597,34.83036698672746,0 33.22032330234701,34.83058361241639,0 33.21994377616804,34.83084354108578,0 33.21974093372491,34.83091773284779,0 33.21944437296594,34.8308617381507,0 33.21881423837755,34.83029122073347,0 33.21838649879651,34.83003375333898,0 33.21801496516034,34.82987855970996,0 33.21766955843353,34.82985659773712,0 33.21754182077638,34.82992155310144,0 33.21701183415231,34.83040440631706,0 33.21658707030002,34.83080679481088,0 33.21643304487586,34.83087482287413,0 33.21597499404528,34.83084966788931,0 33.21561841626495,34.83074714554303,0 33.21526962857928,34.83041228100334,0 33.21498451493318,34.830207584253,0 33.21427908162263,34.82983524940528,0 33.21350957291764,34.82966732148356,0 33.2132955202004,34.82969502353783,0 33.21288569501794,34.83015007723196,0 33.21249451113806,34.83052836364534,0 33.21224536151317,34.83095172513098,0 33.2122077497695,34.83100630599129,0 33.21218914755696,34.83103330083651,0 33.21196210915102,34.83126684879097,0 33.2117025909355,34.83144345409614,0 33.21133506237174,34.83168699805841,0 33.21111485294985,34.83180931694938,0 33.21069974992539,34.8319857861457,0 33.21051744562711,34.83205843957013,0 33.21040246597995,34.83209416916372,0 33.21025108272448,34.83210097271048,0 33.20995534188882,34.83209840680443,0 33.20966373714464,34.8321490051316,0 33.20933429142209,34.83219841576307,0 33.2091394664516,34.83219709036721,0 33.20854519963215,34.83217808027202,0 33.20820736645499,34.83220783257185,0 33.2079382042312,34.8322468894463,0 33.2078050073277,34.83227913296513,0 33.20777550918496,34.83232880281071,0 33.20773331132921,34.83244318154807,0 33.20764883912534,34.8327308813679,0 33.20752933696658,34.83301161497062,0 33.2074085250191,34.83321722647571,0 33.20719633725557,34.83363078601938,0 33.20717900532313,34.83377603203243,0 33.20713534754475,34.83414188530352,0 33.20707193055533,34.83429819482492,0 33.20694158434974,34.83445138107018,0 33.20682065265862,34.83451259329298,0 33.20658068664879,34.83460742616187,0 33.20615099210201,34.83476647412843,0 33.20594643842217,34.83479541820567,0 33.20585534745798,34.83478613869884,0 33.20572159468945,34.83470017005378,0 33.20565683026868,34.83446709502028,0 33.20549921493354,34.83414961984941,0 33.20524755984554,34.83381434354644,0 33.20521191248429,34.83377427199823,0 33.2050832182948,34.83362960785339,0 33.20491025001007,34.83351397274793,0 33.20470988796203,34.83352020645209,0 33.20399792227297,34.83377316948118,0 33.20388821611394,34.83381214732598,0 33.20371159392692,34.83392762787965,0 33.20347701262667,34.83416377776881,0 33.20327312059263,34.83449907696331,0 33.20309548434608,34.83479246409674,0 33.2029581344166,34.83492576906378,0 33.2028271023782,34.83494725191642,0 33.20271618844677,34.83490648478832,0 33.20253924311464,34.83469028803066,0 33.20241608294154,34.83458978294902,0 33.20224812628877,34.83456421139034,0 33.202113983791,34.83460475170774,0 33.20197056214373,34.83467069934495,0 33.201783910309,34.83479124997918,0 33.20151080822679,34.83501465213489,0 33.20131186400833,34.83510596311797,0 33.20117778125091,34.8351032957755,0 33.20105144433836,34.83507267862834,0 33.20092523290363,34.83495056480518,0 33.20091458303833,34.83485016439862,0 33.20100916837778,34.83443597726347,0 33.20093867088389,34.83414744469474,0 33.20086335378176,34.83400123386683,0 33.20077409656507,34.83390457080049,0 33.20064781107553,34.83383710002806,0 33.2004197795489,34.8337911377333,0 33.20014390683485,34.83378960691025,0 33.19971387954872,34.8338133447875,0 33.19955499104551,34.83391612662195,0 33.19934822474041,34.83409129839028,0 33.19923396098828,34.83424495396375,0 33.19906219394326,34.83473912468064,0 33.19892609543493,34.83507448142463,0 33.19876381723768,34.83539456332792,0 33.19867579425751,34.83551774520489,0 33.19841663359927,34.83568396927706,0 33.19798179598059,34.83583223256507,0 33.1975162181321,34.83591946733155,0 33.19713083781692,34.83596865537649,0 33.1968487799697,34.83597600550317,0 33.19619222111542,34.83597155376113,0 33.19580995919073,34.83599405416396,0 33.19557716316049,34.83604338642928,0 33.19526712766854,34.83621209334554,0 33.19494478441303,34.83636681155296,0 33.1946795949745,34.83643135910846,0 33.19450387687065,34.83644262255713,0 33.19391212900383,34.83637976527851,0 33.19356555837066,34.83623709294915,0 33.19340853244141,34.83611494193491,0 33.19310381102944,34.8358134616897,0 33.19300258345918,34.8354791444643,0 33.19292413814275,34.83537231987873,0 33.19275628695709,34.83527557182338,0 33.19234210968879,34.83519753252499,0 33.19190136394477,34.83459883770595,0 33.19160755643539,34.83434526654685,0 33.19107036158028,34.83376067945462,0 33.19100133347771,34.83368556176356,0 33.19091700576738,34.83340990961091,0 33.19090212855582,34.83322140889004,0 33.19081055852543,34.83312241997061,0 33.19063897616044,34.83305825324133,0 33.19037569110814,34.83298235769428,0 33.19024407425936,34.83292792663229,0 33.1901406920009,34.83286576823365,0 33.19008204491441,34.83276875195658,0 33.18991318584384,34.83245831609731,0 33.18979583752358,34.83230112477403,0 33.1897301790448,34.83217501409846,0 33.18971151549044,34.83207609811001,0 33.18977759372972,34.83192491361891,0 33.18980604621935,34.8317717514179,0 33.18976398504874,34.83159330713334,0 33.18965841961246,34.83142061484583,0 33.18955527446461,34.83120138667024,0 33.18926392300941,34.83103044190362,0 33.18907584766281,34.83098952449155,0 33.18892534183345,34.83098742985617,0 33.18876309425941,34.83097368756999,0 33.1886127196991,34.83088626996331,0 33.18853061073644,34.83075432196957,0 33.18845794275777,34.83060105528938,0 33.18843236537217,34.83041099320356,0 33.18844901039856,34.8302907840985,0 33.18852682790217,34.83015318676381,0 33.18872242855659,34.82988385068268,0 33.18892040093878,34.82960094104267,0 33.18895349615655,34.82948850566839,0 33.18887611257385,34.8293429890978,0 33.18879398220562,34.82922655706653,0 33.18863188006558,34.82911973587383,0 33.18850968303173,34.82906143457713,0 33.18840211136883,34.82866767850105,0 33.18823549341607,34.82844062541145,0 33.18819328518245,34.82836107718536,0 33.18820293718937,34.82820013867453,0 33.18823140969547,34.82803534167464,0 33.18813527739843,34.82785102355741,0 33.188213196694,34.82764361687319,0 33.18836175994572,34.82737617045128,0 33.1884254639242,34.82723855800987,0 33.18854789605924,34.8271417281721,0 33.18911012978828,34.82700851069133,0 33.18900953935459,34.82666130056297,0 33.18883075101317,34.82670571597895,0 33.18856074884629,34.82642426057441,0 33.18840356443525,34.8261817042527,0 33.18851200056613,34.8260092345226,0 33.18830302004775,34.82580734527986,0 33.18810825814825,34.82553566398656,0 33.18791825767243,34.82522714257306,0 33.18837210479732,34.82522761534828,0 33.18881192942819,34.8251718386377,0 33.18937636925554,34.82512588247564,0 33.18985136357373,34.82513800775129,0 33.19038525342698,34.82507844208099,0 33.19053577184103,34.82506502271954,0 33.19064764342735,34.82499601167611,0 33.19082763225055,34.82488498068698,0 33.19053153835189,34.82475281674738,0 33.19029646796516,34.82469827987707,0 33.19004019812143,34.82466699076839,0 33.18988260697461,34.82469203757137,0 33.18973502800431,34.82431763139705,0 33.19028824808024,34.82391098042201,0 33.19044590230073,34.82384327265747,0 33.19067541155744,34.82290302542452,0 33.19051117261469,34.82266046471038,0 33.18985746979113,34.82265591552419,0 33.18949120130701,34.82228710092859,0 33.18943038860277,34.8220717934887,0 33.1894472838533,34.82178481943909,0 33.18947340364272,34.8216180803104,0 33.18960998742965,34.82148635999784,0 33.18984053212089,34.82141872688998,0 33.18958764340571,34.82071455822158,0 33.18878792109855,34.82087274012524,0 33.18867650586526,34.81992050709211,0 33.18905768907487,34.81975219736583,0 33.1890227817176,34.81951364597005,0 33.18929773943437,34.81928561692237,0 33.18935550330443,34.81925348489062,0</coordinates>
						</LinearRing>
					</outerBoundaryIs>
				</Polygon>
			</MultiGeometry>
		</Placemark>
	</Document>
</kml>