<?xml version='1.0' encoding='UTF-8'?>
<kml xmlns="http://www.opengis.net/kml/2.2">
	<Document>
		<name>VITSADA</name>
		<Style id="PolyStyle70">
			<LabelStyle>
				<color>00000000</color>
				<scale>0.000000</scale>
			</LabelStyle>
			<LineStyle>
				<color>ff0055ff</color>
				<width>2.000000</width>
			</LineStyle>
			<PolyStyle>
				<color>00828282</color>
				<outline>1</outline>
			</PolyStyle>
		</Style>
		<Placemark id="ID_70257">
			<name>VITSADA</name>
			<snippet />
			<description>&lt;html xmlns:fo="http://www.w3.org/1999/XSL/Format" xmlns:msxsl="urn:schemas-microsoft-com:xslt"&gt;

&lt;head&gt;

&lt;META http-equiv="Content-Type" content="text/html"&gt;

&lt;meta http-equiv="content-type" content="text/html; charset=UTF-8"&gt;

&lt;/head&gt;

&lt;body style="margin:0px 0px 0px 0px;overflow:auto;background:#FFFFFF;"&gt;

&lt;table style="font-family:Arial,Verdana,Times;font-size:12px;text-align:left;width:100%;border-collapse:collapse;padding:3px 3px 3px 3px"&gt;

&lt;tr style="text-align:center;font-weight:bold;background:#9CBCE2"&gt;

&lt;td&gt;3&lt;/td&gt;

&lt;/tr&gt;

&lt;tr&gt;

&lt;td&gt;

&lt;table style="font-family:Arial,Verdana,Times;font-size:12px;text-align:left;width:100%;border-spacing:0px; padding:3px 3px 3px 3px"&gt;

&lt;tr&gt;

&lt;td&gt;DIST_CODE&lt;/td&gt;

&lt;td&gt;3&lt;/td&gt;

&lt;/tr&gt;

&lt;tr bgcolor="#D4E4F3"&gt;

&lt;td&gt;VIL_CODE&lt;/td&gt;

&lt;td&gt;235&lt;/td&gt;

&lt;/tr&gt;

&lt;tr&gt;

&lt;td&gt;VIL_CCD&lt;/td&gt;

&lt;td&gt;3235&lt;/td&gt;

&lt;/tr&gt;

&lt;tr bgcolor="#D4E4F3"&gt;

&lt;td&gt;VIL_NM_E&lt;/td&gt;

&lt;td&gt;VITSADA&lt;/td&gt;

&lt;/tr&gt;

&lt;tr&gt;

&lt;td&gt;VIL_NM_G&lt;/td&gt;

&lt;td&gt;ΒΙΤΣΑΔΑ&lt;/td&gt;

&lt;/tr&gt;

&lt;/table&gt;

&lt;/td&gt;

&lt;/tr&gt;

&lt;/table&gt;

&lt;/body&gt;&lt;script type="text/javascript"&gt;

				function changeImage(attElement, nameElement) {

				document.getElementById('imageAttachment').src = attElement;

				document.getElementById('imageName').innerHTML = nameElement;}

			&lt;/script&gt;&lt;/html&gt;

</description>
			<styleUrl>#PolyStyle70</styleUrl>
			<MultiGeometry>
				<Polygon>
					<extrude>0</extrude>
					<altitudeMode>clampToGround</altitudeMode>
					<outerBoundaryIs>
						<LinearRing>
							<coordinates> 33.63574240630366,35.23383527936432,0 33.63587190645295,35.23377187877595,0 33.63598730289208,35.23374679747592,0 33.63615829651611,35.23367859145896,0 33.63627333439849,35.23360762099323,0 33.63653618152961,35.23336454534117,0 33.63651689285442,35.2332820430119,0 33.63670088652928,35.23296901583298,0 33.6368029923018,35.23267477570119,0 33.63683191233697,35.23255836605437,0 33.63688951415974,35.23229495443116,0 33.63695911389244,35.23213549917517,0 33.63700995066505,35.2319608453915,0 33.63705655658103,35.23172196656373,0 33.63715220745618,35.23155625464183,0 33.63733519417584,35.23159200428479,0 33.63739071536278,35.23153970261168,0 33.63779174723237,35.23132649093521,0 33.63792183864209,35.23127379517644,0 33.63811123324195,35.23124350130545,0 33.63818240538984,35.2312173521745,0 33.63841328756131,35.2311794225776,0 33.63850652506707,35.2311819900516,0 33.6386071234088,35.23117228065488,0 33.63891668794079,35.23118288501356,0 33.6390847599848,35.23121871073837,0 33.63937933815423,35.23122021433793,0 33.63965869067508,35.23118202542648,0 33.63976292116202,35.23116005881337,0 33.63987446528319,35.23111969695412,0 33.6400116523966,35.23102107065964,0 33.64030810725744,35.23078698781292,0 33.64037204537259,35.23085701628708,0 33.64045756026768,35.23082596939096,0 33.64053954022728,35.23081941706823,0 33.64073351930284,35.23083062748176,0 33.64087147386959,35.2308448689904,0 33.64098225665849,35.23084680714867,0 33.64114822339792,35.2308232072193,0 33.6415050093531,35.23078676898317,0 33.64172874515263,35.23078864229851,0 33.64210513165927,35.23076217124036,0 33.64218319019635,35.2307311635835,0 33.64223885231397,35.23069721454289,0 33.64236073553575,35.23054971584693,0 33.64243448551756,35.23044530491879,0 33.64251528300992,35.23028884631997,0 33.64258879132813,35.23015384212074,0 33.64266593121651,35.23000658153197,0 33.64278621050293,35.22978952462216,0 33.64288635742404,35.22958933197187,0 33.64294933132954,35.22953698727446,0 33.64306421365478,35.22944765379785,0 33.64326001038516,35.2292171586127,0 33.64330749000574,35.22909147008009,0 33.64331331053419,35.2287415326714,0 33.64346111855045,35.22836710375053,0 33.64352385219746,35.2281602607717,0 33.64357893331153,35.22805288910562,0 33.6436380313167,35.22798220815287,0 33.64370719858322,35.22796943022833,0 33.64398833083454,35.22795892927211,0 33.64413761118495,35.22792674732104,0 33.64421908000052,35.22790569121713,0 33.64452123319669,35.22819231451277,0 33.64461377327639,35.22822211695485,0 33.64474582961355,35.22819111844112,0 33.64493323379029,35.22815887846503,0 33.64504089006356,35.22815167702654,0 33.64511435093994,35.22810331798642,0 33.64519690120149,35.22803723810102,0 33.64528374451857,35.22791720962547,0 33.64541010280042,35.22781666454475,0 33.64555630811073,35.2277394780783,0 33.64588735772615,35.22763981111023,0 33.64604259709952,35.22759596818551,0 33.6462033482067,35.2275218671335,0 33.64629078418275,35.22746588826928,0 33.64638200262483,35.22732907187844,0 33.64644219365833,35.22715960115789,0 33.64652829929306,35.22715409179535,0 33.64665556278252,35.22718597688237,0 33.64673012961743,35.22718557851844,0 33.64683863772348,35.22710194156255,0 33.6470570576324,35.22703698032124,0 33.64715776399613,35.22699420173934,0 33.64722504895463,35.2269433496881,0 33.64728072118137,35.22687778976776,0 33.64734742273139,35.2267962426451,0 33.64750087062439,35.22673682266632,0 33.64760249853493,35.22670364744202,0 33.64775141247254,35.22667531638495,0 33.64803837178857,35.22665848326866,0 33.6481355027525,35.22668243827366,0 33.64820292909733,35.2267218494986,0 33.64827359699775,35.22670005530025,0 33.64837016833263,35.22665364728967,0 33.64846627708122,35.226549112019,0 33.64853299753133,35.22649980451971,0 33.64880041316744,35.22636987605068,0 33.64887790472525,35.22626850040231,0 33.64901921497206,35.22622185205014,0 33.64908213249739,35.22616338593836,0 33.64910018950469,35.22608986312036,0 33.64913974115437,35.22603543513637,0 33.64921876394931,35.22599744475029,0 33.64943120358758,35.22598712741657,0 33.64953915280316,35.22596513246501,0 33.64968453164921,35.22596129303636,0 33.64987087318857,35.22595111409625,0 33.64993788503428,35.22593851725687,0 33.65003332381658,35.22587539890978,0 33.65008141370521,35.2258287351833,0 33.65012675890195,35.2257784139774,0 33.65021077363121,35.22571164678578,0 33.65031632864765,35.22565357836335,0 33.65037535709622,35.22562716733579,0 33.65045651746669,35.22558805056051,0 33.6505416144697,35.22552688027022,0 33.65059403192451,35.22546384394656,0 33.65062341821766,35.22540861651042,0 33.65064930444828,35.22530712047777,0 33.65066277556065,35.22523135331335,0 33.65066212209874,35.22521416940963,0 33.65068297141617,35.22511594088333,0 33.65069033125084,35.22501109215367,0 33.65069370937984,35.22487284274397,0 33.65067668004684,35.22482032102553,0 33.65064788679132,35.22461720582334,0 33.65062555609218,35.22449515979166,0 33.65062540246095,35.22439251744159,0 33.6506407489543,35.22431019620687,0 33.65064656888604,35.22410518413265,0 33.65070644287231,35.22353192577054,0 33.65072907229499,35.2234109883133,0 33.65140632781496,35.22353510855865,0 33.65195946825168,35.22370345695995,0 33.65213670841099,35.22348834368206,0 33.65226783052323,35.22356718178576,0 33.65233859251167,35.22355762268532,0 33.65256905415036,35.22347071748371,0 33.65260722319886,35.22311562053667,0 33.65279723569074,35.22309929880014,0 33.65295057684921,35.22306508307049,0 33.65314380695762,35.2229908273845,0 33.65326585601201,35.22295603825417,0 33.65335252099401,35.22292910977841,0 33.65344792264597,35.22287857033492,0 33.6535897394595,35.22289616124188,0 33.65379844126326,35.22288585556425,0 33.65430453686604,35.22276686364241,0 33.65510888010315,35.22264625597945,0 33.65531375579818,35.22262373133187,0 33.65546962587927,35.22259703873072,0 33.65595238473416,35.22256412861918,0 33.65622736975667,35.22264631742296,0 33.6563055863619,35.22263671469688,0 33.65635262796717,35.22259982777567,0 33.65641305912795,35.22246317075874,0 33.65650172624073,35.22239452526418,0 33.65657187480398,35.22231840679234,0 33.65681974401691,35.22215296146172,0 33.65691280947917,35.22211332238527,0 33.65718586029152,35.22215349922012,0 33.65729940266333,35.22211753806234,0 33.65741921518716,35.22203408806151,0 33.65763603830094,35.22189606814164,0 33.65774603612521,35.22180205924797,0 33.65789377076496,35.22170415314579,0 33.65799086555298,35.22164167844689,0 33.65805793549747,35.22156557494759,0 33.65820144629854,35.22143099014605,0 33.6582896022264,35.22129923094622,0 33.65831657553382,35.22121072247727,0 33.65835599771364,35.2211398186594,0 33.65855201034981,35.22103019361793,0 33.65856087180925,35.22098470259035,0 33.65855121499242,35.220931738047,0 33.65856523882619,35.22082857149484,0 33.65857600340601,35.22077650269317,0 33.65873129528644,35.22061656869559,0 33.65882318601701,35.22045392028573,0 33.65887024105374,35.22027927786151,0 33.65889213947088,35.22022102989765,0 33.66085829362528,35.22039387686204,0 33.66176601128654,35.22050518391666,0 33.66171919460971,35.22035552135159,0 33.66175187831652,35.22024826296051,0 33.66181090520131,35.22017145501736,0 33.66189846529813,35.21993540196783,0 33.66198000895253,35.21987682732897,0 33.66219921539375,35.21978384686488,0 33.66236672672691,35.2197523359949,0 33.66261128482927,35.21993465913356,0 33.66266043101256,35.21999899166714,0 33.66266254558963,35.21997427971553,0 33.66260637617975,35.21990048513155,0 33.66259171312549,35.2198055631724,0 33.66261657849307,35.21973132504129,0 33.66269023463177,35.21967772001302,0 33.66300185575285,35.21956011048852,0 33.66299932410306,35.21953352387691,0 33.66330179001277,35.2194292635094,0 33.66329649465697,35.2193475909948,0 33.6632539697395,35.21924332036988,0 33.6632091296203,35.21913906331238,0 33.663208758673,35.21909346388141,0 33.66324729877368,35.21899255022338,0 33.66329076310522,35.21892771054397,0 33.66335071281701,35.21889698139209,0 33.6634062483047,35.2188928768788,0 33.66345489969689,35.21889641046143,0 33.66361053160956,35.21895825890018,0 33.66366861443691,35.21898264087909,0 33.66373350403597,35.21898988552617,0 33.6638165901977,35.21895712919579,0 33.66390404389308,35.21889204808399,0 33.66398671208351,35.21880799217111,0 33.66402105486142,35.21876030224518,0 33.66407121566091,35.2186650248818,0 33.66410730099742,35.21854702352802,0 33.66408584422753,35.21847113908976,0 33.66405750460547,35.21840289279545,0 33.66400368128762,35.21833288526897,0 33.66398929434975,35.21827216282284,0 33.66398632915909,35.21819237674352,0 33.66404792792952,35.21807993576042,0 33.66407678753793,35.21792777316311,0 33.66411345956246,35.21788197052848,0 33.66415730956031,35.21786462998607,0 33.66419197689287,35.21785683939979,0 33.66426679131239,35.21794573175976,0 33.66428120935638,35.21801025420211,0 33.66429677190693,35.21821537405864,0 33.66431918865501,35.21840905660409,0 33.66431259883269,35.21845279413114,0 33.66426205034354,35.21850057306138,0 33.6642623754298,35.21854047244621,0 33.6642998835997,35.21859726778871,0 33.66431908722553,35.21868076494418,0 33.66430325163531,35.21872645330255,0 33.6642134831294,35.21879154740213,0 33.66418618035726,35.21885059934904,0 33.66420735870052,35.21889228442051,0 33.66426758557804,35.21889575326522,0 33.66430714605482,35.21892023746957,0 33.66431472674603,35.21899809810416,0 33.66427825559369,35.21906860006921,0 33.66443058321247,35.2190088619856,0 33.66440293153455,35.21874110707601,0 33.66442071075898,35.21864980657521,0 33.66441323839391,35.21858524603839,0 33.66443851981645,35.21856230610397,0 33.66452188510578,35.21856374863132,0 33.66456582829776,35.2185578071195,0 33.6646000301436,35.2184930178181,0 33.66461191641595,35.21853095363417,0 33.66462786714399,35.21878357285428,0 33.66532496487036,35.21887043112272,0 33.66540501084945,35.21889619685638,0 33.66565518695387,35.21889918958976,0 33.66573558860785,35.21896863016941,0 33.66570850658013,35.21956278510977,0 33.66618275051555,35.21963005991537,0 33.66632016685939,35.2188605895894,0 33.6663989670183,35.21808270647149,0 33.66647626233956,35.21777217462443,0 33.66723299532021,35.21789030215322,0 33.66724792519022,35.2177635568564,0 33.66722034981859,35.21764578104788,0 33.66727831988012,35.2175755788414,0 33.66743844628092,35.21763147556336,0 33.66749641614295,35.21756127325448,0 33.66759142654482,35.21746466009154,0 33.66773019253974,35.21751193899134,0 33.66783749211965,35.21761617162885,0 33.66790750198251,35.21771624273972,0 33.66800955111953,35.2178292394093,0 33.66818546488301,35.21786321041234,0 33.66830755054055,35.21782322756345,0 33.66825900799432,35.21774487670433,0 33.66814645679545,35.21764940865466,0 33.6680657312445,35.21754066159051,0 33.66803812009226,35.21741851900593,0 33.66816520440632,35.21733919885459,0 33.66835683289005,35.21734250914762,0 33.66861246887434,35.21736293610226,0 33.66867136993102,35.2174062878124,0 33.66874355870959,35.21745252711055,0 33.66857514151556,35.21778188497429,0 33.66845514928787,35.21797656581097,0 33.66830142433752,35.21839238134573,0 33.66822820965183,35.21863071688708,0 33.66814975046719,35.21862682603928,0 33.66807535794629,35.21861614968397,0 33.66794348266298,35.21859747616858,0 33.66786269866444,35.21863118168478,0 33.66783962445816,35.21870060126161,0 33.66789135153849,35.21883058528375,0 33.66794944758015,35.21891341477524,0 33.66801774521921,35.21900450402833,0 33.66816338070484,35.21905359051288,0 33.66826517808117,35.21911123399909,0 33.66830625237911,35.21917752781057,0 33.66824577793693,35.21921666491735,0 33.66811097738554,35.21925344138122,0 33.66806081676611,35.21931469529284,0 33.66803203237524,35.21951164405292,0 33.66792216869463,35.21970626843635,0 33.66779160842455,35.21984834407317,0 33.66785967853547,35.21991171738418,0 33.66804858544268,35.21988295871552,0 33.66816684054513,35.21988784864094,0 33.66822811064195,35.21994571672134,0 33.66822376698935,35.22005392727878,0 33.66812325865897,35.22033987432827,0 33.66807359707745,35.22046210256847,0 33.66781965951481,35.22079887808359,0 33.66769263374562,35.22096033618629,0 33.66756778208233,35.22097488336744,0 33.66747670424449,35.22098924420705,0 33.66735903748378,35.22105641346002,0 33.66729547862668,35.2211315986366,0 33.66730620101005,35.22120360351869,0 33.66739789176641,35.22126407513889,0 33.66751628392423,35.22128559619173,0 33.66765475960546,35.22128483255557,0 33.66791230733652,35.2213598664411,0 33.66812897649853,35.22093568014815,0 33.67071961073599,35.2212518155081,0 33.6709830244816,35.22129001084096,0 33.67138636324159,35.22136708561399,0 33.67086381258048,35.22181059677774,0 33.67068285625768,35.22200547060392,0 33.67052910609797,35.22224425353463,0 33.67039516005887,35.22293235439344,0 33.67031795438714,35.22333814783259,0 33.67017138203574,35.2237971980317,0 33.67021366092351,35.22389141352402,0 33.67021515353123,35.2240233808159,0 33.67014436461206,35.22409331280928,0 33.67014638427599,35.22413040578157,0 33.67012808877726,35.22428372258698,0 33.67007866396302,35.22442063543908,0 33.67010627723452,35.22452418293656,0 33.67012008945213,35.22457656552916,0 33.67011032380608,35.22465470019075,0 33.67000622280837,35.22483217552271,0 33.6699957730785,35.22500791290359,0 33.66997429398455,35.2251080716465,0 33.66989109652536,35.22529641171111,0 33.66988397316285,35.22533427096798,0 33.66993033617453,35.22533567111797,0 33.6731990507916,35.22586689001216,0 33.67323030268857,35.22583655805659,0 33.67506478160838,35.22608914513244,0 33.67495220384514,35.22644304990543,0 33.67438539716416,35.22647205855989,0 33.67434042654261,35.22674803735241,0 33.67417173058982,35.22730043349801,0 33.67496548066012,35.22741233327243,0 33.6749400502755,35.2275115648115,0 33.67510362864088,35.22760974236526,0 33.6750962687633,35.22798890990724,0 33.6752749923816,35.22801376259033,0 33.67505379767311,35.22856645268899,0 33.6749556118757,35.22875656253149,0 33.67490246016178,35.22886287656579,0 33.67483681623241,35.22899417957411,0 33.67462347739222,35.22922801398342,0 33.67455522208714,35.22922839436965,0 33.67441820349386,35.22980215512768,0 33.67447627971155,35.22984060588632,0 33.6744274117457,35.23028031990093,0 33.674837373659,35.23032973414073,0 33.67475125538109,35.23070934056543,0 33.67427292815613,35.23064738211195,0 33.6741061496386,35.23143241233524,0 33.67403782121388,35.23142417662721,0 33.67392555264985,35.231816852822,0 33.67388554372977,35.23205833692538,0 33.67381716866389,35.23225522758226,0 33.67362020656454,35.23299039612978,0 33.67351875536529,35.23342178599918,0 33.67334005594527,35.23340123833201,0 33.67316865281955,35.23426384227422,0 33.67330527760217,35.23427600712042,0 33.67337624189197,35.23460303937453,0 33.67321950315269,35.23469869234267,0 33.67303122512055,35.2347902128294,0 33.67258908114406,35.23493005138997,0 33.67242895506796,35.23498312331528,0 33.6723346559039,35.2350094967101,0 33.67225205261462,35.23503295493383,0 33.67161571628964,35.23513216096298,0 33.6713268690557,35.23519857293964,0 33.67104141802832,35.23527736197116,0 33.67085627428731,35.23535532670584,0 33.67072292239998,35.23542703167461,0 33.67053217846613,35.23555039751516,0 33.6703637245069,35.23562697376631,0 33.67036286809514,35.23562730300353,0 33.67028160829403,35.23565850424611,0 33.67020320067614,35.23570202041214,0 33.66992464027022,35.2357596540216,0 33.66977261783605,35.23579151247141,0 33.66956480223027,35.23586540750983,0 33.6695011876412,35.23589977718957,0 33.66934430133485,35.23597819354158,0 33.66925017414185,35.23598417094613,0 33.66890137447141,35.23598743941481,0 33.66868649695392,35.23600701833311,0 33.6682892418189,35.23602710552871,0 33.66787995997877,35.23606383041531,0 33.66756036617802,35.2361517592964,0 33.66737222800499,35.23618576629728,0 33.66709971892111,35.23623983659,0 33.66693599549252,35.23629374585314,0 33.66688267947303,35.2363364825405,0 33.66667936646296,35.23649228437107,0 33.66663117674909,35.23655359342865,0 33.66638651724808,35.23679891872782,0 33.66608228747063,35.23702508911589,0 33.66574093731193,35.23720729748937,0 33.66530386248957,35.23749290382852,0 33.66523061637542,35.23756872513908,0 33.66516327446125,35.2376521071168,0 33.6650756104648,35.2378415092505,0 33.66467664168738,35.23835974276476,0 33.66445879610961,35.23859850273605,0 33.66439587828992,35.23862965342544,0 33.66434540196691,35.23865464431916,0 33.66411952438315,35.23875147535751,0 33.66389876776823,35.23880915292984,0 33.66372776391335,35.2388408140853,0 33.66346953233995,35.23884195590844,0 33.6632018419849,35.23885141909989,0 33.66291962979788,35.23884972203076,0 33.66272659388338,35.23886057619099,0 33.66251214687973,35.23889233739511,0 33.66251417238676,35.23894146010301,0 33.66209086535079,35.23905864105082,0 33.66174930799846,35.23919639357607,0 33.66136743048317,35.23929219387656,0 33.66051397646152,35.23945607108427,0 33.65991097947512,35.23956706713619,0 33.65959633542504,35.2396204814,0 33.65911988340017,35.23979540678715,0 33.6586373419031,35.23986696523234,0 33.65820732389495,35.23998187786729,0 33.65822558432439,35.24015162052299,0 33.65820266722186,35.24023895562168,0 33.65821601499985,35.24047118647438,0 33.6582008723131,35.24074769082147,0 33.65813853547171,35.24107264546075,0 33.65811084899318,35.24130051144224,0 33.65804831571296,35.24160124180394,0 33.65795605992156,35.24187790933657,0 33.65789219525993,35.24201391660171,0 33.65771545310862,35.24287908737333,0 33.65765949872677,35.24318282745332,0 33.65765453216013,35.24329913500916,0 33.65762535618018,35.24334289830986,0 33.65745482172015,35.2434808901331,0 33.65738699333075,35.24352668141112,0 33.65733590497442,35.24358498471064,0 33.6572642807994,35.24369809836011,0 33.65705088465127,35.24430613894944,0 33.65698629707965,35.2446545208981,0 33.65697677903263,35.24547581040211,0 33.65695292945195,35.24564308298835,0 33.65699544186248,35.24578820196334,0 33.65678557420704,35.24576674551628,0 33.6564218057374,35.24569441457934,0 33.65595501929643,35.24566787538802,0 33.65547055546042,35.24564627591203,0 33.65553716101031,35.24731744089932,0 33.65505921660608,35.24737332425997,0 33.6550597231978,35.24743630664314,0 33.65433365426499,35.24748383930483,0 33.65373055728168,35.24739988826663,0 33.6536608534204,35.24754561452333,0 33.65339485619455,35.2475179817311,0 33.65268588235737,35.24748789246589,0 33.65261947657414,35.24804542523032,0 33.65250038270459,35.24866138316003,0 33.65144889294888,35.24863797785979,0 33.65141539487134,35.24888040894277,0 33.65126180104478,35.24887638984134,0 33.65126389327479,35.24913800882288,0 33.6511344656541,35.24920169040348,0 33.65089011327171,35.24892684004222,0 33.65066549275149,35.2489038226946,0 33.65052047616271,35.24923406255761,0 33.65039648929537,35.24923957385044,0 33.6503447275682,35.24941427279215,0 33.65061663590838,35.24944188047323,0 33.65065485912369,35.2497905155706,0 33.65026486777618,35.24976838651433,0 33.65038519385389,35.25004390562833,0 33.6502936379234,35.25041261770648,0 33.6501872896046,35.25040834426864,0 33.65015061527409,35.2502535009515,0 33.64984855628141,35.25014853352101,0 33.64914026509093,35.2501119760424,0 33.64867313652297,35.25014030425336,0 33.64866051321835,35.25003862692343,0 33.64780328919093,35.24993662884985,0 33.64752944218068,35.25040805958093,0 33.64750237813087,35.25071828514436,0 33.64732931559558,35.25123762568863,0 33.64649558890684,35.2511209581231,0 33.64517625888505,35.25084214368367,0 33.6451655974418,35.25098755027042,0 33.64457490977383,35.25098100822612,0 33.64456083509127,35.25144135858957,0 33.64451366167292,35.25145129958455,0 33.64448693094909,35.2518051274487,0 33.64550985116408,35.25194502502154,0 33.64548810785421,35.25218254686216,0 33.64533002370528,35.25235780982455,0 33.64436719528917,35.2523484050146,0 33.64414287358058,35.25236413478861,0 33.64410870084343,35.25252420191716,0 33.64347565504963,35.25265495695674,0 33.64358789819372,35.25287153824642,0 33.64381047159513,35.2529036987333,0 33.64384813122641,35.25318450894832,0 33.64379136626079,35.25347551126362,0 33.6429607125549,35.25352429848498,0 33.6429553381014,35.2534948080363,0 33.64288187331233,35.25349003619507,0 33.64287918177762,35.25329068521407,0 33.64276598538605,35.25327863577952,0 33.64276308127604,35.25323648055262,0 33.64260955133405,35.25322790996682,0 33.64256499553123,35.25321644676619,0 33.64253189675549,35.25325668486091,0 33.64214540748492,35.25338131836599,0 33.6421251519605,35.25345695174587,0 33.64190202181431,35.25341937477973,0 33.64163460494838,35.25333570354926,0 33.6415104518972,35.25355043024459,0 33.64088389915056,35.25349732250334,0 33.64073870049532,35.2543201572969,0 33.64007823283727,35.25425791112306,0 33.63995016157062,35.25466422085214,0 33.63991827980198,35.25489561278892,0 33.63819520061071,35.25458981214632,0 33.63763159875861,35.25580892953047,0 33.63608478008949,35.25535568006952,0 33.63506713547443,35.25504599038025,0 33.63462960672076,35.25482419763794,0 33.63420942585381,35.25463523767267,0 33.6329470983552,35.25374607461215,0 33.63226011992482,35.25324854735746,0 33.63103871045511,35.25236394726805,0 33.63048491059579,35.25197949535458,0 33.63020419612934,35.25186710344637,0 33.62970328604147,35.25175402800187,0 33.62894236057561,35.251703169993,0 33.62683827335002,35.25139294087428,0 33.62561757322802,35.25118594708759,0 33.62471933951687,35.25104867802452,0 33.62401460165523,35.25094768904437,0 33.6238546212228,35.25091575619442,0 33.62365309369984,35.25086022929634,0 33.62387436767889,35.25087623556644,0 33.62422314253254,35.25083409156715,0 33.62452418694771,35.25073373978157,0 33.62471238136923,35.25064142601749,0 33.62522785526978,35.2503651414241,0 33.62538421102516,35.25025582897258,0 33.62561972990135,35.2499707675701,0 33.62580050795081,35.24979685313121,0 33.62605022302724,35.2496131471439,0 33.62614437076737,35.24952331779448,0 33.62624176276508,35.24938143623542,0 33.62637554123997,35.2491686761086,0 33.62643302256409,35.24903962378357,0 33.6264602151784,35.24897384234978,0 33.62656974054418,35.24880917590415,0 33.62690795710017,35.24836814206827,0 33.62709722277727,35.24816771650187,0 33.62743952170091,35.24785793956682,0 33.62764315025095,35.24773205883375,0 33.62781000604782,35.24764791461,0 33.62711679436882,35.24727259050162,0 33.62732258687499,35.24697172004664,0 33.62699119495604,35.24678189561543,0 33.62707664794355,35.24667319074589,0 33.62704086191832,35.24664006502281,0 33.62716174690874,35.24651868437466,0 33.62623063493179,35.24622786554423,0 33.62627082308471,35.24617352651515,0 33.62635190480039,35.24615645132728,0 33.62640715988159,35.2460812143538,0 33.6264535476143,35.24594152188732,0 33.62672045053788,35.24523847588761,0 33.62681095561157,35.24493090926886,0 33.62691773535384,35.24449210843306,0 33.6269476762895,35.24442533101855,0 33.62705008027132,35.24439652350158,0 33.62711546370719,35.24415828882857,0 33.62718842021437,35.24374324290056,0 33.62734560526818,35.24351205066392,0 33.62743793742806,35.24327733116722,0 33.62758681330006,35.2431325368822,0 33.62764748336082,35.2430205546895,0 33.62790559551392,35.24248367099829,0 33.62817909740073,35.24193983026974,0 33.62843513883128,35.24144503226736,0 33.6284769317192,35.24141006368752,0 33.62844988465355,35.24128782821683,0 33.62840457002261,35.24121463759469,0 33.62842642489557,35.2411472176324,0 33.62859470093085,35.24072414565647,0 33.62880456088516,35.24037428330899,0 33.62897429899952,35.24015454863615,0 33.62904383147396,35.24008697361535,0 33.62878282354686,35.23997361472896,0 33.62932530143092,35.23875315244452,0 33.62937231164268,35.23856322462506,0 33.62948927201086,35.23825667645485,0 33.62995781094673,35.23784984978009,0 33.63056905666043,35.23804607513711,0 33.63150561604233,35.23812073663614,0 33.63180031810845,35.23765416981145,0 33.63222664178323,35.237330705615,0 33.63276302089586,35.23677415061988,0 33.63244395874332,35.23650353108454,0 33.63302004351048,35.23625882682985,0 33.63343184395038,35.23598744453304,0 33.63384124584024,35.23588740031859,0 33.63408297197457,35.23580353047313,0 33.63416498132727,35.23580004155468,0 33.63421663593007,35.2357294042171,0 33.63424326099348,35.23579657212455,0 33.6343293323601,35.23583589331279,0 33.63463060936055,35.23525914526096,0 33.63470819846759,35.23516695687589,0 33.63487807467681,35.23495496677521,0 33.63493317059187,35.23484759809863,0 33.6353356636576,35.23434068485091,0 33.63546088773901,35.23414116625285,0 33.63574240630366,35.23383527936432,0</coordinates>
						</LinearRing>
					</outerBoundaryIs>
				</Polygon>
			</MultiGeometry>
		</Placemark>
	</Document>
</kml>