<?xml version='1.0' encoding='UTF-8'?>
<kml xmlns="http://www.opengis.net/kml/2.2">
	<Document>
		<name>Dimos Lemesou</name>
		<Style id="PolyStyle80">
			<LabelStyle>
				<color>00000000</color>
				<scale>0.000000</scale>
			</LabelStyle>
			<LineStyle>
				<color>ffa9e600</color>
				<width>2.000000</width>
			</LineStyle>
			<PolyStyle>
				<color>00828282</color>
				<outline>1</outline>
			</PolyStyle>
		</Style>
		<Placemark id="ID_80002">
			<name>Dimos Lemesou</name>
			<snippet />
			<description>&lt;html xmlns:fo="http://www.w3.org/1999/XSL/Format" xmlns:msxsl="urn:schemas-microsoft-com:xslt"&gt;

&lt;head&gt;

&lt;META http-equiv="Content-Type" content="text/html"&gt;

&lt;meta http-equiv="content-type" content="text/html; charset=UTF-8"&gt;

&lt;/head&gt;

&lt;body style="margin:0px 0px 0px 0px;overflow:auto;background:#FFFFFF;"&gt;

&lt;table style="font-family:Arial,Verdana,Times;font-size:12px;text-align:left;width:100%;border-collapse:collapse;padding:3px 3px 3px 3px"&gt;

&lt;tr style="text-align:center;font-weight:bold;background:#9CBCE2"&gt;

&lt;td&gt;Δήμος Λεμεσού&lt;/td&gt;

&lt;/tr&gt;

&lt;tr&gt;

&lt;td&gt;

&lt;table style="font-family:Arial,Verdana,Times;font-size:12px;text-align:left;width:100%;border-spacing:0px; padding:3px 3px 3px 3px"&gt;

&lt;tr&gt;

&lt;td&gt;NAME_GR&lt;/td&gt;

&lt;td&gt;Δήμος Λεμεσού&lt;/td&gt;

&lt;/tr&gt;

&lt;tr bgcolor="#D4E4F3"&gt;

&lt;td&gt;NAME_ENG&lt;/td&gt;

&lt;td&gt;Dimos Lemesou&lt;/td&gt;

&lt;/tr&gt;

&lt;tr&gt;

&lt;td&gt;DISTRICT_N&lt;/td&gt;

&lt;td&gt;ΛΕΜΕΣΟΣ&lt;/td&gt;

&lt;/tr&gt;

&lt;tr bgcolor="#D4E4F3"&gt;

&lt;td&gt;SHAPE.AREA&lt;/td&gt;

&lt;td&gt;44667998,852445&lt;/td&gt;

&lt;/tr&gt;

&lt;tr&gt;

&lt;td&gt;SHAPE.LEN&lt;/td&gt;

&lt;td&gt;66415,301781&lt;/td&gt;

&lt;/tr&gt;

&lt;/table&gt;

&lt;/td&gt;

&lt;/tr&gt;

&lt;/table&gt;

&lt;/body&gt;&lt;script type="text/javascript"&gt;

				function changeImage(attElement, nameElement) {

				document.getElementById('imageAttachment').src = attElement;

				document.getElementById('imageName').innerHTML = nameElement;}

			&lt;/script&gt;&lt;/html&gt;

</description>
			<styleUrl>#PolyStyle80</styleUrl>
			<MultiGeometry>
				<Polygon>
					<extrude>0</extrude>
					<altitudeMode>clampToGround</altitudeMode>
					<outerBoundaryIs>
						<LinearRing>
							<coordinates> 33.01103159122223,34.73924265243777,0 33.01080345790449,34.73949521698689,0 33.01083790856833,34.73977267816922,0 33.01076276187452,34.74013399086643,0 33.01021793267273,34.74008762756854,0 33.00932703926154,34.73984262809857,0 33.00930888285619,34.73972461217235,0 33.00910127265671,34.739631838987,0 33.00934142336359,34.73919963692121,0 33.01024798298216,34.73834886601627,0 33.01039444279749,34.73839294075004,0 33.01081457932162,34.73724916344567,0 33.01105244006283,34.73639400136932,0 33.01075722266817,34.73626241988944,0 33.01034535350447,34.73627494087609,0 33.01030867248329,34.7366192873214,0 33.00953320353885,34.7367132400672,0 33.00907930058154,34.73678311950614,0 33.00857063973878,34.73693982411926,0 33.00795151435707,34.73774926000466,0 33.00776410292605,34.73884681436509,0 33.00760890009988,34.73885323538706,0 33.00663598824812,34.73873228475107,0 33.00652713526298,34.73774877759818,0 33.00590412685504,34.73758995736387,0 33.00441438281143,34.73761236328244,0 33.004051317446,34.73851250415959,0 33.00388360097095,34.73848519426975,0 33.00335790592696,34.73847474385122,0 33.00308754340035,34.73837337202982,0 33.00291002861346,34.73827797595501,0 33.00261736356574,34.73806287995637,0 33.00237067679636,34.73814190218389,0 33.0020523000363,34.73753321671482,0 33.00181520364843,34.73758000570928,0 33.00150898737165,34.73806913504746,0 33.00136767481922,34.73833685075477,0 33.00097108182499,34.73850054922043,0 33.00063681428173,34.73933305783117,0 32.99940736239073,34.73872972431523,0 32.9991124655083,34.73857702394473,0 32.9991633055214,34.73871318726983,0 32.99856152039308,34.73870952798713,0 32.99818097696679,34.73883736981694,0 32.9976898183074,34.73865837703794,0 32.99734468635005,34.73833327579334,0 32.99632698967442,34.73779994869209,0 32.99608807483197,34.73721184849479,0 32.9958270298978,34.73685752449001,0 32.99485360421311,34.73637897763635,0 32.99462796121923,34.7360684836457,0 32.99309261198092,34.73558624291623,0 32.99249970287423,34.7355423748872,0 32.99220326531188,34.73533049791895,0 32.99148205958188,34.73511493669816,0 32.99126083737597,34.73498342126815,0 32.99112811332163,34.73483730273291,0 32.99069014291407,34.73418342846447,0 32.99008395719025,34.73425643463437,0 32.9900485698209,34.73416511308812,0 32.98914592860588,34.73426366012742,0 32.98889380448139,34.73365728147108,0 32.98881867389733,34.73299612650526,0 32.9883900548818,34.73297106706078,0 32.98796918089656,34.73281340818492,0 32.98785418039355,34.7325503989649,0 32.98779228754055,34.73219607627168,0 32.98784540613556,34.73203170794191,0 32.98799404583144,34.73184601219639,0 32.98814570986715,34.73161200328778,0 32.98817008614382,34.73145903286407,0 32.98811503160298,34.73102765976264,0 32.98805019934469,34.73084760411616,0 32.9878697408481,34.73057632733212,0 32.98739375551926,34.73026844837681,0 32.98716757333693,34.73005372389617,0 32.98682190881328,34.7296064145397,0 32.98677114889872,34.729540727162,0 32.9867367704155,34.72871959941804,0 32.98695654963128,34.72811935970633,0 32.98697340043887,34.72803768306209,0 32.98694943984811,34.72791421898565,0 32.98673487660345,34.72749256547572,0 32.98668975256818,34.72740377581997,0 32.98667518283847,34.72731356066531,0 32.98668519975872,34.7272043542557,0 32.98684584795661,34.72680075988955,0 32.98686985046928,34.72640763651307,0 32.98678811654792,34.7262443248194,0 32.98647203376044,34.72601363763201,0 32.98633246177078,34.72575920052506,0 32.98619854672707,34.72531252205783,0 32.9861313879353,34.72523516028959,0 32.98612272421527,34.72511696411586,0 32.98623657404887,34.72464511486099,0 32.98642836465621,34.72409114854347,0 32.98646292624107,34.72393972993354,0 32.98640223120989,34.72364690438768,0 32.98641910092227,34.72358092684627,0 32.98659946791768,34.72333502154522,0 32.98662730510372,34.72322632996418,0 32.9865017859173,34.7227157176652,0 32.98651283375231,34.72217281894568,0 32.98643111402961,34.72199917155517,0 32.98623392580424,34.72177053590206,0 32.98618599080391,34.7214910722638,0 32.98625722366489,34.72148770251611,0 32.98648564085877,34.7215910608064,0 32.98715350154518,34.72165197595216,0 32.98740206508185,34.721612002818,0 32.98774579447119,34.72164364160003,0 32.98813515671021,34.72154807752165,0 32.98825036623874,34.72142084087584,0 32.98841681653504,34.72115419224621,0 32.98854879272797,34.72083788179243,0 32.98929721843781,34.72003740342706,0 32.98963984706296,34.71959584093485,0 32.98994078831895,34.71888372310099,0 32.99014311688352,34.71861391350391,0 32.99019622695491,34.71849191466582,0 32.98999753323668,34.71807378776598,0 32.98994394114429,34.71792070925321,0 32.99021808659954,34.71760795215579,0 32.99053817888436,34.71734714431189,0 32.99092289191132,34.71711303297734,0 32.99188437898957,34.71675082886578,0 32.99218338334552,34.71678197528533,0 32.99232057677001,34.71676841238136,0 32.99234668697846,34.71668327017314,0 32.99250330444145,34.71649985418171,0 32.9927896478566,34.71637347814485,0 32.99296260215677,34.71636265619687,0 32.99337269169857,34.71633699361575,0 32.99374119480465,34.71615112635592,0 32.99379217871857,34.71601791961483,0 32.99390399448472,34.71585583370508,0 32.99457709451544,34.71524178578644,0 32.99461640933426,34.71509215968066,0 32.99466299810618,34.71497641834593,0 32.99500214997388,34.71461545063779,0 32.99512415501633,34.71452341725663,0 32.9952851658696,34.71448066955954,0 32.99555275458503,34.71445628493627,0 32.99575103973973,34.71446770553533,0 32.99608684465124,34.71451382971019,0 32.99621545984306,34.71451488489118,0 32.99631164741005,34.71448069777417,0 32.99627233084786,34.71437894850801,0 32.99617598321566,34.71426414055093,0 32.99611711459499,34.7141839150262,0 32.99607363545387,34.7139960994641,0 32.9960700406549,34.71385407717389,0 32.99609863789662,34.71368783971253,0 32.99625983375218,34.71329607556898,0 32.99648789014626,34.71294194142185,0 32.99665033419227,34.71275653241113,0 32.99710938472205,34.71250012443894,0 32.99746646494162,34.71243381209593,0 32.99783438291895,34.71236258768644,0 32.99811252332413,34.71221880502815,0 32.9985565529453,34.71168998488868,0 32.99866771874034,34.71142885979305,0 32.99866798380356,34.71130621197463,0 32.99884750482659,34.71069223816443,0 32.99894617267545,34.71047970104038,0 32.99956902369578,34.70953464941891,0 32.99986682985943,34.70920402924256,0 33.00024448673393,34.70888847808391,0 33.00044017102822,34.70870113467797,0 33.00058712172051,34.7084853948482,0 33.00077462044546,34.70807108027081,0 33.00088590485425,34.7079619798405,0 33.00157675369382,34.70723736290302,0 33.00211879222847,34.70669795288106,0 33.00225625607123,34.70654198140499,0 33.00238315621859,34.70639466771026,0 33.00252169890543,34.70628296808078,0 33.00296921065317,34.70580645629876,0 33.00323450431993,34.70528173619029,0 33.00447675807523,34.70287789752759,0 33.00464371375254,34.70268415139111,0 33.00511604166371,34.70213242697551,0 33.00561016588961,34.70172927313866,0 33.00595490556032,34.70151013500416,0 33.00637361968705,34.70121591561736,0 33.00696271894743,34.70082114304155,0 33.00711753631565,34.70071152766948,0 33.0075011391752,34.70042011089607,0 33.00747312803362,34.70040267092581,0 33.00783222027842,34.70011055685575,0 33.00786185055828,34.70008645137497,0 33.00806267473925,34.69987273426513,0 33.00840893533244,34.69946345942432,0 33.00874014354761,34.69910242876827,0 33.00897670388475,34.69868209089376,0 33.00947344926201,34.69829212755031,0 33.009889641426,34.69795838637136,0 33.01028334484597,34.69771540684847,0 33.01080163733095,34.69743507786127,0 33.01132853885501,34.69713626025202,0 33.01171155044311,34.6969139893209,0 33.01193038906663,34.69662249751884,0 33.01212042994919,34.69616646949601,0 33.01233716470666,34.69592317530292,0 33.01254368515463,34.69562039084342,0 33.01276858507598,34.69523788410842,0 33.01295518914357,34.69492376677812,0 33.01302208522557,34.6943728900037,0 33.01321326617778,34.69442349167101,0 33.01322241888476,34.69440198332595,0 33.01334304602037,34.69420249574814,0 33.01353731529542,34.69399670399809,0 33.013565424809,34.69396692610591,0 33.01368393280103,34.69387835120428,0 33.01459155881867,34.69319996192604,0 33.01480193028365,34.69308205987579,0 33.01508796960808,34.69292175451797,0 33.01518400230882,34.69284639382176,0 33.01549885182538,34.69258864180955,0 33.01557980929002,34.69251437079192,0 33.01586991644887,34.69223553459507,0 33.01606394198645,34.69202758155749,0 33.01651644914372,34.691542596697,0 33.01641944992244,34.69125277964645,0 33.01641502958245,34.69109161564167,0 33.01644448679559,34.69080063932824,0 33.01650331806059,34.69073772201849,0 33.01659520494115,34.69055210867544,0 33.01669388765597,34.69030744146907,0 33.01682660759879,34.6900177751066,0 33.01689126723344,34.68988559564254,0 33.01693861292657,34.68971037225857,0 33.01694139137605,34.68968254967719,0 33.01704095398548,34.68933721171003,0 33.01708517276104,34.68914316951545,0 33.01708512943664,34.68893225971564,0 33.01709190788033,34.68878321622822,0 33.01709529330385,34.68868760359192,0 33.01709857345017,34.68858956780595,0 33.01710714220254,34.68852795444311,0 33.01710627738244,34.68840368092516,0 33.01710585786465,34.6883432001717,0 33.01710483211427,34.6881952485479,0 33.01707076955383,34.68791321084612,0 33.016999167,34.68752540656568,0 33.01690567675972,34.68708260178964,0 33.01673949459326,34.68631585120379,0 33.01665206331403,34.68586966297973,0 33.01656463734778,34.68548928321641,0 33.01652206358916,34.68535742667768,0 33.01643047377586,34.68477559206772,0 33.01641732875373,34.68469213890367,0 33.01634272469541,34.68436708790634,0 33.01632013824625,34.68420246358431,0 33.01627127276142,34.68403007475417,0 33.01624356195344,34.68357015222505,0 33.01630486758415,34.68322270203914,0 33.01633930255365,34.68309578506354,0 33.016417511776,34.68282697451325,0 33.01632807102827,34.68282935199547,0 33.01630042570115,34.68287026914318,0 33.01632929062451,34.68276024745318,0 33.01633206909276,34.68246027310958,0 33.01632110630705,34.68245061076374,0 33.01644993657234,34.68220495407837,0 33.0155061307816,34.68175361806234,0 33.01601689287459,34.68117132067002,0 33.01549912247384,34.68083913891811,0 33.01535642648495,34.68075716057291,0 33.0149761246134,34.68054285324496,0 33.01443272935369,34.68027772993446,0 33.01453234795917,34.680101525613,0 33.0144819749471,34.68006663729174,0 33.01442521419375,34.68002161802175,0 33.01427497606848,34.67991614954273,0 33.01401468063506,34.67974940405524,0 33.01395493623369,34.67968757599287,0 33.01377556889128,34.67957848358652,0 33.01370219746739,34.67953769647679,0 33.01337040667306,34.67940308710978,0 33.01292479971944,34.67922420756867,0 33.01272598500927,34.67956145429099,0 33.01221352976798,34.67936684926463,0 33.01186663467144,34.67923086526643,0 33.01117815179638,34.67893811930491,0 33.01104635214177,34.67890042078431,0 33.01059215153109,34.67871992524587,0 33.01046415197738,34.67865460003992,0 33.01032360260857,34.67858286266343,0 33.01027433781486,34.67855771655207,0 33.00994230303877,34.67842998332405,0 33.00974579946845,34.67837817695037,0 33.00885835113459,34.67807847509156,0 33.00879639409931,34.67823072171535,0 33.00822685254843,34.67810571415067,0 33.00772822935276,34.67802641779632,0 33.00768330252843,34.67801647104619,0 33.00791551839347,34.67757044108721,0 33.0079430619456,34.67750170085616,0 33.00796116645785,34.6774565168007,0 33.00801224166658,34.67726980246282,0 33.00805896888551,34.67715833097928,0 33.00811880099995,34.67695236859451,0 33.00814372728993,34.67677049144157,0 33.00831207440493,34.67604114716729,0 33.00813382366113,34.67609159857903,0 33.00802533779104,34.67610833355747,0 33.00780050841492,34.67585347649847,0 33.00771743815887,34.67574302030185,0 33.00763109512031,34.67561519821389,0 33.00755784073704,34.67549383432878,0 33.00747938585935,34.67537162783598,0 33.0074179692554,34.67523896403197,0 33.0073711891003,34.67511985841504,0 33.00730012426615,34.67495897441339,0 33.00711534508554,34.67467211032683,0 33.00707079483596,34.67458995687073,0 33.0070093022272,34.67449902489376,0 33.0068877716347,34.67433964538477,0 33.00686559390692,34.67430629381158,0 33.00654726596373,34.67427770837046,0 33.00612520587311,34.67416867508894,0 33.00611182034096,34.67413834648773,0 33.00611472570321,34.67407286039,0 33.00612911540376,34.67394415587621,0 33.00613617316778,34.67387067707687,0 33.00614606650829,34.67377738458197,0 33.00609243334717,34.67376516956198,0 33.00567284560246,34.67366962607863,0 33.00565618950854,34.67369521796672,0 33.00556916711946,34.67396804571067,0 33.00520106727596,34.67389242448078,0 33.00511371825681,34.67404479392008,0 33.00432355655776,34.67370708001644,0 33.00392252302893,34.67356091104145,0 33.00387385184109,34.67378230530678,0 33.00235164803296,34.67334431579543,0 33.00229694157656,34.67347511657433,0 33.00170461635914,34.67330435597351,0 33.00084757943621,34.67305728642092,0 33.00060212172734,34.67300715135167,0 33.00069836443596,34.67260529329715,0 33.00056736194505,34.67257111809219,0 33.00003540620694,34.67253184295596,0 33.00003370729061,34.67257390495583,0 33.00000957633851,34.67257651112845,0 32.99911740712171,34.67241586025964,0 32.99859299222378,34.67229022913509,0 32.99798279069424,34.6721047308972,0 32.99758543248532,34.67199555212672,0 32.99749371831991,34.67256529706903,0 32.99744244436868,34.67297011760407,0 32.99742967041781,34.67327813294936,0 32.99740292482313,34.67366225062662,0 32.99737175507428,34.67384808302383,0 32.99735985247258,34.67391901724461,0 32.99725021411861,34.67425876776247,0 32.99717043650994,34.67446172703367,0 32.99706930372609,34.67445640683233,0 32.99570477420973,34.6741281442045,0 32.99519959536691,34.67402334313252,0 32.99467284575702,34.67391079534124,0 32.99444155405115,34.6738404040364,0 32.99413419540019,34.67374686414626,0 32.99378414782744,34.67367846619319,0 32.99368601981804,34.67367829707882,0 32.99362410411496,34.67368366845733,0 32.99367270188659,34.67383835263517,0 32.99374117522024,34.67405627548306,0 32.99323722334946,34.67396781191184,0 32.99303838536397,34.67391013146193,0 32.99291619405357,34.67386381196777,0 32.99254303595507,34.6742575942732,0 32.99233922882361,34.67467055246397,0 32.99160950600384,34.67438216808868,0 32.99144067436026,34.6742201412058,0 32.99123695668582,34.67405405764155,0 32.99106086298863,34.67420204293968,0 32.99085721392197,34.67398494148936,0 32.99052239761003,34.67383006118559,0 32.98930542344372,34.67326708123723,0 32.98840657952139,34.67287318088959,0 32.98835375911451,34.67283812013258,0 32.98833882630042,34.67272331926323,0 32.98866888827262,34.67240823022004,0 32.98885109759795,34.67223323253796,0 32.98923373228167,34.67184553548979,0 32.98986017699639,34.6712083055189,0 32.98914949639385,34.67088616195414,0 32.98925686946329,34.67047312465309,0 32.98934068382432,34.67005359543801,0 32.98978029818786,34.66854165040143,0 32.99014078019685,34.66749605113765,0 32.99019159080788,34.66738847743064,0 32.99039164846778,34.66696492066477,0 32.99031957718285,34.66696253235647,0 32.99045940943082,34.66670564302917,0 32.99052448301057,34.66657730024258,0 32.99089062456797,34.66585507693262,0 32.99104891848877,34.66556690878782,0 32.99161056432037,34.66473312599666,0 32.99159441701021,34.66470853707661,0 32.99179152575098,34.66453246394595,0 32.99217454347569,34.66401614604968,0 32.99230751598927,34.66427300269791,0 32.99295957475322,34.66449260876704,0 32.99461870093282,34.66508574042412,0 32.99509179205223,34.66521382252756,0 32.99483171070852,34.66561177542041,0 32.99492691102494,34.66658891985408,0 32.99499799459017,34.66731866791752,0 32.99507307150639,34.66737074301754,0 32.99509906565034,34.66738877361444,0 32.99581876695983,34.66788797371167,0 32.9960945210218,34.66809243071234,0 32.99651141919995,34.66787988853287,0 32.99733575003479,34.66787791078168,0 32.99842038800095,34.66787529737601,0 32.99844972138026,34.6673888623579,0 32.99844999969409,34.66738425851624,0 32.99844872773436,34.66737083279672,0 32.99837554384172,34.66659793389427,0 32.99831955943151,34.6660066134196,0 32.99823103572904,34.66527097121789,0 32.99820326252475,34.66512992650401,0 32.99819075548584,34.66493949905551,0 32.99818909972161,34.66481823494225,0 32.99795183736691,34.66478310599947,0 32.99759854713806,34.66338235341222,0 32.99735296065586,34.66336564213019,0 32.99672046422319,34.66332261271618,0 32.99674392824013,34.66298346378083,0 32.99672079791464,34.66296716083072,0 32.99644053777216,34.66276963460552,0 32.99551641700025,34.66249619569886,0 32.99628180224918,34.66131890170632,0 32.99513207515112,34.66122378137113,0 32.99558390990383,34.6602790861771,0 32.99575578055524,34.65973441085271,0 32.99521303251728,34.65960977214308,0 32.99421642892505,34.65933416674137,0 32.99406388289805,34.65929197922129,0 32.99395227814372,34.65925256559557,0 32.99308634138667,34.65895775495876,0 32.9936396781162,34.6579337800605,0 32.99408969396958,34.65711821403726,0 32.99353094509942,34.65701817738603,0 32.99410789390366,34.65570742364689,0 32.99413569082995,34.65564746490452,0 32.99318735381797,34.6555093369181,0 32.99302115310921,34.65549855033078,0 32.99220784075391,34.65535172040136,0 32.99199489934718,34.65533132686128,0 32.99177861789101,34.65530811740444,0 32.99158733073681,34.65529708737431,0 32.99137501458168,34.65526755269691,0 32.99044191481719,34.65525239954852,0 32.9902363688596,34.65526548715943,0 32.99000508128315,34.65525087887428,0 32.98983999022641,34.65523732320477,0 32.98962752692154,34.65518671609971,0 32.98917686669616,34.65509757921893,0 32.98848501571754,34.65490348774356,0 32.98826884841684,34.65484370626841,0 32.98809315209273,34.65483283452167,0 32.98729893412254,34.6546071465453,0 32.9870573197354,34.65453837702425,0 32.98681546349814,34.6544906808798,0 32.98634852041967,34.65436842043797,0 32.98503713685239,34.65400811921519,0 32.98482863081274,34.653963941689,0 32.98462671239879,34.65393493743674,0 32.98443303892033,34.65391350813305,0 32.98422358601889,34.65390079018072,0 32.9835385612985,34.65379114822352,0 32.98334816737701,34.65377140340565,0 32.98312149887065,34.65371791450448,0 32.98288722571731,34.653654813442,0 32.98261256495841,34.65361419898918,0 32.98238098889875,34.65357833283508,0 32.98164896395308,34.65346508015872,0 32.98137774886129,34.65343223329366,0 32.98112907563294,34.65336939979857,0 32.98070462178769,34.65328379647908,0 32.980536100405,34.65325831191035,0 32.98029418882981,34.6532408564656,0 32.98010757154406,34.65323904303293,0 32.97968154843602,34.65330126681365,0 32.97923718284384,34.65336965931422,0 32.97717670625439,34.65379011603202,0 32.97710375808575,34.65376238907414,0 32.9754459421438,34.65402441680595,0 32.97533599970216,34.65399521733312,0 32.97526959336179,34.65397757995942,0 32.97510319854172,34.65392983800236,0 32.9746433768853,34.65376711184672,0 32.97449266513552,34.65370365231764,0 32.97440852106566,34.65348708399934,0 32.97427819680986,34.65301419813113,0 32.97420619523897,34.65279909531132,0 32.97406635825971,34.65259998109703,0 32.97393519949731,34.65242339564555,0 32.97377641069204,34.65221378110637,0 32.97356308922163,34.6520143827296,0 32.97336247541374,34.65184906358422,0 32.97314096271488,34.65170231088599,0 32.97290279349725,34.65157757452678,0 32.97268984553423,34.65145806472262,0 32.97248039415922,34.65133283544451,0 32.97220638248532,34.65111792992476,0 32.97199370164691,34.65093394962813,0 32.97172215598631,34.6507182845272,0 32.97151883857764,34.65064418874667,0 32.9711131788292,34.6505499202192,0 32.97097117993698,34.65047931955099,0 32.97084645387766,34.65031581362452,0 32.97068769096423,34.65010332919513,0 32.97041603929033,34.64975491820493,0 32.97008459060623,34.64926311784155,0 32.96970133518999,34.64870491597422,0 32.96953238032109,34.64844082672754,0 32.96923118520687,34.64854907836187,0 32.9689184171533,34.64865277472735,0 32.9687984868979,34.64870114636924,0 32.96852490167821,34.64882305803544,0 32.96832840177507,34.64892421903059,0 32.9680069725998,34.64902359181011,0 32.96780539715128,34.64909321865676,0 32.96808299493978,34.64873902708185,0 32.96830277982131,34.6484631476488,0 32.96866908394469,34.6479744831876,0 32.96796057856126,34.64768879937534,0 32.96796591749555,34.64766789635159,0 32.96825025588313,34.64690645691249,0 32.96831154685606,34.64677196025846,0 32.96841314638552,34.64612902640415,0 32.96837948646592,34.64587821407405,0 32.96852603112152,34.64536710527624,0 32.96866773647688,34.64473085687052,0 32.96883421924161,34.64424557925001,0 32.96934640431869,34.64447439221983,0 32.96975880910796,34.64371974209032,0 32.97303567697595,34.64442948935418,0 32.97314200802928,34.6439259077694,0 32.9712695395358,34.64351508359341,0 32.9699178715159,34.64306883557452,0 32.97009796997867,34.64270679822067,0 32.97035933714841,34.64246788751807,0 32.97037459151225,34.64238190345238,0 32.97301114640875,34.6432373169356,0 32.97339376133048,34.64248256932453,0 32.97325274637376,34.64241458122486,0 32.97323137657729,34.64219945159244,0 32.97315711037993,34.64217466346705,0 32.97340541656701,34.64151785812537,0 32.97257324834085,34.64133117806335,0 32.97323962887422,34.6403129992971,0 32.9744796034404,34.64078347778561,0 32.97505904043031,34.64093871646802,0 32.97536798264289,34.64038869624568,0 32.9755071260735,34.64043545526524,0 32.97633910799289,34.64072058681165,0 32.97729911431838,34.64107677690352,0 32.97770970929505,34.64121791463939,0 32.98573737214824,34.63984932411813,0 32.99732796332748,34.63295793495489,0 32.99951719802801,34.63033610000728,0 33.0018777092158,34.62730481256953,0 33.00285485062127,34.62611915359539,0 33.0041968781387,34.62451225718839,0 33.0060344305985,34.62228828962089,0 33.00625978988828,34.62201250165732,0 33.00627895168181,34.62210868542432,0 33.00636177888284,34.62248963299039,0 33.00639996753483,34.62273608952208,0 33.00644368002016,34.62311196007731,0 33.00649951024165,34.62346795403135,0 33.00654945594292,34.62378909508531,0 33.00656653511095,34.62404545093577,0 33.00659819890617,34.6244237785457,0 33.00663330234524,34.62469013444495,0 33.00668886847978,34.62511580480999,0 33.00671556122849,34.62522038897264,0 33.00672377169207,34.62543441696599,0 33.00676795481774,34.62568835434513,0 33.00678251953678,34.62581530225839,0 33.00681194707011,34.62599205991101,0 33.00685609231875,34.62625595051656,0 33.00687951843713,34.62642771515999,0 33.00690922177673,34.62653230629979,0 33.00696549711943,34.62677383215389,0 33.0070066994703,34.6270202962633,0 33.00704208058106,34.62721448727033,0 33.0070829131931,34.62755800054513,0 33.00708268379356,34.62761772202516,0 33.00710913143242,34.62778700552865,0 33.00717745774483,34.62802607489208,0 33.00720968786916,34.62825758470447,0 33.0072272839986,34.62837956425798,0 33.00726268539793,34.62856877896927,0 33.00731594243975,34.62881278474045,0 33.00738363387008,34.62921857877556,0 33.00745751762547,34.62957959480477,0 33.00758161012619,34.63019456351861,0 33.00762276360865,34.63035715151236,0 33.00779725284254,34.63104651704721,0 33.00783598569912,34.63136836014508,0 33.00803643778509,34.63204504059355,0 33.00826896868625,34.63286431948377,0 33.0084097313345,34.63359477300335,0 33.00843364622414,34.63368370980525,0 33.00851486601638,34.63396438791892,0 33.00863879140217,34.63440706743513,0 33.008678480115,34.63470780632008,0 33.00875093474409,34.63490328125979,0 33.00887739049838,34.63526999238101,0 33.00899748983631,34.63570750171594,0 33.00901456403492,34.63581553857843,0 33.00922097497558,34.63651011236446,0 33.00942360713636,34.63693727673014,0 33.00963734591758,34.63760166209624,0 33.00987350978487,34.63825674191076,0 33.01002193854972,34.6387626900164,0 33.01005659310635,34.63898269285816,0 33.01011091028518,34.63917590562699,0 33.01031850841995,34.63973325085318,0 33.01070620203777,34.64065887662478,0 33.0109040941143,34.64118633385813,0 33.01094297741714,34.64141345497962,0 33.01166140675676,34.64308653651577,0 33.01174147935829,34.64335868594794,0 33.0118990426974,34.64361713879323,0 33.01213868872546,34.64415532632251,0 33.0171840611026,34.64430706294728,0 33.01955571410399,34.64440973691064,0 33.02023511208561,34.64456819115476,0 33.02048899213808,34.64464646581603,0 33.02089140322038,34.64485320174738,0 33.02115803370462,34.64501201472096,0 33.02153066985384,34.64524162515762,0 33.02323243773375,34.64635105172065,0 33.02375565997251,34.64670369934682,0 33.0248550145043,34.6474284030294,0 33.02607710573058,34.64816171662674,0 33.02692518559609,34.64871316791126,0 33.02706538138273,34.64882181211435,0 33.03169765890991,34.65038007896506,0 33.03193604915768,34.65038257156573,0 33.03216990467022,34.65037372608255,0 33.03241770675119,34.65031415017059,0 33.03255253906055,34.65026162198207,0 33.03265349937479,34.65020229924902,0 33.03276775858694,34.65017152453149,0 33.03290330576246,34.65020662592082,0 33.03296711466284,34.65028347247172,0 33.03298042597406,34.65034276371309,0 33.0329671702974,34.65042402308848,0 33.03291406250211,34.6505316479874,0 33.03272544685775,34.65070079923937,0 33.03269695559911,34.65072330511384,0 33.03268833435714,34.65072864328412,0 33.03267960070516,34.65073385617821,0 33.03267075682492,34.6507389437955,0 33.0326618092599,34.65074390162685,0 33.03265275691926,34.65074872967245,0 33.03264360416618,34.65075342702971,0 33.03263435427256,34.6507579918947,0 33.03262500832825,34.65076242156275,0 33.03261557069711,34.6507667169341,0 33.03260604355952,34.65077087440221,0 33.03259643018848,34.65077489486769,0 33.0325867327647,34.65077877562551,0 33.03257695783275,34.65078251487092,0 33.03256710212077,34.65078611440775,0 33.03255717326346,34.650789570628,0 33.03254717235142,34.65079288262991,0 33.03253710374815,34.6507960504123,0 33.03252696854391,34.65079907217184,0 33.03251677219269,34.65080194700567,0 33.03250651687668,34.65080467581462,0 33.03249620477624,34.65080725499216,0 33.0324858402553,34.65080968543866,0 33.03247542440403,34.65081196535078,0 33.03246496376809,34.6508140956283,0 33.0324544594377,34.65081607446795,0 33.03244391577608,34.65081790096706,0 33.03243333387447,34.6508195760268,0 33.03242271918624,34.65082109694131,0 33.03241207280304,34.65082246551321,0 33.03240139908807,34.65082368083988,0 33.03239070240414,34.65082474111718,0 33.0323799827517,34.65082564724659,0 33.03236924776654,34.65082639832461,0 33.03235849853992,34.65082699525241,0 33.03234773834355,34.65082743532467,0 33.03233697045142,34.65082772214645,0 33.0323261959531,34.65082785211155,0 33.03231542357668,34.65082782792206,0 33.03230465004857,34.65082764687448,0 33.03229388518769,34.65082731167058,0 33.03228312681167,34.650826820508,0 33.03227238255741,34.65082617518768,0 33.03226165242458,34.65082537480815,0 33.03225093968588,34.65082441936856,0 33.03223601920571,34.65082282769407,0 33.03200284513119,34.65078574543204,0 33.03192531710178,34.65077216332273,0 33.03184808756968,34.6507574650541,0 33.03177118053907,34.65074165602932,0 33.0316946211039,34.65072473894693,0 33.03161842672367,34.65070672101488,0 33.03154262794726,34.65068760673335,0 33.03145021414023,34.65066267132769,0 33.0271403711436,34.6491517894571,0 33.02713669616627,34.6491587884648,0 33.02699139333932,34.64921473591259,0 33.02688537046044,34.649218892617,0 33.02675029581048,34.64917147742186,0 33.02656926206796,34.64893399862252,0 33.02594542466927,34.64851353203883,0 33.0259563476831,34.64845533826681,0 33.02534633032329,34.64799577295011,0 33.02483390823019,34.64764480678163,0 33.02473364592169,34.64766794922421,0 33.02466735827745,34.64763844367601,0 33.02463650250007,34.64754442912059,0 33.02464376950102,34.6475219483388,0 33.02447652232061,34.6474435279864,0 33.02348264266548,34.64678642338424,0 33.0233895610875,34.64678731029728,0 33.02332012660167,34.64668797593936,0 33.02226602469378,34.64598848702272,0 33.02217581299895,34.64599823133486,0 33.0220623669607,34.64593765708878,0 33.02201481712339,34.64581231570647,0 33.02141241104717,34.64544617841695,0 33.02137176804886,34.64548557574223,0 33.02148864630492,34.64556530288844,0 33.0213612473191,34.64569426043493,0 33.02126639867846,34.64562652803641,0 33.02093869665659,34.64595063275383,0 33.02088708607805,34.64597217526951,0 33.02083326977058,34.64595848106738,0 33.01918221691975,34.64485864259783,0 33.01281961149982,34.64479380887638,0 33.01267946834783,34.64555246100668,0 33.01267110875143,34.64569802215127,0 33.01279954839887,34.64595027186386,0 33.01292532901453,34.64608738281203,0 33.01292891535662,34.64620530961173,0 33.01310112904211,34.64643823380751,0 33.01335554570284,34.646937353255,0 33.01375628797665,34.64782593939594,0 33.0161093014476,34.64783610489199,0 33.01606526042086,34.6490593039657,0 33.01505610393704,34.65032275601298,0 33.01509614587771,34.65038632162572,0 33.01525369955058,34.65061738287735,0 33.01543955687272,34.6507782366908,0 33.01568559275022,34.65096102270877,0 33.01591920565227,34.65095514273867,0 33.01608025797002,34.65095512161178,0 33.0160855749201,34.65100045903639,0 33.01659258245161,34.65100299458977,0 33.01659771671918,34.65126334757307,0 33.0165826466831,34.65213679063326,0 33.0165526347828,34.65453875796911,0 33.0164866275621,34.65482011499133,0 33.0167915276303,34.65480747612238,0 33.01756905607814,34.65493754380442,0 33.01881411844588,34.65513052255104,0 33.01932739263329,34.65521862588703,0 33.0207579506213,34.65542205386348,0 33.02101968538137,34.65552279079755,0 33.02319878687452,34.65154717246179,0 33.02327351025134,34.65159060504124,0 33.02386296369489,34.65181686981597,0 33.02398472885019,34.65186029184253,0 33.02401083021052,34.65170420721435,0 33.02411933152735,34.65102171513617,0 33.02412622339839,34.6509755643164,0 33.02413620558977,34.6509402991548,0 33.02415399643482,34.65090568421584,0 33.02419240568029,34.65087045217958,0 33.02422793204419,34.65085134637525,0 33.02427669726056,34.65083611248631,0 33.02432995837308,34.65082981314932,0 33.02438846575034,34.65083932559805,0 33.02442854210646,34.65085748419911,0 33.02447600666504,34.65089318320061,0 33.02449817622435,34.65092566808264,0 33.02451764275947,34.65097346874467,0 33.02451744927514,34.65101658025316,0 33.0245041146731,34.65106194089006,0 33.02432733328377,34.65172832848737,0 33.02421373199081,34.65215655033867,0 33.0237451365341,34.65392291671119,0 33.02367715713672,34.65417917363681,0 33.02358751049678,34.65444290616705,0 33.02348248511353,34.65483633469987,0 33.02344046888466,34.65499791220359,0 33.0232055616018,34.6557805348066,0 33.02303696928413,34.65618698419357,0 33.02265862842638,34.65698994923332,0 33.02187396076179,34.6581964019195,0 33.02167954071783,34.65847480786429,0 33.02176466710705,34.65851639504253,0 33.02218253824396,34.65901996236202,0 33.02258595220617,34.65956333026222,0 33.0234385257373,34.66051613850846,0 33.02341922035335,34.66055828272741,0 33.02348439253652,34.66055898867204,0 33.02351302359524,34.66055878302659,0 33.02357123697324,34.66047712488808,0 33.0235961267514,34.66043766056089,0 33.02359835244397,34.66043400733961,0 33.0236282798576,34.66038485474339,0 33.02370147995652,34.66026463559937,0 33.02372228883267,34.66026570250953,0 33.0237318341317,34.66026630734725,0 33.02381727958888,34.66009751228468,0 33.02420805936077,34.66054733077159,0 33.02447409749698,34.66094806053132,0 33.02432796510508,34.66107915931444,0 33.02472434817516,34.66143019998049,0 33.025681932555,34.66201461069773,0 33.02580021177624,34.66212964409393,0 33.02635655281261,34.66238156758649,0 33.02657001629703,34.66242685389116,0 33.02679720270743,34.6624273901373,0 33.02702807353029,34.66234397409119,0 33.02736365530031,34.66237835103657,0 33.0275447597113,34.66242417025655,0 33.02760909148828,34.66245230886931,0 33.02760326767637,34.66246570975851,0 33.02782189655169,34.66255544909396,0 33.02807768935179,34.6629227445812,0 33.02816120121499,34.66304523708974,0 33.02816860317988,34.66305608917549,0 33.0281483442466,34.66313487762403,0 33.02827427715877,34.66365943655225,0 33.02839321362762,34.66379039005249,0 33.02844769843847,34.66376581839035,0 33.02856664414844,34.66391928342298,0 33.02851711580863,34.66394999484599,0 33.0288209819262,34.66434816567189,0 33.02908209026324,34.66461499880307,0 33.03003859127238,34.66570559281092,0 33.03009309390526,34.66573423103514,0 33.03016248020074,34.66581505479766,0 33.03035822725853,34.66599305796031,0 33.03049574425874,34.66611070162545,0 33.03059485316412,34.66618844636521,0 33.03120507653549,34.66672663606337,0 33.03127856423175,34.66669211408485,0 33.03156262246328,34.66690734615607,0 33.03151086986606,34.66699292868186,0 33.03195712543276,34.66738468476439,0 33.03230999385507,34.66769445477475,0 33.03235591603985,34.66775119420051,0 33.0324560335844,34.66790740803229,0 33.0327044088668,34.66806082087596,0 33.03285419018584,34.66814848262695,0 33.03287882091337,34.66811872092758,0 33.03342675810242,34.66843179471344,0 33.03344383008646,34.66846311095615,0 33.0335632812313,34.66853981908415,0 33.03382964541365,34.66868313172656,0 33.03397355090106,34.66878867271944,0 33.03425912691718,34.66897500476315,0 33.03436814286338,34.66902743824843,0 33.03439564133808,34.66905718735239,0 33.03473455282028,34.66923817007725,0 33.03478470819041,34.66925416511005,0 33.03492492672508,34.66932568968517,0 33.03500818552148,34.66936501077437,0 33.0350671191087,34.66930346532364,0 33.03522711763224,34.66936706348238,0 33.0353574681134,34.66944496024616,0 33.03543398467596,34.66947531330207,0 33.03559913172408,34.66956191606982,0 33.03570250582192,34.66936463455009,0 33.03571516548652,34.66934047215835,0 33.03576376863586,34.66924771845679,0 33.03575831604505,34.66893721077312,0 33.03575823212218,34.6687418805325,0 33.03581243341593,34.66873805317881,0 33.03581127601606,34.66872852580664,0 33.03586432317734,34.66872279304617,0 33.03588173986025,34.66882249490121,0 33.03595273379607,34.66879694776044,0 33.03609006440581,34.66874016460945,0 33.03627519311183,34.66863872684367,0 33.03634863497832,34.66858766333327,0 33.03645211672929,34.66850348495245,0 33.03655057871835,34.66839585695953,0 33.03662066152274,34.66830203181683,0 33.03670074257766,34.66816268082561,0 33.03673938918445,34.66806100508949,0 33.03674875802812,34.66791178794542,0 33.03674527393574,34.66782231647321,0 33.03672837697412,34.66775496949091,0 33.03670726668273,34.66769110798381,0 33.03667377887093,34.66761937128422,0 33.03662990349773,34.66755410399262,0 33.03658771784184,34.66750766623618,0 33.03646398655664,34.6674020294233,0 33.03640380873821,34.66742232523712,0 33.03628994187249,34.66750078230178,0 33.03619093579131,34.6676050784011,0 33.03614438765656,34.66769062257423,0 33.03611792636788,34.66773819416161,0 33.03610274559564,34.66775492917498,0 33.03608250277615,34.66777061906939,0 33.03605846357752,34.66778526436955,0 33.03601670155638,34.66778945956774,0 33.03596733692559,34.66777378933632,0 33.03594581124587,34.66774974607276,0 33.03593187978036,34.66772360914015,0 33.0359280681413,34.6676922406558,0 33.0359950614492,34.66750086971252,0 33.03603174229102,34.66745171303758,0 33.03607474624054,34.66739314576133,0 33.03608518052787,34.66738353292502,0 33.03611902350586,34.66735235252147,0 33.03620631697448,34.6672791320772,0 33.03628475795557,34.66722264382167,0 33.03637712274585,34.6671724256445,0 33.03647328629135,34.66712900340022,0 33.03655933336174,34.66710335944504,0 33.03660425732004,34.66709498025624,0 33.03666184154617,34.66709496295508,0 33.03674663595809,34.66709650599977,0 33.03684408825598,34.66710588711308,0 33.03698014851656,34.66713460214985,0 33.0371478552039,34.66717167130415,0 33.03723328783461,34.66718994343321,0 33.03729469027243,34.66723959246492,0 33.03745923309115,34.66728136696822,0 33.03748202004031,34.6672949533426,0 33.03749468514287,34.66731377139447,0 33.03750292145975,34.66733729561766,0 33.03750672489697,34.66735402496607,0 33.03753368566263,34.66736117800565,0 33.0376645456462,34.66721935058659,0 33.03755031285377,34.66718723192556,0 33.03754557488031,34.66720553157257,0 33.03751994492246,34.66720240322242,0 33.03752184167647,34.66719612835615,0 33.03741679331897,34.66718492011699,0 33.03742405511737,34.66714988827992,0 33.03705910718434,34.6670586954147,0 33.03702148905901,34.66703241705705,0 33.03700411938863,34.66699896309423,0 33.03700699272517,34.66695594101533,0 33.03701852124359,34.66682865611427,0 33.03698592501172,34.66675220449247,0 33.03697849626365,34.6667089538574,0 33.03698596905734,34.66665735011939,0 33.03700593784907,34.66662019056798,0 33.03741606910444,34.66619280833591,0 33.03744853555938,34.66616957720882,0 33.0374984882327,34.66614788943489,0 33.03755406674426,34.66613652092416,0 33.03763026190602,34.66613907746093,0 33.03774517918128,34.66614626638138,0 33.03784136118749,34.66615242791629,0 33.03790007279525,34.66616169760364,0 33.03795397534601,34.66617898469803,0 33.03803396163465,34.66622124538005,0 33.03815074230822,34.66628727998641,0 33.03818593699459,34.66630841041975,0 33.03822913547511,34.66634539622449,0 33.03825154584199,34.66638503257064,0 33.03830064773998,34.66620759916972,0 33.03824479432814,34.66619046338742,0 33.03819341121423,34.66613084585334,0 33.03819337543126,34.66605286354951,0 33.03831542419,34.6658521383218,0 33.03840071000304,34.66574138750664,0 33.03850190815105,34.66564575569613,0 33.03860023027691,34.66558597377129,0 33.03874772431622,34.66551900669868,0 33.03879400731412,34.66552138270035,0 33.03890969693085,34.6654878856915,0 33.03912373830891,34.66545913668849,0 33.03931753492648,34.66543517437535,0 33.03948002259126,34.66541419226466,0 33.0395369414494,34.66539633357883,0 33.03959190517493,34.66539469398553,0 33.03964098706304,34.66540927566562,0 33.03967633661576,34.66544170113621,0 33.03969402509721,34.66548548735943,0 33.03969404598075,34.66552927933274,0 33.03966855070352,34.66558118840103,0 33.03961932064556,34.66561083417388,0 33.03957668216324,34.66561853582237,0 33.0395030253728,34.66561855970824,0 33.03944100299076,34.6656262666863,0 33.03933486601849,34.66563968611233,0 33.03919815795918,34.66565446569138,0 33.03910327143898,34.66566670126424,0 33.03901715056519,34.66567436797447,0 33.03886742140315,34.6657097663384,0 33.03885079838204,34.66574119353932,0 33.03868921085002,34.66582961947213,0 33.03858705257641,34.66593471815501,0 33.03848765089962,34.66608403515718,0 33.03848158256883,34.66612225881885,0 33.03844508524518,34.66617457315741,0 33.038391534789,34.66620174704117,0 33.03832152582795,34.66620369462078,0 33.0382675457262,34.66642374059976,0 33.03844142078225,34.66635982523835,0 33.03846586983465,34.66641932135295,0 33.03827878797416,34.66650394963639,0 33.03835241745089,34.666634746205,0 33.03828897469286,34.66680369941303,0 33.03806888641224,34.6672220493394,0 33.03823509674709,34.66729703270119,0 33.03820614019393,34.66735611198389,0 33.03787284844821,34.66724580121571,0 33.03779998751486,34.66734849939377,0 33.03770554486628,34.66735537355413,0 33.03768344211007,34.6673830494319,0 33.03764758303137,34.6674279504757,0 33.03775366210126,34.66749773799698,0 33.03778848806833,34.66756617908674,0 33.03757497568247,34.66809331901242,0 33.03749875926056,34.668105663868,0 33.0374755891469,34.66816727704533,0 33.03756011506026,34.66820969078108,0 33.03735067396165,34.66863999503244,0 33.03733208968329,34.6687214500875,0 33.03731242328612,34.66883277230909,0 33.03728622210262,34.66902916621544,0 33.03729610097356,34.66907531792048,0 33.0377201852836,34.66897842741123,0 33.03769551469804,34.66878442904869,0 33.0377039651787,34.66872629378013,0 33.03801932662335,34.66860889564112,0 33.03806343369285,34.66866424069084,0 33.03813475784231,34.66864674056408,0 33.03817607146345,34.668613393714,0 33.03819130761266,34.66857761742668,0 33.03812597388333,34.66854549209938,0 33.03813941256065,34.6680682837196,0 33.03827199044044,34.66769248841608,0 33.03851730267359,34.6674933126886,0 33.03859329936432,34.66738276483022,0 33.03860218138784,34.66736984565095,0 33.03867563218636,34.66723782355112,0 33.03885024225602,34.66690131053129,0 33.03892220197691,34.66667393857688,0 33.03918864665475,34.66670091828761,0 33.0391973699483,34.66667565428236,0 33.03888723340894,34.66661440534546,0 33.03898998977982,34.66618264864577,0 33.0393390766593,34.6661595623607,0 33.03967108087439,34.66628395604764,0 33.039623224591,34.66667912524844,0 33.03955772627679,34.66671884217417,0 33.03929564973512,34.66668644939182,0 33.03929682969975,34.66671294343384,0 33.03960197970223,34.66677904920627,0 33.03945142812508,34.6673504030021,0 33.03943849646801,34.66738249437052,0 33.03942361622585,34.66741942820234,0 33.03933320277383,34.66759199926289,0 33.03916621504173,34.66776267743145,0 33.03894820408814,34.66798321796039,0 33.0387582342601,34.66843552618449,0 33.03871960651942,34.66868774562898,0 33.03874783601629,34.6687963799826,0 33.03868449245976,34.66891765327875,0 33.03859409333906,34.66893029269095,0 33.03837801384869,34.66882753841618,0 33.03835102163056,34.66885276753539,0 33.03845675619052,34.66899823894913,0 33.03807637422439,34.66921518070476,0 33.03789208349641,34.66919478720975,0 33.03784254283845,34.66912094818395,0 33.03776689335712,34.66909824720575,0 33.03736804137622,34.66919955008714,0 33.03742931963949,34.66940874428668,0 33.03747884354752,34.66951850914526,0 33.0375820516505,34.66956285618875,0 33.03784958348103,34.66955932888642,0 33.03789703506384,34.66957359354259,0 33.03786320337943,34.6696540996417,0 33.03789062670047,34.66966177080501,0 33.03788659595324,34.66968300815165,0 33.03791286553389,34.66969211211539,0 33.03795192270249,34.66959518397255,0 33.03804442538114,34.66962345611314,0 33.03803752610922,34.66966137529069,0 33.0381782506549,34.66970332030251,0 33.03829881560061,34.66951010047096,0 33.03840252195721,34.66946992237325,0 33.03837259173574,34.66941357415617,0 33.03851017681966,34.66936576601493,0 33.03853760377138,34.66941669981725,0 33.03875992789583,34.66931930858332,0 33.03875007573124,34.66929248285599,0 33.03888349412259,34.66922980124507,0 33.03900500366834,34.66942736079623,0 33.03890957030951,34.6694647890647,0 33.03893500659741,34.66950713864616,0 33.0389863841869,34.66949580238119,0 33.0390309387481,34.66954673059335,0 33.03902068250547,34.66958918623238,0 33.03912346060426,34.66961745426512,0 33.03923650619709,34.66962024857563,0 33.03923649018583,34.66958628723696,0 33.03932897748675,34.66958342589879,0 33.03933488176793,34.66961163571746,0 33.03990789125285,34.66958606932151,0 33.04000903435463,34.66949919328528,0 33.04000117054909,34.66926965366564,0 33.04006900555373,34.6692546839998,0 33.04006898422171,34.6692103764087,0 33.04000307764172,34.66920345847999,0 33.03997281290232,34.66849584041093,0 33.04050946886867,34.66858932946996,0 33.0407679004616,34.66738205711035,0 33.04080503574748,34.66720857700601,0 33.04055001175874,34.66716642967629,0 33.0405801098747,34.66700183152681,0 33.03994595992695,34.66689351026971,0 33.03996769947157,34.66677930488628,0 33.04062625218712,34.66687289407336,0 33.0406842161378,34.66660539196586,0 33.04201153928105,34.66680866943444,0 33.04197619424696,34.66694392755997,0 33.04127104682115,34.66684346244082,0 33.04115505295314,34.66726973908991,0 33.04098975037884,34.66724424420148,0 33.04095506374403,34.66738199438553,0 33.04074646998474,34.66821033889712,0 33.04051489053749,34.66918994761859,0 33.04048933749301,34.66920286165299,0 33.04047422394112,34.66927130230291,0 33.04051407042774,34.66930285428808,0 33.04079080115624,34.66937639195968,0 33.04068761069252,34.66984652326423,0 33.04103513463587,34.67008663147251,0 33.04130917717394,34.6700865389299,0 33.0413478797991,34.66999954320139,0 33.041354253134,34.66972522790685,0 33.04135250187451,34.66966371892222,0 33.04138958978135,34.66950947083196,0 33.04141997174161,34.66951125355205,0 33.04143296764656,34.66946224394353,0 33.04140836971511,34.66945388479035,0 33.04174323831161,34.66812792671407,0 33.04180819726641,34.66787885153459,0 33.04231452830591,34.66738153015935,0 33.04253745146104,34.66716257118367,0 33.04302855058089,34.66663270696228,0 33.0431496549355,34.66641375929318,0 33.04318246168621,34.6662291800784,0 33.04317888431432,34.66600884491402,0 33.04309890221302,34.66581074737729,0 33.04298340325202,34.66563635674458,0 33.04274687764672,34.66549224224445,0 33.04103557220677,34.66507866883028,0 33.04095192981072,34.66526575176532,0 33.04088989867971,34.66525039788227,0 33.0408310543382,34.66541697371063,0 33.04075352586926,34.66542212364727,0 33.04062192819646,34.66498372488314,0 33.03950872677223,34.66474628085093,0 33.03951346262656,34.6647109296696,0 33.03889908240913,34.6647160537972,0 33.03864847845276,34.66474974688966,0 33.03859024229477,34.66473561483881,0 33.03852856867443,34.66469884233123,0 33.03849087297812,34.66465923158507,0 33.03847193237011,34.66460512365575,0 33.03847952134911,34.66453584179297,0 33.03851379962305,34.66448544737742,0 33.03856648389808,34.66445392227336,0 33.03862684485416,34.66443434290136,0 33.03875705075237,34.66442941106656,0 33.03943426716373,34.66440654609885,0 33.0395505322827,34.66441238878114,0 33.03976768042315,34.66445040558811,0 33.04100941199213,34.6647267858075,0 33.04249417660657,34.66508922493107,0 33.04258583743645,34.66511022712994,0 33.0429142636988,34.66514587089361,0 33.04308741375491,34.66521522360834,0 33.04322501580688,34.66530061154725,0 33.04339130329781,34.66546136617598,0 33.04351824276646,34.66565465903373,0 33.0435992322755,34.66579556800623,0 33.04364961974716,34.6659635908032,0 33.04366063298217,34.66611536592746,0 33.04363753219337,34.66634315592695,0 33.0435930418422,34.66650025699633,0 33.04353188965037,34.66665567282374,0 33.04348382728046,34.66675326138421,0 33.04343724539732,34.66687175736234,0 33.04342675925121,34.66700607311682,0 33.04343153694134,34.66712911406257,0 33.04310937049569,34.66738125171624,0 33.04294186097122,34.66751234776896,0 33.04286120374059,34.66748596196274,0 33.04272727289777,34.66747855375342,0 33.04262264033866,34.66749302392919,0 33.04256454990626,34.66751502674705,0 33.04247128229696,34.66756626859175,0 33.04200662997712,34.66803771917886,0 33.04197669093159,34.66805422381915,0 33.04194817140792,34.66805776832693,0 33.04157528000366,34.66949317655942,0 33.04154584966614,34.6694895392155,0 33.04149737897866,34.66966461895319,0 33.04153850650059,34.6697213709547,0 33.04159074979954,34.66972230059664,0 33.04159551810925,34.66974872666947,0 33.04163502441278,34.66976419785509,0 33.04160582270264,34.66983176541027,0 33.04159522947915,34.669828352427,0 33.04144360825655,34.67019195439,0 33.04150345165765,34.67026093487965,0 33.04156569104925,34.67027484690389,0 33.04165965635917,34.66999285989239,0 33.04179197066801,34.67003687249274,0 33.04174065652867,34.67020072358798,0 33.04181519278487,34.67020786749304,0 33.04187538745287,34.6702131763648,0 33.04203564086183,34.66956871933922,0 33.04205273535386,34.66947575493676,0 33.0421019076032,34.66940236765228,0 33.0422251600175,34.66930119553071,0 33.04237841659369,34.66923632435386,0 33.04240104224392,34.66921980773795,0 33.04243117074255,34.66921470120656,0 33.04247255451111,34.66921686747028,0 33.04250510434365,34.6692355716923,0 33.04251245923945,34.66928838035848,0 33.04248098102616,34.66932558176617,0 33.04242075788304,34.6693295836573,0 33.04233398511771,34.66939460400208,0 33.04224059759566,34.66949133603081,0 33.04218232783989,34.66966407739753,0 33.04208674042987,34.67012817364549,0 33.04234281960107,34.67030333930353,0 33.04314066564896,34.67084907602407,0 33.04322854370365,34.67090622827607,0 33.0433387129105,34.67087996520353,0 33.04350080261453,34.67044456447591,0 33.04379843809078,34.66964504980466,0 33.04241876268521,34.66870965027259,0 33.04236964645148,34.66870954024262,0 33.04233832905057,34.66869149633754,0 33.0423231829996,34.66866281839627,0 33.04232837455896,34.66862649607961,0 33.04230896107747,34.66860828937345,0 33.04247877841953,34.66846263004486,0 33.04413280755146,34.66955724436398,0 33.04378039087945,34.67051598757408,0 33.04421499760908,34.67013528939345,0 33.04419054086061,34.67011425238007,0 33.04427206840332,34.67004404552831,0 33.04435719813676,34.66997073803304,0 33.04447226913764,34.67005042994596,0 33.04430376762679,34.67020368467512,0 33.0442793142109,34.67018488965171,0 33.04417024431445,34.67028184068712,0 33.04384585780578,34.67057017886649,0 33.04371354244417,34.67068779158105,0 33.04367184532642,34.67081146480579,0 33.04403762555836,34.67115640863554,0 33.04472528073598,34.67054077417996,0 33.04470161545775,34.67052094495926,0 33.04477971870722,34.6704542457732,0 33.04479952123643,34.6704697457035,0 33.04495414803444,34.670592027311,0 33.04488234278016,34.6706546207664,0 33.04482995037346,34.67061503455866,0 33.04472319855886,34.67071076733433,0 33.04412876457,34.67124384326775,0 33.04470519277196,34.67174073006533,0 33.0463217036081,34.67314423405513,0 33.04905124944983,34.67552427987277,0 33.05070452946207,34.67696010364296,0 33.05179934818118,34.67791781568895,0 33.0519517192344,34.67783864455081,0 33.05200582843624,34.67783457836099,0 33.05205138697678,34.67785698583061,0 33.05206309716374,34.67789746340105,0 33.05186079323873,34.67868840432745,0 33.05241937178504,34.67908350302984,0 33.05261279007564,34.67921267958041,0 33.05277807599693,34.6793288056238,0 33.05345729265333,34.67861549928519,0 33.05366771732237,34.67839450833782,0 33.05370144871896,34.67841689875912,0 33.05348655286678,34.67864233149315,0 33.0528070282143,34.67935517025925,0 33.05286099123485,34.6793943421252,0 33.0530988749062,34.6795371235082,0 33.0534145811686,34.67977557999783,0 33.05388445914274,34.68013803225999,0 33.05421492810197,34.68033624818074,0 33.05434861836411,34.68041487933539,0 33.05479186487818,34.68068082708104,0 33.05544649307,34.6810226301355,0 33.05656469889873,34.68169760978961,0 33.05652693091642,34.68174101260335,0 33.05698122761454,34.68202292854865,0 33.05890511331047,34.68315276750863,0 33.05953533610164,34.68352978626905,0 33.05971844425048,34.68364048705787,0 33.06026439862046,34.68397591767132,0 33.0603438845331,34.68401731012945,0 33.06058922648938,34.68414865590234,0 33.06103887579833,34.68443920044522,0 33.06109325036467,34.68452819743859,0 33.06106499968492,34.68457451313797,0 33.06284768367222,34.685551359028,0 33.06369262410825,34.68599405827307,0 33.06405988910128,34.68615367920398,0 33.06449643785094,34.68632297847424,0 33.066267222305,34.68702485320258,0 33.06651417410922,34.68710216164643,0 33.06745436929427,34.68743850606444,0 33.06772544634933,34.68757568452755,0 33.06854043400025,34.68785285417334,0 33.06938853888403,34.68806973055135,0 33.06972325297227,34.68817684651776,0 33.07004147578368,34.68825092029554,0 33.07036092848285,34.68830875157418,0 33.07053983770759,34.68835994835155,0 33.07075288729633,34.68842404227475,0 33.07066917267333,34.68853921268303,0 33.07058008776957,34.68862548398264,0 33.07049105292302,34.68877102800526,0 33.07042805421897,34.68884650697983,0 33.07035897955625,34.6889566051282,0 33.07033390982313,34.6889929499001,0 33.07028720582,34.68907454130525,0 33.07025606009053,34.68911963476302,0 33.07023531329376,34.68916901323684,0 33.07019516557491,34.68924483049158,0 33.07011596290459,34.68938801751945,0 33.07007444294932,34.68945458008854,0 33.06996402935249,34.68967394056543,0 33.06992168160201,34.68976095799685,0 33.06986518220274,34.68987704974652,0 33.0698374018632,34.68992744543475,0 33.06972951311829,34.69009419512555,0 33.06964633756767,34.69024685408434,0 33.06955807973753,34.69035851956001,0 33.0694646294511,34.69047877176249,0 33.06921541320676,34.69078155811048,0 33.06906742773889,34.6909447700371,0 33.06892725357353,34.69112729504228,0 33.06879990662512,34.69129072213374,0 33.0687222041996,34.69142147153482,0 33.06863135191993,34.69154386802266,0 33.06856645964821,34.69163190820236,0 33.06847041315701,34.69175860030546,0 33.06831985473033,34.69195830259227,0 33.06817967964611,34.69214511952678,0 33.06804472518098,34.69235983578807,0 33.06800137613185,34.69241437118217,0 33.06787079549951,34.69258267514468,0 33.06780398313411,34.69266431641353,0 33.06773873183063,34.69279743091057,0 33.06766891830578,34.69292803729949,0 33.06761124276709,34.69303101576803,0 33.06752468276721,34.69312898990836,0 33.06749278736207,34.69315913842141,0 33.06744982576698,34.69318368408324,0 33.06738036717542,34.69323201623421,0 33.06730441139454,34.69328729868702,0 33.06720720034246,34.69337146610464,0 33.06710391473471,34.69346442705483,0 33.06701126724495,34.69355487056306,0 33.06694740537288,34.69360100610275,0 33.06685638086731,34.69364708349227,0 33.0667503964041,34.69368418762897,0 33.06663490140948,34.69372578530897,0 33.06655473939198,34.69376062958464,0 33.0664538913584,34.69382282947753,0 33.06634392924399,34.6938885932644,0 33.06624581337287,34.69395155414307,0 33.06612741012682,34.69404388332941,0 33.06601582678493,34.6942005134966,0 33.0659820389678,34.69427881663019,0 33.06595672413236,34.69437109431358,0 33.06585015764568,34.69445223314198,0 33.06580920357333,34.69448006390756,0 33.06584791842563,34.694506515659,0 33.06570878730319,34.69471889759866,0 33.06558507378246,34.69490697998182,0 33.06549922780116,34.69500379928762,0 33.06547470355632,34.69503514857206,0 33.06544571525387,34.69506650024861,0 33.06539666376828,34.69512551176685,0 33.06530634967347,34.69521772319759,0 33.06516363248001,34.69536434124834,0 33.06499302432311,34.69552019066572,0 33.06489601650037,34.69561517197701,0 33.06478126134532,34.69584748763428,0 33.06474787735051,34.69596455443093,0 33.06456095051094,34.69642918260654,0 33.06449965059739,34.69656608930097,0 33.06439736545246,34.69673658306567,0 33.06435766570198,34.69679215459722,0 33.06431036710462,34.69690706777296,0 33.06422486233502,34.69703336503439,0 33.0641331902431,34.69709148799119,0 33.0640583139012,34.69712435360101,0 33.06382602924905,34.69720780130674,0 33.06345915114137,34.69719662982448,0 33.06325581668853,34.69715886014895,0 33.06309071083354,34.69713748256439,0 33.06283388098682,34.69711110293044,0 33.06223162613836,34.69713666309627,0 33.06191522759676,34.69716838570961,0 33.06182045410355,34.69717095974667,0 33.06154836128479,34.69717109746055,0 33.06133280983975,34.69714974295936,0 33.06086353140518,34.69715881535517,0 33.06064802317338,34.69716798619567,0 33.06049667336433,34.6971728860996,0 33.06040650840823,34.69720449318933,0 33.06029957364248,34.69730049710812,0 33.06010246345467,34.69741295855027,0 33.05994507784011,34.69749888602182,0 33.05984422685639,34.69755196201664,0 33.0597769918871,34.69758608240271,0 33.05959818745128,34.69764929560235,0 33.05938117590735,34.69772262726165,0 33.05909847616847,34.69785911513203,0 33.0591262744282,34.69792693747237,0 33.05918574506466,34.69805223765395,0 33.0597026263653,34.69833478834374,0 33.05947508551937,34.69865052770697,0 33.05939933247406,34.6987410833197,0 33.05912838703202,34.69907868764602,0 33.05962694440169,34.69937892266621,0 33.05986399133039,34.69952525787742,0 33.05976470316804,34.69963009467055,0 33.05958747602806,34.69976653366998,0 33.0594805039753,34.69981329842523,0 33.05927734908843,34.70006440789869,0 33.0592368157702,34.70018877400598,0 33.059279129573,34.70050400372806,0 33.05924461100799,34.70069821027445,0 33.05913505666815,34.70097131763917,0 33.05911434356228,34.70105234209974,0 33.05912185185933,34.70124368856361,0 33.05908615972156,34.70139406783515,0 33.05903987674063,34.70144215225697,0 33.05886264345727,34.70157858836432,0 33.0586731106735,34.70161529305453,0 33.05849433780451,34.70173531716181,0 33.05831999939891,34.70164071368457,0 33.05797441043671,34.70149190128062,0 33.05741627849682,34.70126491337888,0 33.05722513854471,34.70118672754386,0 33.05689333441099,34.70107199386013,0 33.05634684584481,34.70222618354806,0 33.05661136984036,34.702310648787,0 33.05650158749138,34.70272985449591,0 33.05642541313651,34.70311369239642,0 33.05611347613655,34.70300021039093,0 33.05547890057054,34.70276946086359,0 33.05472965398959,34.70250467311097,0 33.05461360265762,34.70270420110815,0 33.05444266310789,34.70312721941595,0 33.05428598671642,34.7030777777628,0 33.05404357965774,34.70299483378901,0 33.05373623224524,34.70288008069647,0 33.05374539396844,34.70286366355516,0 33.05348850848707,34.70277035071781,0 33.05350986668743,34.70270216661661,0 33.05302209995026,34.70253825420004,0 33.05290920426137,34.70289685566228,0 33.05286344294094,34.70305468991661,0 33.0527993700945,34.7032668187271,0 33.05277036725576,34.70333374394758,0 33.05250168062057,34.70391966529868,0 33.0521148786079,34.7038705929312,0 33.05173113029641,34.70381646889501,0 33.05162868016944,34.7037761110751,0 33.05129683911608,34.70360581351874,0 33.05063174327118,34.70446777706911,0 33.05058972022162,34.70446133908175,0 33.05047541390591,34.70449770137019,0 33.05040214125003,34.70452194072226,0 33.0503327743278,34.70454456478261,0 33.05034255687775,34.70456231522879,0 33.04990486876037,34.70470687407182,0 33.05013996899345,34.70518680045125,0 33.05025798386753,34.70544179800897,0 33.04997538286042,34.70541349353211,0 33.04980491340328,34.70539454136743,0 33.04952387928015,34.70537563304499,0 33.04910923804971,34.70534536445614,0 33.04878631409269,34.7053330583597,0 33.04878782031745,34.70552430947926,0 33.04907412480441,34.70636374222904,0 33.04914397675736,34.70660994561455,0 33.04923362416797,34.70692588689874,0 33.04917011608755,34.70698595053847,0 33.04897256536473,34.7069803544244,0 33.04858959835911,34.70674517409402,0 33.04844859339753,34.70660843554247,0 33.04836266730845,34.7065251060963,0 33.04825773740492,34.70640368432274,0 33.04814139715984,34.70629330368059,0 33.04784474271571,34.70602575647535,0 33.04783160092629,34.70592133696758,0 33.04774434456171,34.70583255008837,0 33.04769640237532,34.70586977800436,0 33.04752483928742,34.7057678200801,0 33.04734359372583,34.70566886126461,0 33.04728508803215,34.70587670293862,0 33.04757338076188,34.70603759446411,0 33.0474194819573,34.70619632426166,0 33.04736298870326,34.70622551334374,0 33.04730789266493,34.70622786865469,0 33.04717083431758,34.70619058643825,0 33.04702253404628,34.70659762028941,0 33.04698869135879,34.70671401872277,0 33.04699631407633,34.70707892151522,0 33.04627255665397,34.70704157106744,0 33.04621032068228,34.70755001193641,0 33.04600473646365,34.7075282128144,0 33.04594658619047,34.70776537941414,0 33.04588946752553,34.70795179185252,0 33.0455209867478,34.70796477692343,0 33.04553796278215,34.70815841472859,0 33.04548651015779,34.70815843394509,0 33.0451088611893,34.70817389843463,0 33.04515400527789,34.70842291946205,0 33.0451645358553,34.70847247394109,0 33.04523372681336,34.7087958258339,0 33.04524281719892,34.7089568901174,0 33.04514379323334,34.70895568822063,0 33.04502676048803,34.70894829708761,0 33.04488272667353,34.70894587298006,0 33.04457364899174,34.70893607384965,0 33.04416854530226,34.70892135339115,0 33.04397650213583,34.7089263791355,0 33.04362541656579,34.70891907089654,0 33.04331330514022,34.70887301879439,0 33.04314647081279,34.70883536583346,0 33.04312888170551,34.70883400182372,0 33.04274836469349,34.70876654178981,0 33.04233025442628,34.70867285721284,0 33.04199143486581,34.7086294532091,0 33.0419102558231,34.70888936538856,0 33.04171898250845,34.70890154048405,0 33.0413424419425,34.70894575526024,0 33.04143504711057,34.70945942894244,0 33.04188804362946,34.70944453231338,0 33.04258254745665,34.70979680105125,0 33.04349728729417,34.70980798885145,0 33.04344493273383,34.71012062686157,0 33.04344439938659,34.71022383917008,0 33.04344334203666,34.71042726368324,0 33.04345286607948,34.71055546748532,0 33.04348320336799,34.71070807118376,0 33.04353428462291,34.71091926397062,0 33.04448433735901,34.71105163268798,0 33.04440918588406,34.71118174775172,0 33.04436191702558,34.71142137681512,0 33.04429041065077,34.71165696074878,0 33.0437395981457,34.71172900872993,0 33.04344596614605,34.71224329825233,0 33.04338974023047,34.71268208929445,0 33.04327362463044,34.71291111313405,0 33.04304967650945,34.71332939546816,0 33.04288378360854,34.71363110853179,0 33.04258168962503,34.7138574556159,0 33.04239080700933,34.71400286444739,0 33.04193741562715,34.71385767905726,0 33.04172151552814,34.71378782340382,0 33.04168891943517,34.71384625795924,0 33.04165086406701,34.71392719417242,0 33.04139191683004,34.71384559025577,0 33.04107733831928,34.71374646464295,0 33.04069166265903,34.71362493249187,0 33.04058271016242,34.71384377103659,0 33.04055423953762,34.71389928224842,0 33.04035162761413,34.71383627632878,0 33.04022541013365,34.71379655419833,0 33.04020384388212,34.71383769541315,0 33.04018559922356,34.71388020846798,0 33.0400427737073,34.71383363504029,0 33.03989496298134,34.71377883715899,0 33.03979612264258,34.71373295848968,0 33.03910683369207,34.71384042869732,0 33.03908134943765,34.71384354514365,0 33.03908966277665,34.71386685270031,0 33.03882566192887,34.71390532982983,0 33.03881400721231,34.71383814604773,0 33.0384487248564,34.71389996480326,0 33.03845371770523,34.71392464278448,0 33.03814320116197,34.71391788559886,0 33.03812503093106,34.71412493650936,0 33.03742102461681,34.71423210429353,0 33.03744129184013,34.71429933784416,0 33.03751006392203,34.71449785563048,0 33.03750903025229,34.71454903152018,0 33.03748317059298,34.71460147710727,0 33.03732804399499,34.71478821833468,0 33.03717628759057,34.71495959907984,0 33.03708477098333,34.71503696049813,0 33.03701004032654,34.71508467640639,0 33.03697141908479,34.7151125246318,0 33.0370013384851,34.71517833099389,0 33.03722239297856,34.71563485834516,0 33.03704150835546,34.71577123919904,0 33.03701328465346,34.71590504037352,0 33.036988391569,34.71593795610094,0 33.03704299675399,34.71659968889145,0 33.03682207797733,34.71699485304131,0 33.03671596653945,34.71699307581129,0 33.03664260328377,34.71699450599154,0 33.03668529056126,34.71706916010438,0 33.03671719174388,34.71712955078802,0 33.0364095937147,34.71722768786667,0 33.03633766888193,34.71731832690152,0 33.03634309701236,34.71738814503217,0 33.03646549497255,34.71752774705867,0 33.03603214906592,34.71777797257689,0 33.03595459249913,34.71783677042225,0 33.03634215882916,34.71799373566691,0 33.03617871115034,34.71814640315296,0 33.03578796339421,34.71841600483675,0 33.035449079464,34.71851925277854,0 33.03503890655697,34.71862406631811,0 33.03494798972569,34.71865181713159,0 33.03449995206444,34.71873559579932,0 33.03435985292958,34.71882881490622,0 33.03438169706212,34.71923265455569,0 33.03452473138658,34.71944381943964,0 33.03421012809603,34.71957064489179,0 33.03402280314369,34.71968951644808,0 33.03476912854175,34.72002930764196,0 33.03475555592347,34.72043472219637,0 33.03466375331115,34.72084076028357,0 33.03467318437741,34.72099287786261,0 33.03483507674027,34.72098023364961,0 33.03477426116412,34.72108332593626,0 33.03472475497419,34.72116723620682,0 33.0346495275498,34.72125497329928,0 33.03453094180227,34.72194248731056,0 33.03473721126382,34.72235770130516,0 33.03498920366086,34.72260692870496,0 33.03516464877244,34.72266189035201,0 33.03564231903925,34.72291377077717,0 33.03585864405011,34.72298646487572,0 33.035960121159,34.72300440936037,0 33.03619490645855,34.72303534046004,0 33.0363874394366,34.72307344770807,0 33.03658957662758,34.72307027800471,0 33.03665448153284,34.72305912264784,0 33.03673756276097,34.72304485531453,0 33.03684231484076,34.72326540415668,0 33.0369223932141,34.72338506165371,0 33.0370019902288,34.72350205720376,0 33.03710271538817,34.7237191715295,0 33.03711646189446,34.72404496183976,0 33.03708180434062,34.72414148906797,0 33.03704355781858,34.72422082906791,0 33.03697487260844,34.72430420065044,0 33.03680296082823,34.7244966523087,0 33.03681911921475,34.72458096722068,0 33.03682178136868,34.72459137477586,0 33.03682175374437,34.7246029478417,0 33.03681313371364,34.72461784541686,0 33.0368044652795,34.72462454054067,0 33.03669134757388,34.72471420139839,0 33.03666046797552,34.72473867385449,0 33.03664874102556,34.72476214622282,0 33.03661605387479,34.72482753688225,0 33.03650675576466,34.72489169837172,0 33.03638873456858,34.7249031534855,0 33.0365742490614,34.72536239448835,0 33.0366466964654,34.72537190755362,0 33.03689188696427,34.72540407729093,0 33.03701362610089,34.72540385105883,0 33.03695938718828,34.72565877313622,0 33.03704395904991,34.72589148954315,0 33.03688559027054,34.72598674350295,0 33.03688824902037,34.72600165749717,0 33.03723826425168,34.72613342326322,0 33.03730310917118,34.72637251888268,0 33.03746094387475,34.72651841191112,0 33.03775773374493,34.72670803886299,0 33.03788296307006,34.72683654038938,0 33.03805246896111,34.7271502184423,0 33.03805479478234,34.72716003110188,0 33.03802112136677,34.72723632658338,0 33.03819190370351,34.72754717611635,0 33.038608112411,34.72773406176746,0 33.03873504052956,34.72775304336273,0 33.03919642082273,34.72779702898563,0 33.0393060233067,34.72801699162354,0 33.03905683318301,34.72823294188304,0 33.03883017148473,34.72834536793979,0 33.03864266846323,34.72843836803877,0 33.03849853676183,34.72848337800746,0 33.03831635274706,34.7285952815142,0 33.03822800484618,34.72863185659528,0 33.03805759359009,34.72876897008512,0 33.03787413704394,34.72889209299689,0 33.03800608177101,34.72926398416882,0 33.0380662321169,34.72963240534109,0 33.03803286269132,34.72966652641558,0 33.03801894887009,34.7296935333346,0 33.0379796979686,34.72976971963308,0 33.03795022144911,34.72989059585876,0 33.03775500268589,34.72984389375847,0 33.0373287298746,34.72997747664988,0 33.03725566141246,34.72982917235812,0 33.03722415348164,34.72983207570196,0 33.03701428237454,34.72960039022216,0 33.03694939475841,34.7295096383873,0 33.0367505606795,34.72926222297984,0 33.0367391787161,34.72904262695496,0 33.03663459553028,34.7289782927156,0 33.03628492773685,34.72876233074591,0 33.0361317570014,34.72870293345116,0 33.035845538625,34.72849546303947,0 33.03577052699027,34.72869883379642,0 33.03557675794264,34.72866747256234,0 33.03545272862159,34.72862663614608,0 33.03519053948755,34.72840680798279,0 33.0350391861285,34.72822349384883,0 33.0349317058843,34.7282126106359,0 33.03481927680577,34.7282189413793,0 33.03468597824229,34.72821432602337,0 33.0345448038432,34.72816231805615,0 33.03435570007604,34.72799135576685,0 33.03430361321616,34.72793955133638,0 33.03427107215232,34.72793516763899,0 33.03389139439079,34.72782813973895,0 33.03367506248399,34.72764144792126,0 33.03341682192889,34.72750888417029,0 33.03337763069066,34.72746979281747,0 33.03334113145853,34.727450959416,0 33.0333117523393,34.7274156938926,0 33.03329383873064,34.72734422946669,0 33.03343702419059,34.7272113669842,0 33.03355371165613,34.72699214012844,0 33.03364228116755,34.72694120977521,0 33.0339096156687,34.72651233320361,0 33.03384262824893,34.72619261172392,0 33.03358881053047,34.72585177445429,0 33.03348104241594,34.72586895726374,0 33.03338668684211,34.7259165284188,0 33.0332763390812,34.72586693455851,0 33.03305848177106,34.72574600955285,0 33.0328221395703,34.72565437965844,0 33.03267726135128,34.72556272841295,0 33.03261358290349,34.7255142771062,0 33.03249988524423,34.72546468253422,0 33.03244345839659,34.7254508870715,0 33.03225425708185,34.7254206037837,0 33.03209195462918,34.72536457708744,0 33.03198808118135,34.72534132487365,0 33.03189763276075,34.72530276211712,0 33.03184802652296,34.72525094514577,0 33.03176062458978,34.72521540952424,0 33.03163973946682,34.72516099226056,0 33.03152069734231,34.72510029837368,0 33.03142510727483,34.72504566971578,0 33.03139103898666,34.72500970808868,0 33.03116425980263,34.72510134201767,0 33.03119676594248,34.7251702005077,0 33.03119461335735,34.72518326514491,0 33.03111252034234,34.72528763926328,0 33.03085948562414,34.72542971650111,0 33.03127384086526,34.72561743366604,0 33.03111668116147,34.72602143285566,0 33.03112154340368,34.72603651408635,0 33.03129686032759,34.72616188690868,0 33.031314810046,34.72618377626595,0 33.03132089018669,34.726197094804,0 33.03134366104702,34.72625517688391,0 33.0310969549,34.72640731786212,0 33.03068780302571,34.72660620354913,0 33.03047863575095,34.72672095350963,0 33.03034663161932,34.72678834599598,0 33.03025300897318,34.72684748939138,0 33.03004184692807,34.72669414414271,0 33.03000866513389,34.72667926636919,0 33.0296814678026,34.72653430202427,0 33.02965979582901,34.72656315790353,0 33.02920867429425,34.72643761388256,0 33.02917002277425,34.72642348991739,0 33.02926655996746,34.72623750550331,0 33.02937998685046,34.72597167385324,0 33.02943197158554,34.72583988280748,0 33.029499319259,34.7256239863928,0 33.02954914462664,34.72540216342116,0 33.0295907828619,34.72518287914306,0 33.02960146839622,34.72469776911358,0 33.02960802674924,34.72439971665695,0 33.02927317221351,34.72436313843352,0 33.02920724495122,34.7243695727142,0 33.0288629659867,34.72418850367028,0 33.02850169988429,34.72387780457685,0 33.02851007595077,34.72348203066335,0 33.02833978311624,34.72335831581471,0 33.02833365000681,34.72337334743522,0 33.02824169441087,34.72362719813481,0 33.0281058754861,34.72407601507387,0 33.02798546412855,34.72438519345805,0 33.02786512658073,34.72463065586902,0 33.0278002717293,34.72476593428883,0 33.02774249149143,34.72501790259791,0 33.02771776185495,34.72537328346166,0 33.02774090142679,34.72563798909205,0 33.02777786415234,34.72572992777841,0 33.02785770065906,34.72585694812982,0 33.02784885678423,34.72592583317919,0 33.02775934714942,34.7260199957856,0 33.0275436277772,34.72621541554434,0 33.02750137012813,34.72626365095935,0 33.02749349821686,34.72633417823491,0 33.0275052533602,34.72667417439048,0 33.02751310125069,34.72680792531639,0 33.02748211445672,34.72686214212282,0 33.0272823282418,34.72708780567296,0 33.02727771261215,34.72709360044473,0 33.02723337459241,34.72714925981908,0 33.02724117707977,34.72732554114512,0 33.0272719655616,34.72746773820798,0 33.02727783960528,34.7274802357535,0 33.02740438983803,34.72774948409735,0 33.02748904210956,34.72791362423118,0 33.02749497591468,34.7279679183348,0 33.02747995875583,34.7280160132594,0 33.02743699694865,34.72807076551187,0 33.02731809430599,34.72822832743642,0 33.02727810303247,34.72828222617584,0 33.02712324850082,34.72849093534631,0 33.02713119734774,34.72852396968636,0 33.02715702065236,34.72864098533856,0 33.02713902355547,34.72867620340533,0 33.02702912653346,34.72881027797438,0 33.02705078119489,34.72909909548711,0 33.02702876340028,34.72916396461941,0 33.02691484641492,34.72932209384285,0 33.02675029644365,34.72923331382871,0 33.02669145063264,34.7292096812234,0 33.02664855054429,34.72920511115585,0 33.02650479154093,34.72927922697691,0 33.02638595976639,34.72937186420597,0 33.02631404618689,34.72944165970831,0 33.02628505197921,34.72949755789642,0 33.0262809961142,34.72955798869096,0 33.02634368282264,34.7297209786261,0 33.02641838268623,34.72984874195441,0 33.02656771541341,34.73017255288494,0 33.02640378537182,34.7304441792156,0 33.02623087260629,34.73072081941024,0 33.02613287341829,34.73092095554681,0 33.02574573807617,34.73092006528859,0 33.02534471586249,34.73086261768707,0 33.025078367104,34.73083626069401,0 33.02526037365217,34.73044662033421,0 33.02471105227318,34.7301219268318,0 33.02480194049702,34.73002532326765,0 33.02484791791703,34.72994596577408,0 33.02484797398933,34.72989616415596,0 33.02481629272968,34.72968233425566,0 33.02481658849253,34.72941878005623,0 33.0248396796493,34.72928957151775,0 33.02444574249267,34.72921708480762,0 33.02421136844944,34.7291885938286,0 33.0240716849547,34.72922297826413,0 33.02387717638128,34.72923262168309,0 33.02371757716396,34.72924681672551,0 33.02348419234278,34.72924462449065,0 33.02332560568395,34.72925266720514,0 33.02322179887163,34.72932405266837,0 33.02312080800322,34.72954091283989,0 33.02320554588903,34.72957019624859,0 33.02311848306875,34.72981450616542,0 33.02285316348965,34.7298430038518,0 33.02279131106486,34.72985853060624,0 33.02271643403767,34.72992494222584,0 33.02263550626294,34.73004616959335,0 33.02247459762062,34.73032835258486,0 33.02231349521813,34.73076719610464,0 33.0221054344707,34.7313888241377,0 33.02185780247453,34.73152259707294,0 33.02153651264006,34.73167066359884,0 33.02126617818298,34.73174722948174,0 33.02132776570991,34.7319308991008,0 33.02140126400297,34.73212155296698,0 33.02098366340761,34.73221555314353,0 33.02060136310686,34.73245415577725,0 33.02034193286839,34.73291483585595,0 33.02022233698089,34.73317468489195,0 33.02011627466023,34.73346405553152,0 33.02009713497816,34.73355940241153,0 33.02002862664215,34.73362300952758,0 33.01995088479647,34.7336465956606,0 33.01970818004476,34.73374187881917,0 33.01941650087618,34.73392398694314,0 33.01915808254271,34.73410971934747,0 33.01895995313771,34.73436863197573,0 33.01889099363864,34.73454380322565,0 33.0188556930974,34.73469601606313,0 33.01884575211506,34.73481781035743,0 33.01872487848185,34.7349017844577,0 33.01854966817746,34.73497274141987,0 33.0184332685936,34.73506004546937,0 33.01829701473776,34.73520341915243,0 33.01818964263585,34.73537847584933,0 33.01792453730565,34.73593826683233,0 33.0175949068288,34.73620518704549,0 33.01660425724611,34.73680732045323,0 33.01661249863731,34.73727695393404,0 33.0164729301304,34.73778820925312,0 33.01644129053319,34.73840242892256,0 33.01659657995297,34.73841073381479,0 33.01701410480617,34.73816514097557,0 33.01708204492287,34.73824543954991,0 33.01657596295397,34.73864237394214,0 33.01643022930047,34.73879349845661,0 33.01635276115579,34.73891136665164,0 33.01633856149726,34.73903896306936,0 33.01638443555191,34.73913870691259,0 33.01645740785801,34.73922407409318,0 33.01641756790959,34.73955891847143,0 33.01626058821645,34.73974092401691,0 33.01615470285514,34.73975175480247,0 33.01598976582979,34.73979888270359,0 33.0158039467635,34.73993863698873,0 33.01516512542619,34.74003169455317,0 33.01514327212001,34.7400114413159,0 33.01501978169852,34.7398969901698,0 33.01494685165793,34.73979276795644,0 33.01508849996565,34.7394126804115,0 33.01516921032783,34.73909697853174,0 33.01462448764167,34.73879369344363,0 33.01406573069836,34.73839209444796,0 33.0138901391316,34.73854307423737,0 33.0138040181153,34.73853221864534,0 33.01271301945705,34.73958754121454,0 33.01212184080859,34.73904464353245,0 33.0117249774779,34.73838184461604,0 33.01144531233227,34.73836253384164,0 33.01103159122223,34.73924265243777,0</coordinates>
						</LinearRing>
					</outerBoundaryIs>
				</Polygon>
			</MultiGeometry>
		</Placemark>
	</Document>
</kml>