<?xml version='1.0' encoding='UTF-8'?>
<kml xmlns="http://www.opengis.net/kml/2.2">
	<Document>
		<name>LARNAKA Community Cluster E</name>
		<Style id="PolyStyle80">
			<LabelStyle>
				<color>00000000</color>
				<scale>0.000000</scale>
			</LabelStyle>
			<LineStyle>
				<color>ffa9e600</color>
				<width>2.000000</width>
			</LineStyle>
			<PolyStyle>
				<color>00828282</color>
				<outline>1</outline>
			</PolyStyle>
		</Style>
		<Placemark id="ID_80035">
			<name>LARNAKA Community Cluster E</name>
			<snippet />
			<description>&lt;html xmlns:fo="http://www.w3.org/1999/XSL/Format" xmlns:msxsl="urn:schemas-microsoft-com:xslt"&gt;

&lt;head&gt;

&lt;META http-equiv="Content-Type" content="text/html"&gt;

&lt;meta http-equiv="content-type" content="text/html; charset=UTF-8"&gt;

&lt;/head&gt;

&lt;body style="margin:0px 0px 0px 0px;overflow:auto;background:#FFFFFF;"&gt;

&lt;table style="font-family:Arial,Verdana,Times;font-size:12px;text-align:left;width:100%;border-collapse:collapse;padding:3px 3px 3px 3px"&gt;

&lt;tr style="text-align:center;font-weight:bold;background:#9CBCE2"&gt;

&lt;td&gt;Σύμπλεγμα Ε&lt;/td&gt;

&lt;/tr&gt;

&lt;tr&gt;

&lt;td&gt;

&lt;table style="font-family:Arial,Verdana,Times;font-size:12px;text-align:left;width:100%;border-spacing:0px; padding:3px 3px 3px 3px"&gt;

&lt;tr&gt;

&lt;td&gt;NAME_GR&lt;/td&gt;

&lt;td&gt;Σύμπλεγμα Ε&lt;/td&gt;

&lt;/tr&gt;

&lt;tr bgcolor="#D4E4F3"&gt;

&lt;td&gt;NAME_ENG&lt;/td&gt;

&lt;td&gt;Community Cluster "Ε"&lt;/td&gt;

&lt;/tr&gt;

&lt;tr&gt;

&lt;td&gt;DISTRICT_N&lt;/td&gt;

&lt;td&gt;ΛΑΡΝΑΚΑ&lt;/td&gt;

&lt;/tr&gt;

&lt;tr bgcolor="#D4E4F3"&gt;

&lt;td&gt;SHAPE.AREA&lt;/td&gt;

&lt;td&gt;129027749,687297&lt;/td&gt;

&lt;/tr&gt;

&lt;tr&gt;

&lt;td&gt;SHAPE.LEN&lt;/td&gt;

&lt;td&gt;79791,137625&lt;/td&gt;

&lt;/tr&gt;

&lt;/table&gt;

&lt;/td&gt;

&lt;/tr&gt;

&lt;/table&gt;

&lt;/body&gt;&lt;script type="text/javascript"&gt;

				function changeImage(attElement, nameElement) {

				document.getElementById('imageAttachment').src = attElement;

				document.getElementById('imageName').innerHTML = nameElement;}

			&lt;/script&gt;&lt;/html&gt;

</description>
			<styleUrl>#PolyStyle80</styleUrl>
			<MultiGeometry>
				<Polygon>
					<extrude>0</extrude>
					<altitudeMode>clampToGround</altitudeMode>
					<outerBoundaryIs>
						<LinearRing>
							<coordinates> 33.32475217148787,34.81822343024258,0 33.32399812032131,34.81858105072921,0 33.32359848983781,34.8180542124559,0 33.3234958550713,34.81773957370185,0 33.32346257268572,34.81752346379758,0 33.32324180160119,34.81753146490704,0 33.32317120608567,34.81735448862523,0 33.32264323115051,34.81687533565296,0 33.32243215221715,34.81675752302355,0 33.32228709922217,34.81671909265774,0 33.32215198617549,34.81671623046842,0 33.32187522093411,34.81674605540347,0 33.32173359416596,34.81679515515126,0 33.3215557833773,34.81688798506158,0 33.32134864445102,34.81720234333924,0 33.32122171454462,34.81699902284669,0 33.32162009777417,34.8167586985581,0 33.32162619782073,34.81643320929072,0 33.32129313671972,34.81628245170964,0 33.32123931045031,34.8158948421445,0 33.32078785845616,34.81590808192816,0 33.32051020208324,34.81534707652269,0 33.31944296262645,34.81568520992424,0 33.31925686676114,34.81574809402745,0 33.31912835541578,34.81575890959627,0 33.31907279600335,34.81583876155076,0 33.31896408481751,34.8161034014278,0 33.31888869499389,34.81614494044461,0 33.31879600732203,34.81610323612036,0 33.31873316412727,34.81594999460894,0 33.31866352418873,34.81565724164195,0 33.31859411946204,34.81552314060156,0 33.3184753148573,34.8154136071463,0 33.31840275104292,34.81537250429646,0 33.31812447048575,34.81526236814531,0 33.31814081740826,34.81517211634137,0 33.31863801806225,34.81487445717931,0 33.31902410739755,34.81464825146151,0 33.31901390180266,34.81443214820055,0 33.31912593779091,34.81442405507667,0 33.31896767549371,34.81437192446735,0 33.31893793052683,34.81431445201601,0 33.31880601918254,34.81425414087114,0 33.31865473697575,34.81446734711191,0 33.31850996051702,34.81462311822817,0 33.31794633934037,34.81457604819462,0 33.31775663746613,34.81452210510781,0 33.31765970302933,34.8144731272677,0 33.31749947874813,34.81433330313182,0 33.31734791359065,34.81411899996684,0 33.31707438002575,34.81417688573978,0 33.31683259140345,34.81396944715716,0 33.31646667465039,34.8137944424516,0 33.31639401672179,34.8139445390676,0 33.31614763397356,34.81397565028454,0 33.31582366996268,34.81389845654436,0 33.31549505843375,34.81383027137043,0 33.31524703204122,34.81380204431466,0 33.31523463299919,34.81419781518238,0 33.31558953784052,34.81431461481409,0 33.31558071677651,34.81444264641351,0 33.31572735027447,34.81459324732948,0 33.31567303885189,34.81485624767739,0 33.31591698065927,34.81531974452304,0 33.31604062117867,34.81556625236853,0 33.3159390279173,34.81560572568794,0 33.31546037599657,34.81539575043126,0 33.31531348296661,34.8154980338508,0 33.31545097991545,34.81572630429443,0 33.315755276991,34.81578711747734,0 33.31601062477733,34.81620169248394,0 33.31554499316594,34.81663313615147,0 33.31453310562883,34.81677472992187,0 33.31373466511725,34.81644819535008,0 33.3135496880646,34.81648515384914,0 33.31336023044411,34.81633648698378,0 33.31289010747894,34.81647631462947,0 33.31266754132248,34.81645428015516,0 33.31262731643842,34.81654087408915,0 33.31241245991757,34.81652418026736,0 33.3123118198486,34.8167674868246,0 33.31138764279528,34.81657276941321,0 33.31118794302437,34.81647769407241,0 33.31125824109637,34.81636635999592,0 33.3110285732671,34.81625887144345,0 33.3112998073876,34.81580114683499,0 33.31136547415643,34.81555777822228,0 33.31136563751332,34.81549718678963,0 33.31128196166956,34.81502672455009,0 33.31119747961985,34.81484508103581,0 33.31097330828433,34.81455599271251,0 33.31071850580353,34.81448968203611,0 33.31041355024311,34.81447283067892,0 33.31017587029506,34.81449685465834,0 33.31004121139704,34.81436876991432,0 33.30981625863974,34.81433962202873,0 33.3096720873228,34.81402992771834,0 33.30823991866719,34.8146308555382,0 33.30791228048992,34.8147455761702,0 33.30774708069934,34.81478254071266,0 33.30753195413798,34.81477817078566,0 33.30731697699434,34.81471600987864,0 33.30719699083454,34.81467872053889,0 33.30702715603198,34.81457119590759,0 33.30691238054325,34.81445547320473,0 33.30674271489848,34.81428188580088,0 33.30644784003592,34.8141411676477,0 33.30618766427943,34.81411608345719,0 33.30548937405371,34.81405680396762,0 33.30491870444892,34.81405610697131,0 33.3047687056382,34.81398572513842,0 33.30465859748402,34.81397320115733,0 33.30442337655192,34.81393987454694,0 33.30363248876867,34.81384803473643,0 33.30333697563543,34.81386831251201,0 33.30285363410862,34.81395083184255,0 33.30235769436192,34.81397912220647,0 33.30141075794901,34.81403163269366,0 33.30099997442263,34.8140104620832,0 33.300488944112,34.81398502861715,0 33.30017302263073,34.81406725537558,0 33.29996707254433,34.8141191468692,0 33.2999893783652,34.81410394930111,0 33.30105642285981,34.81337693025914,0 33.30132702272118,34.81336076543224,0 33.30159374781648,34.81291085191219,0 33.30168445167596,34.81271269266851,0 33.30175639690403,34.81242062518401,0 33.30198935568665,34.81147496632637,0 33.30200983431703,34.81130975423207,0 33.30200032855824,34.81111678692977,0 33.30189175400053,34.81050105918688,0 33.30173285488073,34.80996784336558,0 33.30176878326656,34.8096759786301,0 33.30176181691312,34.80954949064611,0 33.30081522246857,34.8098874069623,0 33.30068208640749,34.80978796599939,0 33.30009016826223,34.81006519207544,0 33.29951542925259,34.81032627125457,0 33.29934992306028,34.81058268633074,0 33.29922688845657,34.81066697990119,0 33.2989360305102,34.81082613212894,0 33.29835512107833,34.81114471827819,0 33.29820380079877,34.81096542262584,0 33.29737842617454,34.81132006966232,0 33.29707535622915,34.81109952151623,0 33.29698665591451,34.81098287109953,0 33.29685280181175,34.81111642417495,0 33.29672836411039,34.81107305863587,0 33.29638741564446,34.81130769639702,0 33.29590679475209,34.81086889533002,0 33.29529025560405,34.810785861123,0 33.2951177700431,34.81064745955312,0 33.29516420332056,34.81008700255477,0 33.29520621227217,34.80962232649705,0 33.29536333678178,34.80923545393171,0 33.29543385996092,34.80922335202231,0 33.29549396208703,34.80893604939803,0 33.29517698234457,34.80818811116458,0 33.29542243385657,34.80796537065277,0 33.29560826172492,34.80784036842815,0 33.29588559838671,34.80819254091197,0 33.2962831450341,34.80795482524397,0 33.29611330232724,34.80764567808436,0 33.29611840343699,34.80738117412336,0 33.29630094614382,34.80708189741787,0 33.29682113691906,34.80674052525747,0 33.29647557247043,34.80658816485145,0 33.29607880923583,34.80652617515218,0 33.29581103836262,34.8067824692556,0 33.29548111278156,34.80667780983662,0 33.29565254993644,34.80637849252076,0 33.29526667871858,34.80638072744506,0 33.29506297270352,34.80623655910328,0 33.29523401682123,34.80609625324689,0 33.29528963310971,34.80611166386146,0 33.29539797367552,34.80582262147115,0 33.29552085298407,34.80565163758111,0 33.29578800333944,34.80564305487665,0 33.29574435086963,34.80530657023547,0 33.29451349313542,34.80489701340091,0 33.2945523747932,34.80481124161503,0 33.29468649956944,34.804572830589,0 33.29479603210526,34.80434841544288,0 33.29491600399052,34.80399011453758,0 33.29491080902384,34.80374388622663,0 33.2948532431226,34.80342143352826,0 33.29476985435974,34.80276898798503,0 33.29476987021234,34.80255731412055,0 33.29482203614938,34.8023802974017,0 33.29492714092995,34.80225971947102,0 33.29517747963828,34.80203124771641,0 33.29561034830945,34.80159577682363,0 33.2960075014544,34.80096277373273,0 33.29584585969015,34.80083717152451,0 33.29555911564467,34.80006760686525,0 33.29569470829625,34.799990117593,0 33.29572633876924,34.79976600428986,0 33.29582547246751,34.7991829600865,0 33.29570554731635,34.79901421543352,0 33.29540830264384,34.79893582839181,0 33.29557325015069,34.79837953384948,0 33.29546897910289,34.79805094298797,0 33.29536469305174,34.79787357094187,0 33.29499442472663,34.79774315595778,0 33.2948901325762,34.79757441763287,0 33.29469716739276,34.79752215175971,0 33.29478669155225,34.79709971916458,0 33.29511005263681,34.79698807563727,0 33.29503705824628,34.79674161748555,0 33.29477633233313,34.79618793698777,0 33.29480197538217,34.79611637604503,0 33.29425668332225,34.79630112797953,0 33.2932331522322,34.79625223605033,0 33.29273127698765,34.79604511898361,0 33.29218999450644,34.79599630777646,0 33.29172995610709,34.79577498647232,0 33.29137992297312,34.79574506011801,0 33.29103271784738,34.79573680777315,0 33.2909208868703,34.79594559682744,0 33.29041791864864,34.79594007224234,0 33.29034885680693,34.79603497264444,0 33.28974725709064,34.79606467859846,0 33.28955336946769,34.79585040367521,0 33.28929373365273,34.79563069119936,0 33.28835003440021,34.79633556464599,0 33.28839267104884,34.7966555691369,0 33.28810002684764,34.79685075635703,0 33.28810982388684,34.79704872225866,0 33.28814920038936,34.7972711007211,0 33.2879880979346,34.79733343716401,0 33.28811291399921,34.79765617244267,0 33.28803062365409,34.7979815739845,0 33.28786618820582,34.79817136572292,0 33.28772474474521,34.79841811083489,0 33.28772794848874,34.79867844767864,0 33.28716888066915,34.79925593866304,0 33.28703722071489,34.7997331913533,0 33.28699112831845,34.79993114301994,0 33.28670841093499,34.79989311264641,0 33.28669546508293,34.79930464251449,0 33.28640942007582,34.79939677659854,0 33.28616945513966,34.79933163679031,0 33.28612994543679,34.79950247226242,0 33.28565326512428,34.79948066350708,0 33.28553480604212,34.79978164756337,0 33.28522247266378,34.79983580909293,0 33.28506128729425,34.80010695281283,0 33.28457154438446,34.79983293462049,0 33.28460445063976,34.79974616485548,0 33.28411463439749,34.7996863818072,0 33.28413778054776,34.7993175781219,0 33.28370382398439,34.79933645096624,0 33.28362158252252,34.79948286749351,0 33.2834604261305,34.799664519017,0 33.28318753515071,34.7997241075681,0 33.28262867675443,34.79967786034585,0 33.28237235527605,34.79941203058115,0 33.28210269631641,34.79961805671434,0 33.28165901911905,34.79927896028554,0 33.28175442421347,34.79910543041093,0 33.28188597081279,34.79899427941134,0 33.28149487895097,34.79870129431596,0 33.2809525410638,34.79846250193164,0 33.28085761342192,34.79747265832114,0 33.28021324988823,34.7975402715237,0 33.28023277690963,34.79800399956359,0 33.27980534326272,34.79816116262018,0 33.27977902266309,34.7982153933163,0 33.27945665692111,34.79866003793096,0 33.27846385739424,34.79861364394186,0 33.27838506631323,34.79838039982094,0 33.27841146124145,34.79816074969013,0 33.27795125226199,34.79807925627996,0 33.27751079443286,34.79794624034571,0 33.27710000313397,34.79764239006209,0 33.27710670124361,34.79737663325898,0 33.27683735645794,34.79688841897591,0 33.27697561988388,34.79646541507705,0 33.27670936872899,34.79641109595504,0 33.27666345834795,34.79616430452238,0 33.2764039431232,34.79576287420738,0 33.27705172553504,34.79539155527336,0 33.27728506922521,34.79551637298349,0 33.27734424807754,34.79549740766197,0 33.27748242833458,34.79525881118882,0 33.27713083796869,34.79491972140973,0 33.2774005306834,34.79462150526282,0 33.27753210422592,34.79444798806843,0 33.27761765141795,34.79428259235528,0 33.27763415143251,34.79414158249812,0 33.27754542361507,34.79407647174071,0 33.27746980944817,34.79408458325133,0 33.27724284869245,34.79439094965689,0 33.27710142480868,34.79454005683633,0 33.2768021886076,34.79473792646301,0 33.27657531798267,34.79483005795379,0 33.27611831856533,34.79496279178662,0 33.27553636439608,34.7951605682556,0 33.27507934798098,34.79532312826811,0 33.2746124589146,34.79549924328199,0 33.27431653175528,34.79563202510613,0 33.27395151397792,34.79588139002921,0 33.27375418361603,34.79605488087742,0 33.27365221114334,34.79617959117019,0 33.27350743884306,34.79643445313382,0 33.27327078284574,34.79636928849262,0 33.27317741177361,34.79649138558646,0 33.27302406465864,34.79669191120126,0 33.2726589587118,34.79708771102121,0 33.27200145121326,34.79713358154299,0 33.27190628571806,34.79680812836747,0 33.27193591030084,34.79673763152851,0 33.2714495186518,34.79646356355482,0 33.26983463523204,34.79788126096826,0 33.2684866333438,34.797410249999,0 33.26854589476827,34.7972421403899,0 33.26821076474579,34.79691116656306,0 33.26788852952578,34.7970357883984,0 33.26749421442698,34.79672648399487,0 33.26714581270134,34.79663414784888,0 33.26688274596037,34.79675336273286,0 33.2667447512053,34.79663398900072,0 33.26592272028497,34.7969319598709,0 33.26558083541161,34.79692097482693,0 33.26544948764154,34.79667685712473,0 33.26500323587357,34.79667735990608,0 33.2649030474247,34.79667747253434,0 33.2650033434114,34.79649990016588,0 33.26566974664415,34.79532001497951,0 33.26541322956647,34.79529763258599,0 33.26520623225478,34.79525299661655,0 33.26537299831512,34.79484096292801,0 33.26558923898531,34.79448092424917,0 33.26572900197353,34.7940651655398,0 33.26619255332763,34.79406163938216,0 33.26653486987543,34.79358284673538,0 33.26723698664192,34.79350515858998,0 33.26710679212023,34.79295192285655,0 33.26718805565555,34.79251015124916,0 33.26670661284776,34.79233917967698,0 33.26704870328329,34.79223536080706,0 33.26700831905421,34.79202372455185,0 33.26744040771421,34.7919385042734,0 33.2676833005133,34.79215764423444,0 33.26784535343227,34.79208345403192,0 33.26756213359227,34.79155986161702,0 33.26750825561995,34.79133708342812,0 33.26750848958766,34.79092869286734,0 33.26798568509238,34.79063929186508,0 33.26795430643099,34.79043137167739,0 33.26808430211457,34.79029833887351,0 33.26833789928055,34.79003881438096,0 33.26828148809732,34.78976463474574,0 33.26842410707023,34.78968957070828,0 33.26870609127825,34.78911731195841,0 33.26958314864808,34.78856348786294,0 33.26965614168572,34.78842514560598,0 33.26931866315547,34.78816941950511,0 33.26922339791572,34.78805796958949,0 33.26993848466189,34.78781902262603,0 33.26997458387773,34.7871767596673,0 33.27008209904361,34.78667215372877,0 33.27016557299036,34.78656076755814,0 33.27070956910338,34.78685589017418,0 33.27093457431281,34.78677902632382,0 33.2711043727178,34.78657492458764,0 33.27116827045749,34.7860732922401,0 33.27160785320999,34.78566341704578,0 33.27129399242336,34.78581732034434,0 33.27117491294992,34.78567309304341,0 33.27169901465267,34.78518100296692,0 33.27166374589783,34.78511946713592,0 33.27176309250738,34.78502119577417,0 33.27175933399077,34.78461813323963,0 33.27254989928145,34.78428416553416,0 33.27291531478931,34.78426790849747,0 33.2728238893872,34.78379892784369,0 33.27313515198776,34.78367473570902,0 33.27361077625351,34.78348496209412,0 33.27420278387219,34.78335024150632,0 33.27448467589348,34.7832624254508,0 33.27422277268457,34.78279046312129,0 33.2747758477056,34.7825804494347,0 33.27480419597892,34.78242879558265,0 33.27460642719133,34.7820437383933,0 33.27460650402672,34.7818862419991,0 33.27467729953489,34.78167626910706,0 33.27439486298908,34.78093535859504,0 33.27439496018436,34.78073702882874,0 33.2744424042228,34.78037544573413,0 33.27454178193184,34.78019197166795,0 33.27470466738042,34.78009371860541,0 33.27520828222708,34.78014814425401,0 33.27571735084504,34.78006664459085,0 33.27591527226019,34.78013087390902,0 33.27613417073737,34.78070843146689,0 33.27622607211441,34.78072596004058,0 33.27632533226434,34.78011933818879,0 33.2764738250989,34.78006688691197,0 33.2767000797273,34.78002612551358,0 33.27680626292034,34.77971699896428,0 33.27679927856025,34.77956533116942,0 33.27671453561566,34.77934947700453,0 33.27617031778914,34.77902264369239,0 33.27588481339951,34.77888164055494,0 33.27579576308945,34.77871919600419,0 33.27582414134951,34.77850921206428,0 33.27593041168981,34.77803092212483,0 33.27596082415067,34.77770852809515,0 33.27603671270816,34.77749430138361,0 33.27594496851189,34.77715011205896,0 33.27612409516998,34.77678120992302,0 33.27617858677493,34.77646770181619,0 33.27619000866836,34.77595217016253,0 33.27572338439185,34.77591597421404,0 33.27573833561694,34.77579550741051,0 33.27576739948746,34.77556131949576,0 33.27569010462647,34.77541975565111,0 33.27556908836866,34.77528650570842,0 33.27540434641494,34.77514213862471,0 33.27554237408877,34.77487853482702,0 33.27553906018954,34.77477030068015,0 33.27547854859817,34.77471200151319,0 33.27537772417327,34.77455377855835,0 33.27534107499462,34.77382943002863,0 33.27524389515071,34.77308285759184,0 33.27532124761705,34.77309398247005,0 33.27572145249352,34.77315794391587,0 33.27576190035219,34.77296091346536,0 33.27583605106476,34.77263068471463,0 33.27586977466607,34.77244197908819,0 33.27586665873216,34.77191468087351,0 33.27587345208862,34.77177036995875,0 33.27605884874742,34.7708879016023,0 33.27602523539262,34.77084626282441,0 33.27450514820965,34.77065982532923,0 33.27449172292184,34.77060431583917,0 33.27461659186348,34.76972460375912,0 33.27468410683112,34.76920843219468,0 33.27465721552461,34.76918066933723,0 33.27440500405104,34.76912507984593,0 33.2744554951107,34.76903906604171,0 33.2747819733224,34.76851742714717,0 33.27477866527065,34.76840364166706,0 33.27456345650485,34.76833696306783,0 33.27443231999948,34.76828974191682,0 33.27440207269543,34.76824532579999,0 33.27437190083637,34.76805105008481,0 33.27430808304088,34.7678845150333,0 33.27400884124348,34.7677317740464,0 33.27382055749838,34.76763180214252,0 33.2738105332543,34.76750136194109,0 33.27383416126137,34.76732652762892,0 33.27381741908496,34.76717665896067,0 33.27377384465914,34.76688524492857,0 33.27370331150529,34.76670205393959,0 33.27363274613428,34.76658546998593,0 33.27341086787754,34.76641887936361,0 33.27340751709668,34.76639390204652,0 33.27355555822736,34.76626074133389,0 33.27369689362961,34.76608317160539,0 33.27391896911276,34.76585290288884,0 33.27391227564009,34.76578629470286,0 33.27386527240974,34.76562808796686,0 33.27371424030466,34.7650174815773,0 33.2737345013567,34.76485097615434,0 33.27378164347353,34.76472888107841,0 33.27390942154322,34.76476222715191,0 33.27388927987067,34.76468728816842,0 33.27380192458149,34.76452351818457,0 33.27359032360529,34.76399060026652,0 33.27358030685335,34.76384628288177,0 33.27362073673328,34.76369920816164,0 33.2737824399105,34.76312756361772,0 33.27387670915262,34.76291389950574,0 33.27418289933615,34.76257542358424,0 33.27420986189165,34.76245332055264,0 33.274102244529,34.76246438667997,0 33.27373906591875,34.76243651021318,0 33.27368863068322,34.76242261670407,0 33.27361468712041,34.7623421094487,0 33.27361807280985,34.76229493296055,0 33.27375604447456,34.76210903843062,0 33.27389401267087,34.76192591844118,0 33.27380011946482,34.76139026402349,0 33.27373287805126,34.76135971328046,0 33.27365888495042,34.76137911494476,0 33.27348400047781,34.76141235885301,0 33.27346380443432,34.76144842925122,0 33.27343684354689,34.76156498094616,0 33.27338637572328,34.7616149179502,0 33.27306253127434,34.76163116954267,0 33.27305680407316,34.7616314564296,0 33.27292563556574,34.76167026446831,0 33.27274063888267,34.76174513234592,0 33.27250855894027,34.76182553391271,0 33.27228320837835,34.76190593621608,0 33.27210157314142,34.76198357931385,0 33.27182912950892,34.76208339076452,0 33.27152304233292,34.76220816864046,0 33.27145235038343,34.76234413026998,0 33.27139180612033,34.76236630952343,0 33.27127081375256,34.7622330549064,0 33.27115990315183,34.76211090533486,0 33.27116675485795,34.76187223579546,0 33.27118700509504,34.76173348216639,0 33.27123746097831,34.76170852284709,0 33.27135515577231,34.76171689029911,0 33.27144934930027,34.76165586967393,0 33.27167476566031,34.7614561316992,0 33.27185129492594,34.76128860344354,0 33.27253645404486,34.76080387311349,0 33.27261228954232,34.76092667061138,0 33.27277319638935,34.76092672674454,0 33.27295839611751,34.76091676798099,0 33.27306009596396,34.760891529861,0 33.27335160258342,34.76081918902141,0 33.27380091444411,34.7608406385284,0 33.27393756022842,34.7607905742154,0 33.27417900593742,34.76061276411441,0 33.2739953826047,34.76050747042923,0 33.27454978906057,34.75980485783909,0 33.27424772943145,34.75976967842373,0 33.27396544362588,34.75965934141108,0 33.27394785934899,34.75838402662215,0 33.27390253924378,34.75794303951988,0 33.27358428560979,34.75691692117964,0 33.27331715240288,34.7568804989576,0 33.27307006847045,34.75621519841993,0 33.27327968179434,34.75593214732858,0 33.27341625955261,34.75599733728232,0 33.27348459842256,34.7559284582673,0 33.27340419213682,34.75584449647675,0 33.27331318193271,34.755717935566,0 33.27324499929617,34.7554761302042,0 33.27336655285939,34.75523188245212,0 33.27328619886887,34.75504519448862,0 33.27316484024867,34.75490484339274,0 33.27303963807584,34.75467709965096,0 33.27296163361545,34.75453520879205,0 33.27264604796962,34.75427703060279,0 33.27271152695238,34.75386238952705,0 33.27234598321338,34.7533586517107,0 33.27273312474885,34.75318340035852,0 33.27298056390257,34.753120847968,0 33.27303444891369,34.7531005001843,0 33.27317943990585,34.75304575111382,0 33.27329487069928,34.7528967122761,0 33.27338754851154,34.75271759937809,0 33.27351216087907,34.75241823188134,0 33.27303138646787,34.75216999358323,0 33.27297802488292,34.75214244014907,0 33.27258325081979,34.75241039491992,0 33.27261809379211,34.75254319952021,0 33.27249968507256,34.75257823569209,0 33.27190767328298,34.7526882697595,0 33.27175913353957,34.75228858691492,0 33.27166661297846,34.75216077231894,0 33.27098107069825,34.75119088850131,0 33.27065944661584,34.75090890089811,0 33.27044308514866,34.75067366650036,0 33.2705747278052,34.75038668498101,0 33.27117337294992,34.75033977647852,0 33.27124607664507,34.75026554688225,0 33.27111071441983,34.7500020644033,0 33.27093490575412,34.74952219383925,0 33.27070423723341,34.74945821891774,0 33.27067875818096,34.74885563123977,0 33.27033893762332,34.748561107706,0 33.27014938215616,34.74825536392621,0 33.27001731590891,34.74829415012724,0 33.27024372474856,34.74780691078787,0 33.27020125884617,34.7477505203047,0 33.26956848329135,34.74752228320433,0 33.26973711514415,34.74722168241232,0 33.26906159240437,34.7467819515306,0 33.26904833219165,34.74677332047771,0 33.26872374551393,34.74653973895949,0 33.26859705394276,34.74678177616268,0 33.26852309463998,34.74692306765711,0 33.2684422598415,34.74678171629674,0 33.26840021974552,34.74670820186081,0 33.26840291288351,34.74624258438437,0 33.26869713379531,34.74629086429294,0 33.26867760173519,34.74643134528084,0 33.268735961518,34.74643538127748,0 33.26879683586143,34.74629290966313,0 33.26913250298306,34.74615254810117,0 33.2692953359459,34.74632721607212,0 33.26984512340798,34.74596215010116,0 33.26957310655197,34.74533185688168,0 33.26978560906988,34.74472817820119,0 33.2698864325182,34.74461051500327,0 33.26997795429352,34.74433911168837,0 33.26978539505833,34.7442112025692,0 33.26905570738678,34.74430810309487,0 33.26886351994798,34.74444651256696,0 33.26850377865542,34.74416941231937,0 33.26781050342413,34.74457455504206,0 33.2676864974262,34.7445504241616,0 33.26707612084701,34.74456222652918,0 33.26694973288697,34.74445380075326,0 33.2671224263886,34.74438563123466,0 33.26712988175109,34.74410867115763,0 33.26726120347457,34.74409467361867,0 33.26752412208379,34.74358700834808,0 33.26739042938856,34.74349463787858,0 33.26692839409926,34.74351051196692,0 33.26728127086346,34.74302696694433,0 33.26710894355725,34.74246695244978,0 33.2672379158272,34.74230644443307,0 33.2671432429923,34.74202342239856,0 33.26733789069817,34.7418268153522,0 33.26705113947671,34.74150558607725,0 33.26705174942709,34.74044991380558,0 33.26747257186706,34.74018716584999,0 33.26828757043329,34.73946697394326,0 33.26839935476869,34.73959144961621,0 33.26892958443347,34.73933877182046,0 33.2693893405644,34.73900377993541,0 33.26919973522384,34.73889733787221,0 33.26963758234973,34.7386004694626,0 33.26958167914106,34.73856030860924,0 33.26965953730781,34.73847203084235,0 33.27089768608168,34.73757335501808,0 33.27061334582903,34.73729026765953,0 33.2705988447786,34.7371256908332,0 33.27100496377474,34.73702749568376,0 33.27107081217637,34.73665422167185,0 33.27166180289844,34.7364015535461,0 33.27171049706293,34.73627713760922,0 33.27148936078235,34.73602819299099,0 33.27139470350198,34.73570102116081,0 33.27191040874446,34.73526167583474,0 33.27221948195871,34.73472591895887,0 33.27278858711522,34.73444514061737,0 33.27270361909067,34.73418420292219,0 33.27297202249046,34.73412412945831,0 33.27309755697672,34.73409603250566,0 33.27297141672352,34.73393990133679,0 33.27243419529566,34.7332749455734,0 33.272779499272,34.73319277961641,0 33.27289149084359,34.73290381236915,0 33.27285025781958,34.732705107558,0 33.27296671213676,34.73250906757372,0 33.27298647931339,34.73247579170179,0 33.27308756260491,34.73237726587102,0 33.27311744696922,34.73231093674667,0 33.27305963326325,34.73227774733925,0 33.2729657744305,34.73222386534022,0 33.27290155000323,34.73218699602195,0 33.27295138355487,34.73202683751025,0 33.27282209107,34.73191589998562,0 33.27267798499037,34.73158728374401,0 33.27247400715575,34.73161185524292,0 33.27217058903616,34.73150907248968,0 33.27172279574074,34.73161569855023,0 33.27137956083283,34.73156218382433,0 33.27111078219816,34.73182083459173,0 33.27098144185413,34.73180846492387,0 33.27065320412903,34.73161120605036,0 33.26994164253458,34.73189844187733,0 33.26975258546189,34.7319230127161,0 33.26953377298826,34.73177096840326,0 33.26955375357492,34.73162312099541,0 33.26969316648882,34.73140960437265,0 33.26955392881532,34.73130276810516,0 33.26907623227355,34.73150383754233,0 33.26876806583747,34.73101086961722,0 33.26882782564294,34.73089589297754,0 33.26931547388773,34.73068661539947,0 33.26999205469341,34.73067044006405,0 33.27033528667112,34.73073217196797,0 33.27098216361076,34.73044080478142,0 33.27163396120676,34.73025211261517,0 33.27090776700824,34.73001774707353,0 33.27031075362989,34.73009967144948,0 33.26966392090234,34.7303006802937,0 33.26924612611416,34.73014445392548,0 33.26937562671175,34.72986111314517,0 33.27002754741751,34.7294342181489,0 33.26996289804529,34.72939723010602,0 33.26891820543208,34.72939683909781,0 33.26864960792073,34.7293310235391,0 33.268500434642,34.72920364732197,0 33.26836627962804,34.72891609982478,0 33.26853084604243,34.72820152820358,0 33.26821766341055,34.72780712680543,0 33.26814842233107,34.72709246614674,0 33.26848686715037,34.72678456450408,0 33.26935766774933,34.72633311310257,0 33.26946217114052,34.72625922327557,0 33.26914409725099,34.72572518355486,0 33.26906958503571,34.72553212177365,0 33.26917920128416,34.72521180985183,0 33.26919928679752,34.72487092772778,0 33.26927406988069,34.7245711378913,0 33.26965710175956,34.72457128137504,0 33.26965222819991,34.7243864601978,0 33.27011477042041,34.72453448651533,0 33.27032367835861,34.7245715277071,0 33.27122409376455,34.7244856053935,0 33.27147275062421,34.72460890748124,0 33.27158714467941,34.72465001895721,0 33.27179635210202,34.72411206356658,0 33.27170693721504,34.72386560674792,0 33.27186615888463,34.72379173612544,0 33.27203056078521,34.72331947808937,0 33.2721004643583,34.72281022200122,0 33.27211544977811,34.7226870140711,0 33.27189659463028,34.72265818704535,0 33.27253389350756,34.721516637908,0 33.27253897524061,34.72130717817121,0 33.27293022530355,34.72140867456475,0 33.27329993535792,34.72150458205591,0 33.27356361108291,34.72142252931697,0 33.2736979391379,34.72138150480171,0 33.27383240073854,34.72106940997224,0 33.27406624478361,34.72095859701845,0 33.27504116261705,34.72102052755821,0 33.27530507605969,34.72044562020876,0 33.27544443070925,34.72027727469118,0 33.275479375357,34.7200103248099,0 33.27614125810119,34.71933286575899,0 33.27689253813737,34.71891828739103,0 33.27721579632549,34.71905392247192,0 33.27732210527029,34.71906000882677,0 33.27748646633701,34.71888660449761,0 33.27752693965454,34.71890280721038,0 33.27766451537926,34.71895788252652,0 33.27780637138807,34.71907509769817,0 33.27789469676642,34.71910725979775,0 33.27796729802092,34.71913369643973,0 33.27822086426816,34.71931186934782,0 33.27839180136509,34.71942172635754,0 33.27852514735241,34.71977454651999,0 33.27868501308497,34.71996056261762,0 33.27889207989416,34.7201259548978,0 33.27892310565228,34.72022858156205,0 33.27888161913059,34.7203625442061,0 33.27879869775041,34.72051359789516,0 33.27876755810259,34.72066751510081,0 33.27883656552257,34.72076445495941,0 33.27904019974572,34.72088138480819,0 33.27903123099042,34.72096823903389,0 33.27917819884898,34.72110661808,0 33.28024131109301,34.72161431848869,0 33.28060031174525,34.72172559030705,0 33.28095591774893,34.72170288677443,0 33.2811871658581,34.72185117711098,0 33.28174288864029,34.72212213038151,0 33.28218124598197,34.7223645430624,0 33.28250916070289,34.72252996013292,0 33.28342405380466,34.7225273510601,0 33.28405583072166,34.72256456963697,0 33.28532974290471,34.72265610234029,0 33.28548853551072,34.72270175013672,0 33.285554028768,34.72273346975167,0 33.28558863897054,34.72275023340352,0 33.28567791273755,34.72292564484997,0 33.28574388723131,34.72305527497537,0 33.28583709212364,34.72309520578725,0 33.28594266112616,34.72303596346421,0 33.28597089661132,34.72303883055709,0 33.28604869165352,34.72304673045808,0 33.286092305288,34.72305115881064,0 33.28610050114087,34.72305199144835,0 33.2863218565578,34.72322764655878,0 33.28656597610259,34.72347539647662,0 33.2870695148533,34.72384893470372,0 33.28743866309043,34.7240084556538,0 33.28823195512689,34.72413939961159,0 33.28927188164977,34.72436228749029,0 33.28992023357132,34.72443822717791,0 33.29108026842296,34.72465620450369,0 33.2914172165722,34.724682267117,0 33.29167706715171,34.72466733089328,0 33.29177469736597,34.72464568010459,0 33.29179268991371,34.72464169039771,0 33.2918877235215,34.72462061546354,0 33.29256492414662,34.7245937157699,0 33.29258744781939,34.72459532037217,0 33.2927130208604,34.72459653768717,0 33.29276544714617,34.72459704634099,0 33.29276554211918,34.72459704160541,0 33.29277202894952,34.72459710804966,0 33.2927736995108,34.72459712296569,0 33.29279123063643,34.72459729628324,0 33.29303332377603,34.72463175684332,0 33.29319312339279,34.72462730405268,0 33.29319395638028,34.7246272804128,0 33.29344149602474,34.72462038407615,0 33.29374413467644,34.72462879468296,0 33.29407002694574,34.72460965914301,0 33.29430703122128,34.72459379617059,0 33.29451069976631,34.724578012429,0 33.29473281289975,34.72454077664234,0 33.2949252708831,34.72449749490659,0 33.2950806667922,34.72444818710615,0 33.29524343901222,34.72438968612323,0 33.29538398476619,34.72433123881615,0 33.29544977430436,34.72433525666975,0 33.29546043529659,34.7241957183262,0 33.29546908832025,34.72400767522548,0 33.29548553546612,34.72377871105098,0 33.29547382865419,34.72361292129828,0 33.2954523036205,34.72349943760924,0 33.29550640768684,34.72344051104339,0 33.29559404259538,34.72347086351057,0 33.29561163261078,34.72368917364602,0 33.29560167098631,34.72389106193307,0 33.29614385760962,34.72389990015597,0 33.2961755976778,34.72359516124446,0 33.29617560969482,34.72336003664586,0 33.29614588085124,34.72319784343515,0 33.2960712426281,34.72314961798554,0 33.29582928854888,34.7231383109245,0 33.29553178463821,34.72315908967186,0 33.29538759635279,34.72317299018221,0 33.29529022592512,34.72320860782789,0 33.29522946216797,34.72312513610959,0 33.29531237869927,34.72303721629832,0 33.29550460588332,34.72302740469782,0 33.29577725110335,34.72298829107949,0 33.29619502680691,34.7229663999497,0 33.29634023889303,34.72299997705295,0 33.29642595813126,34.72300328062211,0 33.29659936144083,34.72298591464691,0 33.29699185793555,34.72296366314553,0 33.29724435636901,34.72292157725341,0 33.29744480987141,34.72290414767935,0 33.29754585138542,34.72290618345205,0 33.29759439973365,34.72288662027275,0 33.29769661047702,34.72286731088295,0 33.29777080416273,34.72283520959147,0 33.29787585990449,34.72282711904002,0 33.29794421828467,34.72283442682792,0 33.29800681829193,34.72282404028695,0 33.29805411039289,34.72280981216236,0 33.29807331758273,34.72281042954981,0 33.29838745068425,34.72282051690554,0 33.29921447955323,34.72270770207032,0 33.29988275292035,34.72259100767728,0 33.30017364674858,34.72248191447807,0 33.3003800392147,34.72245637119119,0 33.30067404783343,34.72248597932125,0 33.30102305341241,34.72265812390014,0 33.30146983925087,34.72283852185281,0 33.30157220698567,34.72287985396726,0 33.30254600679752,34.72330092963237,0 33.30290402848086,34.72348749686716,0 33.30322001759017,34.72368510693693,0 33.30344888915086,34.72360629355006,0 33.30355424187131,34.72357001487352,0 33.30367216627677,34.7235294065864,0 33.30398121963664,34.72342298057164,0 33.30426980312259,34.72331098336601,0 33.30426514925644,34.72329832039636,0 33.30437557508006,34.72326536646308,0 33.30439178663106,34.72322759966341,0 33.30442974269852,34.72313917210396,0 33.30445219955066,34.72308685627601,0 33.30442834631221,34.72300127674002,0 33.30442376152071,34.7227274682942,0 33.30447057059698,34.7226062215034,0 33.30450855736228,34.72254443031503,0 33.30458864914074,34.72251971927388,0 33.30461550431257,34.72253965563176,0 33.30461627730914,34.72256585026432,0 33.30452655337695,34.72275368741345,0 33.30456492148503,34.7230281037257,0 33.30458541747631,34.72317469554378,0 33.30495035855308,34.72309181241356,0 33.30496481607784,34.72298528620362,0 33.3049596530477,34.72278640897544,0 33.30497055595175,34.72259792147084,0 33.30499283059274,34.72257758275281,0 33.30503918134806,34.7225636652816,0 33.30508491770178,34.72256974381899,0 33.30508711621805,34.72260946586361,0 33.30506760327175,34.72277825990533,0 33.30511301073715,34.72301872007028,0 33.30515145343328,34.72303355204047,0 33.30521426077197,34.72301769840313,0 33.3054546636801,34.72295701506943,0 33.3058613317138,34.72285626573086,0 33.30615365586461,34.72278876899816,0 33.30657384499378,34.72263911219979,0 33.30695879335973,34.72226079247772,0 33.30678877869528,34.72126796608547,0 33.30646267811864,34.72130230869634,0 33.30530126512635,34.72150437810676,0 33.30524244360903,34.72151269907903,0 33.30522731572511,34.72152102414725,0 33.30484245022277,34.72155845832866,0 33.30479371024618,34.7215751059301,0 33.30469623208709,34.72159729953006,0 33.30468593894787,34.72159559896751,0 33.3044453298677,34.72169889895711,0 33.30434559153349,34.72171605062292,0 33.30400827273529,34.72183914948587,0 33.30393533842854,34.72186243600575,0 33.30385314769075,34.7218713672041,0 33.30375729823334,34.72183245560394,0 33.3037367164812,34.72175446710417,0 33.30375925605107,34.72166623862725,0 33.30391045994139,34.72154416377382,0 33.30406701413415,34.72150108156647,0 33.30406769294851,34.72150010989602,0 33.30410466885756,34.72149178813145,0 33.30419542607927,34.72145710486173,0 33.3044525714902,34.72136970644675,0 33.30448282406441,34.72135722127603,0 33.30468618379024,34.72130728373752,0 33.30482399824997,34.72127537961318,0 33.30499878648766,34.72124209097674,0 33.30542902808473,34.72118523227433,0 33.30568448977741,34.72111587109075,0 33.30623574142167,34.72097714852165,0 33.30638532092092,34.72094524370898,0 33.30770461131437,34.7207427355827,0 33.30852475405646,34.72062066922746,0 33.30947598309233,34.72045836289992,0 33.3103410314771,34.72031692397398,0 33.31184365739208,34.71991121313631,0 33.31260659641685,34.71959997432329,0 33.3126037485718,34.7194756786291,0 33.31261035012864,34.71935577586493,0 33.31267842357544,34.71918775651062,0 33.31269403161669,34.71914923381327,0 33.31271154913003,34.71914434888658,0 33.31272176822411,34.71914149926834,0 33.31278077502871,34.71912504570273,0 33.31287277298515,34.71909939267812,0 33.31301686096369,34.71910152864317,0 33.31344651825068,34.71850598083651,0 33.31342661625407,34.71799084833199,0 33.31340615094447,34.71783417314658,0 33.31342168668996,34.71770604399426,0 33.31349348293951,34.71735915485486,0 33.31354865834495,34.71702478831558,0 33.31366196474305,34.7168153341815,0 33.31390894542567,34.71646984703996,0 33.31407269277845,34.71631655274373,0 33.31446425041143,34.71606253298042,0 33.31479736214981,34.71591354126672,0 33.31530248055424,34.71580882443173,0 33.31551844746399,34.71573947271878,0 33.31572007837305,34.71567837372859,0 33.31707044030298,34.71538661449333,0 33.31758963241656,34.7153075983123,0 33.31812369038531,34.71519035953901,0 33.31851142114815,34.7151267875623,0 33.31872717215631,34.71506919665744,0 33.31880685847845,34.71511278947902,0 33.31883361460613,34.71512742597255,0 33.31884423122506,34.71527612285256,0 33.31876485832635,34.71530344751914,0 33.31866647932011,34.71532810032119,0 33.31840145697234,34.71537815653102,0 33.31775589216493,34.7155221138381,0 33.31775340225342,34.7155224755091,0 33.31749590479195,34.71556990128509,0 33.31698165549795,34.71565239287992,0 33.31598275430252,34.71586319362216,0 33.31541115775228,34.71597928339232,0 33.31538060609947,34.715990832725,0 33.31524904830901,34.71602021480168,0 33.31493068765879,34.71610999292395,0 33.31475126057038,34.7161814073133,0 33.31464105945805,34.71623523538916,0 33.31457937617379,34.71629527270172,0 33.31450544819424,34.71639054291171,0 33.3143810326732,34.71642801339434,0 33.31428679843317,34.71647977435581,0 33.31414920567259,34.71659523280768,0 33.31406099111417,34.71668949929053,0 33.31400897671762,34.71677355436938,0 33.31388133467647,34.71704544067722,0 33.31375923870694,34.71739675328134,0 33.31371483722162,34.71769613333291,0 33.31371672719177,34.71770831717716,0 33.31386136920466,34.71781004369458,0 33.31387639648847,34.71788009570072,0 33.31382116337846,34.7179137598644,0 33.31381048350345,34.71801739997331,0 33.31411581457036,34.71799881282164,0 33.31423523037127,34.71907681393284,0 33.31446903814683,34.71904171340726,0 33.31453793917232,34.71903477545941,0 33.31499001314751,34.71896955751647,0 33.31751253034554,34.71862262283489,0 33.31767554180219,34.71860041670634,0 33.31775311630895,34.71859236896179,0 33.31811536382874,34.7185423866682,0 33.31852185636363,34.71909482675493,0 33.31855644584387,34.7190783837473,0 33.3185729970554,34.7190983349599,0 33.31865400284911,34.7191459368116,0 33.31879756190858,34.71909554798228,0 33.31891470941077,34.71901060285818,0 33.31893304789985,34.71899074426247,0 33.31895882962974,34.71896282691452,0 33.31895925444569,34.71889718113269,0 33.31879973001352,34.71863923882901,0 33.31870049865152,34.71852784300135,0 33.31872079458439,34.71848806235003,0 33.3189402486224,34.71832326819385,0 33.31870493461634,34.71796248666912,0 33.31850023723494,34.71799803485801,0 33.31844077577927,34.71793696278405,0 33.31845801432973,34.71782301762237,0 33.31853080413555,34.71777827693898,0 33.3185737754984,34.71772995423625,0 33.31849779007597,34.717632857776,0 33.317986751787,34.71730692565273,0 33.31776215472588,34.71719472482288,0 33.31767641963295,34.71709912806239,0 33.31771379940078,34.71699003804661,0 33.31783202518913,34.71694172126355,0 33.31800186421995,34.7169545873238,0 33.31807195050553,34.71700168892618,0 33.31811926923872,34.71702896902406,0 33.31815570994515,34.71704997717008,0 33.3182718524715,34.7171344295807,0 33.31834526070738,34.71716857820802,0 33.31840641007095,34.71723011919611,0 33.31845624366336,34.71728027177337,0 33.31853104553606,34.71732818381953,0 33.31858515530917,34.7173885063097,0 33.31871665036071,34.71751381581013,0 33.31889360878947,34.71769217819077,0 33.31891499803361,34.71771373663147,0 33.3190122882031,34.71785741884566,0 33.31904426274851,34.71790759630051,0 33.3190518854143,34.71791955771036,0 33.31907431518695,34.71795475706965,0 33.31909562517134,34.71801249327733,0 33.31917654279876,34.71819163138017,0 33.31922884991656,34.71824709399068,0 33.31927502916208,34.71825400170633,0 33.31949372033646,34.71828671410901,0 33.3198810236641,34.71850246049062,0 33.31990398776697,34.71851525238007,0 33.32001678101888,34.71857808394539,0 33.32024397922026,34.71866120600311,0 33.32030795852251,34.71868163628694,0 33.32037207866942,34.71871593069572,0 33.32036797432405,34.71875856274526,0 33.32036291355289,34.71877400913039,0 33.32030921005344,34.71886746095486,0 33.32022782197055,34.71887662644759,0 33.32013241160342,34.71887623714634,0 33.3199943396041,34.71876928048039,0 33.31996202853394,34.71874874703663,0 33.31988954729531,34.71870268500786,0 33.31969448785404,34.71863869719176,0 33.3196076684956,34.71863227216491,0 33.3195618416705,34.71876130184803,0 33.31958763235311,34.71886716533137,0 33.31964815709129,34.71888923667413,0 33.3197064935361,34.71886751155324,0 33.31978421168591,34.71902522619287,0 33.31978798982664,34.71911046780168,0 33.32015644732491,34.71904380497259,0 33.32015780807917,34.71904844574335,0 33.32023096022402,34.71904922707224,0 33.32037577694358,34.71901864998031,0 33.32038884317603,34.7190877219103,0 33.3203461532346,34.71911606894369,0 33.32003902326844,34.71918019770635,0 33.31998965974131,34.71918572804264,0 33.31988653656384,34.71927400975362,0 33.31988518178454,34.71927516988999,0 33.32003289236967,34.71927750619862,0 33.32026490202438,34.71926867787865,0 33.32044568154713,34.71926179942306,0 33.32068746408785,34.71923276440392,0 33.32090882181701,34.71922098716039,0 33.32140093324945,34.71914251825589,0 33.32174483974286,34.71906248717169,0 33.32185313855804,34.71901384565249,0 33.32251054318946,34.71880985365761,0 33.32293994870415,34.71872040060972,0 33.32350235749912,34.71864662551388,0 33.32380826468507,34.71862150216431,0 33.32409897572364,34.71863560063655,0 33.32439634055817,34.71868813538005,0 33.32460392800135,34.7187461668676,0 33.3249027192876,34.71880732989875,0 33.32533214738586,34.71892417576481,0 33.32581668889556,34.71911396709143,0 33.3261739279522,34.71931475086938,0 33.32636964977239,34.71941200227126,0 33.32702523061852,34.71979474506642,0 33.327228548352,34.71985277360249,0 33.32773589020796,34.71998136859714,0 33.32806272385369,34.72010056852039,0 33.32822804204724,34.72016644488325,0 33.32844467361902,34.72029820594459,0 33.32854524969437,34.72037200267634,0 33.32856243066564,34.72038460929616,0 33.32858149606599,34.72039859908624,0 33.32875632343384,34.7205052628755,0 33.32887651929012,34.72059310618783,0 33.32899387003834,34.72071232711748,0 33.32907179089646,34.72080801984994,0 33.32918024431483,34.72099724709614,0 33.32937590548764,34.7213633653888,0 33.32944243661127,34.72151710779634,0 33.32953937198764,34.7216881030802,0 33.3296591069752,34.72184183845777,0 33.32978833766525,34.72196419599006,0 33.32989855427655,34.72200967933924,0 33.3301075864799,34.72211006177098,0 33.3304059281701,34.72221827697581,0 33.33046293811488,34.72224964744547,0 33.33051805091566,34.72230141234735,0 33.33066057719985,34.7223798387848,0 33.33077507892371,34.72247709339923,0 33.33093561609295,34.722586727067,0 33.33134900089789,34.72295373694973,0 33.33152269128839,34.72309279659747,0 33.33163558723267,34.72317020902977,0 33.33172070231861,34.72327200046701,0 33.33189787031077,34.72343973647956,0 33.33222962116118,34.72370351820257,0 33.33315402506886,34.72439055936592,0 33.33331576703889,34.72443822264643,0 33.33343547503424,34.7244742700204,0 33.33352532852086,34.72450771625832,0 33.333625188304,34.72456904884574,0 33.33374938853868,34.7246453321508,0 33.33387097556214,34.72473421142724,0 33.33388667653305,34.72474462266864,0 33.33398560302467,34.72481021873239,0 33.33427741274755,34.72499654146017,0 33.33444415437944,34.72509258367684,0 33.33497393057539,34.72548393809557,0 33.33504862242362,34.72554558119421,0 33.3354238029923,34.72578783929016,0 33.33562413760225,34.72592476248369,0 33.33575208686822,34.72599999310101,0 33.33590840754643,34.72607452695161,0 33.33638951775737,34.72626514436354,0 33.33682358110948,34.72648973177942,0 33.33696761750615,34.72656735778912,0 33.33745079669248,34.7268657360686,0 33.3376763747309,34.7269591867809,0 33.33772760619955,34.72698041123859,0 33.33812193348432,34.72722927596378,0 33.33831792611893,34.72736970980747,0 33.33837514990201,34.72741497829628,0 33.33862729905903,34.72755583437764,0 33.33866429192211,34.72757649944477,0 33.33868089456025,34.7275857744144,0 33.33886636943262,34.72736891743092,0 33.33885008133712,34.72735751686307,0 33.33884585245378,34.72735455650249,0 33.33887233690286,34.72732486887284,0 33.33887578805781,34.72732721659825,0 33.33889238467562,34.72733850091714,0 33.33892740415674,34.72729755550015,0 33.33891546004319,34.72728815492038,0 33.33897569615048,34.72721830964444,0 33.33898716408993,34.72722768179514,0 33.33900280578836,34.72720939446068,0 33.33898937314919,34.72720098693517,0 33.33905042451882,34.72713108346231,0 33.33906294234174,34.72713766175461,0 33.33925283254537,34.72691777648985,0 33.33924115565968,34.7269093722153,0 33.33934586005342,34.7267902226959,0 33.33936698760657,34.72676617951571,0 33.3393762260398,34.72677317076737,0 33.33938438784412,34.72677934739075,0 33.33938714678093,34.72678143560609,0 33.3393937829012,34.7267864571978,0 33.33940176820053,34.72679192395888,0 33.3394036197221,34.7267931916662,0 33.33940370074378,34.72679324642971,0 33.3394121207324,34.72679901126472,0 33.33928817527321,34.72693919508124,0 33.33927800108024,34.72693246605063,0 33.33908473553279,34.72715011069761,0 33.33909841344754,34.72715788650581,0 33.33903590070742,34.72722954651349,0 33.33902424321605,34.7272216190386,0 33.33900741668796,34.72723933363813,0 33.33902137890516,34.72724881423164,0 33.33896172888561,34.72731699019255,0 33.33894881577315,34.72730853614405,0 33.33891220389329,34.72735231208365,0 33.3389304626794,34.72736394514653,0 33.33890553723462,34.72739197967572,0 33.33888492975073,34.72738112930249,0 33.33870472549465,34.72759908676922,0 33.33888233274123,34.72769830273729,0 33.33888370187074,34.7276996204732,0 33.33890473086907,34.72768585162262,0 33.33892633982234,34.72770904203555,0 33.33890514644229,34.72772025660123,0 33.33890769176598,34.72772270420357,0 33.33923459084874,34.72791015588803,0 33.33964704993853,34.72804499768012,0 33.34005852919624,34.72808023186823,0 33.34012215351041,34.72808568027362,0 33.34054713417007,34.72822818253802,0 33.34064619508835,34.72825957666259,0 33.34076487377588,34.72833190534227,0 33.34085866486865,34.72840145492272,0 33.34116440131739,34.72858274411224,0 33.34156217147439,34.72876332197489,0 33.34244629581608,34.72913879421972,0 33.34260262973055,34.72921762024596,0 33.34272943480756,34.72928641654496,0 33.34338950756356,34.72960457774953,0 33.34385420440882,34.72981330677661,0 33.34410695969601,34.72994492683642,0 33.34410908150695,34.72994577542904,0 33.34488693149927,34.73025684915044,0 33.34551495674261,34.73033925161023,0 33.34642165349194,34.73052856355935,0 33.34696426507482,34.73068566037911,0 33.34899001031782,34.73078506163719,0 33.34907172434698,34.73078909322415,0 33.34917112671296,34.73079399805415,0 33.3511031802264,34.73092036913621,0 33.35127917950276,34.73092031696897,0 33.35284716420995,34.73087690970051,0 33.35311510827913,34.7307513384923,0 33.3533151541849,34.73085694885412,0 33.35337116841028,34.73088004769997,0 33.35347917459941,34.73089322291278,0 33.35378320584309,34.73096247584255,0 33.35426729741808,34.73115055172644,0 33.35465934767187,34.73125940007571,0 33.35477135744355,34.73127587535558,0 33.35507140934928,34.73137484702587,0 33.35525946541983,34.73148706257879,0 33.35536938924209,34.73157478050625,0 33.35538109834039,34.73164706251139,0 33.35544159233525,34.73166368745419,0 33.35577159856408,34.73175437929692,0 33.35618762094799,34.73178726132765,0 33.35712365189057,34.73182326555408,0 33.35810770613483,34.73190547998078,0 33.36163970691879,34.73182162129842,0 33.36237970139491,34.7317949177199,0 33.36464350710912,34.73154941096373,0 33.36523773272027,34.73148496022327,0 33.36595550723201,34.73140710575667,0 33.36661533930189,34.73112613199358,0 33.36746718549032,34.73088139757321,0 33.36816312158093,34.73078202762368,0 33.36845113952237,34.73080501758243,0 33.36975119664044,34.73089030051636,0 33.37046520867012,34.73132045034855,0 33.37050236837396,34.73134283690327,0 33.37065732078055,34.73164979264273,0 33.37073003434976,34.73191292514407,0 33.37077183934213,34.73227221047004,0 33.37082289355182,34.73271097466653,0 33.37114903157043,34.73355870240552,0 33.37199552786164,34.73456412471491,0 33.37260666471376,34.73495452833399,0 33.37344954011953,34.73553877359758,0 33.37412773655014,34.73580998820174,0 33.37426878797892,34.73592075363748,0 33.37473543085473,34.73605352834243,0 33.37629995643203,34.73660969102526,0 33.37720306549075,34.73689185914866,0 33.37770674218334,34.73716037309536,0 33.37844890921966,34.73765319818768,0 33.37886204650191,34.73802150344449,0 33.37924154284778,34.73829284551297,0 33.38042027583923,34.73902372158027,0 33.38090722491052,34.73933379289343,0 33.38140419715183,34.73957735811158,0 33.38156881528754,34.73975460224705,0 33.38240850317851,34.74041083119174,0 33.38352693928439,34.74122760293738,0 33.3838863196892,34.74148508862049,0 33.38482996147221,34.74197776278407,0 33.38562581430975,34.7423402824595,0 33.38674104702421,34.74326786334206,0 33.38717766178407,34.74353914853571,0 33.38786616964899,34.74395713321766,0 33.38819242721947,34.74414763122262,0 33.38829939410859,34.74419688579433,0 33.38951375746529,34.74461871025116,0 33.38971212039654,34.74472456409347,0 33.39070896077984,34.74540272781243,0 33.39148135729845,34.74588248897565,0 33.39188058475344,34.74607084123362,0 33.39192670355803,34.74609117035678,0 33.39249264649064,34.7463406293021,0 33.39315749221176,34.74649447231238,0 33.39332496829255,34.7465547349106,0 33.39336864571165,34.74657045139526,0 33.39363383609086,34.74666587300216,0 33.39383504790705,34.74676512028968,0 33.39408113697677,34.74688650247583,0 33.39463369272939,34.747033831571,0 33.39501421801076,34.74712534897242,0 33.39523010627357,34.74716265583273,0 33.39659315429159,34.74751972477656,0 33.39683694374443,34.74763760307555,0 33.39701787034255,34.74772508493727,0 33.39737022300673,34.74776525861314,0 33.39778790375826,34.74785451412912,0 33.3980087674134,34.74792250885864,0 33.39871926184527,34.74802899349933,0 33.39918299731725,34.74808889431151,0 33.3994450859994,34.7481013909746,0 33.39986082182385,34.74816290788775,0 33.40032110960552,34.74830107662759,0 33.40039512433366,34.74832329403233,0 33.4004744425886,34.74834710305415,0 33.4006924522327,34.74843648846412,0 33.40101316288926,34.74850836889683,0 33.40126001532943,34.74863735219029,0 33.40185254718189,34.74884374244179,0 33.40238262772256,34.7489986691147,0 33.40300490984092,34.74919473109797,0 33.40378849556144,34.7494033497443,0 33.40497145706637,34.74962751752281,0 33.40578948423113,34.74972199600795,0 33.4063770481858,34.74975959094576,0 33.40717875802188,34.74985407216514,0 33.40724028424703,34.74985591274749,0 33.40774709850868,34.74987107327574,0 33.40841142411292,34.74987056540072,0 33.40847461105366,34.74987784999962,0 33.40853431967717,34.74988473426817,0 33.40875509149602,34.74985762314625,0 33.40888177521747,34.74982424601708,0 33.40961126984855,34.74973018042129,0 33.41019111494033,34.74973131356471,0 33.41063652131575,34.74970085413478,0 33.41083436957892,34.74977518267853,0 33.41098034221514,34.74981944118836,0 33.41127217962121,34.74981604098171,0 33.4114910270237,34.74978892689495,0 33.4118443167547,34.7497934010283,0 33.41194226001728,34.74981392497567,0 33.41221309160527,34.74990720901889,0 33.41231252880367,34.74996216236443,0 33.41236892576296,34.74986938637593,0 33.41273990538087,34.75003253646086,0 33.41270976241633,34.7500744130302,0 33.41295641017951,34.75007783540364,0 33.41308951642669,34.7501047377884,0 33.41304828205234,34.74997208853931,0 33.41307980560865,34.74992632462847,0 33.41317602846638,34.74997938429225,0 33.41319426850389,34.75013526453448,0 33.41330558204606,34.75018019042912,0 33.41342569828116,34.75028993173586,0 33.4136614232694,34.75038697540116,0 33.41405422181188,34.75048209101556,0 33.4144229769612,34.75053760955969,0 33.41466732209588,34.75054461327839,0 33.41501881757384,34.75076220309315,0 33.4151040259099,34.75086656910357,0 33.41537706524703,34.75114724507214,0 33.41585304016124,34.75146376363901,0 33.41610418467737,34.75167783105557,0 33.41635265889313,34.75198872079388,0 33.41643944095206,34.75214556325272,0 33.41663303755524,34.75241565441603,0 33.41690816938949,34.75261709519111,0 33.41698466146454,34.75272506936075,0 33.41700815827126,34.7528252930485,0 33.41709094657545,34.75282843145687,0 33.41720347651376,34.75288214689345,0 33.41723127591553,34.75295611259821,0 33.41703543210937,34.75294162093286,0 33.41712327912211,34.75333043637509,0 33.41721116915205,34.75352740907773,0 33.41726126880221,34.75348678818415,0 33.41734592111953,34.75340331081955,0 33.41740302345914,34.75344900103585,0 33.41728751696527,34.75362599847016,0 33.41726370273656,34.75364300941778,0 33.41729567180881,34.75371335859137,0 33.41746430638993,34.75394256179157,0 33.4176277549596,34.75409301329618,0 33.41781555819395,34.75423690675967,0 33.41818462762237,34.75458777029515,0 33.41864093883375,34.75507607525998,0 33.41892768347102,34.75555402995857,0 33.41915952629813,34.7560165957667,0 33.41931922342862,34.75636038042614,0 33.4194001512566,34.75652236826332,0 33.41959250005683,34.75680310313977,0 33.41975257512342,34.75701003950418,0 33.42000602842349,34.75730242440392,0 33.42026926489871,34.75756509096311,0 33.42043081965635,34.75748754537836,0 33.42040795100186,34.75744855254666,0 33.42046007071286,34.75741756715707,0 33.42062486515449,34.75754925868448,0 33.42066894394095,34.75760168471169,0 33.42062334934339,34.7576380464679,0 33.42047330153131,34.75756822319747,0 33.42034570602623,34.75762804619244,0 33.42055541274861,34.75783043716508,0 33.42094016890615,34.75807201211758,0 33.42091395344082,34.75800101035789,0 33.42100191404404,34.75795519630493,0 33.42115049345315,34.75815012707101,0 33.42115934085468,34.7582017525688,0 33.42136478926407,34.75832314755952,0 33.42166702949799,34.75853763028818,0 33.42188256279768,34.75877207252586,0 33.42210608104047,34.75897071694644,0 33.4222363680249,34.75911244095685,0 33.42274767680624,34.75952292578748,0 33.42298570874581,34.75976132281485,0 33.42312077701815,34.75987387888971,0 33.42318204201019,34.7599987554961,0 33.42321395428517,34.76003466763057,0 33.42323773910075,34.76006143389826,0 33.4233026674224,34.7600950344021,0 33.42397034271139,34.76054647509438,0 33.42485053244562,34.76118183018151,0 33.42491350655979,34.76124667204055,0 33.42496639026331,34.76130112375796,0 33.42581463079753,34.7620266277376,0 33.4287809827491,34.76355787013546,0 33.43049940875181,34.76417637193099,0 33.43091766618684,34.76429253758531,0 33.43149981228682,34.76443652142154,0 33.43431262517382,34.76518211580272,0 33.43585355468267,34.76545553109933,0 33.43693152702451,34.76559881996551,0 33.43820213591423,34.76576770153414,0 33.43825549498845,34.76580283835187,0 33.43835410871362,34.76580053892811,0 33.43860468631972,34.76582667834528,0 33.43932457907775,34.76600190279304,0 33.43979389098531,34.76614658743975,0 33.44080733356539,34.76655904431541,0 33.44127934654028,34.76672351564553,0 33.44206857925926,34.76691624821922,0 33.44335393097941,34.76734379346746,0 33.44396214725036,34.76767527261157,0 33.4440288114941,34.76769499759839,0 33.44459384793713,34.76768559873534,0 33.44628412334716,34.76795872197614,0 33.44670417048063,34.76895682512807,0 33.44713654465298,34.76931926893753,0 33.44725926254069,34.76938731777739,0 33.44815272958255,34.7697338590385,0 33.44959558747426,34.77042011309499,0 33.45073030502495,34.77107106154669,0 33.4510887112104,34.77120526029174,0 33.45275263390879,34.77168489456727,0 33.45352643176366,34.77183249213776,0 33.45452235033566,34.77206447539604,0 33.4548806612709,34.77213622059899,0 33.45542059124782,34.77220914339374,0 33.45563257456593,34.77226579166078,0 33.45637462349093,34.77252580446531,0 33.45674309009928,34.77263361194356,0 33.4570206849563,34.77270544447128,0 33.45775080593293,34.77286971707749,0 33.45812594586715,34.77294559649278,0 33.4583530677871,34.77300222179648,0 33.45866257433324,34.7730490359329,0 33.4595241242251,34.77312203460281,0 33.45953844773355,34.77312324797977,0 33.45953923942085,34.77312318459426,0 33.45959646461441,34.77311857670952,0 33.45952626118297,34.77453029739928,0 33.46002537979117,34.77463209286717,0 33.46034476096437,34.77521283009217,0 33.45992435728463,34.77541843455869,0 33.46047360381121,34.77572010592601,0 33.460945180856,34.77598805443181,0 33.46070665813799,34.7763344834836,0 33.46125963644451,34.77666454091801,0 33.461621909069,34.77692415404162,0 33.46240792143439,34.77749475069163,0 33.46366097976913,34.77758816531544,0 33.46369460475823,34.77800142809487,0 33.46427876187729,34.77830924479277,0 33.46340248607284,34.77990771457031,0 33.46301425642397,34.78086833672333,0 33.46179994679294,34.78060484171583,0 33.4610240213033,34.78180860281585,0 33.46098585564815,34.7823525146998,0 33.46071607994682,34.78239884920347,0 33.46072582132188,34.78250454522096,0 33.46045098561684,34.78246404717711,0 33.46019521216535,34.78255941873443,0 33.45982944883492,34.78262877205883,0 33.4596512478902,34.78268231060687,0 33.46010253851293,34.7831790589318,0 33.45929892778464,34.78352572461242,0 33.45854471522892,34.78370227199532,0 33.45809681394073,34.78381724269271,0 33.4579459242827,34.78384424364958,0 33.45778710002922,34.78326331199193,0 33.45728912485634,34.78342755919103,0 33.4569918409204,34.783466437341,0 33.4568270347797,34.78345950268208,0 33.45694846740106,34.78390085841998,0 33.45726722881427,34.78443587635438,0 33.45813120643955,34.78507079843733,0 33.45810340619946,34.78583746440395,0 33.45779390622749,34.78615204931833,0 33.45730298356361,34.78593865365896,0 33.45677081238006,34.78654483761701,0 33.4567708331978,34.78654861371159,0 33.45512242961973,34.78559564370907,0 33.45408096324316,34.78514261702062,0 33.45411401573845,34.78532752534507,0 33.45339694880623,34.78560585810438,0 33.45338363123233,34.7856814311852,0 33.45233724530437,34.78600252175786,0 33.45196308875313,34.78621537638666,0 33.45132738476699,34.78630836323452,0 33.45117999709485,34.78613898179206,0 33.45114649845359,34.78587099849318,0 33.45108990973922,34.78556533899717,0 33.4510109095792,34.78534661451021,0 33.45046668823588,34.78542792934445,0 33.45047697125522,34.78563557998556,0 33.45033061160236,34.78565500240433,0 33.450234722517,34.7856968950278,0 33.45008362164669,34.78568612529079,0 33.4496158593604,34.7858189238781,0 33.44926317391385,34.78589866123544,0 33.44848272049651,34.78640576530418,0 33.44814824155776,34.78650410679627,0 33.44734902210861,34.78689175303021,0 33.44649898979316,34.78709282881891,0 33.44569637517994,34.78729361779713,0 33.44519190817072,34.78728094781364,0 33.44460491664713,34.78719115614874,0 33.44452366425443,34.78735113216496,0 33.44423710984243,34.78750701856977,0 33.44430941004675,34.78786482326721,0 33.44395792349044,34.78794352587138,0 33.44414822436323,34.78843154554347,0 33.44434771383243,34.78844533352179,0 33.4446112265227,34.78836695116087,0 33.44540884844042,34.78835919703368,0 33.4459240879828,34.78819279236644,0 33.44643476380946,34.78826834059358,0 33.44735455793296,34.7880762523438,0 33.44799869087608,34.78788517202506,0 33.44830312217398,34.78778243706607,0 33.44852059948934,34.78786873399771,0 33.44880795844474,34.78786283583192,0 33.44904379292976,34.78808938741987,0 33.4489712707049,34.78877675795779,0 33.44875801036429,34.78946948721323,0 33.44869469968693,34.78969230293394,0 33.44868446261447,34.78996814907489,0 33.4477467154803,34.79009741027882,0 33.44766015856951,34.78927514055069,0 33.44740840179318,34.78935832437099,0 33.44743369272172,34.78969694480137,0 33.44686592122572,34.7899119358232,0 33.44693805224281,34.79023586741906,0 33.44719562097947,34.79126739925324,0 33.44731908712266,34.79211689871084,0 33.44649753097796,34.79224659137892,0 33.44642739226378,34.79209974113945,0 33.44613871729366,34.79184336187772,0 33.44606226327104,34.79144318400994,0 33.44581795006917,34.79114577775947,0 33.44468342838037,34.79110497799778,0 33.44444039373878,34.79104457158873,0 33.44385162133461,34.79116930901898,0 33.44334028236482,34.7909545983956,0 33.44253197635139,34.79078182745673,0 33.44180972779737,34.7909560763809,0 33.44170204338319,34.79119755991355,0 33.44125071536092,34.7910888666633,0 33.44123613890013,34.79114204193406,0 33.44067262650433,34.79136065757692,0 33.44088405380842,34.79199735743587,0 33.4415837682913,34.79223999986512,0 33.44235052015164,34.79297683872272,0 33.44187535159823,34.79304394591717,0 33.44140107502029,34.79327858599407,0 33.44155115533172,34.7935559115862,0 33.44210287143828,34.7948370108864,0 33.44211897478634,34.79506987240999,0 33.44146701661477,34.79542774786496,0 33.44175226205874,34.79597019288791,0 33.44241354071016,34.79550195100174,0 33.44257301130187,34.79568116883434,0 33.44318080154338,34.79540108831043,0 33.44328633289597,34.79568265919975,0 33.44324531561602,34.79634887743266,0 33.44371719036924,34.79658825052099,0 33.44324870528038,34.79698224372942,0 33.44206694605523,34.79738700048116,0 33.44163144659116,34.79746622148487,0 33.44101427395716,34.79784848582986,0 33.44168606055066,34.79841813336662,0 33.44119169901042,34.7986078965024,0 33.44007684777145,34.79855881040026,0 33.43994985840737,34.79796675450639,0 33.44002327258466,34.79779895035289,0 33.43990775565721,34.79750106772176,0 33.43968997211359,34.79753454482967,0 33.43951460159142,34.79715923803359,0 33.43941208340033,34.79650988439219,0 33.43919862731557,34.79642484231429,0 33.43771246575819,34.7964097647921,0 33.43784184106798,34.79651962959551,0 33.43752243035776,34.79700704956724,0 33.43751795176635,34.79709696446726,0 33.43709748751794,34.79706919615291,0 33.43640299349743,34.79702332738496,0 33.43484867388145,34.79723729304766,0 33.4340415002377,34.79728920950477,0 33.43165547816068,34.79760416897403,0 33.43106597997947,34.79760217200855,0 33.43067528401129,34.7977261441147,0 33.42985264821465,34.79766367108932,0 33.42897101457638,34.79768721391378,0 33.42832264385623,34.79779574132418,0 33.42772821177566,34.79779783182905,0 33.42786630749477,34.79863912689758,0 33.42806944937662,34.79864658511218,0 33.42802647208745,34.79895729629649,0 33.42793364032384,34.79920688782692,0 33.42771458096395,34.79899516919615,0 33.42716946673227,34.7989562209879,0 33.42687567867378,34.79962332078095,0 33.42680548055723,34.80042039738384,0 33.42672166657258,34.80049833127411,0 33.42667792537083,34.8006619371484,0 33.42664159982635,34.80130361571439,0 33.42569781714722,34.80177275956444,0 33.42553820188115,34.80156083006921,0 33.42494945234201,34.80170999466385,0 33.42459915421748,34.80198908618471,0 33.42450950292776,34.80189541388147,0 33.42424293688332,34.80208022723289,0 33.42417494420353,34.80234607430335,0 33.42474539359102,34.8024911921491,0 33.42522772510717,34.80284093126598,0 33.4253442465621,34.80334313935211,0 33.42440427715022,34.80359568679349,0 33.42451380863579,34.80370154859524,0 33.42392121674289,34.80407138180119,0 33.42364883127051,34.8040886762809,0 33.42337981272476,34.80379539770096,0 33.42327594667615,34.80382844912734,0 33.42319382381433,34.80384834754362,0 33.42320002397371,34.80399251898744,0 33.42329206179992,34.80407357175326,0 33.42343639541512,34.80420383196314,0 33.42326862906823,34.80433517698523,0 33.42315693326319,34.80446880490675,0 33.42309884710011,34.80450505488717,0 33.42319852206869,34.80476755985977,0 33.42327639790922,34.80482678281674,0 33.42359409838662,34.80507913404007,0 33.42375488149532,34.80498823294084,0 33.42370839996571,34.80541751393599,0 33.4235677703202,34.80587974601983,0 33.42450580230484,34.80606719693461,0 33.42438498107523,34.80623826156651,0 33.42457797805636,34.80649606330447,0 33.42386315421711,34.80652615928003,0 33.42347936172294,34.8064396646268,0 33.4234379644354,34.80657533689789,0 33.42146122899634,34.80689017959017,0 33.42123536773553,34.80675666204656,0 33.42099583822296,34.80666033824203,0 33.42021075277583,34.80692022132998,0 33.41926220440654,34.80705493404552,0 33.41892713658198,34.80724753573897,0 33.41876708483958,34.80711093035598,0 33.4186221185565,34.80721715367515,0 33.41814384378934,34.80717879441314,0 33.41802047230917,34.80675917580257,0 33.41816246479461,34.80675011520217,0 33.41763607240025,34.80610042895075,0 33.41750826906861,34.80617516035401,0 33.4175675793667,34.80625782250692,0 33.41757339292018,34.80672356381456,0 33.41741839359037,34.80690125631111,0 33.41684490408607,34.80721753996843,0 33.41663946124162,34.80700965016839,0 33.4162307300602,34.8077111199108,0 33.41584674882807,34.80788358522223,0 33.41541337755838,34.80757229525445,0 33.41504165284161,34.80756586343821,0 33.41465141215305,34.80744994777069,0 33.41307490665914,34.80764663897506,0 33.41264787488967,34.8075054767968,0 33.41137360434276,34.80767158209556,0 33.41100155811667,34.80738886579329,0 33.41103809394803,34.80719174073264,0 33.4105580557671,34.80712810441774,0 33.40976767258083,34.80715062276504,0 33.40894015911034,34.80685140843121,0 33.40853800742016,34.80702691362762,0 33.4083502878899,34.80718709377731,0 33.40847140756241,34.80773449040216,0 33.40875330567786,34.80777470310458,0 33.40887420522418,34.8081250037008,0 33.40879295723943,34.80852262793217,0 33.40898917766924,34.80865050434894,0 33.40900806468661,34.80909690391408,0 33.40885107629683,34.80934297426437,0 33.40854893877375,34.80947123473895,0 33.4083265786229,34.80971061606136,0 33.40810390400789,34.80966698834065,0 33.40755637148933,34.81136040979921,0 33.40777094030954,34.81145458280567,0 33.4077079840345,34.81177638533745,0 33.40782282850282,34.81219070532742,0 33.40936078265374,34.81213224766122,0 33.40948541995252,34.81217089615853,0 33.41157341335234,34.8126274647284,0 33.4119333146092,34.8129826252387,0 33.41194157818331,34.8130617930461,0 33.41148014119391,34.81321545644608,0 33.41008577237981,34.81381794865483,0 33.41006939116667,34.81378258508197,0 33.4099019035257,34.81378439970179,0 33.40989399282643,34.81401182552166,0 33.4094528127162,34.81402396055309,0 33.40916265602587,34.81392647954679,0 33.40888661622208,34.81366726765747,0 33.40820005282615,34.81343363862789,0 33.40753431958967,34.81355880500334,0 33.40704402082952,34.81348337049747,0 33.40699723397206,34.81365523386345,0 33.40706508136906,34.81405442758228,0 33.4067085426906,34.81487677188002,0 33.40680467552636,34.81499630519478,0 33.40674150727882,34.81513280441438,0 33.40635123810784,34.81501180803708,0 33.40626150903588,34.81514327277946,0 33.40569567759657,34.81511337197296,0 33.40573830198964,34.81486739156902,0 33.40550328224137,34.81475638467073,0 33.40497003681302,34.81463717363288,0 33.40490678350262,34.81469786676168,0 33.40420204856928,34.81465795531869,0 33.40373034227655,34.81477958873728,0 33.40321553971394,34.81471426406254,0 33.40271312281252,34.81477021846467,0 33.40262343729892,34.81494884865767,0 33.4010584861334,34.81463494837888,0 33.40116239834507,34.81438555743841,0 33.40082725107717,34.81422744365157,0 33.40043076139472,34.81400367282725,0 33.40048995264196,34.81396151652776,0 33.40071656380026,34.81385017543978,0 33.40024853956798,34.81358265429434,0 33.39950474602765,34.81328668677375,0 33.39956384665263,34.81315693389899,0 33.39916556113295,34.81316731773813,0 33.39912475442109,34.81321114478132,0 33.3985856071862,34.81329574425216,0 33.39825273594469,34.81335998779204,0 33.39789519579018,34.81326589419733,0 33.39772365189172,34.8132980174107,0 33.39764411662996,34.81342273127705,0 33.39690188846576,34.8134031185901,0 33.39672165479147,34.81339835533416,0 33.39662269437759,34.81330254569075,0 33.39610753774594,34.81311472217141,0 33.39604565959932,34.81316583737821,0 33.39552299706912,34.81307837330602,0 33.39557922207064,34.81280235637476,0 33.39451743505654,34.81244822410416,0 33.39383464991298,34.81191821435204,0 33.39255037394977,34.8117873207794,0 33.3922833958882,34.81209035180078,0 33.39091180063637,34.81151775113868,0 33.39046354209056,34.81199292953069,0 33.38950671605426,34.81234297349432,0 33.38936520621786,34.81232842446466,0 33.38830137139622,34.81178457774745,0 33.38823065857693,34.81167709556862,0 33.38853228857654,34.81123337548637,0 33.38849195956175,34.81108376187487,0 33.38822662861847,34.81080525416198,0 33.38707431353507,34.80997800354042,0 33.38695517536157,34.8103983152598,0 33.38652359218185,34.81007420427093,0 33.38627361211759,34.80994800909162,0 33.38554433081059,34.81086239264997,0 33.3856171902786,34.81094568103594,0 33.38533700912083,34.81107845687141,0 33.3854382313991,34.81129792758021,0 33.38597368551292,34.81112199383222,0 33.38598331839746,34.81095263601004,0 33.38613112074333,34.81101168887842,0 33.38629967198199,34.81119527757539,0 33.38641707240383,34.8112722680758,0 33.38645968334817,34.81155091032843,0 33.3871115404995,34.81280587439091,0 33.38856278326004,34.8125406753391,0 33.38851551278966,34.81314104769734,0 33.3890674780672,34.8131998515551,0 33.38905243010244,34.8133808600443,0 33.38973695525625,34.81345212496857,0 33.38992965166609,34.81389016775719,0 33.3891862733745,34.81482966985479,0 33.38890716596966,34.81495618084506,0 33.38830035948174,34.81432394533879,0 33.38832190457455,34.81411605216682,0 33.38672273963186,34.81422542454779,0 33.38672506673333,34.8144046305087,0 33.38663604705537,34.81448532619728,0 33.38663073453649,34.81462421480881,0 33.38633971345787,34.81461402157947,0 33.3863727199321,34.81401685412221,0 33.38596853279554,34.81398483372249,0 33.38579714389898,34.81430033792456,0 33.3860430553196,34.81473566884502,0 33.3860301220333,34.81485574403845,0 33.38559876464836,34.81609521401315,0 33.38611383805446,34.81618989320838,0 33.38594906176638,34.81662008671651,0 33.38632563441427,34.81678731105212,0 33.38598519968827,34.8169507034766,0 33.38647047855379,34.81776760398344,0 33.38604141715015,34.81789240397424,0 33.38584467079912,34.81778768301503,0 33.38533840449224,34.81783904998404,0 33.38520051056174,34.81803773303311,0 33.38478490471446,34.81728024244943,0 33.38469583434936,34.81730807053482,0 33.38464392518781,34.81759662409412,0 33.38457117977645,34.81765490728503,0 33.38202508068104,34.81712409073724,0 33.38191308942717,34.81702379650547,0 33.38133705514277,34.81678038938291,0 33.38141266344016,34.81622659824368,0 33.3807412212448,34.81622875424611,0 33.37973904543287,34.81566478834703,0 33.37955655098205,34.81570968736506,0 33.37920721369919,34.81575725342444,0 33.37798253231169,34.81465139683912,0 33.37782187249009,34.81483068642016,0 33.37766569003841,34.81494504947273,0 33.37736592107756,34.81509780689165,0 33.37668562627098,34.81509291049599,0 33.37649224937641,34.81511092856517,0 33.3765483489229,34.81457686295339,0 33.37583743807486,34.81413472585234,0 33.37601516637276,34.81393650346943,0 33.37566885225259,34.81369074829694,0 33.37551336244758,34.81345035656516,0 33.37555367684545,34.8133896655964,0 33.37563291613607,34.81341179858482,0 33.37619144558057,34.81341939774535,0 33.37626835585905,34.81342661944081,0 33.37687529552155,34.81301938571934,0 33.37704037425409,34.81294045097937,0 33.37761172507535,34.81278424758339,0 33.37761845294514,34.81154307194257,0 33.37763214827685,34.81105847074384,0 33.37703437061015,34.81072545035423,0 33.37748592803824,34.81020730992476,0 33.37747696050624,34.81004868355087,0 33.37743138289579,34.80990985387474,0 33.37691189252562,34.80965385228605,0 33.3771399561186,34.80954621214802,0 33.37730065056935,34.80942606102587,0 33.37742872455654,34.80926470915599,0 33.37729385949937,34.80906406626128,0 33.37698963442512,34.80901404294908,0 33.37638790702405,34.80918997096705,0 33.37611571799238,34.80838905060864,0 33.37620222841985,34.80784600859615,0 33.37613914289244,34.80774389175602,0 33.37581970129729,34.8078499291419,0 33.37512711797115,34.80736088945832,0 33.37525010195976,34.80720671302556,0 33.37500662516599,34.8070276251953,0 33.37483034352367,34.8066227023979,0 33.37451957147341,34.80651712313364,0 33.37410043174882,34.80678793055377,0 33.37382020334088,34.80686333347892,0 33.37371602912653,34.8070246704332,0 33.3737815499007,34.80750670616504,0 33.37307324986758,34.80752138184895,0 33.3730998715887,34.80830450692837,0 33.37324115601373,34.80838149920366,0 33.3732869048871,34.80855351505548,0 33.3735368689199,34.80869138470484,0 33.37334157389947,34.80904989380733,0 33.37315483534484,34.80922202235831,0 33.37286379678769,34.80938344821756,0 33.37270301949919,34.80939606884032,0 33.37252048667593,34.80936927325633,0 33.37229221944231,34.80918838198276,0 33.37248759548591,34.80893740013662,0 33.37201347756446,34.80827634703446,0 33.37204814754131,34.80814013293076,0 33.37186755423503,34.80776925870828,0 33.37202818861284,34.80755234222723,0 33.37200843146238,34.80725845060049,0 33.3721386476542,34.80704692476338,0 33.37188207117718,34.80676210537533,0 33.37237269983394,34.80617586595903,0 33.37188528266931,34.80614688108486,0 33.3714512608547,34.80586089189737,0 33.37081927559309,34.80625723167064,0 33.37051517124102,34.80600780716797,0 33.3704880353577,34.80598555094383,0 33.37048088009931,34.80541549375624,0 33.37041308162633,34.80535404814309,0 33.36990830282505,34.80538501495673,0 33.36981352068852,34.80549962765631,0 33.36915306943012,34.80578774777867,0 33.36873639067011,34.80584102559952,0 33.36844458626926,34.80569310068586,0 33.3680763811914,34.80555516256334,0 33.36794214405602,34.80545590233273,0 33.36778752511036,34.80545022182113,0 33.36721143279596,34.80520735922219,0 33.36666099415083,34.80513579675544,0 33.36633423316838,34.80524944048958,0 33.36552753472106,34.80500966620893,0 33.36515829278304,34.80506850178318,0 33.36510065294332,34.80499028187234,0 33.36509254268853,34.80480268187979,0 33.36504762316903,34.80460397825355,0 33.36495322106904,34.80440595576043,0 33.36450295780718,34.80433065032602,0 33.36445333939373,34.80442018768244,0 33.36370403258541,34.80435101911316,0 33.36370828443454,34.80459371570192,0 33.36355065966115,34.80460096017767,0 33.36345529625419,34.804803307897,0 33.36297787284457,34.80615594864634,0 33.36275963003471,34.80621304551992,0 33.36256883523291,34.8063160396134,0 33.36241044703662,34.80630619970439,0 33.36232679716016,34.80633923904662,0 33.3625236664299,34.80708330668993,0 33.36252752864547,34.80747038066701,0 33.36180758704889,34.80813078659092,0 33.36182220605904,34.80824780274919,0 33.36179317110976,34.80837383969801,0 33.36169620579334,34.80849192223885,0 33.3615749846746,34.80853295230062,0 33.36106561994774,34.80844612975936,0 33.36090545529458,34.80828415812525,0 33.36004696488654,34.80841350453301,0 33.36005434254768,34.80859953933194,0 33.3600360701181,34.80881375182402,0 33.35966128467386,34.808481412735,0 33.35964305975573,34.80824262103403,0 33.35943892621591,34.80748654851125,0 33.35927156250155,34.80745060339528,0 33.35896591623572,34.80733969214583,0 33.35880941057707,34.80720172245298,0 33.35890755487495,34.80704565608515,0 33.35853273722273,34.80683875032418,0 33.35753240043201,34.80701313844092,0 33.35711399308082,34.80692326638238,0 33.35611723501975,34.80698361780352,0 33.35576872995959,34.80705062332385,0 33.35532628201575,34.80749722988318,0 33.35468753509715,34.8069870927244,0 33.35440387406447,34.80719122420894,0 33.35447104680397,34.80731927073638,0 33.35443742035528,34.80745905476059,0 33.3543789163079,34.80761485788075,0 33.35433798058681,34.80762248706549,0 33.35431283945648,34.8076831431539,0 33.35430601988261,34.80769010778415,0 33.35402626091741,34.80799399956042,0 33.35366974393217,34.80802667080915,0 33.35348019139352,34.80782757819183,0 33.35308346765021,34.80801798223435,0 33.35306501786753,34.80814073940988,0 33.35317132269419,34.8082333632826,0 33.35338723804661,34.80829544317317,0 33.35343711087074,34.80832589807338,0 33.35347470787873,34.80836505966275,0 33.35345414403052,34.80842567342718,0 33.3533302454076,34.80849330036209,0 33.35307961497598,34.80857379084397,0 33.35292510216437,34.80861261289618,0 33.35282675888887,34.80864173005786,0 33.35261372167042,34.80878437196097,0 33.35217719029774,34.80898727881581,0 33.35193143541297,34.80911644196578,0 33.35177845844651,34.80918218174191,0 33.35163694813545,34.80921928517035,0 33.35142652390746,34.80931095123804,0 33.35136582020263,34.80938815816914,0 33.35134313699108,34.80949809243746,0 33.35131445058636,34.80956255053394,0 33.35126615522643,34.80960094029316,0 33.35125170175502,34.80961427480032,0 33.35059918343484,34.80983496014176,0 33.35034521615631,34.80976543703844,0 33.35024354657229,34.80977535628968,0 33.35000008457004,34.80977055611514,0 33.35005954596782,34.80963698574424,0 33.34996613206158,34.80962762693501,0 33.34975206708108,34.8098151481971,0 33.34957377087134,34.80974318479699,0 33.34874095670295,34.8104725589141,0 33.34873751787295,34.81095865511526,0 33.34684956313127,34.81152327199736,0 33.34591796232917,34.81086938489364,0 33.34578697430496,34.81082440881161,0 33.34541232745745,34.81103454440291,0 33.34497932780764,34.81084861536842,0 33.34488842464485,34.81098666424031,0 33.34559799089902,34.81136156104252,0 33.34538701398208,34.81144863076052,0 33.3450558784157,34.81126867793492,0 33.34461950548463,34.81182388999782,0 33.34430700427995,34.81183443904975,0 33.34422662634709,34.81193800690547,0 33.34413785509608,34.81193403198844,0 33.34373515310867,34.81191600084272,0 33.34301679302933,34.81154293891895,0 33.3426001323896,34.81146809248455,0 33.34224766948286,34.81146247125641,0 33.34192700491356,34.8113185312523,0 33.34170962227751,34.81160567510439,0 33.34185718049999,34.81170157793014,0 33.34175494284119,34.81187176055567,0 33.3414092020712,34.81205237660196,0 33.34100527317869,34.81194029154631,0 33.34099893869729,34.81198285324813,0 33.34099299918424,34.81225421816914,0 33.34090995518853,34.81240845642549,0 33.34100635036539,34.81256284725976,0 33.34094229326826,34.81257875525726,0 33.34033336251456,34.81251438353458,0 33.33987148580231,34.81225325502649,0 33.3396921407256,34.81231163252517,0 33.3396034572423,34.81252889972236,0 33.3396372538228,34.81265439996574,0 33.33972577174978,34.81286707904027,0 33.33941170642152,34.81331641523948,0 33.33951688550775,34.8134524328145,0 33.33897983874954,34.8136157854453,0 33.33862708261013,34.81353880659317,0 33.33838365437875,34.81356996720751,0 33.33838811343661,34.8137233266464,0 33.33763054795685,34.81381839573197,0 33.33743298028098,34.81366486697484,0 33.33715191849546,34.8137901002586,0 33.3371936938082,34.81366814629207,0 33.33706775045034,34.81366803728474,0 33.33682848026169,34.81368177085887,0 33.33659319419715,34.81357003269816,0 33.33658890793613,34.81351774601416,0 33.33644611752533,34.81348625299534,0 33.3360850183654,34.81345456697609,0 33.33607644000854,34.81334650947828,0 33.33609732620416,34.81328378927428,0 33.3356165582177,34.81315714541909,0 33.33526333196772,34.81281525065774,0 33.33522569326907,34.81290235513686,0 33.33519702422178,34.81333453444585,0 33.33497067775364,34.81355392260929,0 33.33518907946434,34.81360639769762,0 33.33516412650118,34.81374928230229,0 33.33537864291684,34.81398997163628,0 33.33570632213372,34.81411573624846,0 33.33620300804672,34.81445659331482,0 33.3362328513065,34.81472848557796,0 33.33611592991128,34.81510481605636,0 33.33564605251606,34.8153065721216,0 33.33527238287637,34.81529928098622,0 33.33527634980849,34.81515986440604,0 33.33522150354366,34.81499948257382,0 33.33472246109896,34.81534411954232,0 33.33437635278132,34.81561836284133,0 33.33392793389267,34.81611989811966,0 33.33382309985721,34.81619997671455,0 33.3334826251434,34.81596614838399,0 33.33310504605225,34.81615056007437,0 33.33218743521898,34.81606590288825,0 33.33179260101263,34.81597841537319,0 33.33159933438504,34.81590504673664,0 33.33162399022248,34.81557392739262,0 33.3313550074301,34.81541683336653,0 33.33088046301615,34.81537458193409,0 33.33064942330601,34.81531511748815,0 33.3306154848009,34.81509897072333,0 33.33043075674897,34.81511623315989,0 33.3301998735544,34.81515436835161,0 33.32977447625976,34.81557581143068,0 33.32988810809494,34.81573625813167,0 33.32987997197174,34.81590008269977,0 33.3298338722371,34.81595581362109,0 33.32968266009844,34.81592779257203,0 33.32932996004336,34.81594490525754,0 33.3292503929115,34.81608077981477,0 33.32893085000826,34.81582602791464,0 33.32866662517893,34.81603145310971,0 33.3288223090233,34.81622679953018,0 33.32851587891849,34.81629972610543,0 33.32818013458193,34.81642491502265,0 33.32767865861822,34.81662141423058,0 33.32736055279778,34.81728693123903,0 33.32743120234834,34.81758168206755,0 33.32705381744303,34.81794387826232,0 33.32689912557761,34.81800247533651,0 33.32661312736769,34.81811080977643,0 33.32638220391732,34.81814546455605,0 33.32512648307453,34.81813387941315,0 33.32475217148787,34.81822343024258,0</coordinates>
						</LinearRing>
					</outerBoundaryIs>
				</Polygon>
			</MultiGeometry>
		</Placemark>
	</Document>
</kml>