<?xml version='1.0' encoding='UTF-8'?>
<kml xmlns="http://www.opengis.net/kml/2.2">
	<Document>
		<name>LEFKOSIA Community Cluster D</name>
		<Style id="PolyStyle80">
			<LabelStyle>
				<color>00000000</color>
				<scale>0.000000</scale>
			</LabelStyle>
			<LineStyle>
				<color>ffa9e600</color>
				<width>2.000000</width>
			</LineStyle>
			<PolyStyle>
				<color>00828282</color>
				<outline>1</outline>
			</PolyStyle>
		</Style>
		<Placemark id="ID_80016">
			<name>LEFKOSIA Community Cluster D</name>
			<snippet />
			<description>&lt;html xmlns:fo="http://www.w3.org/1999/XSL/Format" xmlns:msxsl="urn:schemas-microsoft-com:xslt"&gt;

&lt;head&gt;

&lt;META http-equiv="Content-Type" content="text/html"&gt;

&lt;meta http-equiv="content-type" content="text/html; charset=UTF-8"&gt;

&lt;/head&gt;

&lt;body style="margin:0px 0px 0px 0px;overflow:auto;background:#FFFFFF;"&gt;

&lt;table style="font-family:Arial,Verdana,Times;font-size:12px;text-align:left;width:100%;border-collapse:collapse;padding:3px 3px 3px 3px"&gt;

&lt;tr style="text-align:center;font-weight:bold;background:#9CBCE2"&gt;

&lt;td&gt;Σύμπλεγμα Δ&lt;/td&gt;

&lt;/tr&gt;

&lt;tr&gt;

&lt;td&gt;

&lt;table style="font-family:Arial,Verdana,Times;font-size:12px;text-align:left;width:100%;border-spacing:0px; padding:3px 3px 3px 3px"&gt;

&lt;tr&gt;

&lt;td&gt;NAME_GR&lt;/td&gt;

&lt;td&gt;Σύμπλεγμα Δ&lt;/td&gt;

&lt;/tr&gt;

&lt;tr bgcolor="#D4E4F3"&gt;

&lt;td&gt;NAME_ENG&lt;/td&gt;

&lt;td&gt;Community Cluster "Δ"&lt;/td&gt;

&lt;/tr&gt;

&lt;tr&gt;

&lt;td&gt;DISTRICT_N&lt;/td&gt;

&lt;td&gt;ΛΕΥΚΩΣΙΑ&lt;/td&gt;

&lt;/tr&gt;

&lt;tr bgcolor="#D4E4F3"&gt;

&lt;td&gt;SHAPE.AREA&lt;/td&gt;

&lt;td&gt;116379104,528439&lt;/td&gt;

&lt;/tr&gt;

&lt;tr&gt;

&lt;td&gt;SHAPE.LEN&lt;/td&gt;

&lt;td&gt;71996,640585&lt;/td&gt;

&lt;/tr&gt;

&lt;/table&gt;

&lt;/td&gt;

&lt;/tr&gt;

&lt;/table&gt;

&lt;/body&gt;&lt;script type="text/javascript"&gt;

				function changeImage(attElement, nameElement) {

				document.getElementById('imageAttachment').src = attElement;

				document.getElementById('imageName').innerHTML = nameElement;}

			&lt;/script&gt;&lt;/html&gt;

</description>
			<styleUrl>#PolyStyle80</styleUrl>
			<MultiGeometry>
				<Polygon>
					<extrude>0</extrude>
					<altitudeMode>clampToGround</altitudeMode>
					<outerBoundaryIs>
						<LinearRing>
							<coordinates> 33.07897414807262,35.03936719928838,0 33.07880693121737,35.0395663230253,0 33.07862687588494,35.03976542059146,0 33.07851366066757,35.03995218466931,0 33.07845421128897,35.0400746551317,0 33.07828787180065,35.04002323729581,0 33.07821320685585,35.03996261254672,0 33.0780107085588,35.03990035189254,0 33.07791220373885,35.03980318061149,0 33.07773760285455,35.03972344645099,0 33.0775860708258,35.03963516713482,0 33.07743895994594,35.03950686437926,0 33.07738997764259,35.0394006765805,0 33.07737657593712,35.03930452233942,0 33.07738156159871,35.03921839730977,0 33.07745884118598,35.03923347115884,0 33.07754099233836,35.03905803623513,0 33.0776060410353,35.03886632259361,0 33.07763085634916,35.03865264987642,0 33.07763096812122,35.03853210804686,0 33.0774722360837,35.03839683212883,0 33.07741394414488,35.03833040568047,0 33.07737024942671,35.03796234324778,0 33.07731047968662,35.03784154210128,0 33.07713622778352,35.0376720873758,0 33.07704544394522,35.03749596208722,0 33.07704817674971,35.03735171747636,0 33.07713142336317,35.03723510979664,0 33.07717051102737,35.03711210390964,0 33.07712125698068,35.03697841824597,0 33.07692423163892,35.03666610132588,0 33.07686176732443,35.0365662804414,0 33.07683210338082,35.03654486520696,0 33.07667625930846,35.03646515905894,0 33.07656493812718,35.03640996404636,0 33.07647232642899,35.03631831173431,0 33.07639088710249,35.0362206136888,0 33.0763055870183,35.03616551563128,0 33.07626104618253,35.03614709061343,0 33.07625416596775,35.0359857457352,0 33.07620268318658,35.03582423866931,0 33.07616200686119,35.03576321627219,0 33.07625896926098,35.03566921273399,0 33.07633396432825,35.03547773049008,0 33.07634912443194,35.03539256176649,0 33.07638655415403,35.03531660418162,0 33.07652347775527,35.03517925560173,0 33.07662462894982,35.03498903939071,0 33.07673045989635,35.03497642832242,0 33.07698997988457,35.0348777438694,0 33.07702211644505,35.0347609117291,0 33.07710714574412,35.03464427133654,0 33.07716574188824,35.03452320368035,0 33.07728797419551,35.03435471941021,0 33.07724121124137,35.03410766201914,0 33.07731633856969,35.03379174393958,0 33.07731669329451,35.03368779344569,0 33.0771859329342,35.03348620948392,0 33.07706225708891,35.03340815275791,0 33.0769410828612,35.03336100050086,0 33.07688179640096,35.03332836059789,0 33.07676334016197,35.03323065915598,0 33.07672881815468,35.03319405617916,0 33.07630314312281,35.03319657813669,0 33.076064996432,35.03336189985429,0 33.07579732098087,35.03347847527949,0 33.07559869969428,35.03366420302953,0 33.0750844242997,35.03352859227147,0 33.07480202919204,35.0336086327293,0 33.07465847088334,35.03361621916953,0 33.0744703703337,35.03362364438517,0 33.07433139524603,35.03373662738493,0 33.07415336269584,35.03369545204323,0 33.07377264068804,35.03358869331944,0 33.07367133207001,35.03361870103163,0 33.0734465993441,35.03364643070939,0 33.0731755508727,35.03362958821319,0 33.07311754547375,35.03360400474107,0 33.07314131663185,35.03345185188078,0 33.07303734032116,35.03328337728141,0 33.07301039722869,35.03323570552169,0 33.07297614284807,35.0330643133571,0 33.07295318497603,35.03298493974913,0 33.07261997776342,35.03302496266502,0 33.07246460745721,35.03315443406331,0 33.07243711799698,35.03326216870381,0 33.07226305596383,35.03320127680051,0 33.071940271322,35.03358069446494,0 33.07168538944699,35.03337678480463,0 33.07160086500389,35.03318618287111,0 33.07119903182841,35.03292465600599,0 33.07070155185476,35.03297677507442,0 33.07052887584785,35.03285462728333,0 33.07033475667747,35.03280184174601,0 33.07015493620344,35.0327028154523,0 33.07000043826347,35.03243896802491,0 33.06990950103374,35.03218403492006,0 33.06928801984575,35.03210655076702,0 33.06916813006004,35.03204535754791,0 33.06879459374619,35.03178939986208,0 33.06866076892921,35.03170821506382,0 33.068559886363,35.03169407017865,0 33.06843881108023,35.03144908484018,0 33.06812099587815,35.03095195659908,0 33.06824747142623,35.03086630982592,0 33.06799280726887,35.03035219981187,0 33.067863192735,35.03014508111143,0 33.06781316874665,35.03002435440228,0 33.06833254916781,35.02971792706742,0 33.06850411281737,35.02953004401562,0 33.06834272525981,35.02883543497239,0 33.06822441690894,35.02857650452351,0 33.06808314863751,35.02866106166872,0 33.06808378827653,35.02848485643788,0 33.06773613913647,35.02819803138546,0 33.06762534335524,35.02806396043479,0 33.06712960158945,35.0277036986402,0 33.06704795249718,35.02771555783515,0 33.06698136242991,35.02766671129906,0 33.06710827803555,35.02744843534568,0 33.06693103473046,35.0272290698905,0 33.06646349684517,35.02727599715148,0 33.06636064378087,35.02700221891317,0 33.06649462037089,35.02688118532052,0 33.06636933560629,35.02665593669695,0 33.06604327040854,35.02656363208862,0 33.06600664887051,35.0264359139356,0 33.065828659075,35.02642312475479,0 33.06573979939188,35.02638027686085,0 33.06554699900254,35.02636135929572,0 33.06545112666256,35.02620912718253,0 33.06546670417203,35.02600869076911,0 33.06533705957955,35.02580774849227,0 33.065129426976,35.02571359187569,0 33.06504887996349,35.02572429351154,0 33.06502226694023,35.02566375551535,0 33.06461402773012,35.02539304874573,0 33.06437895523294,35.02546363888998,0 33.06429851068487,35.02544686637124,0 33.06412418783781,35.02541876836649,0 33.06403034698762,35.0253964526791,0 33.06393010814449,35.02529169423992,0 33.06378284735609,35.02520325187502,0 33.06391769656709,35.02502241114151,0 33.06413910110018,35.02501770879147,0 33.06417284895792,35.02496288346304,0 33.06419422506919,35.02462778665618,0 33.06416747323394,35.02460571230476,0 33.06410732157025,35.02454505751148,0 33.06410740303715,35.02452307894359,0 33.06414806512771,35.02441333159646,0 33.06413475034514,35.0243858118418,0 33.06397407382865,35.02429732540237,0 33.06378646311612,35.02423621564057,0 33.06371281441125,35.02419749127996,0 33.06358574542784,35.0240926420511,0 33.06351197450661,35.02408688452012,0 33.06333095284362,35.02405876543617,0 33.06369626694945,35.02324139704394,0 33.06419688325321,35.02213205846429,0 33.06428217498326,35.02202628974039,0 33.06616427911388,35.02011277059053,0 33.06790908530509,35.02213976815296,0 33.06812967213182,35.02241786109185,0 33.06875924070162,35.0221371756534,0 33.06916607748874,35.02197651976491,0 33.06924331650568,35.02175134493804,0 33.0692029204253,35.02161834204635,0 33.06921226616664,35.02145955617989,0 33.06913595753046,35.02121203060385,0 33.06920874887229,35.02094993955436,0 33.06942659289376,35.02083370352371,0 33.06983379485725,35.0204982102216,0 33.06996944052373,35.02043192154861,0 33.0700696139979,35.02028329993971,0 33.07033171895016,35.02022825427451,0 33.07050842759678,35.01994416146377,0 33.07060455519346,35.01967965637373,0 33.07063215685736,35.01942961479387,0 33.07055414221909,35.01922703967467,0 33.07029114391637,35.01900506042472,0 33.06980480797215,35.01863800319581,0 33.06942304291046,35.01820865614771,0 33.06913613530021,35.01775586369149,0 33.06904794381059,35.01743512550954,0 33.06878720759212,35.01699530501256,0 33.06867273140194,35.01671943903872,0 33.06865791723967,35.01642424503758,0 33.0685549191564,35.01581677947683,0 33.06845014662098,35.01559872428761,0 33.0678691523931,35.01534774842749,0 33.06773838716195,35.01526134681929,0 33.06747235861879,35.01484304692042,0 33.06720437283143,35.01470495385689,0 33.06696533135023,35.01458288600421,0 33.06640170988705,35.01423164052307,0 33.06632395279125,35.01419330663774,0 33.06615729505929,35.01401229574645,0 33.06602037180485,35.01378286008394,0 33.06595407481817,35.01349053308587,0 33.06592086734824,35.01339491074454,0 33.06596045802296,35.0131150415764,0 33.06586583290809,35.01295171852888,0 33.06583288959816,35.01273549423531,0 33.06584278641758,35.01201739488764,0 33.06563404591068,35.01179499721926,0 33.06539551079683,35.01138288126238,0 33.06460511977465,35.01090207272284,0 33.06442176187277,35.0107335007023,0 33.06413790032639,35.01069222056692,0 33.06389330923985,35.01052358362733,0 33.06355963739847,35.010359398136,0 33.06330174836307,35.01020592353851,0 33.06315183613155,35.01003285925442,0 33.06300223861459,35.00972786004568,0 33.06289503637146,35.00943933838776,0 33.0628645531137,35.0092445099454,0 33.06294857681133,35.00902324191689,0 33.06289578257066,35.00874664491551,0 33.06284066476442,35.00847700629173,0 33.06278139194688,35.00797820458818,0 33.06274455711341,35.00783769031153,0 33.06259174448769,35.00762383089498,0 33.06241023946512,35.00715341653458,0 33.06161954042586,35.00660211389036,0 33.06081558922254,35.00534926087328,0 33.06051143575464,35.00497222962146,0 33.05999368660552,35.00451921115406,0 33.05975435213532,35.0043394728312,0 33.05954394719691,35.00420759013891,0 33.05903559207466,35.00404520741498,0 33.05894854458482,35.00398527865892,0 33.05809301879037,35.00297083078539,0 33.05775967761289,35.00263555245238,0 33.05659810304554,35.00170339333938,0 33.05595954447961,35.00134356089065,0 33.05588749408756,35.00114027435524,0 33.05603421484989,35.00071639775897,0 33.0561885962242,35.00049804746529,0 33.05657500453763,35.00013442672647,0 33.057398430092,34.99949093088922,0 33.05745845641981,34.99869722126092,0 33.05655126982523,34.99824122982122,0 33.05647159429597,34.99815144229554,0 33.05642925950113,34.99774508552709,0 33.05639351721347,34.99755382537088,0 33.05630666765407,34.99743415059825,0 33.05575436277265,34.9969448839398,0 33.05560237814309,34.99673545177104,0 33.05533613485336,34.99588052706055,0 33.05526376910755,34.99577880586848,0 33.05495810465028,34.99549356675861,0 33.05481312987548,34.995367791063,0 33.05471903471983,34.99524212478131,0 33.05464744626332,34.99489544954148,0 33.05458990399368,34.99470414178185,0 33.05453211555361,34.99459050209889,0 33.05434360643028,34.99444073401105,0 33.05404620301426,34.99424891111544,0 33.05336697035847,34.99385422530212,0 33.05286094237193,34.99358937520605,0 33.05242751114714,34.99333378899977,0 33.05211641146933,34.99309663529122,0 33.0514817786018,34.99261410428361,0 33.0513040842672,34.99230778917444,0 33.05114081126898,34.99214835198202,0 33.05091754718415,34.99212339149484,0 33.0507089760893,34.99215964952554,0 33.05051529545563,34.99219593886359,0 33.05029187405778,34.99221992579227,0 33.05018772643783,34.9921952237563,0 33.04980123097818,34.99199858560037,0 33.04926600165382,34.99175267142969,0 33.048894163153,34.99162948549186,0 33.04819281525794,34.99155423874615,0 33.04715046375978,34.99221249746521,0 33.04652934352283,34.99229180502824,0 33.04596475651548,34.99242105874558,0 33.04517640480937,34.99283639960432,0 33.04451201891526,34.99307994247704,0 33.0444258395669,34.9931036843265,0 33.04334799374588,34.99339935410158,0 33.04272669283957,34.99356847957199,0 33.04248208375594,34.99356084105904,0 33.04225552142829,34.9934402124749,0 33.04193786076384,34.99307418199666,0 33.04183454192653,34.99295110497303,0 33.0416690737277,34.99287461792849,0 33.04146690942414,34.99285511711585,0 33.04129404275182,34.99284912744144,0 33.04107874108708,34.9928549542953,0 33.04090329466258,34.99288612815182,0 33.04058557706014,34.99295189936515,0 33.04013580640951,34.99307010812882,0 33.0399779648463,34.99310907038455,0 33.03958574977542,34.9931630087929,0 33.03895470496209,34.99313589598619,0 33.03864673380418,34.99313164140101,0 33.03808937240694,34.9931732517092,0 33.03800073458921,34.99306525223118,0 33.03796053495143,34.99302539730493,0 33.03790095895303,34.99299268052136,0 33.03783643710439,34.99296904985139,0 33.03775275466497,34.9929572915178,0 33.03595135901358,34.99303799783416,0 33.0357682815614,34.99304314858334,0 33.03561109320832,34.99305977477054,0 33.03536430859327,34.99309020973227,0 33.03500678021876,34.99311485384141,0 33.0344557190522,34.99314377246171,0 33.03421858752417,34.9931611631841,0 33.03405637059248,34.99318265919614,0 33.03371047334429,34.9932284689892,0 33.03375584028898,34.99338861778062,0 33.03374569741757,34.99343258058667,0 33.03373174742956,34.99345373649364,0 33.03363768183989,34.99349028308255,0 33.03346921657386,34.99348641022335,0 33.03327314245465,34.9934896182123,0 33.03318697358473,34.99350772626261,0 33.03315479318059,34.99351921565318,0 33.03313879556633,34.9942602396499,0 33.03309629021967,34.99467077544816,0 33.03299704351227,34.99489760103739,0 33.03283655632805,34.9950548537184,0 33.03255503885796,34.99524599906125,0 33.03195985425112,34.99553425469387,0 33.03149990098103,34.99575159305486,0 33.03133222416771,34.99590267260831,0 33.03091308903613,34.99672148629805,0 33.03046157482337,34.99699605473582,0 33.02974314143573,34.99765540237312,0 33.02962146751212,34.9978299910123,0 33.0294528768015,34.99810265008744,0 33.02919551851029,34.99850833332617,0 33.02896151868003,34.99908522408122,0 33.02836739935228,34.99910777835665,0 33.02800894252685,34.99903685698414,0 33.02773502217683,34.99894123777338,0 33.0269097407561,34.99888843573791,0 33.02622225957563,34.9988696904227,0 33.02515900614631,34.99866575092511,0 33.02377047546856,34.99935089886622,0 33.02302452211211,34.99866291128011,0 33.02266057991612,34.99817742271406,0 33.02256374550026,34.9981376814498,0 33.02222332883458,34.99810597789962,0 33.02162289011855,34.99813076741891,0 33.02101427071046,34.99820496897939,0 33.02075652190734,34.99828016088325,0 33.02048501644144,34.99833598286714,0 33.02022523565741,34.99845532684187,0 33.01986521665062,34.99864261833103,0 33.01969774560875,34.99868278441067,0 33.01952739699528,34.99870614359272,0 33.01924305595216,34.99870620341094,0 33.01903340337154,34.99875090132245,0 33.01887357997709,34.99879931133072,0 33.01846105130654,34.99929325372562,0 33.01776840696789,34.99960491405187,0 33.01717608160014,34.99985738652457,0 33.01679608430312,34.99990549571344,0 33.01630369003188,35.00001592375899,0 33.0145301076435,35.00039694097667,0 33.01424551863041,35.00049809688678,0 33.0129203232772,35.00133161161008,0 33.01052398918701,35.00188007960133,0 33.01046630697887,35.00142202946115,0 33.01052807822184,35.00141409876816,0 33.01052804485465,35.00111072773441,0 33.01057771163584,35.0008215444478,0 33.01060997028369,35.00062270285742,0 33.01073099089824,35.00036419964136,0 33.01060170051908,34.9993661832018,0 33.01063386937431,34.99841855579159,0 33.01060963343604,34.99817338293688,0 33.01054505529662,34.99795472458472,0 33.0098573106031,34.99697578511941,0 33.00983308873617,34.99677039028784,0 33.00915879572278,34.99635240101087,0 33.00891126923246,34.99584432918175,0 33.00891621899513,34.99575897434091,0 33.00890833860694,34.99566919262269,0 33.00881607018248,34.99538889739453,0 33.0087145792905,34.99529799292682,0 33.00860386264798,34.99507830640631,0 33.00859377707553,34.99484734123254,0 33.00822474070939,34.99413528665917,0 33.00785094702366,34.99371199495325,0 33.007747371283,34.99352644334719,0 33.00752138602778,34.99322878585423,0 33.00733776913432,34.99309348266739,0 33.00719034638878,34.99299100891299,0 33.00679121408685,34.99270414846393,0 33.00670106795437,34.99262362429845,0 33.00660090143053,34.99239333446424,0 33.00650536996382,34.99225918892635,0 33.00644264394626,34.99216137097503,0 33.00634280106622,34.99197779385775,0 33.00625260167928,34.99178563545167,0 33.00615032671713,34.99155627920301,0 33.00606500443554,34.99134383463148,0 33.00603247932425,34.99119090425575,0 33.00599159122859,34.99091793363312,0 33.00595129176531,34.99069248901951,0 33.00587569548432,34.99049521306268,0 33.00575507754518,34.99030425370694,0 33.00560179178184,34.99013771996863,0 33.00554112212365,34.99007061583048,0 33.00542118755904,34.98980663579729,0 33.00537911235944,34.98971376698479,0 33.00529161797769,34.98954235948379,0 33.00521211791929,34.98933845863983,0 33.00520214011501,34.98919489648141,0 33.00524185909162,34.98891459792195,0 33.00523700155163,34.98876420630384,0 33.00515475391128,34.98860834090261,0 33.00507577819114,34.98836125331668,0 33.00502066515044,34.98815800842871,0 33.00499213870147,34.98807248825348,0 33.00495046506791,34.98796805841168,0 33.00492394808528,34.98792753390795,0 33.00490033886703,34.98784434821187,0 33.00490310424077,34.98776543152191,0 33.00490120569249,34.98768593810394,0 33.00487847247478,34.98757839032075,0 33.00487278385913,34.98747551756595,0 33.00489664345335,34.98731402814102,0 33.00484229445492,34.98726920220837,0 33.00481463877262,34.98719380410108,0 33.00470440367518,34.98701557498237,0 33.00460235582684,34.98686438744706,0 33.00452099831437,34.98680501961688,0 33.00438965420273,34.98674444833559,0 33.00417688872181,34.98669213954069,0 33.00401200129344,34.98665537576513,0 33.00396359776109,34.98663977990958,0 33.00379283335598,34.98651324441232,0 33.00352479128405,34.98628965726007,0 33.00328857511401,34.98607812978589,0 33.00308125555945,34.9859050065471,0 33.00295733755357,34.98580501668255,0 33.00287567085508,34.9857667799743,0 33.00270527488638,34.98568017808019,0 33.00264797208061,34.98563907232264,0 33.00262679042682,34.98561279068365,0 33.00256776238469,34.98549390682332,0 33.0025054343948,34.98526683514681,0 33.00245038166019,34.9850770653693,0 33.00238694497009,34.98489410513018,0 33.00231257855727,34.98470476653976,0 33.00218406424469,34.98452351381106,0 33.00209445356921,34.98442447793828,0 33.00201843102967,34.98436635138773,0 33.00182392464066,34.98425230548767,0 33.00162165058848,34.984167914635,0 33.00147777011939,34.98412859517128,0 33.00129977740703,34.98408549801084,0 33.00112510467757,34.98404398166751,0 33.00090468712297,34.98401898864033,0 33.00052560186938,34.98399479466585,0 33.0002884634624,34.98407487041912,0 33.00014575252671,34.98407970504117,0 33.00006339008581,34.98407168147747,0 32.99991801440262,34.98401663921901,0 32.99961138216417,34.98390911328916,0 32.9988602917993,34.98366705823545,0 32.99880022318531,34.98364607415624,0 32.99876254114189,34.98360171708722,0 32.99875037585861,34.98353920185637,0 32.99875739154621,34.98343380306858,0 32.99876569174995,34.98319688918231,0 32.99875044283203,34.98309730979564,0 32.99870434061139,34.98292012141328,0 32.99869377938636,34.98289777303268,0 32.99859837486471,34.98269589207489,0 32.99851992696168,34.98252500423235,0 32.99822146353478,34.98218303528201,0 32.9980007801545,34.9819361786469,0 32.99783415641181,34.98175600321514,0 32.99758615685874,34.98139423903191,0 32.99751390220114,34.98130807340551,0 32.99744458751233,34.98125057239609,0 32.99735310989784,34.98118780110001,0 32.99710606572056,34.98114285642385,0 32.99698572543795,34.98111908997231,0 32.99682727027419,34.98097394564562,0 32.99661636747336,34.98077014084387,0 32.99643680142467,34.98061331466659,0 32.99622239618954,34.98044856806887,0 32.99528636219821,34.97984182086883,0 32.99494819422348,34.97921406146676,0 32.99484152513487,34.97900567674522,0 32.99472890090006,34.97879678596142,0 32.99448719929023,34.97845321364061,0 32.99421563605935,34.97809220661964,0 32.99393905964193,34.97769607264397,0 32.99366177311582,34.97734005798358,0 32.99348348949638,34.97700368030146,0 32.99339787292521,34.97691904297763,0 32.99307483994473,34.97655611676464,0 32.99299470553021,34.97644659454382,0 32.99290324390288,34.97637595756103,0 32.99257049718076,34.97602011646106,0 32.99230949195005,34.97580467336957,0 32.99204285347476,34.97565720990818,0 32.99173156283617,34.97546770545894,0 32.99159271168027,34.97529875049241,0 32.99149568158342,34.97516349471963,0 32.99144004292111,34.97504088166836,0 32.99143227974485,34.97494272421611,0 32.99148215505291,34.97476425685343,0 32.9916123985661,34.97455455772809,0 32.99176395406747,34.9743663103762,0 32.99202492648582,34.97407912169187,0 32.99222313712824,34.97382482708798,0 32.99232811725988,34.97350543118536,0 32.99212275509428,34.97271076512154,0 32.99196784577851,34.97201349088892,0 32.99183380926701,34.97147383953184,0 32.99171067572324,34.97134121246633,0 32.99149227472662,34.9710648749948,0 32.9913117501866,34.97067493771868,0 32.99110703449055,34.97029627980669,0 32.99092513850556,34.97005095682044,0 32.99081146141644,34.96988819372836,0 32.99064354638399,34.96973521681613,0 32.99044539106593,34.96961259303313,0 32.99004833034655,34.96943592542002,0 32.98967145111813,34.96926158752425,0 32.9895206804705,34.96911894542652,0 32.98929855109404,34.96889977875768,0 32.98882181321014,34.96864479440907,0 32.98828310376489,34.96836175233086,0 32.9876710654726,34.96803940516772,0 32.98732312747106,34.96785444670657,0 32.98721951303607,34.96775589030561,0 32.98734084022754,34.96708460775106,0 32.98744203566118,34.96643270553321,0 32.98750239181695,34.96618186547919,0 32.98761948923917,34.96583425693071,0 32.98767329358205,34.9657101711207,0 32.98783029072518,34.96549924348777,0 32.98795991657132,34.96534318317195,0 32.98800396055735,34.96507352018012,0 32.98802241437777,34.96485179466269,0 32.98804161304218,34.9647558588147,0 32.98809554931677,34.96462640477307,0 32.98805036370639,34.96457226836293,0 32.98802211556902,34.96448983851717,0 32.98801008532659,34.96438003103172,0 32.98804105070363,34.96420244179998,0 32.98808300390485,34.96414886292283,0 32.98809586665433,34.96409810086558,0 32.9880207910896,34.96393744452981,0 32.98770694956013,34.96359043881297,0 32.9876688738315,34.96350499167998,0 32.98762264663719,34.96325457596566,0 32.98700406021168,34.96273886340083,0 32.98687030200291,34.9620711697416,0 32.98656908346756,34.96160898885882,0 32.98673413408027,34.96143531514095,0 32.98660130117114,34.961089627737,0 32.98660124917192,34.9609180641391,0 32.98637298655252,34.96076919397726,0 32.98615605309101,34.96059514942922,0 32.98607502744557,34.96023024962748,0 32.98617203689059,34.95987449447001,0 32.98606916279032,34.95949969708934,0 32.98578337868085,34.95897141276692,0 32.98529296616843,34.9586638688578,0 32.98493450696629,34.9585270872624,0 32.98459468739264,34.95845784062105,0 32.98432930905701,34.95837396426728,0 32.98415373653005,34.95827809558672,0 32.98375322210396,34.9578659024064,0 32.98311574797414,34.95753936190626,0 32.98256918822939,34.95721006552661,0 32.98244033543626,34.95710094725855,0 32.98232620717623,34.95697750359693,0 32.98225256957188,34.95679601968122,0 32.98222586475057,34.9566182637154,0 32.9822881510466,34.9560524306461,0 32.98227278468572,34.95553625252608,0 32.98273072813647,34.95542389608886,0 32.98336280139744,34.95504301729546,0 32.98471596304559,34.95398373702018,0 32.9851039333527,34.95373184679643,0 32.98551920036874,34.95352541614252,0 32.98580895971755,34.95342766629125,0 32.99070725788414,34.95512862826195,0 32.99179872246073,34.95525659433758,0 32.99302804306458,34.95539506572089,0 32.99394982008449,34.95522960634283,0 32.99456328736316,34.95511034310523,0 32.99459749650438,34.95510369204441,0 32.99550603071639,34.95468334859257,0 32.99581399734798,34.95450911135785,0 32.99623201477861,34.95423064840052,0 32.99658354729695,34.95393255159015,0 32.9969330880474,34.95365966502975,0 32.99776981979579,34.95258293089029,0 32.99824079821199,34.95201134402513,0 32.99893215779007,34.95146268452842,0 32.99922139852454,34.95119432764864,0 32.99939491223459,34.95095071394351,0 32.99941175289985,34.95080716946141,0 32.99945783329496,34.95014199507872,0 32.99957796283118,34.9499079711904,0 32.99977590364768,34.94964816358458,0 32.99997343591954,34.94945737496064,0 33.00050694195319,34.9487539981349,0 33.00066061200151,34.94862166664374,0 33.00167799868125,34.94780710692049,0 33.00193864455395,34.94757680512537,0 33.00232331142802,34.94741285334904,0 33.00247216256519,34.94732632338901,0 33.00258664906994,34.94723530212586,0 33.00264502138938,34.94715231287898,0 33.00269821735168,34.94699900901161,0 33.00281395219152,34.94661618366611,0 33.0031000934759,34.94617207253697,0 33.00310344603682,34.94615295840143,0 33.00311716054543,34.94607477650129,0 33.00311729563517,34.9460283173843,0 33.00310103051537,34.94596606913183,0 33.00297159919987,34.94568500909352,0 33.00292038159593,34.94543230983898,0 33.00290721751539,34.9452886527789,0 33.00292049929521,34.94523172406128,0 33.00310080346951,34.94499389368357,0 33.00320850523352,34.94490535002046,0 33.00354261502734,34.94452101880297,0 33.00360794548449,34.94407700900988,0 33.00354011299401,34.94384562310221,0 33.00352805382061,34.94375429983212,0 33.00358937903482,34.94363298182286,0 33.00373895193135,34.9434439740387,0 33.00380718568921,34.94335137276237,0 33.0038459115247,34.94320359996293,0 33.00384245588418,34.94304825551961,0 33.00379378439674,34.94288470040438,0 33.00372865374363,34.94269289655193,0 33.00395503799806,34.94245998973642,0 33.00407362324784,34.94231979890674,0 33.00426947171548,34.94202390372202,0 33.00442737138118,34.94176249135185,0 33.00431121970296,34.94154133073031,0 33.00430237171292,34.94148870246235,0 33.00429917636493,34.94146969848589,0 33.0043218475716,34.94140353312587,0 33.00498639476935,34.9405547625523,0 33.00520999337459,34.94033793596675,0 33.00534914306392,34.94020382675803,0 33.0055879132992,34.94019798372064,0 33.00560341350618,34.94025341416712,0 33.00591205282691,34.94026694273754,0 33.00609192051401,34.94022291488868,0 33.00630231906521,34.94009487217224,0 33.0066148297057,34.93995689244385,0 33.00685077357054,34.93965916087753,0 33.00698802661293,34.93956231438933,0 33.00712603892198,34.93947675188892,0 33.00725559810006,34.93935698560766,0 33.00719356040525,34.93929396712532,0 33.00737033580148,34.93906294705534,0 33.00752509246905,34.93887340591151,0 33.00760233907546,34.93888436979171,0 33.0076063675118,34.93887293480965,0 33.00761762583738,34.93880954143931,0 33.00761249122299,34.93873190368372,0 33.00754323552039,34.93851392877483,0 33.0075180644658,34.93841511839482,0 33.00751194717494,34.9383158164501,0 33.00752941069906,34.93818755527536,0 33.00755129956357,34.93811550023599,0 33.00762107440656,34.93799643224577,0 33.00783510123939,34.93762534197719,0 33.0079541317203,34.93737307962747,0 33.00799317128918,34.93732652954555,0 33.00807288113451,34.93723148663716,0 33.0084267697283,34.93702736998057,0 33.00884467337744,34.93687183422124,0 33.0089903718358,34.93680100480378,0 33.00909938636041,34.93672063624724,0 33.00915804101281,34.93664475063957,0 33.00919363303924,34.93657335500649,0 33.00922684676205,34.93647632085774,0 33.00926231718224,34.93629804987954,0 33.00925598485541,34.93609475276157,0 33.00925203685852,34.93585411520618,0 33.00927272019776,34.93579797570296,0 33.00934225713026,34.935724511327,0 33.00947669599992,34.93564454520639,0 33.00977685380315,34.93549101922529,0 33.01021735354174,34.93502815514648,0 33.01036384166776,34.93497877370473,0 33.010877648884,34.93469446402286,0 33.01092924552175,34.93463409191035,0 33.01095197767176,34.93443823538009,0 33.01104952169144,34.93412557817023,0 33.01116977993519,34.93373805796974,0 33.01133680220242,34.93318760467083,0 33.01146774607358,34.93275825008364,0 33.01169630466136,34.93255896992865,0 33.01181659576996,34.93243786180592,0 33.01186470425196,34.93233327317284,0 33.01187806197706,34.93226832054822,0 33.01196761732147,34.93221326814871,0 33.01213067977308,34.93206463368126,0 33.01237795498123,34.93190608183564,0 33.01287516352419,34.93150531115572,0 33.01308501006721,34.93136107395113,0 33.01320397519832,34.93132913574778,0 33.01329487306921,34.93133022649454,0 33.01338577418233,34.93134452775044,0 33.01344860029697,34.93134342015851,0 33.01377207912365,34.9312630198115,0 33.01391242937606,34.93122337209309,0 33.01420918663424,34.9312255399737,0 33.01440168107924,34.9312497362574,0 33.01451396518864,34.93123541166607,0 33.01459550248299,34.93121338427166,0 33.01463159612191,34.93122659050935,0 33.0146890770282,34.93122988644532,0 33.01475323646592,34.93120565883047,0 33.01478932183096,34.9311726284508,0 33.01485080865078,34.9311506033231,0 33.01490828642706,34.93114288989015,0 33.01506336239401,34.93121773070919,0 33.01512556492774,34.93124886767546,0 33.01540623030862,34.93132926414989,0 33.01561258258442,34.93134160194285,0 33.01575165177183,34.93132662733424,0 33.01588868916663,34.93127646428853,0 33.01617173234008,34.93110347069853,0 33.01643208223242,34.93101523634939,0 33.01677075442502,34.93093236503334,0 33.01722109153098,34.93085534536362,0 33.01810176213507,34.93072573838299,0 33.01826295413526,34.93072501204583,0 33.01835898103237,34.93074798786028,0 33.01847163005596,34.93081494315055,0 33.01884423772318,34.93106841095861,0 33.01899439033632,34.93111895376278,0 33.02046416510979,34.93106827246616,0 33.02076090749075,34.93106941563804,0 33.02102359910018,34.93105408028038,0 33.02147085166102,34.93097277167617,0 33.0215627388214,34.93096581974056,0 33.02162787215121,34.93096989618868,0 33.02172188526335,34.93099322216497,0 33.02187592387475,34.93106342919556,0 33.02204902182385,34.93116794311648,0 33.02222922573677,34.93125866438557,0 33.02237417351977,34.93130380885509,0 33.022474177336,34.93131331680095,0 33.02260853294722,34.93130978077713,0 33.02271527148346,34.93128672101221,0 33.02292184313972,34.93124209258092,0 33.02300152056297,34.9311921026907,0 33.02311418980488,34.9310579400876,0 33.02344081971447,34.93078695925744,0 33.02374521889814,34.93056842125641,0 33.0240450418696,34.93013828605285,0 33.02410763660445,34.93008321830045,0 33.02417440707625,34.93003592729549,0 33.02441133766406,34.929913365435,0 33.02453002804651,34.9298369527394,0 33.0245735610477,34.9297943897391,0 33.02505843183142,34.92915170479409,0 33.02528585375551,34.92897626388348,0 33.02551273155311,34.92854534864121,0 33.02558080949779,34.92846780069049,0 33.02565401456128,34.92839170293466,0 33.0257338572079,34.92833114182684,0 33.02583249685505,34.9282763675138,0 33.02592394360693,34.92824405219685,0 33.02631373065746,34.92817621538774,0 33.02680513024742,34.92791074967433,0 33.02691243833191,34.92779199746108,0 33.02715838816102,34.92782538972799,0 33.02865054721916,34.92794604451227,0 33.02976955229194,34.92780174906888,0 33.0309060877312,34.9277071216576,0 33.03103147131146,34.92768471509351,0 33.03113991787345,34.92765285845158,0 33.031327475648,34.92755251436553,0 33.03161752879459,34.92739922980899,0 33.03189794976515,34.92728443311385,0 33.03197826611144,34.92726327326525,0 33.03205053157844,34.9272685772235,0 33.03252665725881,34.92741328669132,0 33.03272323242515,34.9274114220249,0 33.03285808235586,34.92739373997357,0 33.03300420154634,34.92734360021149,0 33.03320498137487,34.92724859786784,0 33.0333772497301,34.92716998126735,0 33.0335478615771,34.92717429995552,0 33.03368138785625,34.92711153369531,0 33.03389825050987,34.92692935300164,0 33.03413177870569,34.92662118574219,0 33.0342638825522,34.9262309012306,0 33.0343262403434,34.92610345982572,0 33.03442828070212,34.92597986530931,0 33.03478325023586,34.92569378630372,0 33.03469679601866,34.9248464564607,0 33.0347685602007,34.92471881109332,0 33.0351438079797,34.92415998751883,0 33.03582588525179,34.92354807254344,0 33.03591431059223,34.92345233431671,0 33.03597781866254,34.92337817124201,0 33.03633368303105,34.92272144336886,0 33.03641079029754,34.92262094764957,0 33.03651428660083,34.92253462359716,0 33.03707916303131,34.9222191858071,0 33.03771829918882,34.92186377415413,0 33.03804528237235,34.921706489107,0 33.03826691500043,34.92158127355947,0 33.03851611282278,34.92150093155244,0 33.03901428498395,34.92140068760396,0 33.03955145726035,34.92138233102949,0 33.03971855065306,34.92137486129153,0 33.03984041018839,34.92135254412537,0 33.04026158496629,34.92121642224683,0 33.04052789912993,34.92120105793028,0 33.04131669663771,34.92139728994039,0 33.04144872178759,34.92138102177384,0 33.04159353470805,34.92134598742427,0 33.0427074491321,34.92109230283903,0 33.04310721002771,34.92115166392851,0 33.04369219639543,34.92132870329895,0 33.0448628079843,34.92115953179992,0 33.04592872079623,34.92128257137439,0 33.04607849502535,34.92127906306565,0 33.04646945670764,34.92138121317529,0 33.04653968305892,34.92138788580124,0 33.04659479621932,34.92138668650115,0 33.04681740528001,34.92134209867466,0 33.04699494643417,34.92126147479776,0 33.04719880681999,34.92109767542078,0 33.04785671676481,34.92056076852584,0 33.04784035770844,34.9204729431842,0 33.04759790269093,34.9199520936204,0 33.04738344121323,34.91964595740345,0 33.04737380314499,34.91960486451627,0 33.0473645930795,34.91955628410145,0 33.04737564092142,34.91943388048138,0 33.04729172960588,34.91927298089531,0 33.04728637400392,34.91923751312026,0 33.04730141794134,34.91919008250999,0 33.04727943461496,34.91907386119815,0 33.04721420044857,34.91884507765204,0 33.04701525041208,34.91838442336626,0 33.04697126941789,34.91828397487527,0 33.04694616205158,34.91820961486707,0 33.04691431546972,34.9180737711254,0 33.04689881227406,34.91785254476858,0 33.04689894961741,34.91769380020057,0 33.04692527964706,34.91755929966805,0 33.04695084158649,34.91749251831678,0 33.04699747670018,34.91743669753673,0 33.04705827519585,34.91739409628451,0 33.04744654940627,34.91715209070899,0 33.04772457815344,34.9169863980887,0 33.04780880406813,34.91692046699598,0 33.04788988310784,34.91683877810493,0 33.04798393468311,34.91674003689984,0 33.04809564719653,34.91659830976041,0 33.04814334930967,34.91652590791837,0 33.04817835472671,34.91644470041258,0 33.04820882229124,34.91635887751818,0 33.04825312982162,34.9161487648294,0 33.04827722542699,34.91607355800289,0 33.04832109740019,34.91601154220006,0 33.04837702803163,34.91596610898684,0 33.04846592334874,34.91591355925569,0 33.04905320094539,34.91566585479973,0 33.04913580954338,34.91562259195042,0 33.04922003825762,34.91554540628166,0 33.04946459889771,34.91525724446631,0 33.04954740553843,34.91512025036779,0 33.0496301899496,34.91495223224022,0 33.04967103509426,34.91484228126918,0 33.04970041454467,34.91467412985294,0 33.04971471161654,34.9145024500466,0 33.04969890353596,34.91411532830912,0 33.04968558520046,34.91401151572981,0 33.04951067791476,34.91315000623702,0 33.04950288532826,34.91306091730775,0 33.04950853994745,34.91302117318136,0 33.04953831503109,34.91297657127658,0 33.04962217864917,34.91289244795655,0 33.04975975183849,34.91278324614906,0 33.04979360235095,34.91273746342678,0 33.04980888342671,34.91268477064864,0 33.04981515474697,34.91251585788115,0 33.04981688636418,34.91239151421038,0 33.05001538246952,34.91191231139468,0 33.05001954781601,34.91183535906848,0 33.05000763489193,34.91173392210566,0 33.04998672763067,34.91165739295171,0 33.04991253414243,34.91144719476328,0 33.04969278449878,34.91094519111115,0 33.0495173773768,34.91054905675663,0 33.04949997136724,34.91048867629843,0 33.04949755452893,34.91044385942705,0 33.04951344865966,34.91041020125004,0 33.04955055285089,34.91037548604962,0 33.04985000778752,34.91016757507707,0 33.05031188829023,34.9098944103083,0 33.05046659666939,34.90983918066511,0 33.05073279789372,34.90975819883712,0 33.05080715113468,34.9097223075411,0 33.05086995411369,34.90966509834036,0 33.05097237235822,34.90953187197786,0 33.0510560426566,34.90935205879865,0 33.05109816559095,34.90916785588337,0 33.05110578963721,34.90900924405682,0 33.05110840065898,34.90895639054504,0 33.05107284820929,34.90830341388186,0 33.05106589232984,34.90809722015813,0 33.05106518349036,34.90802867934458,0 33.05109877498386,34.90796300061523,0 33.05118678962722,34.90786928126211,0 33.05147089008494,34.90763896103869,0 33.0516507965614,34.90751584604801,0 33.05211875142848,34.90712174151185,0 33.05225975279272,34.90698440401378,0 33.05238829257868,34.90683873879325,0 33.05268619119217,34.90638067038617,0 33.05291839814431,34.90611144494939,0 33.0530294452458,34.90606807055182,0 33.05321264442864,34.90599651335815,0 33.05334639940261,34.90597268370596,0 33.05346767027181,34.9059101902457,0 33.0535920573653,34.90582584523953,0 33.05364681913331,34.90580019579315,0 33.05377264494307,34.90574125981075,0 33.0538731952335,34.90562920932383,0 33.05381916564706,34.90545855964825,0 33.05395525900897,34.90505157758029,0 33.05409924266127,34.90459973966934,0 33.05413049541951,34.90438084389337,0 33.05407288780108,34.90417476200059,0 33.05403767340491,34.9039585640519,0 33.05405785158435,34.9037396082905,0 33.05410758547761,34.90351776015866,0 33.0541447957678,34.90329892298619,0 33.05415429731097,34.90311147554645,0 33.05412635201212,34.90290045583737,0 33.05418148855257,34.90269559292061,0 33.05429529538803,34.90251750366239,0 33.05435867894504,34.90232215890505,0 33.05448596858463,34.90213090146629,0 33.05465069157167,34.90194424785861,0 33.05476773395596,34.90174460589612,0 33.05479623098364,34.90152415880486,0 33.05479278510326,34.90128148841472,0 33.05478743155457,34.9010478756686,0 33.05488561382941,34.90081454884114,0 33.05501031470672,34.90061224299339,0 33.05513799240503,34.90039716311929,0 33.05526802755431,34.90019708744779,0 33.05547126947225,34.89987918401438,0 33.05559298204118,34.89971656582384,0 33.05575196867938,34.8995784045905,0 33.05589142604035,34.89948815750427,0 33.05704322662239,34.89923478036346,0 33.05716007058163,34.89921589613815,0 33.05732274142318,34.89928953322535,0 33.05800459966073,34.89970335694868,0 33.05810185263141,34.89975349833067,0 33.05822479632046,34.89977398428712,0 33.05848126767647,34.89983045104378,0 33.05901335419561,34.89989053647327,0 33.05925804813392,34.89991843427539,0 33.0594533653762,34.89992384671902,0 33.06022546884807,34.89974911859026,0 33.06061321092089,34.89965729330658,0 33.06127150396733,34.89932094055285,0 33.06153037745706,34.89918200652478,0 33.06209072920717,34.89870837573922,0 33.06237472902817,34.89846743330159,0 33.06262720382841,34.89800986985128,0 33.06302066373625,34.89736770112192,0 33.06328404974271,34.89695289052825,0 33.06385902311304,34.89643396702827,0 33.06410194789491,34.8962194642464,0 33.06437737286565,34.89590539647825,0 33.06499642776665,34.89520774472681,0 33.06525990937696,34.89485622902365,0 33.06555967320715,34.89450918235769,0 33.06607268719233,34.89397382844543,0 33.06641839753832,34.89367833704253,0 33.06679016282239,34.89336253522836,0 33.06697703365682,34.89321636788841,0 33.06737256730187,34.89294039769224,0 33.06766023273723,34.89276977671719,0 33.06788447153794,34.89267679849162,0 33.06811517948054,34.89260296109006,0 33.06836190773621,34.89253361875694,0 33.06858974779222,34.89248403541174,0 33.06931203279019,34.89233887190102,0 33.06933872443399,34.89233364272886,0 33.06954251104235,34.8922937140585,0 33.06981309111176,34.89225316978333,0 33.07004348193396,34.89221904200912,0 33.07042583944054,34.89216525190608,0 33.07098958130035,34.89227401584946,0 33.07103664275079,34.89225196157921,0 33.07135752236682,34.89210158860532,0 33.07206552453254,34.89175158202102,0 33.07241453211937,34.89160314750593,0 33.07252801544504,34.89160337372585,0 33.07272810876209,34.89156375381538,0 33.07307407802617,34.89155947903465,0 33.07343445614616,34.89158139142791,0 33.07350344823609,34.89160531642251,0 33.07413819331354,34.89182542776456,0 33.07471046906407,34.89203443594893,0 33.07491985423763,34.89203348497348,0 33.07517070157588,34.89203234484544,0 33.07526969832443,34.89203284519106,0 33.07532485907914,34.89216328870792,0 33.07541778255906,34.89242322010458,0 33.07581942767034,34.89272528385259,0 33.07606010865597,34.89284971122374,0 33.07659326888037,34.89309948022166,0 33.07702730945799,34.89336418894197,0 33.07786444520733,34.89392820990604,0 33.07810779002994,34.89409859158457,0 33.07785625997227,34.89444147543595,0 33.07743290781782,34.89505005246681,0 33.07721858818268,34.8953571852395,0 33.07740851198312,34.8957022703548,0 33.07750735266758,34.89585691036193,0 33.07771471796777,34.89602560025837,0 33.07786061846662,34.89618515789655,0 33.07795594461356,34.89631137186492,0 33.07789392186455,34.89637282874928,0 33.07781582558124,34.89645529410854,0 33.07807769102794,34.89683822510053,0 33.07825041382097,34.8971143865087,0 33.07840786591433,34.89716590708981,0 33.07853590493376,34.89721507387466,0 33.07871128515205,34.89736815347089,0 33.07885343134141,34.89732474430588,0 33.07898147761669,34.89746783105963,0 33.07903979669077,34.89753650294116,0 33.07901992230138,34.89768198982726,0 33.07895392179618,34.89790886189944,0 33.07897295776339,34.89816869315619,0 33.07897245441214,34.89823265896877,0 33.07911666621428,34.8982664630518,0 33.07912083538017,34.89841647845915,0 33.07920210395099,34.89887072567112,0 33.0795217143996,34.8989600627251,0 33.07988733771648,34.89918289491195,0 33.08007647771445,34.89934913982844,0 33.08035765863232,34.89963809742189,0 33.08059000527591,34.89977052868793,0 33.08095217398263,34.89992728869191,0 33.08118592045891,34.89994824999457,0 33.08184350933529,34.9001358950153,0 33.0821495999215,34.90022030875538,0 33.08231829061414,34.90028038124878,0 33.08298826908503,34.90068296243817,0 33.08323691258855,34.90079669238992,0 33.08351168046025,34.90085785790311,0 33.08405116978221,34.90108985448132,0 33.08423604333448,34.90117046599799,0 33.08447096123146,34.90116110195189,0 33.08499738232436,34.9010354678473,0 33.08525454906835,34.90119914924516,0 33.0856470486478,34.90135327687988,0 33.08601709225344,34.90140926468411,0 33.08618663260093,34.90155494477621,0 33.08630870280644,34.90164435155238,0 33.08651640390431,34.90169111495457,0 33.0867839327233,34.90163276048216,0 33.08740189465642,34.90167583393729,0 33.08758908721899,34.9017020456475,0 33.0882427539661,34.9013581494879,0 33.08854184239657,34.90163159095125,0 33.08942421374847,34.90193332029654,0 33.08959944736365,34.90203238235144,0 33.08975096971144,34.90189443373762,0 33.08966640797071,34.90177855895325,0 33.08968821829479,34.90170511498076,0 33.08983675441264,34.90169727632592,0 33.08991182530983,34.90171267965319,0 33.09009636003552,34.90173701807296,0 33.0901573773972,34.90177046591815,0 33.09021923376164,34.90163755824909,0 33.09050657027293,34.90162945071184,0 33.0909151741287,34.90175806014141,0 33.09112092688807,34.90167377897553,0 33.09186556620967,34.90162504360473,0 33.0925898973089,34.90132919505007,0 33.09355586164767,34.90164195810708,0 33.09393347804213,34.90159599620888,0 33.09407219834334,34.90148221615873,0 33.09415034407974,34.90127675301591,0 33.09472229311363,34.9014954907453,0 33.09509984872364,34.90147198560631,0 33.09511906389406,34.90134416588883,0 33.09521574203742,34.90126659049899,0 33.09557674636144,34.90115839281705,0 33.09601092020917,34.9011367153164,0 33.09637508274739,34.90141899773536,0 33.09661463724867,34.9012397414664,0 33.09700187304502,34.90072728852385,0 33.09737359215964,34.9005309898025,0 33.09746452646301,34.90024434297523,0 33.09764691358519,34.90026885825905,0 33.09787905324347,34.9005146156907,0 33.09796517706218,34.90046120886636,0 33.09815161102456,34.90054274717757,0 33.09817453954216,34.90059634915766,0 33.09869862564533,34.90067503262014,0 33.0989925760896,34.90054251773618,0 33.09918140157944,34.90051175353327,0 33.09996940854766,34.90071357286119,0 33.10059004695441,34.90076131865851,0 33.10085200861835,34.9008326202234,0 33.10108270678632,34.90082957102392,0 33.10137247994646,34.90069013078739,0 33.10175360608809,34.90009471975795,0 33.10216541913962,34.89979653775423,0 33.10222418235757,34.89977936364819,0 33.10275247973744,34.89985112646141,0 33.10351159998018,34.89986972728796,0 33.1037991034914,34.89979420446678,0 33.10415351152935,34.89979827601159,0 33.10445745490672,34.89985409122839,0 33.10463150461587,34.89985957645173,0 33.10477208725652,34.89983044784491,0 33.10485207943609,34.89971309760582,0 33.10490065706899,34.89957841534918,0 33.10503300415159,34.89948880044763,0 33.10501909775942,34.89918468920594,0 33.10507382648318,34.89910530595475,0 33.10519734977903,34.89918672557839,0 33.10520181300663,34.89908133857868,0 33.10564079943455,34.8988108360976,0 33.10607737277861,34.898664726894,0 33.10634630166188,34.89846822352359,0 33.10648823641754,34.89835389730538,0 33.10699186127646,34.89794823226296,0 33.10731227165611,34.89770522826771,0 33.10739310717031,34.8976189528138,0 33.10743453925573,34.8975490309543,0 33.10746911720798,34.89745354030791,0 33.10750541264296,34.89735117192603,0 33.10754441554703,34.89728124586443,0 33.10759551792922,34.89722533823444,0 33.1076319608603,34.89720940181734,0 33.10766107981446,34.89720945175222,0 33.10768290771189,34.89721548831052,0 33.10769986366051,34.89722751656431,0 33.10772646103996,34.89726555822018,0 33.10773370313535,34.89728156863699,0 33.10774580667041,34.89729358856451,0 33.10776035497278,34.89729761232917,0 33.1077797712767,34.89729764559608,0 33.10792788745235,34.89726390118124,0 33.10802254416116,34.89725806319275,0 33.1084982133764,34.89724687453167,0 33.10855406018609,34.89723497070004,0 33.10873901864312,34.89714012054436,0 33.10887722295949,34.89707353436233,0 33.10891856818866,34.89703760908331,0 33.10898915377315,34.89695373687788,0 33.10911334510901,34.89678196551386,0 33.10917174750799,34.89671807109317,0 33.10922958991334,34.8966791858757,0 33.10939196178315,34.89658273962763,0 33.10944522162432,34.89655110422833,0 33.1095169106972,34.8964906781474,0 33.10956805519005,34.89641677233775,0 33.10966547371139,34.89627695182945,0 33.10979199938637,34.89614117857493,0 33.10989431858729,34.89606364676319,0 33.10992090361336,34.89602540875821,0 33.10992290543496,34.89597747993177,0 33.10993655729381,34.89558547962092,0 33.10992218181784,34.8955114625161,0 33.10985351036086,34.89536070055643,0 33.10982321914742,34.89529731771924,0 33.10981363616707,34.89524730620362,0 33.10980410536389,34.89517729702703,0 33.10983374828393,34.89496736832751,0 33.1099001419553,34.89457545550731,0 33.10991807440811,34.89435398445751,0 33.10992045097896,34.8942555870809,0 33.10994513439571,34.89416844658427,0 33.10999123570274,34.89408972240992,0 33.11004233944863,34.89403181612597,0 33.11009098049491,34.89399041567294,0 33.11046024043805,34.8938149528168,0 33.11058416093619,34.89375875505728,0 33.11062300243611,34.89375282157459,0 33.11065207887957,34.89377103401299,0 33.11068038554328,34.89381322824003,0 33.11070530984837,34.89383295256036,0 33.11072713985966,34.8938369882715,0 33.11092849843726,34.89376021176788,0 33.11101126478349,34.89375347454888,0 33.11105736635852,34.8937555508322,0 33.11122712422646,34.89379883167069,0 33.111261718681,34.89386687610487,0 33.11158694233157,34.89450936288612,0 33.11193632228584,34.89453337432993,0 33.11198729329563,34.89453003080708,0 33.11218613201032,34.89459035683775,0 33.11230979310075,34.89463055879392,0 33.11237527907386,34.89464466625611,0 33.11275999550283,34.8946502595311,0 33.11287360946787,34.89466449605079,0 33.11304403267902,34.89468585243181,0 33.11308616484762,34.89469784480568,0 33.1130930497055,34.89472003463389,0 33.11308179689082,34.89473430503035,0 33.11275989781261,34.89514325703066,0 33.11282522176123,34.89522335723972,0 33.11295149290883,34.89518957108129,0 33.1131070887231,34.89507184217854,0 33.11314594540637,34.89505990787156,0 33.1133716692947,34.89504228439035,0 33.11337140026996,34.89515227240942,0 33.11329063674992,34.89543210963809,0 33.11329787648107,34.89544812063097,0 33.11331969121468,34.89545815589359,0 33.1135744369215,34.89548257622326,0 33.11362753026204,34.89560265199395,0 33.11348898012054,34.89569641249853,0 33.11350330593343,34.8957924271342,0 33.11359559760282,34.89576058309071,0 33.11370923283777,34.89593275430767,0 33.1134419146028,34.8960882947319,0 33.11345587442984,34.89633429357348,0 33.11330744286987,34.89649803037135,0 33.11296031503377,34.89654144871515,0 33.11290450980954,34.89653735662716,0 33.11271787731761,34.8964450553155,0 33.11247492658352,34.89655863949188,0 33.11247967154594,34.89660264263834,0 33.11281866333011,34.89690917601401,0 33.1130080511963,34.89686749586831,0 33.11339383159984,34.89689613332288,0 33.11368454283561,34.89710059476268,0 33.11397564775792,34.8971430721857,0 33.11409449048031,34.89717126690116,0 33.11421084564194,34.89722345393215,0 33.11431506173034,34.89727961951677,0 33.11434894356161,34.89731767179996,0 33.11440936728918,34.89741776162079,0 33.11442377643822,34.89747977813099,0 33.11447401140092,34.89777983100464,0 33.11452203641117,34.89798988860161,0 33.11458224822825,34.89817796833297,0 33.11465223961455,34.89833606854491,0 33.11476567197987,34.89859423019118,0 33.11487978422543,34.89857242017222,0 33.11496850250319,34.89860159080776,0 33.11523131308402,34.8987189838056,0 33.11525006429132,34.89876352613259,0 33.11539542887297,34.8990932151926,0 33.11526916468246,34.89912300416648,0 33.11511868358063,34.89913075584748,0 33.114927490179,34.89891446347992,0 33.11485475895053,34.89888434742302,0 33.11481070415581,34.89903825805382,0 33.11500448781046,34.89918656316733,0 33.11544103990061,34.89929926865958,0 33.1155110106845,34.89946736626194,0 33.11537762970447,34.89954260021295,0 33.11523910239143,34.89962858859582,0 33.11517082808844,34.8996447900228,0 33.11491909914137,34.89937240325595,0 33.1148004138938,34.89927821641746,0 33.11461871567329,34.89914993053743,0 33.11460149472914,34.89924589269827,0 33.11463048859645,34.89929793447519,0 33.11470790787915,34.89939605285608,0 33.11484335184274,34.89958425700835,0 33.11485291888093,34.89964226750256,0 33.11508031184512,34.89994261132973,0 33.11492224872714,34.90007433718991,0 33.11495612711602,34.90011438868707,0 33.11491963290132,34.90015232433485,0 33.11511826930276,34.90030263576653,0 33.11524687194341,34.90031084683653,0 33.11527596012345,34.90032489257025,0 33.11533869464458,34.90047498088129,0 33.11532386707965,34.9005849456578,0 33.11536022622831,34.90060300310132,0 33.11539419256582,34.90060705799969,0 33.11543790901096,34.90059313157646,0 33.11541137883625,34.900525095179,0 33.11562786516038,34.90031947239326,0 33.11569105073383,34.90028357904155,0 33.1159459579672,34.90024600112866,0 33.11618642345017,34.9002117339618,0 33.11623469405383,34.90027047176252,0 33.11624437131698,34.90028248594476,0 33.11627834615362,34.9002825417905,0 33.11636088331978,34.90027267675063,0 33.11640701285617,34.90026475307653,0 33.11640780704608,34.90032899900459,0 33.1164057780415,34.90043493843616,0 33.11639184435116,34.9005167035717,0 33.11634553188058,34.90060061899104,0 33.11593409882845,34.90113789030753,0 33.11592186745366,34.90117786560555,0 33.11596502280209,34.90139591483123,0 33.11597943491879,34.9014579320131,0 33.11621177686013,34.90172228514013,0 33.11672790957356,34.90205309575419,0 33.11658221424518,34.9020868539574,0 33.11653028185844,34.90248872780407,0 33.11638941906995,34.90253049315711,0 33.11629753280366,34.9023903573122,0 33.11628297350808,34.9023903342823,0 33.1162756755911,34.90239832172899,0 33.11624887676825,34.90244027342509,0 33.11614627254093,34.90272007630787,0 33.11643242751954,34.90281053536461,0 33.1163407533783,34.90313455356028,0 33.11631990012248,34.90318031357643,0 33.11612340867339,34.90314399486548,0 33.11585176268401,34.90307355760625,0 33.11559713591954,34.90299114863249,0 33.11538815940415,34.90309879365244,0 33.11540443435893,34.90312059850194,0 33.11576828068466,34.903473379704,0 33.11562217183204,34.9036771193102,0 33.11559644009912,34.90365574265647,0 33.11545748419579,34.90353486338595,0 33.11512062264009,34.90333632935198,0 33.11505249889391,34.90340621051963,0 33.11488902172596,34.90376590429018,0 33.11472177094691,34.90381212232877,0 33.11415101012897,34.90385667709281,0 33.11402792798992,34.90386917572689,0 33.11395427906528,34.90389134904908,0 33.11395509825635,34.90389187292014,0 33.11454873249635,34.90418993370544,0 33.11465285971681,34.90434019509566,0 33.11513848942399,34.90475424233021,0 33.11596542783725,34.90553088547575,0 33.11624307893754,34.90574224625073,0 33.1165801577426,34.90585412762343,0 33.11656472332189,34.90618846449456,0 33.11649793139671,34.90689997484638,0 33.11665866613684,34.90740028190272,0 33.11697794931511,34.90776795682257,0 33.11709140244016,34.90793006731025,0 33.11707673471995,34.90793606430443,0 33.11730392734082,34.90830684593032,0 33.11778767395678,34.908427107179,0 33.11804785567052,34.9085202647734,0 33.11816978730823,34.90861762270319,0 33.11858754021114,34.90879790064271,0 33.11866913611631,34.90878294001493,0 33.11874972817613,34.9088460081388,0 33.11943536054631,34.90888835307582,0 33.11963705512134,34.90888244498032,0 33.12003093320492,34.90898523014862,0 33.12048204846419,34.90897643735678,0 33.1205329335938,34.90937271258829,0 33.12072007016853,34.90996884075154,0 33.12099171012152,34.91041442951814,0 33.12119279120998,34.91095666295747,0 33.12181685275655,34.91143900746631,0 33.12216193870592,34.91174066889483,0 33.12205447850823,34.91251342666894,0 33.1220541527856,34.91278356522349,0 33.12218505262243,34.91358412176249,0 33.12232393228857,34.91381405572999,0 33.12224621301049,34.9144604547634,0 33.12217619841773,34.91469580101867,0 33.12217590846982,34.91493588813545,0 33.12236989442305,34.91542382630039,0 33.12242447507453,34.9159054944873,0 33.12222620954812,34.91605231864777,0 33.12187707182363,34.91636544996559,0 33.12142765296272,34.91700360174485,0 33.12142701351888,34.91754066029187,0 33.12115469973707,34.91846919394822,0 33.12109935982998,34.91870212697482,0 33.12114646248781,34.91918517221914,0 33.12073834575005,34.91979568062757,0 33.1209500831466,34.92021209275603,0 33.1212576315216,34.92062049879156,0 33.1214171709801,34.92070154654106,0 33.12197586339229,34.92099430721868,0 33.12224901189227,34.92126779617912,0 33.12235864463106,34.92138033236591,0 33.12244067252618,34.92155620613219,0 33.12247671163312,34.92165359824213,0 33.12257218327957,34.92173756026461,0 33.12284864268706,34.92218005888643,0 33.12294744172938,34.9223875531297,0 33.12298328425135,34.9225579401859,0 33.12298294992086,34.92268230663119,0 33.123157740989,34.92272314237043,0 33.1233326477618,34.92272342200835,0 33.12344498798465,34.92267493583122,0 33.12371886187854,34.92269700217312,0 33.12402470668259,34.92272744749843,0 33.12431824006774,34.92281444379162,0 33.12439071839876,34.92286593462457,0 33.12451619171738,34.92304860438045,0 33.1244960559397,34.92316754190853,0 33.12455839167255,34.92330554148231,0 33.12453500627277,34.92340554401718,0 33.12473911236308,34.92360596607572,0 33.12469931920718,34.9236707888066,0 33.12473242994161,34.92373209231582,0 33.12479828473167,34.92379168641718,0 33.12487392984491,34.92389185318854,0 33.1249492421519,34.9241109804003,0 33.12512410566418,34.92414643343717,0 33.12542455197489,34.92413884728779,0 33.12565064462959,34.92418344135238,0 33.12574296651489,34.92422686460404,0 33.12585829646401,34.92430818116684,0 33.12598001373457,34.92446521904486,0 33.12608234612946,34.92447351161286,0 33.12631321839945,34.92456585408776,0 33.12668052756059,34.92484141285782,0 33.12673988253852,34.92487126339768,0 33.12682565634784,34.92490116296014,0 33.12664643883218,34.92520906850416,0 33.12658963530492,34.92526428941316,0 33.12650656779874,34.92544257496532,0 33.12625286471789,34.92525284896728,0 33.12636215538434,34.92513949847612,0 33.12631280573477,34.92507722343033,0 33.12619705991926,34.92513919318403,0 33.126140726693,34.92520938358333,0 33.12618994416893,34.92531761686873,0 33.12617957259471,34.92547980902366,0 33.12612648017863,34.92557162606082,0 33.12615925624422,34.92565549431207,0 33.12575591949694,34.92584665674869,0 33.12561217460761,34.92592065846485,0 33.12553638386547,34.9258718544927,0 33.12546346794392,34.92597443235083,0 33.12494504532481,34.92603558824439,0 33.12488559479068,34.92604898613882,0 33.12488225622921,34.92606249311567,0 33.12491508927796,34.92612472351373,0 33.12491114701664,34.92616381483175,0 33.12485796417439,34.92629614744358,0 33.1249070967658,34.92643138299871,0 33.12505517171289,34.92659384384397,0 33.12526274009846,34.92672940106377,0 33.12502119921291,34.92691709036753,0 33.12506724161697,34.92697664157104,0 33.12537758239572,34.92695295737892,0 33.12542357287549,34.92703142968708,0 33.12542338919469,34.92709629375964,0 33.12514232045809,34.92727407581643,0 33.12518886259229,34.92737276509492,0 33.12516899015814,34.92739704416774,0 33.12540623691424,34.92754077633749,0 33.12543554423846,34.92757197550769,0 33.12550379353384,34.92754491237358,0 33.12556524848993,34.927440580443,0 33.12567914295736,34.92734713230289,0 33.12577079644404,34.92741929404441,0 33.12606779321349,34.92756019835095,0 33.12612488680831,34.9274486555528,0 33.12645700669029,34.92752839322592,0 33.1266800190328,34.92751793501869,0 33.12678067289884,34.92747848136888,0 33.1272014007402,34.92704701093182,0 33.12735060691201,34.92680597324988,0 33.12748661019404,34.92660452597104,0 33.12741689035684,34.92649998899893,0 33.12747834529683,34.92639205303779,0 33.12736918608684,34.92632706563828,0 33.1272819505059,34.92623690685334,0 33.12738700753246,34.92618305301532,0 33.1275267214142,34.92626969423726,0 33.12776702166892,34.92634568545255,0 33.12784167258513,34.92620536117685,0 33.12788581791835,34.92601817614295,0 33.12837538933824,34.92607294421899,0 33.1284887977971,34.92619195302308,0 33.12865488043875,34.92622101544197,0 33.12912183264639,34.92661064006301,0 33.12950719430659,34.9263447555135,0 33.12948567509511,34.92619348015578,0 33.1297704343016,34.92594184277947,0 33.12973157212065,34.9257257229841,0 33.13012936368474,34.92576233954209,0 33.13022990186204,34.92577329608751,0 33.13040492204365,34.9257159454819,0 33.13034848947373,34.9255358085151,0 33.13020415392125,34.92555719483475,0 33.13018678758479,34.92550315328476,0 33.13049761024597,34.92532717642651,0 33.1304454074237,34.9252082633484,0 33.13011739586742,34.92525097631682,0 33.12988160582074,34.92511377905148,0 33.12991271928644,34.92488696192062,0 33.13011393741832,34.92484405631028,0 33.13024462141603,34.9250603165117,0 33.13056848629714,34.92491676734809,0 33.13074296749893,34.92509708376404,0 33.1309272203453,34.92482008429916,0 33.13119417543219,34.92470885725008,0 33.13150007533526,34.92477773994317,0 33.13155303697141,34.92455455677685,0 33.13235265033133,34.92477902555147,0 33.13262015251224,34.92441932589274,0 33.13272527631152,34.92433305884151,0 33.13271683720932,34.92419260591664,0 33.13275192930983,34.92414224478166,0 33.13284026155979,34.92410171602948,0 33.13295501669009,34.92404906460683,0 33.1330939352908,34.92433658498674,0 33.13313939258827,34.92435913785756,0 33.13319112768758,34.92428676236145,0 33.13323684973852,34.92418939474407,0 33.13334879759054,34.92432697298202,0 33.13338518009309,34.92433702104899,0 33.13341875001982,34.9242471297117,0 33.13353672182487,34.92440470227666,0 33.13365786422346,34.9244998222859,0 33.13359056042202,34.92475455444798,0 33.1335871796179,34.92491194660023,0 33.13360200599163,34.92506686772062,0 33.13362897144643,34.92522180703686,0 33.13363149333265,34.92545415809757,0 33.13365538333252,34.9256265814706,0 33.13368540403248,34.92577153036495,0 33.13349619311607,34.92627591727179,0 33.13337766856592,34.92636817981493,0 33.13334708743706,34.92647806172848,0 33.13314366900202,34.92654521296322,0 33.13295835958409,34.92665486397798,0 33.13290055009154,34.92672972855306,0 33.13290032341938,34.92683216101425,0 33.13295162342592,34.92695715599103,0 33.13311192165501,34.92718224806097,0 33.13313600694456,34.92726722727954,0 33.13309032742485,34.92734460988459,0 33.13283279044777,34.92748044092139,0 33.13214352323491,34.92784397075737,0 33.13227928878723,34.92834015023914,0 33.13241575617327,34.92852071104362,0 33.13232888361134,34.92860700026669,0 33.13224177141209,34.92879849559262,0 33.13199947258104,34.92886761898342,0 33.1317978730963,34.92895477608667,0 33.13141318224472,34.9290416541474,0 33.1307281180492,34.92917029722498,0 33.13065826425208,34.92929384318973,0 33.13056663573453,34.92932989372504,0 33.13054823938248,34.92936907104541,0 33.13044564436075,34.92939605939885,0 33.13038681010035,34.92950453936315,0 33.13027696684105,34.92949834171038,0 33.1302588197271,34.92942593154581,0 33.13010493110554,34.92946490511658,0 33.1299986526966,34.92950093304818,0 33.12984818239538,34.92964847900596,0 33.12985891846069,34.929760083548,0 33.12968326045484,34.92970854575555,0 33.12964661410236,34.92972055415176,0 33.12968279945552,34.92991362332025,0 33.12958752093571,34.92994363467367,0 33.12937175258708,34.92981664019221,0 33.12905629388712,34.93005139362305,0 33.12877023265468,34.93024095485445,0 33.12856927506736,34.93004159927898,0 33.12834558925747,34.93017696937656,0 33.12812213734261,34.9302098002826,0 33.12786172057937,34.93039336571413,0 33.12771174427556,34.93032075398793,0 33.12761313922449,34.93020298379946,0 33.12726908814234,34.93012705688496,0 33.12624080835081,34.92980879797254,0 33.1262190699854,34.92970622522306,0 33.12607253751172,34.92973012392288,0 33.12624044875547,34.92996562146504,0 33.12625854380317,34.9300591412476,0 33.12652916764685,34.93021638507243,0 33.12673038342497,34.93030114128097,0 33.12690207601061,34.93048537459093,0 33.12696394998551,34.93065134123869,0 33.12700392661472,34.9307841019486,0 33.12723779133123,34.93100462113666,0 33.12731787551677,34.93121585403412,0 33.12736506638313,34.93139687812789,0 33.12754405700366,34.93159318480914,0 33.12758755801874,34.93178928110548,0 33.12765691565359,34.93188589643202,0 33.12771506890533,34.93207899983004,0 33.12764910473752,34.93210000863675,0 33.12770743025359,34.93221771743399,0 33.12782444463166,34.93229329529424,0 33.12794887736205,34.93232665903189,0 33.12805888351602,34.93226349751523,0 33.12830382947724,34.93244482464206,0 33.12823402586835,34.93254424032862,0 33.12823390971867,34.93259550969707,0 33.12833639008234,34.93261979348826,0 33.1285230512763,34.932665318888,0 33.12851191032804,34.93273466652238,0 33.12839424650429,34.93294559562261,0 33.12836783203694,34.93328936227248,0 33.12817374296419,34.93328906327005,0 33.12815892221135,34.93336443544603,0 33.12814773159896,34.93345489384875,0 33.12800454754941,34.93361451532171,0 33.12795305206851,34.93371395931599,0 33.12793452980618,34.9338074208904,0 33.12772550071302,34.93393376357612,0 33.12770698442097,34.9340242125038,0 33.12757141766448,34.93405416003462,0 33.12762251592694,34.93412963598209,0 33.12756743270776,34.93419590077441,0 33.12764040772365,34.93431363113874,0 33.12775356199037,34.93447666149823,0 33.12785587694298,34.93457634114809,0 33.12787374210736,34.93477239931367,0 33.12796218270807,34.93499153656916,0 33.12820271131738,34.93519063938883,0 33.1282389838269,34.93521735665833,0 33.12842058015451,34.93535111747282,0 33.12858122774159,34.9355590018985,0 33.12889571779176,34.93594535982034,0 33.12918055159015,34.93620256353771,0 33.12934050690826,34.93636673248908,0 33.12938627921557,34.93638275997577,0 33.12952364723511,34.93640617987081,0 33.12975413530484,34.93654434503493,0 33.12988607318015,34.93663303613602,0 33.13012548895498,34.93671899065126,0 33.13018358434993,34.93673938832381,0 33.13043943637879,34.93656714774052,0 33.13045637232078,34.93687181334049,0 33.13045034244115,34.93720400370879,0 33.13045858212569,34.93745788266451,0 33.13031504046123,34.93782758331222,0 33.13030403139967,34.93802340424833,0 33.13011820123501,34.93839594172693,0 33.13022030045336,34.93843526477154,0 33.13036348088617,34.93822513783795,0 33.13059271714875,34.93813989701406,0 33.13079141365551,34.93831572839999,0 33.13103975389314,34.93835237101762,0 33.1311870921747,34.93864707816191,0 33.13128321203909,34.93899828390226,0 33.13110931658395,34.93954927087381,0 33.13146389955464,34.9401402262281,0 33.13159739796045,34.94032321024732,0 33.13209303927428,34.94087085726278,0 33.13229892341229,34.94098866997064,0 33.13241972724408,34.94133555965428,0 33.1326641399623,34.94155932867826,0 33.13280132507161,34.94170238450821,0 33.13282260587857,34.94172457532829,0 33.13302231284421,34.9418161897044,0 33.13317233520225,34.94191294772987,0 33.13309155628326,34.94198674215141,0 33.13312260744799,34.94203054044784,0 33.13327441190511,34.9421499296407,0 33.13336433710882,34.94208218991974,0 33.13343027150835,34.94209284460845,0 33.13357860864225,34.94212323035822,0 33.13360587205374,34.9422228360772,0 33.13367174556676,34.94226064465153,0 33.13384928597836,34.94234236174438,0 33.13398285506925,34.94242402251125,0 33.13404132782219,34.94249498393617,0 33.13402279771459,34.94258999046595,0 33.13396215960139,34.94266984612568,0 33.13383918560022,34.94276922252482,0 33.13379692348288,34.94282497239404,0 33.13378944810398,34.94289133080075,0 33.13384233213162,34.94300454515454,0 33.13390421170458,34.94319319522484,0 33.13394042245481,34.94338935187013,0 33.13402789762165,34.94360368348688,0 33.1340988719285,34.94382251518516,0 33.13408214374302,34.94393110074216,0 33.13399767623282,34.94401544751102,0 33.13395710618535,34.94413455385468,0 33.13400440835552,34.94428698130309,0 33.13401664329879,34.94455550272504,0 33.13405125551794,34.94464606240395,0 33.13423428204685,34.94473533768777,0 33.13438240871013,34.94486377630444,0 33.13450851646122,34.94500726424346,0 33.13455950264677,34.94515215588067,0 33.13453717485791,34.94530749521272,0 33.13448719820782,34.94553821432137,0 33.13441926342914,34.9456029692933,0 33.13428004616646,34.9455876780631,0 33.13422505998343,34.94559664681237,0 33.1341771600435,34.94571574507167,0 33.13405185252514,34.94604138806766,0 33.13405890326394,34.94616810855568,0 33.13424889188109,34.94642483121225,0 33.13434594609323,34.94645061944723,0 33.1344759711718,34.94647947204832,0 33.13459673541699,34.9465550741828,0 33.13500330561082,34.94664166020643,0 33.13510571398668,34.94673231997,0 33.13523177273463,34.94690145569585,0 33.13510880786778,34.94699328919631,0 33.13503876058994,34.94718626967424,0 33.1349099210673,34.94745156723002,0 33.13481052929794,34.94765657193715,0 33.1346581406629,34.9477981409412,0 33.13454806527702,34.94786133270507,0 33.13442534928821,34.94784003243736,0 33.13423299243677,34.94782466113309,0 33.13411015398177,34.9478591730269,0 33.13395410250482,34.94799922717208,0 33.13382394005625,34.94803071081895,0 33.13369562146249,34.94805767160096,0 33.13365140094379,34.94816923136476,0 33.13362707844333,34.94839697319473,0 33.13364456702691,34.94877562329622,0 33.13341681263917,34.94902418017231,0 33.13360705890438,34.94916625985361,0 33.13374596027673,34.9493278721729,0 33.13372714494928,34.94955109713678,0 33.13364508560966,34.94973069824536,0 33.13359761354646,34.94988068158352,0 33.13374943968821,34.95024876497937,0 33.1337404179637,34.95057144341682,0 33.13355500560706,34.95035403479373,0 33.13326641374123,34.95042611043871,0 33.13310996346729,34.95044254205023,0 33.13278199997637,34.95043186381601,0 33.1326700572766,34.95042706158883,0 33.13244442077063,34.95048861166989,0 33.13208645227649,34.95056729102627,0 33.13185479885198,34.95062883122961,0 33.13122564844748,34.95096703213621,0 33.13150498708922,34.95109370882347,0 33.13181989747746,34.95145066637838,0 33.13236914082064,34.95189461780084,0 33.13267856393945,34.95201638492208,0 33.13277811855881,34.95211361662888,0 33.132869489675,34.95220693776739,0 33.13289820277433,34.95245225513808,0 33.1328391705642,34.95247671342133,0 33.13301811493823,34.95259566287199,0 33.13292147437267,34.95269064010701,0 33.13303975026773,34.95277450987346,0 33.13306218295495,34.95291215413909,0 33.13327428046138,34.95319178989051,0 33.1336089232321,34.95319131319813,0 33.13410377907693,34.95341720814389,0 33.13430878520379,34.95319989827713,0 33.1350718380214,34.95340849049065,0 33.13495326658374,34.95420627242535,0 33.13518662011413,34.95425724955154,0 33.13513831719526,34.95430245522585,0 33.13502234099582,34.95438575500216,0 33.13486204407444,34.95445247873572,0 33.13525908303851,34.95469558218588,0 33.13559431233999,34.95496313261793,0 33.13537183587118,34.95507030974866,0 33.13460916560756,34.9548363833707,0 33.13488929193492,34.95607892537966,0 33.13501357342862,34.95614461630081,0 33.13511670481282,34.95643910006609,0 33.13514926134575,34.95706712960146,0 33.13516161029686,34.95758498581496,0 33.13516110880557,34.95790110105973,0 33.13517533524877,34.95803185707725,0 33.13524972192383,34.95808090599773,0 33.13532107929736,34.95828799664781,0 33.13534734532406,34.95837309424293,0 33.13515366956874,34.95843247638243,0 33.1351896099331,34.95830464919144,0 33.13511126114219,34.95802645937076,0 33.13482683383021,34.95816257726724,0 33.13447490578433,34.95847192017442,0 33.13461383491092,34.95922507787114,0 33.13457139655831,34.95968958655859,0 33.13451079562822,34.95979418477758,0 33.13421751423721,34.9600996794901,0 33.13411020508226,34.96045567389398,0 33.13420903575072,34.96053943316117,0 33.13436990051083,34.96058963189143,0 33.13468958531409,34.96050671465289,0 33.13491856137252,34.96049822502901,0 33.13515780861893,34.96039134925292,0 33.13523769899317,34.96030073571323,0 33.13559803436301,34.96013813911553,0 33.13576404490381,34.96035795923022,0 33.13585807006836,34.96069371452533,0 33.13580703454864,34.96102530332979,0 33.13583406895145,34.96150686274063,0 33.13454470648944,34.9613640136069,0 33.13411625949256,34.96144318615855,0 33.1342366802282,34.9621435773473,0 33.13473684791283,34.96225325703973,0 33.13496921507477,34.96221506044306,0 33.1352559775415,34.96225090331934,0 33.13538007963166,34.96232815666541,0 33.13547479423293,34.96248293433325,0 33.13559192441004,34.96277780199689,0 33.13606768999408,34.96271302662395,0 33.13621838782765,34.96271501032564,0 33.13641286359017,34.962763406324,0 33.13648737918351,34.96280793090823,0 33.13669597834826,34.96299403326666,0 33.13683948984617,34.96308072740412,0 33.13656034300551,34.96337041227707,0 33.13585939627535,34.96338406091376,0 33.13588861492731,34.96360675599587,0 33.13588678384966,34.96384738014317,0 33.13583661422571,34.96398881153411,0 33.13542947004999,34.9638229690292,0 33.13530527087889,34.9642382739235,0 33.13522453422787,34.9645472090289,0 33.13524325948067,34.96475011864899,0 33.13503129266673,34.96525926265701,0 33.13503359177673,34.96545989369795,0 33.13507453908153,34.96551856476157,0 33.13523868812979,34.9655886893033,0 33.13531535200477,34.9655933111925,0 33.13577270263546,34.96557369942774,0 33.13583837876025,34.96559408399593,0 33.13603255440564,34.96570933743557,0 33.13612009874592,34.96574778910082,0 33.13648406135709,34.96585878233852,0 33.13666430977063,34.9660822168683,0 33.13682282287499,34.96622672096803,0 33.13692385273352,34.96636212391464,0 33.13665417446069,34.9669681188195,0 33.13649532248139,34.96697915610427,0 33.13632704960044,34.96754472237542,0 33.13615934376613,34.96784879764958,0 33.13593490446337,34.96779661998092,0 33.13572390525022,34.96785942706003,0 33.13561989939357,34.96783447622614,0 33.13552951159553,34.96784335977843,0 33.13474652067168,34.96774977537483,0 33.13451079732811,34.96784861187069,0 33.13440079599736,34.96805809212569,0 33.13449367784324,34.9681619253059,0 33.13415519446507,34.968914337242,0 33.1339315281009,34.96975257940477,0 33.13363258502061,34.96995501600605,0 33.13359613553232,34.97034043616202,0 33.13330252921448,34.97060374244268,0 33.13318709786677,34.97079067185092,0 33.13299203648703,34.97107215839505,0 33.13293395782339,34.97132905513853,0 33.13300187812383,34.97157486783622,0 33.13305588190716,34.97192210225769,0 33.13292369486435,34.97225327694697,0 33.13312906533482,34.9722648562302,0 33.13306247651042,34.97265473965393,0 33.13292693104939,34.97326543467726,0 33.1329624398263,34.97330831835192,0 33.13273033679948,34.97370810907555,0 33.13263381218058,34.97386948867406,0 33.13266193246479,34.97402190888525,0 33.13257771995714,34.97405411523407,0 33.13261482766562,34.97433472626042,0 33.13251203593232,34.97455882965222,0 33.13230519789621,34.97466853577102,0 33.13250269355331,34.97494867899267,0 33.13262517493149,34.97512847721261,0 33.132514543612,34.97532161597481,0 33.13229617397804,34.97561870246157,0 33.1324271825119,34.97578944751538,0 33.13261066143417,34.97574238731324,0 33.1327261423291,34.97560076265319,0 33.13284523615136,34.9755285657383,0 33.13309460393542,34.97546356724944,0 33.1331946403564,34.97542990360827,0 33.13333007274826,34.97548984346754,0 33.13335928287422,34.975458117986,0 33.13343579288044,34.97566882542889,0 33.13353042021184,34.97606014429845,0 33.13355942984649,34.97659092528512,0 33.13377148269931,34.97651473912988,0 33.13418296372897,34.97628950259008,0 33.13426359104384,34.97622363877726,0 33.13463247185798,34.97617182808695,0 33.13507063520473,34.97607697975015,0 33.13530371838439,34.97610891487276,0 33.13561857806442,34.97599146329005,0 33.13593288150655,34.9763445736742,0 33.13615835784403,34.97629259968289,0 33.13644203080865,34.97632823755487,0 33.13658400480381,34.97623158881303,0 33.13685130977265,34.97678958443745,0 33.13701313717216,34.9765671902953,0 33.13712755257988,34.97645117683066,0 33.13771068839153,34.97653536139798,0 33.13794732476774,34.97684965423959,0 33.13818767114665,34.97694220939372,0 33.13823854216925,34.97706148197028,0 33.13800501456943,34.97737733030399,0 33.13781204231545,34.97727287534364,0 33.13763361297126,34.97719824004174,0 33.13739311922207,34.97723982674277,0 33.13715265935178,34.9772545827508,0 33.13706892539351,34.97720683567094,0 33.13693748816873,34.97745417333717,0 33.13665313862916,34.97762092657224,0 33.1366806403338,34.97774974429052,0 33.13674225436669,34.97787613029398,0 33.13673765048524,34.97804037880821,0 33.13679712429204,34.97814208151566,0 33.1368185751619,34.97825097538144,0 33.13654169503003,34.97822431082028,0 33.13619650633986,34.97850108062791,0 33.13603633426386,34.97846313146631,0 33.13592566876458,34.97846440922091,0 33.13582172592589,34.97836837896023,0 33.13569083238217,34.97852377594289,0 33.13565396487802,34.978677975246,0 33.1358223542696,34.9785466361142,0 33.13586156477971,34.97854873224662,0 33.135795547782,34.97874411720053,0 33.13570292579082,34.97895346435401,0 33.13529976835099,34.97888660351889,0 33.13527585869956,34.97874325766279,0 33.1352399675589,34.97848327734867,0 33.13490872633869,34.97859312722435,0 33.13482575360946,34.97874259089404,0 33.13482336580531,34.97876782367906,0 33.13485970666225,34.97876973492196,0 33.13487993228242,34.97903990808409,0 33.13493879095145,34.97905532656111,0 33.13484770011971,34.97935644777068,0 33.13412738835842,34.97938222686581,0 33.13404368836951,34.9796076299746,0 33.13434080107157,34.97968935342258,0 33.13467806703167,34.97963318941484,0 33.13469326493325,34.97972927403251,0 33.13516401483504,34.9798413035291,0 33.13517322686024,34.97990538315737,0 33.13546315394311,34.980074296372,0 33.13567316905185,34.97967793653157,0 33.13606665864318,34.97985724864221,0 33.13583153812971,34.98004071673566,0 33.13615507060176,34.98021159728016,0 33.13564545504601,34.98077606171431,0 33.13543442390792,34.98087905848866,0 33.13521915792127,34.98108523188021,0 33.13500983904023,34.9808856673359,0 33.13488928190971,34.98063477738741,0 33.13482746815539,34.98060791671536,0 33.1346227452799,34.98054582709116,0 33.1344410845811,34.9805385086233,0 33.13434047568565,34.98053495205195,0 33.13421146298718,34.98049501172277,0 33.13404340456621,34.98045777087853,0 33.13398207915912,34.98046756679231,0 33.13388765512626,34.98050977944451,0 33.13384364673645,34.98056293661521,0 33.13377473785646,34.98063467714228,0 33.13367745413254,34.98067232433297,0 33.13356541881939,34.98064597351713,0 33.13341092287681,34.98057650337407,0 33.13323664545085,34.980488913459,0 33.13316655450279,34.98046670789397,0 33.13306318583108,34.98046318213632,0 33.13295167216462,34.98047806700313,0 33.13282611227984,34.98048622443555,0 33.13271530710136,34.98048275068608,0 33.13255813463952,34.98049025459677,0 33.13250492967414,34.98048889020929,0 33.13223185890881,34.98041370031721,0 33.13207640547231,34.98036696538544,0 33.13199808994551,34.98037282690639,0 33.13103270162626,34.98069878395027,0 33.13101835932943,34.98099222122745,0 33.13121818046778,34.98132889690782,0 33.13126016578354,34.981723180271,0 33.13131110859825,34.98188704391624,0 33.13130588288674,34.98198908332071,0 33.13126022821923,34.98213361386487,0 33.13119806241823,34.98235499289935,0 33.13113562559182,34.98250070075859,0 33.13090782237599,34.98256638676256,0 33.130660282165,34.98258853919352,0 33.13058624963378,34.98261960187769,0 33.13056403990904,34.982667795466,0 33.13057706772732,34.98279390230421,0 33.130580607377,34.98282756960489,0 33.13058574616142,34.98287644951741,0 33.13052314454331,34.98297514856718,0 33.13042142990849,34.98309454406011,0 33.13032249953338,34.98320935270738,0 33.13030045160449,34.98330456554556,0 33.13031488871682,34.98343412155963,0 33.13033333203798,34.98350748805791,0 33.13042908436085,34.98368625863879,0 33.13011136643272,34.98364655438925,0 33.12994079971292,34.98367661131882,0 33.129774110677,34.98361261590335,0 33.12971792241706,34.98354388694088,0 33.12955081792636,34.98335491834623,0 33.12933165235233,34.98306513498608,0 33.1292946246266,34.98286568710552,0 33.12929178273372,34.98282894875412,0 33.12928584628926,34.98275220283349,0 33.12922125283051,34.98267433667218,0 33.12908117096254,34.98260460952868,0 33.12899444067963,34.98260014496745,0 33.12869252321682,34.98264644185407,0 33.12834165936836,34.98269050460903,0 33.12798655768342,34.98271280128648,0 33.12741630768259,34.98278354396535,0 33.12728828192927,34.98252581341099,0 33.12704375245832,34.98256972754983,0 33.12689297218944,34.98217567819539,0 33.12671951264571,34.98213467661046,0 33.12646079486712,34.98209723230191,0 33.12647009629259,34.9819344910691,0 33.1265488406775,34.98162382673237,0 33.12685508472634,34.981210842428,0 33.12668111956047,34.98098882693223,0 33.12622130977854,34.98098841063847,0 33.12596771971592,34.98076884671084,0 33.12560047468106,34.98083241016781,0 33.12543391983498,34.98076854292832,0 33.12516067291192,34.98049405904266,0 33.12483241176759,34.98051635398217,0 33.12454169770732,34.98047329460216,0 33.12429875160662,34.98052408041278,0 33.12396047318742,34.98044100695773,0 33.12368416559901,34.98054453401912,0 33.12350551810602,34.98060093444819,0 33.12334093482691,34.98069282135494,0 33.12325859705145,34.98072158937096,0 33.12251810741449,34.98062081968519,0 33.12220321846236,34.98034647840477,0 33.12199760621829,34.98020366783005,0 33.1219667340157,34.98014303618969,0 33.12201948603125,34.98001355583038,0 33.12199105561064,34.97980406854967,0 33.12191801673264,34.97962672508448,0 33.12170261076997,34.97945992954907,0 33.12147301361129,34.97919129069098,0 33.12131497004658,34.9790690740924,0 33.12086671825114,34.97900116290669,0 33.12057350820201,34.97896274516896,0 33.1203712227949,34.97900772801999,0 33.12021355794143,34.97903088871052,0 33.11978365242179,34.97901445047983,0 33.11947934460985,34.97897719668009,0 33.1192532960015,34.97898902209577,0 33.11913476380133,34.97903042215678,0 33.11911241603584,34.97901901934955,0 33.11926400118639,34.97876812504929,0 33.11902677590001,34.97876510183878,0 33.1190099162216,34.97871807630927,0 33.1188541143779,34.97840156535909,0 33.1188168885455,34.97819754674547,0 33.11868510326757,34.97826404074412,0 33.11862179327942,34.97817745979791,0 33.11869157289718,34.97804867182678,0 33.11855273184463,34.9780060228501,0 33.11843564373859,34.97799767537403,0 33.11827698943753,34.97794030971684,0 33.11807895641518,34.97816127182016,0 33.11812082725639,34.97824701664584,0 33.11799528117192,34.978240557357,0 33.11798000180524,34.97826555535242,0 33.11773400271914,34.97849093811809,0 33.11761757862037,34.9785805215307,0 33.11728829962223,34.97854792968766,0 33.1171628012068,34.97865673091368,0 33.11711388242119,34.97861635795544,0 33.11692003911588,34.97871468259405,0 33.11654659349892,34.97891234670605,0 33.11633370074235,34.97920333250001,0 33.11581089057893,34.97933692303718,0 33.11582120466339,34.97967331262432,0 33.11414586120957,34.97928585423081,0 33.11415287303556,34.97934762717914,0 33.11245951946407,34.98085024208702,0 33.1120208828811,34.98127083212031,0 33.1125984028985,34.98154352597744,0 33.11259454624589,34.98181133904864,0 33.1119658801578,34.98193466989809,0 33.11163135689756,34.98199006609117,0 33.11141818792363,34.98211281941321,0 33.11133865055467,34.98203395954047,0 33.11100553782424,34.98209391755812,0 33.11085929792242,34.98221314179494,0 33.11080222957221,34.98229332561052,0 33.11013420376101,34.98284783597572,0 33.10982725204542,34.98310262554381,0 33.10950741466474,34.98348479439384,0 33.10921736769583,34.98383136426391,0 33.10852233553786,34.98446064009584,0 33.10818789322181,34.98453885813235,0 33.10800130899795,34.9847840526778,0 33.10775073297081,34.98524685117014,0 33.10723103481352,34.98549812232552,0 33.10711827794702,34.98571693121813,0 33.10648831333042,34.98556299111052,0 33.1062664177934,34.98584353643815,0 33.10605224269702,34.98591349524427,0 33.10617747779899,34.98617381060816,0 33.10621415287694,34.98631205151625,0 33.10621387399358,34.98642178007377,0 33.10611936317222,34.98670000419487,0 33.1057921513946,34.98626458827511,0 33.1053532887269,34.98605249929561,0 33.10517370985798,34.98580834681785,0 33.10467390843473,34.98529541180186,0 33.10410508916001,34.98474577717124,0 33.10385876656831,34.98454011415936,0 33.10381444249406,34.98449736389311,0 33.10315004609383,34.98368339624626,0 33.09943617993557,34.98416860522661,0 33.0994587425848,34.98285704932333,0 33.09949151393905,34.98095200465017,0 33.0994918653933,34.98081789224863,0 33.09958020790997,34.98007432808395,0 33.09979929700908,34.97935944356945,0 33.09945530930029,34.97868496164229,0 33.09942156721686,34.97861880081822,0 33.0993559750713,34.9783181831673,0 33.09963314401808,34.97749327393833,0 33.0997853699606,34.97730231601839,0 33.09985945395062,34.97707609690784,0 33.10025396651163,34.97670409652296,0 33.09471928760664,34.97778356911893,0 33.09471599463009,34.97780377095152,0 33.09470342199617,34.97800273917848,0 33.09459924638681,34.97867629738894,0 33.09435918750089,34.97993621553907,0 33.0941025412418,34.98143609216532,0 33.09384158728893,34.98286152029404,0 33.09383136542268,34.98291735736964,0 33.09369601005541,34.98368648634094,0 33.09409241695858,34.9837168167184,0 33.09442288371443,34.98371779064441,0 33.09467842562908,34.98461628129159,0 33.09462094794346,34.98494514157576,0 33.09473162734612,34.98519119610442,0 33.09475619844522,34.985370348727,0 33.09471483994997,34.98545282486238,0 33.09458700375927,34.98561067922956,0 33.09439813445788,34.98577666674755,0 33.09434685174316,34.98587228159433,0 33.09420824114507,34.98616332295007,0 33.09407999940048,34.98641273889699,0 33.09391022757608,34.98662317836104,0 33.09375181884963,34.98680585919946,0 33.09358856602869,34.98693856109328,0 33.09337429000461,34.98711688370001,0 33.09335875588832,34.987179273668,0 33.09330227833471,34.9873039712623,0 33.09330644050646,34.98750377982994,0 33.09334188024459,34.9876143913414,0 33.09348846330825,34.98778550869924,0 33.09375693012174,34.98797366438841,0 33.09402039317526,34.98814515321815,0 33.09413661653203,34.98828703288441,0 33.09418226103087,34.98844380743414,0 33.09417577475588,34.98874342233206,0 33.09408323283682,34.98897199648272,0 33.09416237979849,34.98953729801652,0 33.0942642029945,34.98949602639787,0 33.09452194913506,34.98979645534955,0 33.09458107927305,34.99018774131427,0 33.09472828242676,34.9902215157828,0 33.09498044722346,34.99188930668555,0 33.09517750172854,34.99318230957323,0 33.09546852490983,34.99519617248201,0 33.09571306927145,34.99710733851646,0 33.09584360887605,34.99801458859236,0 33.09516513834544,34.99819631924346,0 33.09499824242225,34.99808435378903,0 33.09482620104029,34.99804694111192,0 33.09474024851674,34.9979723186041,0 33.0944822830023,34.99783957704631,0 33.09431536102851,34.99776075256577,0 33.09406745632001,34.99769015035481,0 33.09382452135605,34.99770238953401,0 33.09368783775827,34.99773956090593,0 33.09353087834157,34.99780570882361,0 33.09291984397106,34.99777309652474,0 33.09249986019595,34.99776034383189,0 33.09246927982193,34.99794668958273,0 33.09188219773582,34.99805390134807,0 33.09185177863659,34.99810357411532,0 33.09176047337553,34.99829814606449,0 33.09175022193851,34.99840995430811,0 33.09171440681071,34.99871138639546,0 33.0916940060475,34.99884803212309,0 33.09146069765894,34.99932407815115,0 33.091186504849,34.99997744540235,0 33.09102404329065,35.00044937994673,0 33.09102391911383,35.00055290539159,0 33.09098314087991,35.00080961024373,0 33.09089651868904,35.00116014563967,0 33.09079502790827,35.00141678497049,0 33.09072910402054,35.00154508845144,0 33.09066840795543,35.00153260575974,0 33.09054707507583,35.00145795175781,0 33.09043081737278,35.00137088029562,0 33.09033995049142,35.00120515831006,0 33.09032403126162,35.00107012640153,0 33.09027857313544,35.00100796982972,0 33.09018250051298,35.0009664692015,0 33.09010664605804,35.00094155147709,0 33.09010674901973,35.00085459519416,0 33.09015242229471,35.00073455423678,0 33.09020336655957,35.00043646026889,0 33.09020345878854,35.00035778540217,0 33.09014791823041,35.00026663373251,0 33.08996591953431,35.00016294501109,0 33.08964225033204,35.00008397148381,0 33.08932605716774,35.00007539940194,0 33.08912366146183,35.00012076015936,0 33.08884525981717,35.00028198624089,0 33.08877940829107,35.00036059563561,0 33.08874891455743,35.0004806439193,0 33.08868301003704,35.00060479792689,0 33.08852606288502,35.00072472301692,0 33.08824771446643,35.00085280939613,0 33.08812121996429,35.0008899499531,0 33.08802007677603,35.0008774312866,0 33.08792409571897,35.00077796881352,0 33.08787884593955,35.00055020451726,0 33.08789661056996,35.00044888561656,0 33.0878460902988,35.00039915256201,0 33.08772979585809,35.00037006014919,0 33.0875881598206,35.0003864872732,0 33.08740608463604,35.00038631381711,0 33.08729989523059,35.00036965161491,0 33.08720892434354,35.00031574131422,0 33.08717873779111,35.00018322428494,0 33.08711813192418,35.00011278245764,0 33.08674909728613,34.99998408937396,0 33.08647609806599,34.99990930969554,0 33.08635473802149,34.99990091544921,0 33.08612711861225,34.99994624227798,0 33.08596528226381,34.99995851093258,0 33.08562635344498,35.0000616898937,0 33.08552016788141,35.00005744870558,0 33.08538055408432,35.00012121841792,0 33.08525402083622,35.00022045537157,0 33.08509721124452,35.00026998165414,0 33.08493542631556,35.00025326529596,0 33.08477863433447,35.00029037308717,0 33.08434353533305,35.00051349193889,0 33.08420700336182,35.00052991607929,0 33.08361515516243,35.00079012020242,0 33.08330667629085,35.00086018029463,0 33.08308925111,35.00089307545968,0 33.0829426586213,35.00088050794026,0 33.08268796902769,35.00079059661201,0 33.0826365488527,35.00153835225504,0 33.08259573895709,35.00184461026369,0 33.08241347796724,35.00207206962218,0 33.08224653004881,35.00222931335777,0 33.08204924210941,35.00234913117514,0 33.08159910127448,35.00256386341298,0 33.08148734406041,35.00274516864349,0 33.08154767060547,35.00301840303303,0 33.08171393733497,35.00346559205139,0 33.08171377295151,35.00360217551061,0 33.08156196076042,35.00374271905645,0 33.08130709236069,35.00396898959166,0 33.08108429253453,35.00429982264276,0 33.08096261051345,35.00461007589885,0 33.08081043365549,35.00493112768411,0 33.08062301867356,35.00526611709717,0 33.08057741049117,35.00536538457018,0 33.08059719222839,35.00572545633443,0 33.08054126846779,35.00600077749773,0 33.08037917961702,35.0062943940129,0 33.0801970162421,35.00647210458646,0 33.07976979760038,35.00667954295868,0 33.0796906532963,35.00674849909964,0 33.07963766604068,35.00681661683136,0 33.07960278887735,35.00688954710073,0 33.07954791395324,35.0070642390045,0 33.07943669572122,35.00765771288723,0 33.07933044588387,35.00813013620407,0 33.07976373429742,35.008835025587,0 33.08015699359254,35.0092123947938,0 33.08045782121171,35.00953662001685,0 33.08057376756169,35.00970402000544,0 33.08082089004359,35.01006033285064,0 33.08126599263125,35.01057469955942,0 33.08158488813968,35.01094780136138,0 33.08203929534923,35.01156274452006,0 33.08242909547243,35.01208681558838,0 33.08277625328773,35.01254885217472,0 33.08303225507296,35.01286780099971,0 33.08341858422434,35.01326090930783,0 33.0834944078195,35.01332064513863,0 33.08361028183299,35.01337978454081,0 33.08376077041756,35.01351430240812,0 33.08389232644764,35.0137100751313,0 33.08404164436345,35.01392018790752,0 33.08406955840751,35.01413610869128,0 33.08404318251023,35.01444698987986,0 33.08398478283465,35.0147063632191,0 33.08384302607573,35.01505889605501,0 33.08374497315055,35.01526965121388,0 33.08356911036548,35.01544499870916,0 33.08324656327183,35.01575149495728,0 33.08311394822594,35.01587419861801,0 33.08268615116032,35.01625575134825,0 33.08255427857473,35.01639602716861,0 33.08233624278208,35.01669950487023,0 33.08203694589871,35.01720014545171,0 33.08174009286966,35.017751092145,0 33.08169910031847,35.01796104722136,0 33.0816782027458,35.01845153655604,0 33.08169727478816,35.01896246309865,0 33.08174219375012,35.01954849242833,0 33.08185082847461,35.01985329911133,0 33.08235489981137,35.02066939020796,0 33.08281502450763,35.02138682383487,0 33.08285480652373,35.02145747377563,0 33.0828541473043,35.02156978991807,0 33.0827146157292,35.02201249352482,0 33.08273670867217,35.02216897205813,0 33.08280412965172,35.02235673605144,0 33.08288645132381,35.02257586660525,0 33.08303276617086,35.02277301987448,0 33.08327637235116,35.02303031417426,0 33.08347129825511,35.02325639269004,0 33.08371095219384,35.0234746787786,0 33.08393539746801,35.0236541613814,0 33.0839894748183,35.02377266034888,0 33.08399095216627,35.02391751278122,0 33.08380668304506,35.02414657305018,0 33.08365521556633,35.02434508550214,0 33.08343525525995,35.02460245016557,0 33.08333509783401,35.02473093855419,0 33.0833358932348,35.02485280693107,0 33.08352500962102,35.02535726161844,0 33.08385798967252,35.0259761146041,0 33.08409834278723,35.0264082368964,0 33.08415249249293,35.02652903521776,0 33.08417668959555,35.02677692348836,0 33.08416279130753,35.02706696530333,0 33.08416585140205,35.02745555339749,0 33.08418101217397,35.02768291076202,0 33.08430080418517,35.02793346843376,0 33.08445785957498,35.02820858547418,0 33.08449971092683,35.02848369963621,0 33.08438071274155,35.02864016678438,0 33.08408834145362,35.02863452669168,0 33.08375530469506,35.02858371569293,0 33.08357413821941,35.02863333955435,0 33.08324388634127,35.02896191182325,0 33.08286628383118,35.02939952374398,0 33.08273300693524,35.02964365881706,0 33.08270653688449,35.02979366738697,0 33.08274943962127,35.03000897283633,0 33.0828654755215,35.03022741127268,0 33.08304707541154,35.03038245091523,0 33.08320271451514,35.03051501577225,0 33.08318913234018,35.03062566125638,0 33.0830913026727,35.03073802126579,0 33.0828721845885,35.03083439351011,0 33.08274833453522,35.03092196203884,0 33.08254966773994,35.03113982437407,0 33.08233568018348,35.03150515606212,0 33.08215883060939,35.03208131225857,0 33.08200976245902,35.0325511400658,0 33.08175599610426,35.03309204150809,0 33.0815719422109,35.03342458665293,0 33.08130301098929,35.03383242474215,0 33.08112256782,35.03419249259004,0 33.08108158609249,35.03432669042909,0 33.08109406245594,35.03455871097638,0 33.08116652903622,35.03482401609327,0 33.08136391029169,35.03522709290904,0 33.08159011004238,35.0356548751182,0 33.08166291832582,35.03593167189309,0 33.08168650051741,35.03615886493694,0 33.08168162888646,35.03646941992657,0 33.08155735862679,35.03654319568692,0 33.08128528904966,35.03656015731523,0 33.08089796143921,35.03648054562946,0 33.08066842840565,35.03651045799079,0 33.08061140587088,35.03666989799466,0 33.08056738305197,35.03674056538533,0 33.08052797795572,35.03684967355144,0 33.08029863702665,35.03742672493112,0 33.08028144817953,35.03752593871509,0 33.08013068456,35.03777324257098,0 33.07989389317552,35.03813073504567,0 33.07967886343044,35.03840286971933,0 33.07939231344334,35.03875400726915,0 33.07897414807262,35.03936719928838,0</coordinates>
						</LinearRing>
					</outerBoundaryIs>
				</Polygon>
			</MultiGeometry>
		</Placemark>
	</Document>
</kml>