<?xml version='1.0' encoding='UTF-8'?>
<kml xmlns="http://www.opengis.net/kml/2.2">
	<Document>
		<name>LEMESOS Community Cluster A</name>
		<Style id="PolyStyle80">
			<LabelStyle>
				<color>00000000</color>
				<scale>0.000000</scale>
			</LabelStyle>
			<LineStyle>
				<color>ffa9e600</color>
				<width>2.000000</width>
			</LineStyle>
			<PolyStyle>
				<color>00828282</color>
				<outline>1</outline>
			</PolyStyle>
		</Style>
		<Placemark id="ID_80017">
			<name>LEMESOS Community Cluster A</name>
			<snippet />
			<description>&lt;html xmlns:fo="http://www.w3.org/1999/XSL/Format" xmlns:msxsl="urn:schemas-microsoft-com:xslt"&gt;

&lt;head&gt;

&lt;META http-equiv="Content-Type" content="text/html"&gt;

&lt;meta http-equiv="content-type" content="text/html; charset=UTF-8"&gt;

&lt;/head&gt;

&lt;body style="margin:0px 0px 0px 0px;overflow:auto;background:#FFFFFF;"&gt;

&lt;table style="font-family:Arial,Verdana,Times;font-size:12px;text-align:left;width:100%;border-collapse:collapse;padding:3px 3px 3px 3px"&gt;

&lt;tr style="text-align:center;font-weight:bold;background:#9CBCE2"&gt;

&lt;td&gt;Σύμπλεγμα Α&lt;/td&gt;

&lt;/tr&gt;

&lt;tr&gt;

&lt;td&gt;

&lt;table style="font-family:Arial,Verdana,Times;font-size:12px;text-align:left;width:100%;border-spacing:0px; padding:3px 3px 3px 3px"&gt;

&lt;tr&gt;

&lt;td&gt;NAME_GR&lt;/td&gt;

&lt;td&gt;Σύμπλεγμα Α&lt;/td&gt;

&lt;/tr&gt;

&lt;tr bgcolor="#D4E4F3"&gt;

&lt;td&gt;NAME_ENG&lt;/td&gt;

&lt;td&gt;Community Cluster "Α"&lt;/td&gt;

&lt;/tr&gt;

&lt;tr&gt;

&lt;td&gt;DISTRICT_N&lt;/td&gt;

&lt;td&gt;ΛΕΜΕΣΟΣ&lt;/td&gt;

&lt;/tr&gt;

&lt;tr bgcolor="#D4E4F3"&gt;

&lt;td&gt;SHAPE.AREA&lt;/td&gt;

&lt;td&gt;159441882,462018&lt;/td&gt;

&lt;/tr&gt;

&lt;tr&gt;

&lt;td&gt;SHAPE.LEN&lt;/td&gt;

&lt;td&gt;77341,3714&lt;/td&gt;

&lt;/tr&gt;

&lt;/table&gt;

&lt;/td&gt;

&lt;/tr&gt;

&lt;/table&gt;

&lt;/body&gt;&lt;script type="text/javascript"&gt;

				function changeImage(attElement, nameElement) {

				document.getElementById('imageAttachment').src = attElement;

				document.getElementById('imageName').innerHTML = nameElement;}

			&lt;/script&gt;&lt;/html&gt;

</description>
			<styleUrl>#PolyStyle80</styleUrl>
			<MultiGeometry>
				<Polygon>
					<extrude>0</extrude>
					<altitudeMode>clampToGround</altitudeMode>
					<outerBoundaryIs>
						<LinearRing>
							<coordinates> 33.16639797398004,34.83400411549628,0 33.16608910257449,34.83379029953338,0 33.16597782969563,34.8337325160148,0 33.16550424670841,34.83348658178758,0 33.16482005728492,34.83329423674673,0 33.16435843078054,34.83338941723557,0 33.16309619560901,34.83345336030039,0 33.16297825476176,34.83372880271588,0 33.1629293315216,34.8339135404957,0 33.16255405087148,34.83396687027756,0 33.16221738216874,34.83395549171829,0 33.16202506097146,34.83389858517007,0 33.16178929658263,34.83379818066818,0 33.16163383776228,34.83372711405016,0 33.16143344478389,34.8336125370105,0 33.16090802437564,34.83350100327586,0 33.16049316535561,34.8330973142484,0 33.16018433905586,34.83319015251088,0 33.1597171984668,34.83296529741587,0 33.15967473632227,34.83279389975407,0 33.15950404007312,34.83256186284174,0 33.1598042360698,34.8321817629961,0 33.16032407891342,34.83200352189529,0 33.160361201613,34.83176167114521,0 33.16048062984422,34.83162827548104,0 33.16038947761743,34.83134846603933,0 33.15979042740275,34.83139809768701,0 33.15985510778042,34.83112856604182,0 33.16012112495991,34.83104575319945,0 33.16021913071875,34.83092996879014,0 33.16029283016064,34.83073856016855,0 33.16064772366122,34.83051727148672,0 33.16104177214882,34.83060344316225,0 33.16104208136517,34.83043713928486,0 33.16134760281479,34.83047280247965,0 33.16164804544598,34.82994907019561,0 33.16156916806317,34.82963904029802,0 33.16127279713461,34.82961598765366,0 33.16117831229194,34.82948484070084,0 33.16097387159272,34.82932331693668,0 33.16068648234932,34.82939854532084,0 33.16020989809478,34.82933242581219,0 33.16013596753273,34.82964730212261,0 33.15968968848712,34.82971476744508,0 33.15961370597875,34.82949545009598,0 33.15943648679461,34.82915386081255,0 33.15935719041761,34.82913294373846,0 33.15936760407671,34.8289636689201,0 33.15923000789902,34.82875535038434,0 33.15925401568431,34.82851671355401,0 33.15920747393,34.82821138044511,0 33.15908984781389,34.82812242304054,0 33.15893843417628,34.8281028025057,0 33.15885785353667,34.82800001597145,0 33.15866953112712,34.82792206793409,0 33.1585486299883,34.82778592684303,0 33.15813742862318,34.82810454670234,0 33.1582777402288,34.82865422042993,0 33.1584051434203,34.82891247845235,0 33.15827382212934,34.82894561276597,0 33.15804157053475,34.82895918856858,0 33.15769445189756,34.82920295717125,0 33.15759982476276,34.82940820073114,0 33.1572703338646,34.82923016119698,0 33.15720292219157,34.82928280388602,0 33.15681593590188,34.82925177230644,0 33.15630760222781,34.82931771593612,0 33.15617709008749,34.82892901596551,0 33.15595114260562,34.82916461188918,0 33.15553082465068,34.82896702424779,0 33.1553252402565,34.82911383959179,0 33.15502911674051,34.82908847180963,0 33.15486717124013,34.82929362413699,0 33.15503419168628,34.82962875255116,0 33.15440580709864,34.8296864143818,0 33.154438250381,34.82976410993339,0 33.15379948796052,34.8296973967262,0 33.15362447535803,34.82969716441209,0 33.15326756325722,34.8297771713298,0 33.15313339958026,34.82954109939022,0 33.15318446054645,34.82924699580283,0 33.15318132723015,34.82912765737909,0 33.15272981638379,34.82939347555619,0 33.15293447634407,34.82972122358385,0 33.15276938113266,34.82981258495043,0 33.15250720639708,34.82963739752145,0 33.15247027660644,34.82959016984948,0 33.15227475060867,34.82975364519498,0 33.15200210639588,34.82976715725458,0 33.15197862935835,34.82972549622095,0 33.15210001769927,34.82961187602542,0 33.15198259664098,34.82942022797817,0 33.1519830724524,34.82917878600478,0 33.15172755126133,34.82904523295466,0 33.151565444844,34.8293280871907,0 33.15142672001161,34.82969977816457,0 33.15112745565147,34.82956061538012,0 33.15086525104694,34.82940207516234,0 33.15082517325664,34.82924660810263,0 33.15086249147327,34.82909679724662,0 33.15097723570959,34.82893876462748,0 33.15108520972395,34.82880015037716,0 33.15132783209889,34.82864784052855,0 33.15107888648251,34.82859477582058,0 33.15090426781294,34.82839750052857,0 33.15095192418114,34.82812559399338,0 33.1508717227188,34.8278368635815,0 33.15066676244093,34.8276672983335,0 33.15032679507436,34.82769181469033,0 33.15029953319871,34.82786106634028,0 33.1496599198385,34.82794067962038,0 33.14959231421714,34.82808767428448,0 33.14930208935742,34.82848135974537,0 33.14894201766732,34.82845866440041,0 33.14892891765673,34.82827825922915,0 33.14883808624773,34.82825870880086,0 33.14855533601941,34.82828052336669,0 33.14849165909652,34.82814722669423,0 33.14830989128709,34.82816085390608,0 33.14817204258033,34.82809128369524,0 33.14796654324775,34.82819090992023,0 33.14778500001724,34.82809352850549,0 33.1477107790056,34.82818223232403,0 33.14738803307306,34.82800972603795,0 33.14714273197471,34.82782067193883,0 33.14699189660369,34.82751796618721,0 33.14680349083925,34.827487178286,0 33.14617932330842,34.82824394655618,0 33.14596409146017,34.82816316618374,0 33.14591039047806,34.82809093680689,0 33.14566821659871,34.8280184437189,0 33.14546996709439,34.8278627548604,0 33.14542082032397,34.82721051165214,0 33.14520207761751,34.82720465654936,0 33.14500100258611,34.82678809345252,0 33.14541196187884,34.82660827698125,0 33.14534179358122,34.82636118606718,0 33.14567835591809,34.82635332853629,0 33.1459439079523,34.82651188593877,0 33.14620002145458,34.82634572826342,0 33.14597153229821,34.82616779800283,0 33.14601603689391,34.82579875559701,0 33.14615750898766,34.82574067279155,0 33.14612433426683,34.82550473389616,0 33.14592278226135,34.82532128942624,0 33.14596027390968,34.82509099983819,0 33.14593381882219,34.82505785900246,0 33.14583607312367,34.824935414648,0 33.14552997822987,34.82485728172161,0 33.14547269707134,34.82489050476412,0 33.14538548606817,34.82474884739815,0 33.14509591477684,34.82482059806554,0 33.14514485477127,34.82505880274799,0 33.14515922248368,34.8251287365591,0 33.14515578933267,34.82516203311783,0 33.14505476529221,34.8251924207872,0 33.14496709260357,34.82527555360834,0 33.14472854574752,34.82508095517549,0 33.14471955377969,34.82505930936357,0 33.14462473275365,34.82483104078278,0 33.14454737648761,34.8250595140372,0 33.14449606351698,34.82521106507046,0 33.14443463829731,34.82562171017566,0 33.14406371066849,34.82597363996409,0 33.14386850270519,34.82597891728052,0 33.14374917059025,34.82590659233077,0 33.14339213748934,34.82605040053917,0 33.14333112305007,34.82626123031574,0 33.14308875351575,34.82628864121667,0 33.14294750344082,34.82623848725194,0 33.14263793533998,34.82621029795024,0 33.14200577292431,34.82594852982754,0 33.14192457084888,34.82615377993719,0 33.14158168076293,34.82597012798393,0 33.14140025654842,34.82582000726234,0 33.14121871310674,34.825730941815,0 33.14083398592982,34.82623548024299,0 33.14121021757136,34.8265690432744,0 33.14108838655158,34.82689079504084,0 33.14101429038936,34.82691844105904,0 33.14092044279018,34.82673514200495,0 33.1407723167471,34.82675158109893,0 33.14057082326264,34.82654592674031,0 33.14040984110819,34.82627927535918,0 33.14051790880971,34.82610181677714,0 33.1404710148863,34.8259962909551,0 33.14019434907208,34.8263289198688,0 33.13983077299985,34.82637835025825,0 33.13984366813812,34.82664478868463,0 33.13968851709823,34.82680552828941,0 33.13960747356048,34.82693307051512,0 33.1392574485586,34.82693811593475,0 33.1388327640739,34.82723167530751,0 33.1386645753805,34.82719257819129,0 33.13828862530359,34.82673134684376,0 33.13826209578999,34.82654814317316,0 33.1385382017751,34.82648193919817,0 33.13887481141725,34.82645467502429,0 33.13876755566525,34.82624915435451,0 33.13867979907634,34.82636558601245,0 33.13838369993326,34.82633740478767,0 33.13804022284729,34.82643126211666,0 33.13777723349094,34.82665289664867,0 33.13766973032689,34.82656393225563,0 33.13751461093293,34.82670801832316,0 33.137279051992,34.82669657265971,0 33.13715813799536,34.8265798374625,0 33.13690916759107,34.82654617006121,0 33.13679467927872,34.82657375438939,0 33.13679439120714,34.82670696511391,0 33.13673377848185,34.82672352622976,0 33.13670681013545,34.82674568900617,0 33.13658528455623,34.82691757390202,0 33.1366853571749,34.82732845189588,0 33.13670499133423,34.82758935083871,0 33.13687924546714,34.82793928367219,0 33.13704725573616,34.82806163801744,0 33.13693944161013,34.82811698420935,0 33.13696621957424,34.8281836300143,0 33.13711417601773,34.82824490006413,0 33.13696575258913,34.82840009366316,0 33.13697905837278,34.82847226971501,0 33.13681741236861,34.82852198732424,0 33.13701232096687,34.82865548225395,0 33.13676270687625,34.82891598542009,0 33.13646691106085,34.82874348656774,0 33.13629867349953,34.82872104058467,0 33.13605673209058,34.82854862010857,0 33.13584105300412,34.82867596052188,0 33.13568697322313,34.82833715741651,0 33.13531109514283,34.82784816563804,0 33.1350885347691,34.82804765564581,0 33.13502078586002,34.82824736837011,0 33.13431392696737,34.8282907227758,0 33.13397023135546,34.82847892569565,0 33.13370101004625,34.82846742543914,0 33.13368777574423,34.82836194657999,0 33.13305117628427,34.82848250788247,0 33.13269587972645,34.82859066998856,0 33.13144427296484,34.82727454006912,0 33.13123321987933,34.82730478537973,0 33.1310564751646,34.8272927630097,0 33.13086039425421,34.82700093487356,0 33.13102298178835,34.82696826521832,0 33.13104885689935,34.82687191079381,0 33.13071629960302,34.82641059750553,0 33.12993160536136,34.82541960613487,0 33.12984904003931,34.82536775705366,0 33.12969710169528,34.82507625031941,0 33.12969574098573,34.82507363935842,0 33.12972211625929,34.82475393428133,0 33.13039992265813,34.8238121861974,0 33.13051422611299,34.82369480618627,0 33.13058316876079,34.82346215452147,0 33.13047489807705,34.82343142654132,0 33.13052084434003,34.82328337843367,0 33.13086605948748,34.8231757526888,0 33.13068994537356,34.82288395307263,0 33.13037109435237,34.82267657589339,0 33.13024349393486,34.82236604098646,0 33.13044921614451,34.82216416091566,0 33.13023320359439,34.82186759770493,0 33.13009382052838,34.82172632224594,0 33.12998018414551,34.82154746726339,0 33.12974391244622,34.82138723542042,0 33.12953881824655,34.82130933666024,0 33.12937930249347,34.82124796593143,0 33.12908372301879,34.82083842756726,0 33.12912422726785,34.82057516997163,0 33.12880277912344,34.82026198679359,0 33.12866001668884,34.82035816160838,0 33.12849466169124,34.82035790814929,0 33.12812407636243,34.82034323293272,0 33.12815577618776,34.82019281268887,0 33.12843598192453,34.81983117752052,0 33.12863033473968,34.81961282575006,0 33.1284596046666,34.81946914936977,0 33.12832003454104,34.8194148605297,0 33.12800079419916,34.81938850832482,0 33.12764124173986,34.81953842373785,0 33.12706815499195,34.81956340157953,0 33.12650701936925,34.81934858561926,0 33.1263301264479,34.81917204833331,0 33.12609992659162,34.81894230992913,0 33.12563866248815,34.81878141865909,0 33.12552325059058,34.81878356063413,0 33.12545939107383,34.81839811597982,0 33.12525152650611,34.81820976120896,0 33.12463504733651,34.81822504735572,0 33.12443518948285,34.81822705571145,0 33.12386696872122,34.818065990282,0 33.12320046337452,34.81780494948962,0 33.12242980305867,34.81754838282553,0 33.12185618854441,34.81728980217346,0 33.12165945690272,34.81715949365683,0 33.12160078706209,34.81697137006484,0 33.12165554746295,34.81642361587052,0 33.1216227474133,34.81600571986231,0 33.12177524757556,34.81579007460062,0 33.12194173357271,34.81561159472552,0 33.12184659613504,34.81537002262857,0 33.12170894101245,34.81525605694674,0 33.12150925894906,34.81518609898087,0 33.12132353144256,34.81516723204987,0 33.12080252952537,34.81528711201501,0 33.12041354060811,34.8155232694503,0 33.11997327993952,34.81601701369456,0 33.11938185596463,34.81615534485177,0 33.11923845273942,34.81609243861773,0 33.11911223997246,34.81590188382432,0 33.11897254329651,34.81546292097553,0 33.11890258353196,34.81529102873928,0 33.11866654400118,34.81512350922521,0 33.11833199144369,34.81495583087475,0 33.11819992099766,34.81486276322195,0 33.11803156488378,34.81464196201222,0 33.1179054952354,34.81439337191065,0 33.11753702237434,34.81428831313183,0 33.11701376417874,34.81417371603921,0 33.11613857933597,34.81409800470533,0 33.11594159735028,34.81407911144666,0 33.11570655809667,34.81350070827762,0 33.11548987937671,34.81347946038128,0 33.11468722823047,34.81367545754807,0 33.11444786496232,34.81372381159211,0 33.11362872522034,34.81375263522269,0 33.11315298720483,34.81377738265276,0 33.11304920109444,34.81363096471391,0 33.11314847311682,34.8133200669411,0 33.11344760557078,34.8130002153588,0 33.11363087199992,34.81287052237926,0 33.11379213047429,34.81253187073808,0 33.11379966127775,34.81174958436017,0 33.11373587515848,34.81135949047932,0 33.11352759581159,34.81135914589277,0 33.11256888613205,34.81207485458904,0 33.111983591811,34.81201584536088,0 33.11159003257348,34.81181787227867,0 33.11139719047918,34.81126274428875,0 33.11141179511354,34.81104688190438,0 33.11200142337869,34.81048377650071,0 33.11246403641037,34.81006438122147,0 33.11238002730258,34.80989013893744,0 33.11192423370132,34.80982438132568,0 33.11166573689715,34.80964520476731,0 33.1116127104641,34.80946172784002,0 33.11177930327058,34.80924379944694,0 33.11195712351905,34.8090374946792,0 33.11226765131246,34.80865730806946,0 33.11239198217992,34.80845555745869,0 33.11251651241589,34.80817255830715,0 33.1123964835886,34.80776612069209,0 33.11222218752202,34.80768458258388,0 33.11181977824469,34.80766069751804,0 33.11157857387842,34.80731905431786,0 33.11121407483176,34.80675899595976,0 33.11166307777923,34.80614458586506,0 33.11213456108577,34.80554181819207,0 33.1119103757816,34.80514913380568,0 33.11135022405127,34.80464245485524,0 33.11114822215512,34.8044625149776,0 33.11088653929111,34.80422772684078,0 33.11077773023582,34.8040382622367,0 33.11066976771272,34.80350628741247,0 33.11051720669182,34.80333477607582,0 33.11034268050493,34.80320829419208,0 33.10986229950178,34.80303623052679,0 33.10950203234542,34.80290042081197,0 33.10945850184441,34.80282823976152,0 33.10949152960531,34.80272914716522,0 33.10956833468453,34.80260308864034,0 33.11003903436287,34.80227038518709,0 33.11057533906394,34.80191976335241,0 33.11109009476026,34.80144291517338,0 33.11144058457746,34.80111000400738,0 33.11150645670467,34.80098392629508,0 33.11156164581064,34.80075868273813,0 33.11151833642247,34.80059636820915,0 33.11136602272242,34.80032570996266,0 33.11111543430012,34.80002784695249,0 33.11095210743262,34.79979322314848,0 33.11078886986482,34.79952254615323,0 33.11060429228107,34.79904452339351,0 33.11062667940033,34.7988282380251,0 33.11069248547152,34.7987292008817,0 33.11084579421604,34.79859425652022,0 33.11143657202349,34.79829780284565,0 33.11157893000015,34.79817185240505,0 33.11165608076304,34.79790157789515,0 33.11164626087019,34.79745088879967,0 33.11158132095975,34.79719840411407,0 33.11136318781352,34.79703579704466,0 33.11086103264886,34.79684567289235,0 33.11048968480111,34.79678195568287,0 33.11030406741033,34.79672756241374,0 33.1101622899867,34.79661916252475,0 33.11003161823545,34.7964386736743,0 33.11005398426546,34.79623140201267,0 33.11016391841179,34.79596118344963,0 33.11021908488614,34.79574495311063,0 33.11020867133043,34.79553762633921,0 33.11012181835392,34.79531214396734,0 33.10994748718813,34.79511355444049,0 33.10972940770734,34.79493291787595,0 33.10927137651674,34.79458061917834,0 33.10925705883052,34.79456546319741,0 33.10907521898447,34.79437297839794,0 33.108944710579,34.79412939421093,0 33.1089013195324,34.79400313245435,0 33.10895613023939,34.79393111730008,0 33.10916390574762,34.79385936167199,0 33.10925612768693,34.79385951691305,0 33.10932779818987,34.79385963826052,0 33.10982993282308,34.79404976887166,0 33.11046302826499,34.79430321152007,0 33.11095450873245,34.79438515775859,0 33.11131509593831,34.79437674785648,0 33.11201437480213,34.794377916466,0 33.11240802716632,34.79425238431634,0 33.11258306751041,34.79416254098969,0 33.11262721244395,34.79398234556573,0 33.11244212913696,34.79371163394314,0 33.11199493065222,34.79339541718466,0 33.11155844019876,34.79316935189565,0 33.11122015411631,34.79299753073141,0 33.11098018012495,34.79283488601435,0 33.11090416477772,34.79264547598645,0 33.11092626050051,34.7925463648552,0 33.11104686910409,34.7923753113487,0 33.11142956544336,34.79225877806132,0 33.11186704594513,34.79207923989085,0 33.11194370412899,34.79200726008353,0 33.11194407949033,34.79185403165001,0 33.11173681966254,34.79171848408628,0 33.11162767096017,34.79167323456414,0 33.11131091013232,34.79163665048566,0 33.11078651225305,34.79161774483687,0 33.11049173651821,34.79152711511188,0 33.11022976171222,34.79142752692727,0 33.10977194847816,34.79099410924746,0 33.10925170180975,34.79050370246391,0 33.10913973174352,34.79039815286182,0 33.10876099302111,34.79013259671216,0 33.10859358030245,34.78985691605004,0 33.10839543663032,34.78945178689446,0 33.10826591348503,34.78909174413674,0 33.10811734962763,34.78876882939073,0 33.10794671674862,34.78868644144829,0 33.10809861758496,34.78866906264284,0 33.10816265732103,34.78864374146988,0 33.10918472767951,34.78832072872867,0 33.10924879698526,34.78830088692565,0 33.11372263907285,34.78691528561368,0 33.11628496373277,34.78611380971822,0 33.12036810390761,34.78486302713611,0 33.12317526658649,34.78400560588656,0 33.12417466554169,34.78138753258627,0 33.12531906514322,34.77846152341462,0 33.13199594162771,34.77813065473212,0 33.13316190036347,34.77809436688016,0 33.14204271177788,34.7775812649141,0 33.14103578803415,34.77567750307366,0 33.13747705478445,34.76894833996791,0 33.13529511538378,34.76633638292132,0 33.13543883345623,34.76618328833405,0 33.13561341492092,34.7660941170245,0 33.13567161997631,34.76605907005376,0 33.13614221054835,34.76575149694978,0 33.13625859937758,34.76569098413486,0 33.136440901236,34.76561459834535,0 33.13649914048975,34.76556358153999,0 33.13713607574614,34.76538112391015,0 33.13696682667462,34.76469889141752,0 33.13686652361218,34.76448794758287,0 33.13673139591385,34.76410369700096,0 33.13681288998463,34.76395849889709,0 33.13663918727136,34.76364205082572,0 33.13624826691745,34.76317677181149,0 33.1365393769229,34.76295682066007,0 33.13564391908767,34.76259638101132,0 33.13488065570074,34.76200284597121,0 33.13442856903051,34.76126630558597,0 33.13418600220393,34.76111557993643,0 33.13389153495769,34.76111247941496,0 33.13392588526126,34.7608994710825,0 33.13415420863262,34.76089648201137,0 33.13431278397918,34.76069098194722,0 33.13426312426408,34.76052578687339,0 33.13424866593036,34.76049647011769,0 33.13415921845412,34.76044906521631,0 33.13426904624373,34.76039995777818,0 33.13418969836608,34.76016014886937,0 33.13426500830527,34.7600317588516,0 33.13430695620459,34.76003315222898,0 33.1342054593909,34.7599617601001,0 33.13416530149797,34.7598791402095,0 33.13350017173838,34.75967374722299,0 33.13331449014119,34.75973206074578,0 33.13325018436517,34.75962410342345,0 33.13326504600214,34.75946965845145,0 33.13320278459214,34.75945513369108,0 33.13305545995195,34.75940555563655,0 33.13291073119338,34.75920627402686,0 33.13290886467446,34.7591252922371,0 33.13306222430642,34.75911876403435,0 33.13320387329677,34.75895844263808,0 33.13335208366885,34.75877468125876,0 33.13356440675452,34.7583388940714,0 33.13389092792696,34.75843592235807,0 33.13392092449153,34.75762967124039,0 33.13361632372413,34.75710189442763,0 33.13360161823475,34.75681757101314,0 33.13355058939942,34.75654185222709,0 33.13356006324816,34.75626821435122,0 33.1334460701198,34.75601170711142,0 33.13339504674079,34.75573399147493,0 33.13341051258779,34.75493371110441,0 33.13344527724663,34.75453094684877,0 33.1333875235976,34.75438038816393,0 33.13326455716671,34.75417047183308,0 33.1332492659851,34.753785613133,0 33.13331673765824,34.75318248254213,0 33.13334282545438,34.7523202956997,0 33.13349856062464,34.75230056151273,0 33.13373870261054,34.75204657378272,0 33.13419739808946,34.75144802803284,0 33.13435061309208,34.75110269751087,0 33.13448944663728,34.75106362716629,0 33.13478727219415,34.75061864619909,0 33.13500713057699,34.75041323212061,0 33.13512562750044,34.75045135433778,0 33.13528652732521,34.75027981637207,0 33.13555533419199,34.75019432459387,0 33.13558872957029,34.75004522759694,0 33.13518609878744,34.74971972282135,0 33.13481572053855,34.74940490932295,0 33.13503772604182,34.74895182804291,0 33.13475977427205,34.74879361789414,0 33.13509820468383,34.74821884418514,0 33.13487525703164,34.74799081161121,0 33.13507160899049,34.74783529960023,0 33.13529207990086,34.74771711446943,0 33.13524206894259,34.74734418450369,0 33.13522773109131,34.74726026144061,0 33.13494852893312,34.74687320992507,0 33.13506728142551,34.74669506153126,0 33.13523248020292,34.74661388701265,0 33.13545119361994,34.74653580428617,0 33.13574585148449,34.74648941318006,0 33.13572712805632,34.74637524189288,0 33.1358318184787,34.74630470274805,0 33.13578952134823,34.74611570011397,0 33.13540247443247,34.74594922660309,0 33.13561049304528,34.7456920731582,0 33.13538766395776,34.74535801819077,0 33.13555113995479,34.74518006205575,0 33.13575771781472,34.74473794913658,0 33.13552871110405,34.74452127922711,0 33.13546885551401,34.74432679702386,0 33.13571662238873,34.74424741582362,0 33.1358812797783,34.74441122587082,0 33.13630656809066,34.74452983239551,0 33.13647752855039,34.74459530366426,0 33.13663260367473,34.74467743896735,0 33.13653554203704,34.74418236942741,0 33.13660889156366,34.74381742366158,0 33.13670417388992,34.74341266884962,0 33.13630777599708,34.74327187063579,0 33.1363328168492,34.74290516708973,0 33.13637100344537,34.74269503964455,0 33.13659400067809,34.74263093266231,0 33.13664922802968,34.74264282955364,0 33.1368927748667,34.74279610356438,0 33.13728296625737,34.74273949679328,0 33.13734452291354,34.74223633579384,0 33.13727721671572,34.74216987270562,0 33.13755965460557,34.74201436857896,0 33.13798614310954,34.74203778401033,0 33.13840692905303,34.74202190143674,0 33.13885522364036,34.74191113295739,0 33.13902874976533,34.74187847414079,0 33.13927006584696,34.7418289333655,0 33.13938191091756,34.74159614259919,0 33.13949824545112,34.74124807347928,0 33.13947506484186,34.74096894949749,0 33.1398936257338,34.74009636188167,0 33.14029613210981,34.73988503978956,0 33.14024080020506,34.73950542145889,0 33.14034575087463,34.73944828376789,0 33.1404553748521,34.73939345916733,0 33.1405413138762,34.7393323659613,0 33.14104957657889,34.73895822634036,0 33.14136631619368,34.73930576365321,0 33.14156242260893,34.73916182151117,0 33.14183994240579,34.73909520576439,0 33.14200903570139,34.73900715278233,0 33.14214836237081,34.73901552083656,0 33.1421841243862,34.73895765006326,0 33.14222361384939,34.73887388663059,0 33.14221928851572,34.73884276586801,0 33.14224013766174,34.73881291291913,0 33.14238152506989,34.73866171613814,0 33.14247202792377,34.73858995549481,0 33.14251911877184,34.73852797961446,0 33.14261567453464,34.73848106249132,0 33.14270644118697,34.73839719197173,0 33.14272987719498,34.73835917132963,0 33.14296829642544,34.73828658604107,0 33.14301228302494,34.73827393822101,0 33.14303407263797,34.73825714627112,0 33.14310422647925,34.73827381310777,0 33.14346216882304,34.73828025220759,0 33.14375442397709,34.73829736452847,0 33.14396071933466,34.7382443148153,0 33.14411805050678,34.73818811888584,0 33.14421331775831,34.73814010493576,0 33.14431932329317,34.7380214573466,0 33.14437524683774,34.73799903201424,0 33.14451153616472,34.73798351933274,0 33.14461856311658,34.73793063671823,0 33.14477917026341,34.73785809426869,0 33.14497581743012,34.73778776869216,0 33.1450221496565,34.73775106173463,0 33.1452329423085,34.73740987614371,0 33.14541944037772,34.73731171205653,0 33.14548629525738,34.73726687623785,0 33.14552976062215,34.73723711740332,0 33.14571195626306,34.7370498327614,0 33.14576650238779,34.73702776451485,0 33.14589425780487,34.7368574102601,0 33.14600253301229,34.73676120857982,0 33.14614258356384,34.73668025123811,0 33.14623339723688,34.73663675017669,0 33.1465028513372,34.73669078029344,0 33.14658664378145,34.73663519244246,0 33.14664373319422,34.73657757232643,0 33.14670373220299,34.73656786791406,0 33.1468625057033,34.73658168446923,0 33.14692710670992,34.73659006682333,0 33.14706325271675,34.73655009197923,0 33.14715016451696,34.73651300797498,0 33.14729890458252,34.73638828073689,0 33.14729039024751,34.7363427083968,0 33.14727909539004,34.73628218589711,0 33.14728166559333,34.73626598704835,0 33.14733113566328,34.73617957487726,0 33.14737309228775,34.73613289217851,0 33.14738955539767,34.73611458241184,0 33.14740375596109,34.7361098388411,0 33.14769346455191,34.73605160296801,0 33.14785186557883,34.73594320330955,0 33.14792378221657,34.73592323055325,0 33.14795339534724,34.73590027841546,0 33.14791429261589,34.73586978873654,0 33.14788819721898,34.73583720897972,0 33.14784728983301,34.73581917612724,0 33.14772572434453,34.73580811568782,0 33.14753584522881,34.73581361218285,0 33.14742020548982,34.73578996520123,0 33.14737468804309,34.73577326472726,0 33.14727400952474,34.73570889019036,0 33.14664093027161,34.73593543249779,0 33.14639115974774,34.73581532318246,0 33.14572059572208,34.73586390853836,0 33.14531508534802,34.73600197204742,0 33.14524417439267,34.73587815098805,0 33.14525181479014,34.73583432701172,0 33.14533461459612,34.73536208708237,0 33.14543862015491,34.73540312029321,0 33.14550359622278,34.73487847671921,0 33.14552560302893,34.73466557274318,0 33.14562429886421,34.7343108205961,0 33.14569339020809,34.73414242246655,0 33.14534486477097,34.73403907371465,0 33.14532044335451,34.73389205382772,0 33.14530326242978,34.73364811223033,0 33.1452585936943,34.73338537807461,0 33.14518422775453,34.73322960134709,0 33.14564592053976,34.73298732822908,0 33.14618472362253,34.7332496929291,0 33.14641054663834,34.73339797259724,0 33.14658380116782,34.73351454742932,0 33.14689834638023,34.73362653452108,0 33.14719905879731,34.7332589870442,0 33.14743444653332,34.73319425923201,0 33.1472545244705,34.73280027992136,0 33.1470554143782,34.73234714579668,0 33.14717022662181,34.73218640452799,0 33.1472720763236,34.73190578734076,0 33.14752719786215,34.73188155010385,0 33.14805817243495,34.73253627313296,0 33.14834730173724,34.73245440173751,0 33.14856567779872,34.73211789932713,0 33.14845160238656,34.7319887031589,0 33.14826655593185,34.73179714326812,0 33.14811783614719,34.73168728303578,0 33.14803390486971,34.73160406788887,0 33.14785223821379,34.73138711343236,0 33.1482084572023,34.73110704011962,0 33.14806332354073,34.7307730869861,0 33.14791651261065,34.7306921774831,0 33.14794683975379,34.73059667530083,0 33.14799933743222,34.73049951452091,0 33.14807559888551,34.73049204333801,0 33.14839433850712,34.73047083519633,0 33.14851384368261,34.73043562429734,0 33.14871886104402,34.73014558948981,0 33.14840955772543,34.72995529018978,0 33.14792853253376,34.72976432251815,0 33.14761020711305,34.72956992233897,0 33.14771184920163,34.72949746090384,0 33.14795119827759,34.72937148248615,0 33.14799109161707,34.7291102753767,0 33.14814197232163,34.72910350947519,0 33.14814631444412,34.72861921886094,0 33.1480566522474,34.72841203365707,0 33.14779980655351,34.72843997642045,0 33.14776140110208,34.72847042950234,0 33.14727244179531,34.72860041100278,0 33.14729190457167,34.72848703607146,0 33.14779577400891,34.72825153587785,0 33.14769617352081,34.72810197703391,0 33.147812775928,34.72778052919424,0 33.14777768651912,34.72732488087135,0 33.14751617077739,34.72696432415105,0 33.14771955265969,34.72663852892362,0 33.14748342418611,34.72652889095822,0 33.14698591900834,34.72641650318347,0 33.14713409122075,34.72620501399278,0 33.14732314266585,34.72607277008719,0 33.14798801479645,34.72606538352915,0 33.14803663108562,34.72606793691572,0 33.14815807756224,34.72606126716016,0 33.14892188643871,34.72606563558526,0 33.14912356610736,34.7260426691912,0 33.14977327042003,34.72634260266928,0 33.14980340435243,34.72578191314508,0 33.14995167598203,34.72527876403152,0 33.15057759145432,34.72505128999272,0 33.15086793028973,34.72506493148442,0 33.15123527609486,34.72512778339271,0 33.15248597248218,34.72464581866149,0 33.15362821155553,34.7247583850342,0 33.15403757101931,34.72545576550664,0 33.15430956001603,34.72540654642587,0 33.15440970668504,34.7255416081325,0 33.15454823940506,34.72545517914218,0 33.15464330944793,34.72532465308812,0 33.15475571535095,34.72527429409374,0 33.15519094246785,34.72471632329353,0 33.15548917918551,34.72464187572054,0 33.15578661452531,34.72475631298132,0 33.15620250151247,34.72477674408724,0 33.15628445172228,34.72451383679626,0 33.15660647443704,34.72444510012479,0 33.15680333349915,34.72437670405701,0 33.15705545638032,34.72429549869955,0 33.15656030391437,34.72400203394993,0 33.1565802605962,34.72380813231433,0 33.15658789028866,34.72359271044586,0 33.15654653682365,34.72320433007297,0 33.15671818075468,34.72295139366559,0 33.15614205516863,34.72290050814342,0 33.15612744021686,34.72274665529643,0 33.15577844800976,34.72267733922661,0 33.15570606319635,34.72259071413852,0 33.15541817498399,34.72259826823883,0 33.15534317115693,34.72234867256191,0 33.15551808520321,34.72203299145445,0 33.15523949174786,34.72202269591503,0 33.15522804349592,34.72197151342073,0 33.15520514711466,34.72172546160956,0 33.15546825628753,34.7215465389801,0 33.15542276471102,34.72127020776018,0 33.15555617851157,34.72076168058404,0 33.15529649430824,34.72055086724727,0 33.15496147957005,34.72026110933517,0 33.15482318754327,34.7201560909967,0 33.15490899996998,34.7200844206493,0 33.15502038137119,34.71997629658122,0 33.15522342695925,34.71976532431113,0 33.15538756581617,34.71962769071457,0 33.15575542984122,34.71935260843475,0 33.15620526649513,34.71967943778116,0 33.15648090268581,34.71920084600997,0 33.15619599384969,34.71908073573648,0 33.15618398822816,34.71872276261924,0 33.15598430763357,34.71873582739672,0 33.15583783159371,34.71838039356462,0 33.15574024939146,34.7184334832308,0 33.15567165711719,34.71845367364233,0 33.15562810971831,34.71845286476675,0 33.15557112583996,34.71839073620229,0 33.15552325122201,34.71833769991535,0 33.1554365040065,34.71827613573301,0 33.15533945785465,34.71826682833737,0 33.15519993019645,34.71826909575612,0 33.15513625615792,34.71828220126933,0 33.15499798365408,34.71822051396329,0 33.1550094965676,34.71810018028458,0 33.1549636638896,34.71785451352804,0 33.15509785110682,34.71757683823499,0 33.15510235887675,34.71755868322488,0 33.15533401658883,34.71662566168222,0 33.15512538223244,34.71625876548455,0 33.15518356755411,34.71612753215474,0 33.15546014917175,34.71590640619537,0 33.15556280875263,34.71576489506765,0 33.15559826572899,34.71564889562646,0 33.15561905547631,34.71548983820539,0 33.15573112920198,34.71528190998143,0 33.15582630929021,34.71506123394389,0 33.15592992777135,34.71484286830903,0 33.15601947909757,34.71461987802614,0 33.15603142687572,34.71446416095704,0 33.15604080406918,34.71431564360427,0 33.15611918241446,34.71427467959978,0 33.15625675979236,34.71426353957363,0 33.1563617056308,34.71422951780989,0 33.15638701427942,34.71420615800775,0 33.15647123441196,34.71413872274545,0 33.15652730709805,34.71405507189852,0 33.1566280938681,34.7138274232401,0 33.15670565989215,34.71346904802483,0 33.15682930531295,34.71318175290066,0 33.15716390770606,34.71242380162797,0 33.15721903677627,34.71241245132016,0 33.15746855250578,34.7123539338453,0 33.15770585781193,34.7123720908319,0 33.15797254572528,34.71245683417458,0 33.15834201045958,34.71249517008232,0 33.15841003813449,34.7124972614132,0 33.158515462441,34.71250222842799,0 33.1586434801761,34.71250719478408,0 33.15882271225973,34.71250719297046,0 33.15927308151849,34.71250594431948,0 33.1596553309361,34.71250523131063,0 33.1600006816785,34.71250458539348,0 33.16007038618226,34.71250212297736,0 33.16021421090969,34.71249713903268,0 33.16035363308329,34.71249056691421,0 33.1605741799081,34.71248894680055,0 33.16097282063063,34.71248814405198,0 33.16105250622977,34.7124873238869,0 33.1611053017342,34.71248321370589,0 33.16191442766393,34.71241486362442,0 33.16198884630811,34.71241148877115,0 33.16216919612322,34.712395861689,0 33.16329962668695,34.71229941095921,0 33.16334946637105,34.71228953616568,0 33.16342715059874,34.71227534022541,0 33.16401043686843,34.71205072703143,0 33.16431776327615,34.71189528726065,0 33.16472115458348,34.71165678168607,0 33.1648194593135,34.71157969931123,0 33.16492524976976,34.71146814354287,0 33.16508909385423,34.71127924408086,0 33.16525087723468,34.71107552702791,0 33.16536083915472,34.71089393905469,0 33.16544607786926,34.71071400719449,0 33.16549694510876,34.71052895653703,0 33.16549748680815,34.71044412299461,0 33.16458555623893,34.70977142748577,0 33.16457574195343,34.70978114506435,0 33.16439511532548,34.70995998989393,0 33.16436094349257,34.70997929950047,0 33.16432677708112,34.70998811057282,0 33.16429554903516,34.70998239409376,0 33.16428030474972,34.70997605477784,0 33.16426822884691,34.70997103274343,0 33.16424676855907,34.70995080113867,0 33.16423702647693,34.70992251893567,0 33.16423704845425,34.70988779699329,0 33.16425366115983,34.70985633854514,0 33.16545196381336,34.70872098915711,0 33.16550665025718,34.70867829970119,0 33.16553790432234,34.70864686806162,0 33.16558283611971,34.70859608310008,0 33.16562384978504,34.70856709377984,0 33.165682431581,34.70853894687231,0 33.16575858544692,34.70850760556417,0 33.1658484001934,34.70848517287329,0 33.16592064046837,34.70847078172188,0 33.16766323394047,34.70824004599746,0 33.1676974019128,34.70824011346604,0 33.16772179967773,34.70825469902573,0 33.16774228773082,34.70827492955895,0 33.1677511249641,34.70829357872369,0 33.16775301278597,34.70829756332656,0 33.16775299174927,34.70833148386836,0 33.16773149729617,34.70836051464848,0 33.16770415622182,34.70837176656729,0 33.16598986343636,34.70860174405291,0 33.16591371657615,34.70861855109514,0 33.16584440502321,34.70863294727093,0 33.16577899249918,34.70865542699285,0 33.16573407526887,34.70868117908676,0 33.16567939186217,34.70871821642372,0 33.16564130126383,34.70875528707263,0 33.16490084145255,34.70948967050857,0 33.16489632331118,34.70949415151929,0 33.16542866027616,34.70989581183881,0 33.16545660691906,34.70991689893728,0 33.16555261306475,34.70998933685345,0 33.1655851548722,34.71001389014025,0 33.16557804351726,34.71002137749564,0 33.16590145627106,34.71026639698712,0 33.1659260938937,34.71028506172505,0 33.1662839917561,34.71055620469109,0 33.16630568853961,34.71057264132539,0 33.16649871103879,34.71071887375872,0 33.16655175878131,34.71075906269848,0 33.167433778715,34.70991292888893,0 33.16748253901937,34.70999620906683,0 33.16764461418823,34.70996019873994,0 33.16762465222909,34.70989196240532,0 33.16749166641784,34.70943737449814,0 33.16750355645919,34.70943515856758,0 33.16753498606207,34.70942930177965,0 33.16751748490334,34.70936378627963,0 33.16743917384255,34.70907062142834,0 33.16743528243413,34.70904800168437,0 33.16743529746458,34.70902458057451,0 33.16744214170776,34.70900763525484,0 33.16745289353692,34.70898504406772,0 33.16746555847645,34.70897898771563,0 33.16748316484367,34.70897056812811,0 33.16750757226431,34.70896819436223,0 33.16753880612171,34.7089763322609,0 33.16754730502466,34.70898363510186,0 33.16756612465912,34.70899980863722,0 33.16758368062851,34.70902810867757,0 33.16783497348437,34.70997593056629,0 33.16783549686583,34.70997941222303,0 33.167839756898,34.71000772602711,0 33.16784177958442,34.71002116956359,0 33.16784175858469,34.71005508919423,0 33.16783783053305,34.71009223065033,0 33.16781730716167,34.71012933817044,0 33.1677899489264,34.71016643166065,0 33.16733691153431,34.71063606319723,0 33.16735362978755,34.71067540471194,0 33.16739894598476,34.71072494132375,0 33.16745371118753,34.71077751190045,0 33.16754663202288,34.71086090442552,0 33.16766524105903,34.71093680728162,0 33.16777480804195,34.71100944382655,0 33.16792851662623,34.71107617702052,0 33.16805484469944,34.71113604974104,0 33.16816312754256,34.7111796306363,0 33.16828731117274,34.71123159117118,0 33.16839523599615,34.71127076416753,0 33.16849969426936,34.71130155819503,0 33.16865211229675,34.71134450968694,0 33.16880058137502,34.71138342787491,0 33.1688173918889,34.71138770549658,0 33.1691557930797,34.7113341684724,0 33.16952030712929,34.71123281449419,0 33.16997728991088,34.71118287739657,0 33.17014035855752,34.71117029156228,0 33.17048216856869,34.71107003825416,0 33.17070969047049,34.71105677460572,0 33.17117258943727,34.7109729168623,0 33.17203689513791,34.71083333306272,0 33.17229767450765,34.71076843830342,0 33.17272350538757,34.71070145120485,0 33.1730516735516,34.71065526664766,0 33.17350685400035,34.71054148220995,0 33.17442697511495,34.71040035150416,0 33.17450115188151,34.71038895258849,0 33.17453032342275,34.71038447016917,0 33.17517425182297,34.71028551673375,0 33.17568225964471,34.71014838759304,0 33.17635046687359,34.71005276623456,0 33.17739683629001,34.70984154299339,0 33.17786972249772,34.709760868025,0 33.17816088746595,34.7097097286766,0 33.17870608742333,34.70964857601337,0 33.17914969137572,34.70959530313056,0 33.17940349435377,34.70956981477148,0 33.17955226479786,34.70955487374236,0 33.17976724493047,34.70951650573792,0 33.18060966914067,34.70924664007511,0 33.1807943756154,34.70920416926806,0 33.18171010132829,34.70903137555737,0 33.18261221507261,34.70884076249347,0 33.18305794509229,34.7086912971055,0 33.18322409474988,34.70868352642444,0 33.18351047482371,34.70864931289334,0 33.18377927398905,34.70860375136358,0 33.18427881205482,34.70842608801115,0 33.18517735274193,34.70826256224482,0 33.18532575442725,34.70823406383669,0 33.18569135055481,34.70821129684243,0 33.18601171762747,34.70808823447697,0 33.18602278834292,34.70808556725579,0 33.18606779346503,34.70807472597878,0 33.18625390539032,34.70799789334536,0 33.1862873994036,34.70798904740614,0 33.18638888761362,34.70796969360931,0 33.1864440674238,34.70795973990216,0 33.18654660679307,34.70796470060988,0 33.18665705735182,34.70797850064412,0 33.18674975511907,34.70798898784182,0 33.18680595684472,34.7079917440291,0 33.18705465275561,34.70799353054822,0 33.18711157959763,34.70799446631552,0 33.18718252188917,34.70797898369497,0 33.18730473114011,34.70796404695809,0 33.1874663152567,34.70792644697837,0 33.18759637561575,34.7078971410636,0 33.1878702711421,34.7078269191876,0 33.18812344757875,34.70775006682362,0 33.18831754083855,34.70769919636945,0 33.18836288075995,34.70769421508369,0 33.18855602432712,34.70765550023404,0 33.18875312973012,34.70762231126113,0 33.18889799286305,34.70759410335636,0 33.18903004176715,34.70756700323258,0 33.18926556110736,34.70751722628776,0 33.18946953380282,34.70746800637244,0 33.18963510489339,34.70743813463231,0 33.1897317108179,34.70742872255087,0 33.18998898319211,34.7073971759156,0 33.19026006408311,34.70736507350766,0 33.19049465930953,34.7073313183538,0 33.19071445719338,34.70730121162004,0 33.19082192200054,34.7072864909528,0 33.19100133652811,34.70726490272104,0 33.19124483158581,34.7072361163991,0 33.19143808312853,34.70722447245651,0 33.19153077535587,34.70722224350121,0 33.19181666600075,34.70718681587467,0 33.19190832742387,34.70716745221667,0 33.19211724459291,34.70711103536954,0 33.19243851924107,34.70702806377062,0 33.19248978796138,34.70702252619735,0 33.19272930455973,34.70697328433857,0 33.1927745579172,34.70696515451777,0 33.19290181132226,34.7069422946935,0 33.193020986689,34.70688368171989,0 33.19318737975885,34.70677973368743,0 33.19326811203523,34.70672831203842,0 33.19336462055831,34.70667522823315,0 33.19352310832802,34.706564646649,0 33.19361069680099,34.70649553515877,0 33.19373279683924,34.70642254560799,0 33.19385489021543,34.70634679203845,0 33.19405576159343,34.70622513988479,0 33.19423399653007,34.70612007537032,0 33.19436596347096,34.70604707937076,0 33.194422079334,34.70600892528557,0 33.19458956170749,34.70593812965345,0 33.19468511417874,34.7058933317348,0 33.19482505283833,34.70584852137964,0 33.19500250599758,34.70581530864475,0 33.19514253600721,34.70580255765359,0 33.19533386631198,34.70579255489419,0 33.19547000265094,34.70579749300133,0 33.19563279921636,34.70581182023715,0 33.19567168366451,34.70581033167899,0 33.19569099108971,34.70580959302058,0 33.19591105062091,34.70584159317806,0 33.19598111995261,34.70585318158459,0 33.19616564455448,34.70587524112661,0 33.19628410167234,34.70590561110445,0 33.19636305774495,34.70591996150321,0 33.19648836550704,34.70592987670957,0 33.19665706783103,34.70593535774709,0 33.19695895669957,34.7059441174482,0 33.19732985384272,34.70593350837418,0 33.19746203627814,34.7059290492291,0 33.19764253446045,34.70591572946634,0 33.19791482231714,34.70591565082157,0 33.19831345533365,34.7059365415403,0 33.19839140272511,34.70593928223607,0 33.19856016813366,34.70595968707262,0 33.19869343956194,34.70598839439812,0 33.1987616091965,34.70602154295192,0 33.19898775454995,34.70609666204872,0 33.19899173656655,34.70610937528445,0 33.19898289234664,34.70612209323868,0 33.19874145960025,34.70622609496608,0 33.19877016650901,34.70626036168726,0 33.19880078915568,34.70627362103113,0 33.19898232826827,34.70627356812135,0 33.199061204145,34.70625364392259,0 33.19922778609617,34.70619665301023,0 33.19929975640718,34.70617673093237,0 33.19936682995623,34.70617007654214,0 33.19945166484466,34.70616341738446,0 33.19965995249855,34.70619984272732,0 33.19973897197838,34.70623022617603,0 33.19986039913509,34.70625340940045,0 33.20029566754651,34.70630027248932,0 33.20060464270497,34.70634662082229,0 33.2007665984589,34.70639301236272,0 33.20105701609833,34.70650349813581,0 33.20141366808589,34.70665432539965,0 33.20168033271645,34.70673496612204,0 33.20186697098636,34.70678135320199,0 33.20216910406189,34.70683876451716,0 33.20266071217615,34.70689224881907,0 33.20297758739522,34.70692200987597,0 33.20309897852903,34.70692252698235,0 33.20319666180757,34.70691530923035,0 33.20427438046507,34.70690558070802,0 33.20504523787417,34.70689553184894,0 33.2052474908309,34.70687486321103,0 33.20548822574055,34.70683773883104,0 33.2057506335367,34.70678401738783,0 33.20610174921684,34.70668326445085,0 33.20630004220506,34.70664283153739,0 33.20647967820442,34.70663613586249,0 33.20662086665094,34.70664604167882,0 33.20699512214002,34.70669015274712,0 33.20754493154746,34.70667337511819,0 33.20773737672832,34.70665284796338,0 33.20791399233865,34.70661960704631,0 33.20813017355817,34.70661234265655,0 33.20841470190345,34.70668247295778,0 33.20851842157822,34.70670289769989,0 33.20923920378017,34.7067258684197,0 33.20956302367875,34.70671856264954,0 33.20994709737836,34.70671842437478,0 33.21012083379218,34.70670508786395,0 33.21038435423957,34.70666793886208,0 33.21041791733327,34.70666303461038,0 33.21077519741297,34.7066108305487,0 33.21089060597001,34.70657041541536,0 33.21114117772414,34.70649012843484,0 33.2114370861295,34.70637885179471,0 33.21157423540438,34.70634229624228,0 33.21214442651383,34.7061473925046,0 33.21236239342849,34.70615394333744,0 33.21265274859411,34.70616139875652,0 33.2128499143968,34.70624945712191,0 33.21347260685861,34.70630075674423,0 33.21406413008116,34.70625269749913,0 33.21441471218675,34.70617586819432,0 33.21446368950615,34.70616513474928,0 33.21456256271167,34.70614346695802,0 33.21471221432261,34.70611067022964,0 33.214992126254,34.70609154783102,0 33.21518512584168,34.70613798170972,0 33.21549204892692,34.7063447863048,0 33.21579195394243,34.70632771361208,0 33.21607615669009,34.70637128553157,0 33.21651360704384,34.70638339465287,0 33.21726995637437,34.70636053484865,0 33.21772927937131,34.70630729906618,0 33.21868834666405,34.70617517689096,0 33.2187563605894,34.70625433002442,0 33.2191187912079,34.70637593521229,0 33.21959915173427,34.70633230838705,0 33.21967861917754,34.70636872604074,0 33.22030022437289,34.70632176592349,0 33.22036244289252,34.70626234666005,0 33.22089760565764,34.70618462119423,0 33.22129624790254,34.70618426478718,0 33.22163756816348,34.70623708264954,0 33.22199041659352,34.70620180861187,0 33.22236052120893,34.70619121584519,0 33.22277053812048,34.70613515460887,0 33.22299159693839,34.70616968401536,0 33.2230235045427,34.70616368043149,0 33.22323680010623,34.70620105331286,0 33.22379736609052,34.70613123576122,0 33.22429601234789,34.70617981861179,0 33.22531139582183,34.70655291870656,0 33.22691051700767,34.70655429288646,0 33.22832207696515,34.70638514042177,0 33.2289832571758,34.70638599477504,0 33.2297384224047,34.70622239998092,0 33.23006615961321,34.7062210875128,0 33.23144195711161,34.70608857509693,0 33.23155863479469,34.70600332596739,0 33.23204128218892,34.70591554950017,0 33.23238199444566,34.70573876668863,0 33.23304300430343,34.70585238304811,0 33.23342596524805,34.70582834887975,0 33.2334971365328,34.70600224473207,0 33.23375526963863,34.70614223386144,0 33.23409431077868,34.70615905888434,0 33.234581984617,34.70609848256003,0 33.23469842102021,34.70620259527774,0 33.23484747761105,34.7062254830616,0 33.23485381485369,34.70645317920485,0 33.23516172379856,34.70650273228904,0 33.23576492029924,34.70642704678548,0 33.23679412545356,34.70623551278091,0 33.23696660872944,34.70620341332218,0 33.23710386186954,34.70617786914526,0 33.23725627022193,34.70614950526063,0 33.23871316599755,34.70586928244212,0 33.23921168901976,34.70576265626912,0 33.23993236403027,34.70558372213502,0 33.2402238300992,34.70549202290478,0 33.24051000699793,34.70538719270352,0 33.24063191490036,34.70532601453061,0 33.24078563807613,34.70522985497201,0 33.24097641467226,34.70516871974392,0 33.24109827923324,34.70515566791502,0 33.24149713958065,34.70509805851058,0 33.24163346011087,34.70509075861752,0 33.24193402259783,34.70509001711598,0 33.24236991263879,34.70493802595593,0 33.24250182852303,34.7048559813383,0 33.24268067961173,34.70476565957843,0 33.2427298689683,34.70473339268511,0 33.24283488140715,34.7047519096796,0 33.24317669111281,34.70485822610866,0 33.24324371917563,34.70487118436392,0 33.24341913087141,34.70488143716977,0 33.24360350635063,34.70486216762561,0 33.24366273580316,34.70484928440533,0 33.2437186180224,34.70483178511794,0 33.2437968757243,34.7047783120929,0 33.24382371838679,34.70474695487572,0 33.24383936572434,34.70474235041381,0 33.24389633537999,34.70475806980424,0 33.24394885073732,34.70475533329589,0 33.24398127105474,34.70473505114353,0 33.24401482093324,34.70469908476597,0 33.2440427644623,34.7046880281807,0 33.24406175452124,34.70469357564991,0 33.24416114195704,34.70475730152051,0 33.24421703113939,34.70478383334176,0 33.24446268052569,34.70478080675297,0 33.24458930009253,34.70483159564651,0 33.24483871928722,34.70491098384197,0 33.24514570957975,34.70499357492826,0 33.24562918415159,34.70516818945158,0 33.24575581382516,34.70520313018504,0 33.24602044734302,34.70545686269723,0 33.24609332694369,34.70551396060951,0 33.24618159735512,34.70552034861074,0 33.24637351538873,34.7055172878791,0 33.24678038842517,34.70550166785826,0 33.24701838811974,34.70547010208774,0 33.24729087503929,34.70550195271232,0 33.24736761929714,34.70552735358613,0 33.24760549541261,34.70565110638552,0 33.24769758871714,34.70568602511944,0 33.24800077102768,34.7057369084685,0 33.24814278339906,34.70574015762687,0 33.24827713422324,34.705730721437,0 33.24852276126774,34.70575621368156,0 33.24873386343731,34.70576266747562,0 33.24888742342505,34.70572788266688,0 33.2499736928237,34.7056809228588,0 33.25035748555101,34.70572550225928,0 33.25145511188069,34.70588774039424,0 33.25188505230318,34.70582139679301,0 33.25222669050965,34.70578036742846,0 33.25258753732827,34.70571715541897,0 33.25274876091065,34.7056982202174,0 33.25304053710781,34.70560644464542,0 33.25343600763276,34.70543547688963,0 33.25377373545233,34.70549270419431,0 33.25419597059295,34.70545804790131,0 33.25462957469909,34.70562626173452,0 33.25468714162029,34.70563262839723,0 33.25480999124243,34.70560099325191,0 33.2549827394577,34.70556937978601,0 33.25505182946831,34.70556624412313,0 33.25518229593646,34.7056106838212,0 33.25525522492185,34.70561389175123,0 33.25558533626566,34.70558869428727,0 33.25579260174534,34.70558562348981,0 33.25594228784787,34.70559520640905,0 33.25619557923189,34.70564921659413,0 33.25623393935648,34.70568093163532,0 33.25632597173151,34.70579825892617,0 33.25653692888422,34.70601707466924,0 33.25710119944706,34.70595711869476,0 33.2575196280389,34.70587807331247,0 33.25762710513457,34.70586861419247,0 33.25780753647917,34.70582115159525,0 33.25798799365415,34.70574199033945,0 33.25815306047652,34.70570720015026,0 33.25837958204669,34.7056185519231,0 33.25865983977405,34.70552675758372,0 33.25870969777931,34.70558700686116,0 33.25881322740361,34.70573920460372,0 33.2589783365646,34.70564735656252,0 33.25905512597875,34.70561252376206,0 33.25912426683849,34.70553331255864,0 33.25922800176745,34.70538120890316,0 33.25936232843405,34.70540345888361,0 33.25940075728455,34.70533374134548,0 33.25994951616381,34.70550198942449,0 33.26007612223787,34.70559080148938,0 33.26025646307344,34.70567646702877,0 33.26040995464644,34.70573676195978,0 33.26104698557639,34.70593357144003,0 33.26177623089413,34.70597826947151,0 33.26192207953868,34.70599418159283,0 33.26215619247617,34.70603232049515,0 33.26237494107129,34.70608313151762,0 33.26245552066853,34.70612437505024,0 33.26281623170217,34.70626082992784,0 33.2631577452791,34.70641946615444,0 33.26353763780553,34.70658128534031,0 33.26369879700123,34.7066637680979,0 33.26381772964086,34.70675574258006,0 33.26388295778875,34.70679063600154,0 33.26395851646403,34.70684703587362,0 33.26405067659808,34.70694989024125,0 33.26424890775339,34.70702613129112,0 33.26455777330937,34.70715953825862,0 33.26503324802101,34.7071112662867,0 33.26505721279089,34.70710944007126,0 33.26537845894415,34.70708497185831,0 33.26652433740727,34.70756539726742,0 33.26680027577721,34.70765667192349,0 33.26725159267713,34.70767025784713,0 33.2680374490224,34.70749091190026,0 33.26833097645982,34.70748402411449,0 33.26831247029937,34.70754249170924,0 33.26876803575963,34.70766724160565,0 33.26962076047129,34.70776162914304,0 33.26993790540212,34.70767530736946,0 33.26996873419527,34.70759650486334,0 33.27020571581148,34.70772879556174,0 33.27031038869547,34.70772883384642,0 33.27071339418218,34.70828067327887,0 33.27089505045375,34.70824768871424,0 33.27159367991366,34.7086699721314,0 33.27191681201442,34.70891669624027,0 33.27205213394324,34.7091811498255,0 33.27167305277407,34.70995897862627,0 33.27133130495923,34.70998173861796,0 33.27134026484155,34.71050546767276,0 33.27110300510312,34.71103402131705,0 33.27112559748159,34.71113153145316,0 33.27114878561311,34.71123161124252,0 33.27123036742611,34.71142050072333,0 33.27142703453203,34.71187585365552,0 33.27180048871727,34.71222512308535,0 33.27197409307283,34.71242816979715,0 33.27241970541169,34.71268814724366,0 33.27290226676089,34.71289872102829,0 33.27302162345484,34.71295080363318,0 33.2731766398203,34.71304295841884,0 33.27319627836987,34.71309980146376,0 33.27320835123968,34.71321630252674,0 33.27318061551146,34.71336095821782,0 33.27318611415512,34.71342796455031,0 33.27321558545846,34.713498025387,0 33.27327088689467,34.71354372744163,0 33.27336303356861,34.71366558567326,0 33.27344960423648,34.7138727152834,0 33.27353251318415,34.71402959446348,0 33.27371303146283,34.71444995142212,0 33.2737406333358,34.71457330833001,0 33.27375163323943,34.71470579742946,0 33.27372393685862,34.71477279175858,0 33.27367780060432,34.71483521109039,0 33.27350623037778,34.71496002400078,0 33.27347116960997,34.71500265102804,0 33.2734693102438,34.71503310674746,0 33.27348588831452,34.71507270522604,0 33.27353381380902,34.71511992915199,0 33.27364811566505,34.71519306269624,0 33.27369603802067,34.71524790035175,0 33.27372366826111,34.71531186765702,0 33.27372548646687,34.71536668987399,0 33.27369041202432,34.71543368183332,0 33.27358895677103,34.7154854231019,0 33.2733989754233,34.71554322520121,0 33.27337498488907,34.71557671893718,0 33.2733749476817,34.71565133702065,0 33.27341724547937,34.71588891107841,0 33.27346512788712,34.71602141205692,0 33.27353884081234,34.71613107857019,0 33.27368814546405,34.71628493462251,0 33.27387357124211,34.7164482792658,0 33.27416166992398,34.71665835542547,0 33.2742934720451,34.71677194283161,0 33.27439514222472,34.71687152246032,0 33.27457584697157,34.71713600044044,0 33.27477157982872,34.7174860294611,0 33.27484687862952,34.71758870971605,0 33.27498998695742,34.7176976354999,0 33.27510767587488,34.7177727441145,0 33.27540836010311,34.71796464142555,0 33.27548344543319,34.7180542685276,0 33.27566368501573,34.7181494469225,0 33.27581723837836,34.71828183128043,0 33.27604102898293,34.71837012787907,0 33.27616427963851,34.7184542880023,0 33.27624286196784,34.71849333895631,0 33.27629644242982,34.71856040192696,0 33.27631199311239,34.71860593126561,0 33.27638183968919,34.71881043990081,0 33.27645694314959,34.71886560419814,0 33.27717206232657,34.71884055661684,0 33.27748646633701,34.71888660449761,0 33.27732210527029,34.71906000882677,0 33.27721579632549,34.71905392247192,0 33.27689253813737,34.71891828739103,0 33.27614125810119,34.71933286575899,0 33.275479375357,34.7200103248099,0 33.27544443070925,34.72027727469118,0 33.27530507605969,34.72044562020876,0 33.27504116261705,34.72102052755821,0 33.27406624478361,34.72095859701845,0 33.27383240073854,34.72106940997224,0 33.2736979391379,34.72138150480171,0 33.27356361108291,34.72142252931697,0 33.27329993535792,34.72150458205591,0 33.27293022530355,34.72140867456475,0 33.27253897524061,34.72130717817121,0 33.27253389350756,34.721516637908,0 33.27189659463028,34.72265818704535,0 33.27211544977811,34.7226870140711,0 33.2721004643583,34.72281022200122,0 33.27203056078521,34.72331947808937,0 33.27186615888463,34.72379173612544,0 33.27170693721504,34.72386560674792,0 33.27179635210202,34.72411206356658,0 33.27158714467941,34.72465001895721,0 33.27147275062421,34.72460890748124,0 33.27122409376455,34.7244856053935,0 33.27032367835861,34.7245715277071,0 33.27011477042041,34.72453448651533,0 33.26965222819991,34.7243864601978,0 33.26965710175956,34.72457128137504,0 33.26927406988069,34.7245711378913,0 33.26919928679752,34.72487092772778,0 33.26917920128416,34.72521180985183,0 33.26906958503571,34.72553212177365,0 33.26914409725099,34.72572518355486,0 33.26946217114052,34.72625922327557,0 33.26935766774933,34.72633311310257,0 33.26848686715037,34.72678456450408,0 33.26814842233107,34.72709246614674,0 33.26821766341055,34.72780712680543,0 33.26853084604243,34.72820152820358,0 33.26836627962804,34.72891609982478,0 33.268500434642,34.72920364732197,0 33.26864960792073,34.7293310235391,0 33.26891820543208,34.72939683909781,0 33.26996289804529,34.72939723010602,0 33.27002754741751,34.7294342181489,0 33.26937562671175,34.72986111314517,0 33.26924612611416,34.73014445392548,0 33.26966392090234,34.7303006802937,0 33.27031075362989,34.73009967144948,0 33.27090776700824,34.73001774707353,0 33.27163396120676,34.73025211261517,0 33.27098216361076,34.73044080478142,0 33.27033528667112,34.73073217196797,0 33.26999205469341,34.73067044006405,0 33.26931547388773,34.73068661539947,0 33.26882782564294,34.73089589297754,0 33.26876806583747,34.73101086961722,0 33.26907623227355,34.73150383754233,0 33.26955392881532,34.73130276810516,0 33.26969316648882,34.73140960437265,0 33.26955375357492,34.73162312099541,0 33.26953377298826,34.73177096840326,0 33.26975258546189,34.7319230127161,0 33.26994164253458,34.73189844187733,0 33.27065320412903,34.73161120605036,0 33.27098144185413,34.73180846492387,0 33.27111078219816,34.73182083459173,0 33.27137956083283,34.73156218382433,0 33.27172279574074,34.73161569855023,0 33.27217058903616,34.73150907248968,0 33.27247400715575,34.73161185524292,0 33.27267798499037,34.73158728374401,0 33.27282209107,34.73191589998562,0 33.27295138355487,34.73202683751025,0 33.27290155000323,34.73218699602195,0 33.2729657744305,34.73222386534022,0 33.27305963326325,34.73227774733925,0 33.27311744696922,34.73231093674667,0 33.27308756260491,34.73237726587102,0 33.27298647931339,34.73247579170179,0 33.27296671213676,34.73250906757372,0 33.27285025781958,34.732705107558,0 33.27289149084359,34.73290381236915,0 33.272779499272,34.73319277961641,0 33.27243419529566,34.7332749455734,0 33.27297141672352,34.73393990133679,0 33.27309755697672,34.73409603250566,0 33.27297202249046,34.73412412945831,0 33.27270361909067,34.73418420292219,0 33.27278858711522,34.73444514061737,0 33.27221948195871,34.73472591895887,0 33.27191040874446,34.73526167583474,0 33.27139470350198,34.73570102116081,0 33.27148936078235,34.73602819299099,0 33.27171049706293,34.73627713760922,0 33.27166180289844,34.7364015535461,0 33.27107081217637,34.73665422167185,0 33.27100496377474,34.73702749568376,0 33.2705988447786,34.7371256908332,0 33.27061334582903,34.73729026765953,0 33.27089768608168,34.73757335501808,0 33.26965953730781,34.73847203084235,0 33.26958167914106,34.73856030860924,0 33.26963758234973,34.7386004694626,0 33.26919973522384,34.73889733787221,0 33.2693893405644,34.73900377993541,0 33.26892958443347,34.73933877182046,0 33.26839935476869,34.73959144961621,0 33.26828757043329,34.73946697394326,0 33.26747257186706,34.74018716584999,0 33.26705174942709,34.74044991380558,0 33.26705113947671,34.74150558607725,0 33.26733789069817,34.7418268153522,0 33.2671432429923,34.74202342239856,0 33.2672379158272,34.74230644443307,0 33.26710894355725,34.74246695244978,0 33.26728127086346,34.74302696694433,0 33.26692839409926,34.74351051196692,0 33.26739042938856,34.74349463787858,0 33.26752412208379,34.74358700834808,0 33.26726120347457,34.74409467361867,0 33.26712988175109,34.74410867115763,0 33.2671224263886,34.74438563123466,0 33.26694973288697,34.74445380075326,0 33.26707612084701,34.74456222652918,0 33.2676864974262,34.7445504241616,0 33.26781050342413,34.74457455504206,0 33.26850377865542,34.74416941231937,0 33.26886351994798,34.74444651256696,0 33.26905570738678,34.74430810309487,0 33.26978539505833,34.7442112025692,0 33.26997795429352,34.74433911168837,0 33.2698864325182,34.74461051500327,0 33.26978560906988,34.74472817820119,0 33.26957310655197,34.74533185688168,0 33.26984512340798,34.74596215010116,0 33.2692953359459,34.74632721607212,0 33.26913250298306,34.74615254810117,0 33.26879683586143,34.74629290966313,0 33.268735961518,34.74643538127748,0 33.26867760173519,34.74643134528084,0 33.26869713379531,34.74629086429294,0 33.26840291288351,34.74624258438437,0 33.26840021974552,34.74670820186081,0 33.2684422598415,34.74678171629674,0 33.26852309463998,34.74692306765711,0 33.26859705394276,34.74678177616268,0 33.26872374551393,34.74653973895949,0 33.26904833219165,34.74677332047771,0 33.26906159240437,34.7467819515306,0 33.26973711514415,34.74722168241232,0 33.26956848329135,34.74752228320433,0 33.27020125884617,34.7477505203047,0 33.27024372474856,34.74780691078787,0 33.27001731590891,34.74829415012724,0 33.27014938215616,34.74825536392621,0 33.27033893762332,34.748561107706,0 33.27067875818096,34.74885563123977,0 33.27070423723341,34.74945821891774,0 33.27093490575412,34.74952219383925,0 33.27111071441983,34.7500020644033,0 33.27124607664507,34.75026554688225,0 33.27117337294992,34.75033977647852,0 33.2705747278052,34.75038668498101,0 33.27044308514866,34.75067366650036,0 33.27065944661584,34.75090890089811,0 33.27098107069825,34.75119088850131,0 33.27166661297846,34.75216077231894,0 33.27175913353957,34.75228858691492,0 33.27190767328298,34.7526882697595,0 33.27249968507256,34.75257823569209,0 33.27261809379211,34.75254319952021,0 33.27258325081979,34.75241039491992,0 33.27297802488292,34.75214244014907,0 33.27303138646787,34.75216999358323,0 33.27351216087907,34.75241823188134,0 33.27338754851154,34.75271759937809,0 33.27329487069928,34.7528967122761,0 33.27317943990585,34.75304575111382,0 33.27303444891369,34.7531005001843,0 33.27298056390257,34.753120847968,0 33.27273312474885,34.75318340035852,0 33.27234598321338,34.7533586517107,0 33.27271152695238,34.75386238952705,0 33.27264604796962,34.75427703060279,0 33.27296163361545,34.75453520879205,0 33.27303963807584,34.75467709965096,0 33.27316484024867,34.75490484339274,0 33.27328619886887,34.75504519448862,0 33.27336655285939,34.75523188245212,0 33.27324499929617,34.7554761302042,0 33.27331318193271,34.755717935566,0 33.27340419213682,34.75584449647675,0 33.27348459842256,34.7559284582673,0 33.27341625955261,34.75599733728232,0 33.27327968179434,34.75593214732858,0 33.27307006847045,34.75621519841993,0 33.27331715240288,34.7568804989576,0 33.27358428560979,34.75691692117964,0 33.27390253924378,34.75794303951988,0 33.27394785934899,34.75838402662215,0 33.27396544362588,34.75965934141108,0 33.27424772943145,34.75976967842373,0 33.27454978906057,34.75980485783909,0 33.2739953826047,34.76050747042923,0 33.27417900593742,34.76061276411441,0 33.27393756022842,34.7607905742154,0 33.27380091444411,34.7608406385284,0 33.27335160258342,34.76081918902141,0 33.27306009596396,34.760891529861,0 33.27295839611751,34.76091676798099,0 33.27277319638935,34.76092672674454,0 33.27261228954232,34.76092667061138,0 33.27253645404486,34.76080387311349,0 33.27185129492594,34.76128860344354,0 33.27167476566031,34.7614561316992,0 33.27144934930027,34.76165586967393,0 33.27135515577231,34.76171689029911,0 33.27123746097831,34.76170852284709,0 33.27118700509504,34.76173348216639,0 33.27116675485795,34.76187223579546,0 33.27115990315183,34.76211090533486,0 33.27127081375256,34.7622330549064,0 33.27139180612033,34.76236630952343,0 33.27145235038343,34.76234413026998,0 33.27152304233292,34.76220816864046,0 33.27182912950892,34.76208339076452,0 33.27210157314142,34.76198357931385,0 33.27228320837835,34.76190593621608,0 33.27250855894027,34.76182553391271,0 33.27274063888267,34.76174513234592,0 33.27292563556574,34.76167026446831,0 33.27305680407316,34.7616314564296,0 33.27306253127434,34.76163116954267,0 33.27338637572328,34.7616149179502,0 33.27343684354689,34.76156498094616,0 33.27346380443432,34.76144842925122,0 33.27348400047781,34.76141235885301,0 33.27365888495042,34.76137911494476,0 33.27373287805126,34.76135971328046,0 33.27380011946482,34.76139026402349,0 33.27389401267087,34.76192591844118,0 33.27375604447456,34.76210903843062,0 33.27361807280985,34.76229493296055,0 33.27361468712041,34.7623421094487,0 33.27368863068322,34.76242261670407,0 33.27373906591875,34.76243651021318,0 33.274102244529,34.76246438667997,0 33.27420986189165,34.76245332055264,0 33.27418289933615,34.76257542358424,0 33.27387670915262,34.76291389950574,0 33.2737824399105,34.76312756361772,0 33.27362073673328,34.76369920816164,0 33.27358030685335,34.76384628288177,0 33.27359032360529,34.76399060026652,0 33.27380192458149,34.76452351818457,0 33.27388927987067,34.76468728816842,0 33.27390942154322,34.76476222715191,0 33.27378164347353,34.76472888107841,0 33.2737345013567,34.76485097615434,0 33.27371424030466,34.7650174815773,0 33.27386527240974,34.76562808796686,0 33.27391227564009,34.76578629470286,0 33.27391896911276,34.76585290288884,0 33.27369689362961,34.76608317160539,0 33.27355555822736,34.76626074133389,0 33.27340751709668,34.76639390204652,0 33.27341086787754,34.76641887936361,0 33.27363274613428,34.76658546998593,0 33.27370331150529,34.76670205393959,0 33.27377384465914,34.76688524492857,0 33.27381741908496,34.76717665896067,0 33.27383416126137,34.76732652762892,0 33.2738105332543,34.76750136194109,0 33.27382055749838,34.76763180214252,0 33.27400884124348,34.7677317740464,0 33.27430808304088,34.7678845150333,0 33.27437190083637,34.76805105008481,0 33.27440207269543,34.76824532579999,0 33.27443231999948,34.76828974191682,0 33.27456345650485,34.76833696306783,0 33.27477866527065,34.76840364166706,0 33.2747819733224,34.76851742714717,0 33.2744554951107,34.76903906604171,0 33.27440500405104,34.76912507984593,0 33.27465721552461,34.76918066933723,0 33.27468410683112,34.76920843219468,0 33.27461659186348,34.76972460375912,0 33.27449172292184,34.77060431583917,0 33.27450514820965,34.77065982532923,0 33.27602523539262,34.77084626282441,0 33.27605884874742,34.7708879016023,0 33.27587345208862,34.77177036995875,0 33.27586665873216,34.77191468087351,0 33.27586977466607,34.77244197908819,0 33.27583605106476,34.77263068471463,0 33.27576190035219,34.77296091346536,0 33.27572145249352,34.77315794391587,0 33.27532124761705,34.77309398247005,0 33.27524389515071,34.77308285759184,0 33.27534107499462,34.77382943002863,0 33.27537772417327,34.77455377855835,0 33.27547854859817,34.77471200151319,0 33.27553906018954,34.77477030068015,0 33.27554237408877,34.77487853482702,0 33.27540434641494,34.77514213862471,0 33.27556908836866,34.77528650570842,0 33.27569010462647,34.77541975565111,0 33.27576739948746,34.77556131949576,0 33.27573833561694,34.77579550741051,0 33.27572338439185,34.77591597421404,0 33.27619000866836,34.77595217016253,0 33.27617858677493,34.77646770181619,0 33.27612409516998,34.77678120992302,0 33.27594496851189,34.77715011205896,0 33.27603671270816,34.77749430138361,0 33.27596082415067,34.77770852809515,0 33.27593041168981,34.77803092212483,0 33.27582414134951,34.77850921206428,0 33.27579576308945,34.77871919600419,0 33.27588481339951,34.77888164055494,0 33.27617031778914,34.77902264369239,0 33.27671453561566,34.77934947700453,0 33.27679927856025,34.77956533116942,0 33.27680626292034,34.77971699896428,0 33.2767000797273,34.78002612551358,0 33.2764738250989,34.78006688691197,0 33.27632533226434,34.78011933818879,0 33.27622607211441,34.78072596004058,0 33.27613417073737,34.78070843146689,0 33.27591527226019,34.78013087390902,0 33.27571735084504,34.78006664459085,0 33.27520828222708,34.78014814425401,0 33.27470466738042,34.78009371860541,0 33.27454178193184,34.78019197166795,0 33.2744424042228,34.78037544573413,0 33.27439496018436,34.78073702882874,0 33.27439486298908,34.78093535859504,0 33.27467729953489,34.78167626910706,0 33.27460650402672,34.7818862419991,0 33.27460642719133,34.7820437383933,0 33.27480419597892,34.78242879558265,0 33.2747758477056,34.7825804494347,0 33.27422277268457,34.78279046312129,0 33.27448467589348,34.7832624254508,0 33.27420278387219,34.78335024150632,0 33.27361077625351,34.78348496209412,0 33.27313515198776,34.78367473570902,0 33.2728238893872,34.78379892784369,0 33.27291531478931,34.78426790849747,0 33.27254989928145,34.78428416553416,0 33.27175933399077,34.78461813323963,0 33.27176309250738,34.78502119577417,0 33.27166374589783,34.78511946713592,0 33.27169901465267,34.78518100296692,0 33.27117491294992,34.78567309304341,0 33.27129399242336,34.78581732034434,0 33.27160785320999,34.78566341704578,0 33.27116827045749,34.7860732922401,0 33.2711043727178,34.78657492458764,0 33.27093457431281,34.78677902632382,0 33.27070956910338,34.78685589017418,0 33.27016557299036,34.78656076755814,0 33.27008209904361,34.78667215372877,0 33.26997458387773,34.7871767596673,0 33.26993848466189,34.78781902262603,0 33.26922339791572,34.78805796958949,0 33.26931866315547,34.78816941950511,0 33.26965614168572,34.78842514560598,0 33.26958314864808,34.78856348786294,0 33.26870609127825,34.78911731195841,0 33.26842410707023,34.78968957070828,0 33.26828148809732,34.78976463474574,0 33.26833789928055,34.79003881438096,0 33.26808430211457,34.79029833887351,0 33.26795430643099,34.79043137167739,0 33.26798568509238,34.79063929186508,0 33.26750848958766,34.79092869286734,0 33.26750825561995,34.79133708342812,0 33.26756213359227,34.79155986161702,0 33.26784535343227,34.79208345403192,0 33.2676833005133,34.79215764423444,0 33.26744040771421,34.7919385042734,0 33.26700831905421,34.79202372455185,0 33.26704870328329,34.79223536080706,0 33.26670661284776,34.79233917967698,0 33.26718805565555,34.79251015124916,0 33.26710679212023,34.79295192285655,0 33.26723698664192,34.79350515858998,0 33.26653486987543,34.79358284673538,0 33.26619255332763,34.79406163938216,0 33.26572900197353,34.7940651655398,0 33.26558923898531,34.79448092424917,0 33.26537299831512,34.79484096292801,0 33.26520623225478,34.79525299661655,0 33.26541322956647,34.79529763258599,0 33.26566974664415,34.79532001497951,0 33.2650033434114,34.79649990016588,0 33.2649030474247,34.79667747253434,0 33.26471088433868,34.79701769312367,0 33.26458124139941,34.7973246183886,0 33.26428977345845,34.79764037228647,0 33.26427877805668,34.79797848855662,0 33.26438112336351,34.7982143248095,0 33.26361981446076,34.79940632620978,0 33.263290576119,34.79972651075843,0 33.26326876342462,34.8001002126087,0 33.26311227155532,34.8001935748056,0 33.26315536143009,34.80030036799177,0 33.26330090073238,34.80046949148103,0 33.26369464857373,34.80051859399845,0 33.26378628775183,34.80061651060378,0 33.26376461995424,34.80075886835282,0 33.26322507813531,34.80094549716758,0 33.26316568828373,34.80103889997682,0 33.26369415178277,34.80131940738573,0 33.26366713148757,34.80139502852273,0 33.26352137396019,34.80157292527864,0 33.26367755182758,34.80199119257014,0 33.2635749892159,34.8021068215931,0 33.26235039798303,34.80223086907259,0 33.26162204807659,34.80241295675416,0 33.26068835673819,34.80311992713604,0 33.26051023083167,34.80329780394847,0 33.26036448088096,34.8034490048228,0 33.2600729694608,34.80377364673645,0 33.25965191803502,34.8041961062049,0 33.25923089679367,34.80457407378006,0 33.25893308685914,34.80479999911761,0 33.25883688616179,34.8049175135504,0 33.25876774139593,34.80506245029691,0 33.25874861414871,34.80549734955034,0 33.25868842076117,34.80632053986248,0 33.25855954520012,34.80660006422874,0 33.25821097605287,34.8068794850655,0 33.25748265081094,34.80712248435109,0 33.2564278776507,34.80741191905162,0 33.25572153275148,34.80763420737869,0 33.25517527110841,34.80782550662411,0 33.25496173867524,34.80797295870349,0 33.25486744445174,34.80815930094764,0 33.25481076992835,34.80840779167671,0 33.25483858870737,34.80899544855043,0 33.25482886519671,34.80941740763505,0 33.25470919786856,34.80996098203564,0 33.25453618174494,34.81049158778885,0 33.25450161724985,34.81054334399215,0 33.25438541806705,34.81063648169262,0 33.25419707192272,34.8106674525593,0 33.25397734520534,34.8106880507073,0 33.25373880680417,34.81067498776308,0 33.25324606139733,34.81062814162949,0 33.25208479584519,34.81054211750315,0 33.25189022413729,34.81050577447257,0 33.25142896911572,34.81032432381831,0 33.2513380053427,34.81025179059657,0 33.25104613812557,34.81020762869894,0 33.25078880291029,34.81015571906529,0 33.25062556229107,34.8101918746159,0 33.25033043816234,34.81030044461721,0 33.25002590817302,34.81039088877804,0 33.24965867721554,34.81039328067632,0 33.24938558312418,34.81042419888436,0 33.2492349688829,34.81036975318152,0 33.24909380556397,34.81027130514101,0 33.24894320588938,34.81019356188673,0 33.24886473660808,34.81019869660477,0 33.248331087119,34.81027865582291,0 33.2482494227309,34.81035368453283,0 33.24817706280287,34.8105607426881,0 33.24808559424559,34.81111468197278,0 33.24800068233714,34.81131655609081,0 33.24785305723866,34.81144591159013,0 33.24768975423011,34.81155454737083,0 33.24759863087804,34.81167357858367,0 33.24748554559571,34.81178483248556,0 33.24745089750908,34.81193495882141,0 33.24734083179116,34.8121860046802,0 33.24725915410824,34.8122739757973,0 33.24703613549711,34.81247318470679,0 33.24684768388548,34.81262322545285,0 33.24666555436477,34.81271890719655,0 33.24639555207148,34.81279123870434,0 33.24623227867387,34.81285845339727,0 33.24614118506759,34.81294383040038,0 33.24606579095956,34.81301627129071,0 33.24600293707128,34.81310684204446,0 33.24588982730825,34.81324397971525,0 33.2458112613481,34.81335524882404,0 33.24582060885749,34.81343809509428,0 33.24587388799742,34.81353649731822,0 33.24581418122857,34.81361671293056,0 33.24567303580559,34.81349755096352,0 33.24508000413195,34.81324869368057,0 33.24336683352311,34.81252026394083,0 33.24246318342389,34.81214695065145,0 33.24240981558598,34.81215727404457,0 33.24242514233392,34.81257665718475,0 33.24218964189338,34.81267747677537,0 33.24198872433238,34.81271618824255,0 33.24126370771365,34.81266138710176,0 33.24136084166891,34.81285042299994,0 33.24104360121971,34.8130987494777,0 33.24151102945142,34.813386382282,0 33.24162081137197,34.81347446527109,0 33.24153592912526,34.8136245598314,0 33.24204738147768,34.81382937862022,0 33.2428318173463,34.81414308266135,0 33.24244846454353,34.81461400337846,0 33.24232908654081,34.81473042400995,0 33.24153509153295,34.81456944635229,0 33.24125571255016,34.81458739771648,0 33.24043951280449,34.81468785930682,0 33.24010971981125,34.81492064541749,0 33.23993697548967,34.81503185403093,0 33.23951641063113,34.81498499662666,0 33.23927148566296,34.81508321579069,0 33.23910813731126,34.81521772803855,0 33.23902332065881,34.81529015963313,0 33.23912055747927,34.81536529308044,0 33.23922416816854,34.81533688207307,0 33.23930264497267,34.8153343416204,0 33.23935280460472,34.81539909167199,0 33.23936842664445,34.81547935153223,0 33.2390511029739,34.81580015601067,0 33.23860884200941,34.81614523563002,0 33.23851713528729,34.81621907402007,0 33.23829330124673,34.81640991378019,0 33.23815659241946,34.81656326520119,0 33.23834630639097,34.81688168612461,0 33.23852807689982,34.81722948531542,0 33.23856830756493,34.81730251784548,0 33.23859372823017,34.81735197396822,0 33.23858938587492,34.81748252992305,0 33.23859327310853,34.81805816996103,0 33.23858044389431,34.81838846200451,0 33.23853875614014,34.81852228499996,0 33.23845951006335,34.81860221885429,0 33.23793860497162,34.81897568890616,0 33.2377662483091,34.81914207692773,0 33.23759513966533,34.81929375867863,0 33.23704306534869,34.81978314757016,0 33.2369679238749,34.81990066480139,0 33.23700864290483,34.82048542595523,0 33.23713579396908,34.82090936185344,0 33.23724068439193,34.82107340192675,0 33.23721050120649,34.82125901202988,0 33.23713162699637,34.82135487111859,0 33.2357622224081,34.8214158625077,0 33.23539353933582,34.82247680719027,0 33.23517938389913,34.82279842479932,0 33.2349346406576,34.82370785025112,0 33.23489677309127,34.82406980388173,0 33.23492663451058,34.82422760931929,0 33.23515148587784,34.82449073232614,0 33.23524411452143,34.82491795843386,0 33.23528968706545,34.8251281527773,0 33.23534967524603,34.82517150473824,0 33.23575479957699,34.82524602134305,0 33.23672287720213,34.82512908401476,0 33.23680165206058,34.82513841579227,0 33.23639200780498,34.82587448293568,0 33.23622676413983,34.82604763101275,0 33.2358476387378,34.82624229662737,0 33.23543476247832,34.82641837444747,0 33.2342938108434,34.82681053930886,0 33.23403092290733,34.82707333960702,0 33.23341906373802,34.82737922081688,0 33.23368481033072,34.82802910218417,0 33.23353827880552,34.82823629088084,0 33.23291139278347,34.82855143911777,0 33.2326526661613,34.82839347980872,0 33.2323225701909,34.82831590972323,0 33.23177101742055,34.8283310017926,0 33.2302888453462,34.82847538831234,0 33.22896795159507,34.82867555877278,0 33.22730182199938,34.82891568709303,0 33.22704646736592,34.82911969621001,0 33.2268846373164,34.82958674776716,0 33.22641029078581,34.83107143928605,0 33.2263513983981,34.83124222142945,0 33.22626382390218,34.83119817899644,0 33.22620012821536,34.8311146004515,0 33.22637704231344,34.83058259124564,0 33.22641123605515,34.83018660592239,0 33.22635126421165,34.83013087353893,0 33.22617866678298,34.83013384029514,0 33.22566811340806,34.8303902541467,0 33.22434655042414,34.83115963914245,0 33.22352435296227,34.83160453287827,0 33.2233441306861,34.83171577745811,0 33.22322409079118,34.8316878409611,0 33.22299907386459,34.83159176234485,0 33.2228942092173,34.83141842705999,0 33.22266218094024,34.83087992592155,0 33.22246365899657,34.83057967507978,0 33.22236616265143,34.83052700576376,0 33.22188164363743,34.8304732904104,0 33.22217125603206,34.83002740727014,0 33.22226157776653,34.82984159929073,0 33.22264889991582,34.8293152459924,0 33.22267177947089,34.82900237175863,0 33.22251455826083,34.82857783344863,0 33.22230858930294,34.8280974967156,0 33.22104335824066,34.82803146840624,0 33.22095304635313,34.82820488507299,0 33.2208100027835,34.82853005573005,0 33.22029599562984,34.82819817715117,0 33.22011968583281,34.82806172988571,0 33.2206793802177,34.82783601572205,0 33.22052948826935,34.82758496739209,0 33.21997405529454,34.82736458005687,0 33.22006434781395,34.82720975295492,0 33.22016997982605,34.82676992939404,0 33.21960684771372,34.82672302058253,0 33.21961086771857,34.82649377511328,0 33.21962984448216,34.82631720690227,0 33.21929171781002,34.82650281810327,0 33.21941538691794,34.82669808571331,0 33.21921590152006,34.8271254448325,0 33.21914826095641,34.82717805550016,0 33.21858541137701,34.82688640369946,0 33.21776279845154,34.82719244502737,0 33.21747359389708,34.82727895717952,0 33.21702689493252,34.82719805177194,0 33.21666653394936,34.82713270419854,0 33.21652822744348,34.82661833428683,0 33.21639319520124,34.82650669627537,0 33.21657404824871,34.82597399969413,0 33.21685182532824,34.82602378879248,0 33.21697195256578,34.82603937797425,0 33.21706590411317,34.82596510205264,0 33.21693697724773,34.82495197767276,0 33.21689478996804,34.82462045743994,0 33.21648965266905,34.82433202117154,0 33.21645969509029,34.82426694006498,0 33.21659140120627,34.82401301727573,0 33.21653526354317,34.82386426944997,0 33.21632127680913,34.82385170524118,0 33.21584495058583,34.82344238691255,0 33.21501561469223,34.82311952459176,0 33.21488807799679,34.82302338287131,0 33.21451995195391,34.82318417273756,0 33.21426110378901,34.82301666757555,0 33.21437382498955,34.82294550851432,0 33.21432883862027,34.82288661206357,0 33.21421236508627,34.82296086426219,0 33.21394589637717,34.82288319613716,0 33.21377709006211,34.82276843058927,0 33.21386014717056,34.82239365010638,0 33.21296658285186,34.82241458872192,0 33.21221923807662,34.82176466373446,0 33.21214884974797,34.82171639651995,0 33.21206469251197,34.82158407119267,0 33.21192627799832,34.82120900345605,0 33.21155114777316,34.82106552212267,0 33.21161745554116,34.82092650560948,0 33.21160765529923,34.82082969223107,0 33.21131285073338,34.81991865211089,0 33.21149733594864,34.81932730764131,0 33.21131559491035,34.8192741897925,0 33.21124439830123,34.81925338168477,0 33.21113213471957,34.81906556323329,0 33.21067272290062,34.81890329031752,0 33.21010801742997,34.81871723600224,0 33.20979672344028,34.81879593179747,0 33.20949929291451,34.81920427954994,0 33.20944740652256,34.819272582709,0 33.20943127276487,34.81929382166357,0 33.2093642817202,34.81937022960339,0 33.20930310015746,34.81937699389172,0 33.20908159408152,34.81934816764288,0 33.20868090722939,34.81930156798431,0 33.20835112860183,34.81927162615222,0 33.20822939114243,34.81926057359632,0 33.20761307676285,34.81917306170985,0 33.20694816322872,34.81873420877124,0 33.20613861499717,34.81906909437528,0 33.20591346194924,34.8191715489189,0 33.20568290241268,34.81890520887565,0 33.20544268918622,34.81899947216587,0 33.20502413780386,34.81920847955955,0 33.20505173763804,34.81926868796496,0 33.20517371900621,34.81953479224741,0 33.20520407329479,34.81973195099205,0 33.20520031332844,34.82007281105293,0 33.20497157962264,34.82050618235871,0 33.2044392901805,34.82044025498769,0 33.2042211157627,34.82039369985209,0 33.20381444009899,34.82036060520499,0 33.20370868117759,34.82031960485144,0 33.20363271675954,34.82025408821686,0 33.20388418847597,34.82013160769463,0 33.20395045290432,34.82003349880905,0 33.20383167323456,34.81983978002327,0 33.20363375598824,34.81948237345425,0 33.20349497329889,34.81941134668662,0 33.2031610342116,34.81938922505894,0 33.20291309008582,34.81935081952416,0 33.20268658924746,34.81927938008167,0 33.20257258908685,34.8192664213335,0 33.20245065423393,34.81925256160733,0 33.20226091983727,34.81914350025303,0 33.20191549436477,34.81886444323727,0 33.20176143523982,34.81865806772773,0 33.2016462048242,34.81863056971091,0 33.20137995186425,34.81902854151816,0 33.2012628471107,34.81920357928883,0 33.20122164326312,34.81926516528986,0 33.20119432792896,34.81930599309184,0 33.20003549970848,34.81994532737057,0 33.1996751553221,34.81989044743532,0 33.19928508567132,34.8198082695459,0 33.19894428418905,34.81977000797349,0 33.19856052292707,34.8194153884416,0 33.1983102468863,34.81926240625838,0 33.19827644726122,34.81924174595003,0 33.19805225216519,34.81908922464007,0 33.19759323702188,34.81866631319404,0 33.19727275546088,34.81846463996628,0 33.19702400087171,34.81832226003711,0 33.19678011761141,34.81812460902951,0 33.19652189034527,34.8179150986369,0 33.19613417345105,34.8178633921442,0 33.19567942833218,34.81780766987855,0 33.19557416746105,34.81776018648456,0 33.19514364747313,34.81751102097344,0 33.19473206023848,34.817415854963,0 33.19451179898184,34.81743932683342,0 33.19413323836311,34.81767584984243,0 33.19371626855705,34.81798340243696,0 33.19345260890396,34.81821608854928,0 33.19325134592614,34.81833828303819,0 33.19310308135498,34.81823942887751,0 33.19284933642977,34.81824312070439,0 33.19244701893903,34.81834932145367,0 33.19211678373582,34.8182739697842,0 33.19136470618995,34.81819144864884,0 33.1911211390918,34.81815451039311,0 33.19080045673945,34.8180989081103,0 33.19053697745761,34.81820524264148,0 33.19016805390763,34.8183904347089,0 33.18963568976846,34.81900976886118,0 33.18943910100977,34.81920698131103,0 33.18885528575374,34.81902475592193,0 33.18880752274119,34.8189496885096,0 33.18849644251408,34.81887434777743,0 33.18763493805147,34.81869972374671,0 33.18710511004178,34.81905911789544,0 33.18710014324439,34.81925113326874,0 33.18709004063405,34.81964166012804,0 33.18717700673892,34.81971356240179,0 33.18644095854657,34.82018354542716,0 33.18608153141403,34.82002168623614,0 33.18583746444339,34.82006384340055,0 33.18551396745087,34.82011972142742,0 33.18498493020342,34.81995303868156,0 33.18450975902877,34.81960085655591,0 33.18456512183115,34.8192484413963,0 33.18457717791552,34.81917169501205,0 33.18492730321247,34.81914150107304,0 33.18516512042515,34.81924908302405,0 33.18522171542281,34.81927468560006,0 33.18539515050652,34.81936323083895,0 33.18541443439206,34.81936501878516,0 33.18543161655236,34.8192493677015,0 33.18542979897607,34.81912165798231,0 33.18516246850651,34.81888361987004,0 33.18532342137021,34.81867320910724,0 33.18526611209771,34.81844897962737,0 33.18575613755611,34.81849705254861,0 33.18573564065345,34.818435892282,0 33.18548878834466,34.81827260005836,0 33.18528708509621,34.81820445550424,0 33.18521323632952,34.81802436288829,0 33.18499033577214,34.81834339189339,0 33.1848709892765,34.8182855250882,0 33.18451725915239,34.81799304817375,0 33.1839985969381,34.81782606316735,0 33.18366921994825,34.81776117476035,0 33.18286540129662,34.81820863915041,0 33.18232610027729,34.81806879555617,0 33.18196356029207,34.81813632976412,0 33.18165889236253,34.81807485964471,0 33.18149853511439,34.81791165279927,0 33.18130487321101,34.81796918110579,0 33.181238577042,34.81821705157473,0 33.18091714730075,34.81833217856664,0 33.18064504785358,34.81850170180765,0 33.18020481678509,34.8182260987526,0 33.1801676772988,34.81827021138756,0 33.18020830871387,34.81860990542304,0 33.17924024003931,34.81874129423101,0 33.17885314386557,34.81871368890333,0 33.17856467972012,34.81881525925024,0 33.17855197084322,34.81902922524867,0 33.17890181206856,34.8191722705422,0 33.1789254352194,34.81924226250786,0 33.17896311154744,34.81935389086038,0 33.17865131762662,34.81943669410408,0 33.17864428658781,34.81999607513014,0 33.17843327669346,34.82010418864185,0 33.1772999134182,34.81997188311984,0 33.17702542237337,34.81967171931608,0 33.17681682538438,34.82016535736185,0 33.17727455077465,34.82052368337882,0 33.17756758981162,34.82069787838601,0 33.17713639617153,34.82091661167397,0 33.17654775343137,34.82027844054623,0 33.17559174816462,34.82006064726782,0 33.17489211070684,34.82002204774739,0 33.17457139835128,34.81995364447698,0 33.17425395270085,34.81976429399453,0 33.17390549925465,34.81983948333512,0 33.17361173854608,34.82009615897684,0 33.17412452783046,34.82040668543868,0 33.17413349564245,34.82052512446554,0 33.17391935149407,34.82067606448273,0 33.17383326428919,34.82098841483814,0 33.1732828576981,34.82122967249134,0 33.17303535326537,34.82123190425123,0 33.17306513974074,34.82168045832239,0 33.17271951639992,34.82188415498941,0 33.17220356092998,34.82163409303867,0 33.17211774406494,34.82178517901347,0 33.17200166829394,34.82176488377656,0 33.17186073393353,34.8219814181439,0 33.17173192845927,34.82225340162892,0 33.17168325432836,34.82212987569667,0 33.1714937830849,34.82214729033561,0 33.17173130090405,34.82261624726849,0 33.17192374384496,34.8226517505622,0 33.17205810649246,34.82269978476194,0 33.17218915952077,34.82289396073833,0 33.17174169869215,34.82366952352414,0 33.1715154536164,34.82374484894745,0 33.17104831952536,34.82353011701496,0 33.17084957938442,34.82360043552684,0 33.17073370273279,34.82346423000028,0 33.17076755425969,34.82332820283331,0 33.17059979733092,34.82315414044236,0 33.17016894462925,34.82316370603444,0 33.17002211204436,34.82325676275805,0 33.17006473207933,34.82334752547656,0 33.17029664689954,34.82352418514926,0 33.17038476933748,34.823806504084,0 33.16998128057109,34.82388917637861,0 33.16981884076053,34.82416867689349,0 33.16981540482328,34.82438537200488,0 33.17015760688365,34.82440341876573,0 33.1703375089818,34.82462033240802,0 33.17069782554692,34.82476438799253,0 33.17059753587095,34.82502577684823,0 33.17059346059864,34.8250363989701,0 33.17036077934306,34.82529313868552,0 33.16975311095863,34.82505807606675,0 33.16962155951204,34.82514863016478,0 33.16968210686731,34.82547123332522,0 33.16984054387549,34.82573095783069,0 33.17009993199564,34.82592780984326,0 33.17026766670028,34.82611699112795,0 33.16998342605933,34.82615192953158,0 33.17003808098019,34.82635105702958,0 33.16997369612007,34.82647192810154,0 33.16997645316223,34.82664327593365,0 33.16985397223095,34.82678675718559,0 33.16982919992782,34.82697067002431,0 33.16946863081309,34.82696771933036,0 33.16932107413898,34.82746645676468,0 33.16932965078597,34.82780159577214,0 33.16969645019164,34.8277415600235,0 33.16994372652114,34.82787792191116,0 33.16971795762045,34.82814539774977,0 33.16963774643673,34.82810937580521,0 33.16932593851766,34.82817451640125,0 33.16895591870826,34.82832777828098,0 33.16899839304966,34.82850169324804,0 33.16876922554016,34.82849133816592,0 33.16870798561366,34.82856181840163,0 33.16827392970975,34.82863688848376,0 33.1683952325558,34.82916114582174,0 33.16862095937945,34.82938819651537,0 33.16927197227467,34.82932094561802,0 33.16927485862865,34.82941670014642,0 33.16909724673251,34.82962814742568,0 33.16924667228935,34.82980470987337,0 33.16904183832277,34.82985737982665,0 33.16879089513106,34.83006117873105,0 33.16871089701309,34.8303710141453,0 33.16873173156185,34.83068600932372,0 33.1686275371377,34.83085218859345,0 33.16843188367161,34.8308947890951,0 33.1683644489434,34.83101061712903,0 33.16767645867111,34.83124412292026,0 33.16769459157349,34.83135753481449,0 33.16740722514641,34.83142018033007,0 33.16711308870943,34.83185070248992,0 33.16767445088195,34.83237045621983,0 33.16761914265854,34.83253921205792,0 33.16723061716068,34.83277559802727,0 33.16726099152572,34.83287894645279,0 33.16709265691357,34.83302236703747,0 33.16715330658435,34.83328449703193,0 33.16707994269558,34.8332970071912,0 33.16707035097978,34.83353385329743,0 33.16699854378209,34.83373376220425,0 33.16699584978095,34.83374126147083,0 33.16690218952861,34.83386684589502,0 33.16667301949256,34.83391945417998,0 33.16649218764596,34.83384179115097,0 33.16639797398004,34.83400411549628,0</coordinates>
						</LinearRing>
					</outerBoundaryIs>
				</Polygon>
			</MultiGeometry>
		</Placemark>
	</Document>
</kml>