<?xml version='1.0' encoding='UTF-8'?>
<kml xmlns="http://www.opengis.net/kml/2.2">
	<Document>
		<name>LEMESOS Community Cluster D</name>
		<Style id="PolyStyle80">
			<LabelStyle>
				<color>00000000</color>
				<scale>0.000000</scale>
			</LabelStyle>
			<LineStyle>
				<color>ffa9e600</color>
				<width>2.000000</width>
			</LineStyle>
			<PolyStyle>
				<color>00828282</color>
				<outline>1</outline>
			</PolyStyle>
		</Style>
		<Placemark id="ID_80001">
			<name>LEMESOS Community Cluster D</name>
			<snippet />
			<description>&lt;html xmlns:fo="http://www.w3.org/1999/XSL/Format" xmlns:msxsl="urn:schemas-microsoft-com:xslt"&gt;

&lt;head&gt;

&lt;META http-equiv="Content-Type" content="text/html"&gt;

&lt;meta http-equiv="content-type" content="text/html; charset=UTF-8"&gt;

&lt;/head&gt;

&lt;body style="margin:0px 0px 0px 0px;overflow:auto;background:#FFFFFF;"&gt;

&lt;table style="font-family:Arial,Verdana,Times;font-size:12px;text-align:left;width:100%;border-collapse:collapse;padding:3px 3px 3px 3px"&gt;

&lt;tr style="text-align:center;font-weight:bold;background:#9CBCE2"&gt;

&lt;td&gt;Σύμπλεγμα Δ&lt;/td&gt;

&lt;/tr&gt;

&lt;tr&gt;

&lt;td&gt;

&lt;table style="font-family:Arial,Verdana,Times;font-size:12px;text-align:left;width:100%;border-spacing:0px; padding:3px 3px 3px 3px"&gt;

&lt;tr&gt;

&lt;td&gt;NAME_GR&lt;/td&gt;

&lt;td&gt;Σύμπλεγμα Δ&lt;/td&gt;

&lt;/tr&gt;

&lt;tr bgcolor="#D4E4F3"&gt;

&lt;td&gt;NAME_ENG&lt;/td&gt;

&lt;td&gt;Community Cluster "Δ"&lt;/td&gt;

&lt;/tr&gt;

&lt;tr&gt;

&lt;td&gt;DISTRICT_N&lt;/td&gt;

&lt;td&gt;ΛΕΜΕΣΟΣ&lt;/td&gt;

&lt;/tr&gt;

&lt;tr bgcolor="#D4E4F3"&gt;

&lt;td&gt;SHAPE.AREA&lt;/td&gt;

&lt;td&gt;102438363,278259&lt;/td&gt;

&lt;/tr&gt;

&lt;tr&gt;

&lt;td&gt;SHAPE.LEN&lt;/td&gt;

&lt;td&gt;69181,262974&lt;/td&gt;

&lt;/tr&gt;

&lt;/table&gt;

&lt;/td&gt;

&lt;/tr&gt;

&lt;/table&gt;

&lt;/body&gt;&lt;script type="text/javascript"&gt;

				function changeImage(attElement, nameElement) {

				document.getElementById('imageAttachment').src = attElement;

				document.getElementById('imageName').innerHTML = nameElement;}

			&lt;/script&gt;&lt;/html&gt;

</description>
			<styleUrl>#PolyStyle80</styleUrl>
			<MultiGeometry>
				<Polygon>
					<extrude>0</extrude>
					<altitudeMode>clampToGround</altitudeMode>
					<outerBoundaryIs>
						<LinearRing>
							<coordinates> 32.92752086175469,34.86908732607899,0 32.92680738922916,34.87019882656386,0 32.9217963013664,34.87326362153081,0 32.92174478196075,34.87327886790258,0 32.92019223202255,34.87423664445517,0 32.92004090593139,34.87409662521853,0 32.91979050262806,34.87389722078466,0 32.91969465874807,34.87379918020161,0 32.91963555503063,34.87368088849631,0 32.91974909391642,34.87349347613296,0 32.91982096382372,34.873365821024,0 32.91987509670093,34.87315895939545,0 32.91989736279335,34.87293723172255,0 32.91987561892321,34.872821383306,0 32.91982922060157,34.87275662614764,0 32.91972583868463,34.87261898365468,0 32.91978694596474,34.87235064437296,0 32.91983433614331,34.87203899771463,0 32.91983185975726,34.87187567105459,0 32.91984310729298,34.87168167540048,0 32.91989004168522,34.87133412465819,0 32.91993659126044,34.87109202488345,0 32.9199433851301,34.8709719602344,0 32.91991904824039,34.87084948534758,0 32.91979203741879,34.87060399982475,0 32.91958031856458,34.87029567959116,0 32.91969140897164,34.86994339990242,0 32.91971338862413,34.86981903274972,0 32.91969488807133,34.8696555701445,0 32.91953578141101,34.86919229871178,0 32.9194767511066,34.86906737584501,0 32.91937457664147,34.86890260291616,0 32.9188699615332,34.86822306461652,0 32.91841297942244,34.86780094639725,0 32.91830414165832,34.86774526573677,0 32.91767668212149,34.86757984161734,0 32.91751267579341,34.86752158711234,0 32.91724881146365,34.86740111868367,0 32.91681911670802,34.86730003285822,0 32.91644800064998,34.8672139957801,0 32.91636585121496,34.86715995792747,0 32.91631946763133,34.86709297821735,0 32.9163004040238,34.86690090900682,0 32.9163543990583,34.86633350116385,0 32.9163374095825,34.86626525079519,0 32.91629631558732,34.86620269720793,0 32.91554594075706,34.86574262306508,0 32.91552253494667,34.86568971256219,0 32.91553476613679,34.86563484633336,0 32.91563589760781,34.86551684131608,0 32.91566065341808,34.86545693024594,0 32.91564790447904,34.86540628888802,0 32.91561715773592,34.86537164385017,0 32.91552397785141,34.86534609973316,0 32.91492962996364,34.86538748461019,0 32.9148282283775,34.86537946826751,0 32.91472185275922,34.86534064588377,0 32.91463906222115,34.86526534936181,0 32.91459384497211,34.86517492133468,0 32.91458258939181,34.86507373313114,0 32.91454588028362,34.86479286038472,0 32.91417649002718,34.86441153390377,0 32.91405013649337,34.8642560693046,0 32.91399463672395,34.86413185832294,0 32.9139823062339,34.86404604348076,0 32.91401164360644,34.86397516625356,0 32.91406483427897,34.86391983962837,0 32.91429372102245,34.86376531811004,0 32.91434638146997,34.86367994302116,0 32.91436008799754,34.86357598327266,0 32.91428754554203,34.86346229472819,0 32.91406380736021,34.86326163585237,0 32.91397843751201,34.8631441699996,0 32.91381055768771,34.86269509212877,0 32.91379381046877,34.86253155847195,0 32.91382108914082,34.8624093603709,0 32.9138666189538,34.86232466010876,0 32.9139494256133,34.86217307622174,0 32.91402389228628,34.86203675871349,0 32.91402489313215,34.86183062706124,0 32.91394905167473,34.86163852978536,0 32.91361618336021,34.86133945466528,0 32.91347810820612,34.86121450050457,0 32.91270671163173,34.86044659940423,0 32.91234749541815,34.86047398393237,0 32.91230609243577,34.86033097985509,0 32.91228488041441,34.86011048919569,0 32.91217223050133,34.85985091602647,0 32.91222254429844,34.85968984908035,0 32.91224811260248,34.85952461669046,0 32.91234104196144,34.85925756286453,0 32.91232388716413,34.85922076778905,0 32.91195465006329,34.8592726101574,0 32.91182954422337,34.85930684667789,0 32.91181476812211,34.85925276166879,0 32.91158104120527,34.85927958493232,0 32.91158401526943,34.85892855218772,0 32.91142915841866,34.85876657357813,0 32.9112726422563,34.8585463780006,0 32.91113862033325,34.85823248584595,0 32.91111116585638,34.85813449452923,0 32.91092860973043,34.85810312305266,0 32.91052220837891,34.85799349430249,0 32.91036562216482,34.85784145151721,0 32.91041434721829,34.85738570588108,0 32.91074733742067,34.85688331273437,0 32.91093180295557,34.85673862028644,0 32.91060477581868,34.85650693962104,0 32.91049807394796,34.85642024811757,0 32.91016242503405,34.85619991906623,0 32.90981640272518,34.85601507865094,0 32.90920596138653,34.85506330354976,0 32.90925481589329,34.8544939666478,0 32.90916876649828,34.8544271681205,0 32.90911019149272,34.85443706373844,0 32.9087327789679,34.85461142697366,0 32.9082831025634,34.85471190045428,0 32.90801088313149,34.85477416889213,0 32.90775076096747,34.85479952974821,0 32.90697393362677,34.85479183910796,0 32.90694985957955,34.85475632342376,0 32.90654468850802,34.85510104422608,0 32.90675619549599,34.85541783968388,0 32.90692635540968,34.85574312361862,0 32.90697451316343,34.85580705517486,0 32.90722056214924,34.85604578277795,0 32.90732474763357,34.856068580535,0 32.90740727561842,34.85620495150278,0 32.90749313310407,34.85644355737169,0 32.9071108105752,34.85637795146634,0 32.90660787777435,34.85634348880709,0 32.90631505172983,34.85634326358109,0 32.90583620481409,34.85633437416444,0 32.90582035662369,34.85653016922636,0 32.90578234519703,34.85659988939523,0 32.90576762106733,34.85671893414936,0 32.90558730426451,34.85708671885632,0 32.90538721859838,34.85732510294597,0 32.90479849865066,34.8569923919969,0 32.90439489500419,34.85726383515799,0 32.90427449422823,34.85737409040054,0 32.90372294458514,34.8579944755484,0 32.90313228884987,34.85809824732621,0 32.90300770993325,34.85797640287719,0 32.90266011255978,34.85771369630053,0 32.90182938342651,34.85800792305586,0 32.90135658070108,34.8581536346471,0 32.90083473931274,34.85813697785524,0 32.90048674633291,34.8582070354344,0 32.90028624465785,34.85844765624093,0 32.89996067299641,34.85897495261295,0 32.8998183796169,34.85898137999169,0 32.89965328533544,34.8590698706878,0 32.89954214565321,34.85899796052652,0 32.89906559058189,34.85910453000268,0 32.8987928668849,34.85928155695751,0 32.89868155153838,34.85935328266538,0 32.89862586551491,34.85941130215856,0 32.89861591210161,34.85952837759002,0 32.89824108649259,34.85960599113427,0 32.89807509834796,34.85961970829018,0 32.89744471322193,34.85989102989923,0 32.89709328581493,34.85984696319879,0 32.89697637749725,34.8599486079852,0 32.89644367676133,34.860001880947,0 32.89627615689756,34.86007273715099,0 32.89568476657388,34.85900328837344,0 32.89612627036724,34.85886398504091,0 32.89642611627491,34.8588241993446,0 32.89671945451691,34.85860274657139,0 32.8969401463696,34.85854431800811,0 32.89758694716966,34.8579628324113,0 32.89768621662038,34.85792031350542,0 32.89796378000542,34.85787840578533,0 32.8982619191051,34.8576855391182,0 32.89811210854526,34.85743807239516,0 32.89813565690678,34.85669729322396,0 32.89827842509244,34.85651704993444,0 32.89858899981598,34.85639576245215,0 32.89892014065074,34.85637897911334,0 32.89919660836465,34.85599067868782,0 32.8993181513957,34.85595027636791,0 32.89949182419666,34.85539165234643,0 32.90012941243114,34.85515708058811,0 32.90001118681416,34.85503013873777,0 32.89988779508442,34.85494603929609,0 32.89947434510618,34.85492829937878,0 32.89946214059723,34.85489356186403,0 32.89972378585055,34.85456790581397,0 32.90011094709833,34.85439574744419,0 32.90006164849577,34.85435067865367,0 32.89959632491845,34.85430827072422,0 32.89937168808851,34.8541687192098,0 32.89866982015561,34.85389283294439,0 32.8983706728246,34.85379792484724,0 32.89808113319302,34.85376223576165,0 32.89773996362715,34.85365289564549,0 32.89736240449099,34.85339444127656,0 32.89711752981444,34.85334053593753,0 32.89562167246125,34.85289454300788,0 32.89562013879199,34.85270881246596,0 32.89554233178357,34.85242689487757,0 32.89550110735597,34.85127974419139,0 32.8957641641836,34.85067653320787,0 32.89598960506044,34.85065485974541,0 32.89591406660555,34.85041376819537,0 32.89590157009488,34.84994839125685,0 32.89546317105832,34.84978417492884,0 32.8953463823139,34.84974233916692,0 32.89546423129882,34.84957529007528,0 32.89560715224901,34.84941265064484,0 32.89546553470242,34.84931852130563,0 32.89517813707232,34.84916955094159,0 32.8951493971709,34.84921256409295,0 32.89506855787124,34.84921620384254,0 32.89497862479,34.84913750987,0 32.89484758481174,34.84872945898807,0 32.89446659826275,34.84885747475116,0 32.89435303408041,34.84875126377808,0 32.89422487456658,34.84871163011638,0 32.89382644699931,34.8485299653074,0 32.8932189042056,34.84833581909809,0 32.89303429801943,34.84817840974087,0 32.89293638442425,34.84780182484872,0 32.89301724281069,34.84779426792732,0 32.89309005339187,34.84759724339973,0 32.89314797110271,34.84744051588652,0 32.89328342355541,34.84722446705315,0 32.89350459561258,34.84696339449093,0 32.89351737201605,34.84685266161193,0 32.89348083745919,34.84683239476742,0 32.89329750932119,34.84685693471415,0 32.89326820863489,34.84661513914016,0 32.89262625359253,34.84676397057196,0 32.89238740464234,34.84689909330724,0 32.8922055229649,34.84664165924631,0 32.89268291222018,34.84643183434179,0 32.89314226220822,34.84616655611597,0 32.89400566206587,34.84570126353477,0 32.89402426237395,34.84564593879842,0 32.89320179660051,34.84527047473325,0 32.89318470700451,34.84502871954596,0 32.89339964350905,34.84479280468998,0 32.893314916876,34.84464144987032,0 32.89303402540155,34.84464047570219,0 32.89274210663387,34.84440783548535,0 32.89218062934705,34.84434546169535,0 32.8921546351204,34.84465252681073,0 32.89186662994441,34.84484790300808,0 32.89137040478936,34.84515836661635,0 32.89127208253789,34.84527887210561,0 32.8911555766369,34.84537413685537,0 32.89101476720865,34.84544414090802,0 32.8905876282169,34.84538222712523,0 32.89005675686379,34.84530484298347,0 32.88979417590433,34.84530392565803,0 32.88962281163715,34.84537885658511,0 32.88938333867111,34.8456348204253,0 32.88918736105672,34.84574491105375,0 32.88886982389267,34.84574379922168,0 32.88860703857299,34.8457831613568,0 32.88849054990521,34.84587338625353,0 32.88839783617356,34.84608958259289,0 32.88818954086953,34.84621976895217,0 32.88787200299573,34.84621865451282,0 32.88772497750704,34.84630877479159,0 32.88727166428082,34.84658412265404,0 32.88685524862195,34.84680924909552,0 32.88662938518613,34.84679334633267,0 32.88642768779208,34.84682788382743,0 32.88623170451698,34.84693796875865,0 32.88580894087452,34.84720838172852,0 32.88543745429632,34.84757045228866,0 32.8852824673419,34.84772151002996,0 32.88480893073355,34.84792404287867,0 32.88447830312719,34.84799094231159,0 32.88386613598882,34.84838584346083,0 32.88382957484924,34.84835924281587,0 32.88390901785027,34.84807968438546,0 32.88381353996729,34.84791673635986,0 32.88356614548915,34.84785535172303,0 32.8833365923624,34.8478923535276,0 32.88248895804886,34.84770026066195,0 32.88215415414993,34.84768772388473,0 32.88198595227473,34.84755821083161,0 32.88187242935908,34.84747079970002,0 32.88175691498039,34.84743420036343,0 32.88156157243101,34.8474038955591,0 32.88136614190542,34.8473900391143,0 32.88096801136776,34.84722741526583,0 32.88068902030968,34.84717049028127,0 32.88044847690986,34.84707027515687,0 32.88002843316519,34.84684243291353,0 32.87978569998745,34.84671983851977,0 32.8797389492205,34.84650582950583,0 32.87990818078626,34.84619060543654,0 32.87992479783173,34.84606565109378,0 32.87986975589357,34.8459108303571,0 32.87987050052558,34.84576936830567,0 32.87979552606451,34.8456111861639,0 32.87953786024865,34.84529443564711,0 32.87924725457264,34.84517167013443,0 32.87908118254119,34.8448881459431,0 32.87902976605525,34.84480242277417,0 32.87893052708161,34.8447066612157,0 32.87876766673367,34.84457119219244,0 32.87858474985914,34.84445538970624,0 32.8783339764361,34.84434592389292,0 32.87788396571482,34.84418968425749,0 32.87748576966268,34.84404349674912,0 32.87734313711333,34.84385546186681,0 32.87730423318419,34.84366779922103,0 32.87725738689001,34.84347352722016,0 32.8769437425731,34.843182890035,0 32.87687407471557,34.84277798435534,0 32.87676815553108,34.84243874502646,0 32.87672559426412,34.84218856103529,0 32.87668702409724,34.84193838917842,0 32.87665228819557,34.8417178437635,0 32.87668976250237,34.84142188946782,0 32.87675934481935,34.8410898627685,0 32.87668016850408,34.84097443376269,0 32.87637726441495,34.84091741331105,0 32.87609430813119,34.84086046471045,0 32.87589138908088,34.84075774573823,0 32.87581359195695,34.84038241842848,0 32.87575082847601,34.84018151014157,0 32.87577192740294,34.83996445416039,0 32.87556143307941,34.83978604105401,0 32.87536308170957,34.83957477131043,0 32.87474297788516,34.83915142226634,0 32.87428171939322,34.83886682432606,0 32.87394502566782,34.83841489116945,0 32.87373116500572,34.83812131637234,0 32.87356876238916,34.8379035950225,0 32.87337780093878,34.83780420519329,0 32.87329601136553,34.83743215323397,0 32.87308874516339,34.83739850053324,0 32.87307352611284,34.83726027051288,0 32.87290696110987,34.83707543246522,0 32.87287998546833,34.83689768041202,0 32.87285273111878,34.8367725665156,0 32.87277410722628,34.83655514614658,0 32.87268759024136,34.83632125154419,0 32.8725409196611,34.83614635336293,0 32.87239395567033,34.83602738525934,0 32.87208759376784,34.835874932721,0 32.87191256124109,34.83578217937801,0 32.87209380306118,34.83546043283712,0 32.87153010758865,34.83494186826719,0 32.87163481460532,34.83475801682872,0 32.87184355465961,34.8345153271981,0 32.87198033391643,34.83430198307677,0 32.87194525819998,34.83414723087231,0 32.87180578034155,34.83412040369826,0 32.87176244571,34.83401825958079,0 32.87162333884682,34.83392234621407,0 32.87141221603327,34.83386564817101,0 32.87136436198324,34.83386218377979,0 32.8712575223538,34.83370058916289,0 32.87101874102798,34.83359444176173,0 32.87079953561087,34.83355745064149,0 32.87066817625831,34.83350433452842,0 32.87040530125193,34.8334277062944,0 32.87017006936316,34.83340381579645,0 32.87004337309016,34.83322570143772,0 32.86989652108852,34.8330869885899,0 32.87010062201666,34.83301007395681,0 32.87044001453426,34.8328821736824,0 32.87061338775729,34.832808339973,0 32.8708034424737,34.83272912042865,0 32.87097759303956,34.83247263659621,0 32.87086111751459,34.83219077315007,0 32.87069684862673,34.83217627368452,0 32.87063455577155,34.83200579242837,0 32.8706280731855,34.83194401622632,0 32.87061869070524,34.83184907251183,0 32.87057269792232,34.83183554417332,0 32.87044992898203,34.83185918479192,0 32.87027283610357,34.83187938692323,0 32.87003678535953,34.83189242057909,0 32.86991523690754,34.8317703656478,0 32.86986925825224,34.83170070723353,0 32.86980591366024,34.83155030787206,0 32.86969800525178,34.83141863980435,0 32.87006163111801,34.83119064850086,0 32.8699250457563,34.83105351513753,0 32.86975988128088,34.83088378245332,0 32.86976010545194,34.83084208781714,0 32.86978011384092,34.8307122919806,0 32.86981992075517,34.83068942597409,0 32.87031741103219,34.83064260221307,0 32.87054184541133,34.83043842339222,0 32.87041319840186,34.83006964825864,0 32.87040648455142,34.83000496098898,0 32.87042669645472,34.82990986755969,0 32.87046937838055,34.8298092613306,0 32.87050279983135,34.82977128536185,0 32.87074447195486,34.82973823279755,0 32.87094406596314,34.82970217294946,0 32.87124400147418,34.82960568737401,0 32.87124773232964,34.82960448698189,0 32.87207273912177,34.82927517595663,0 32.87222706348381,34.82924119652023,0 32.87234997034999,34.82912745584868,0 32.87254160636181,34.82894129766066,0 32.8728698344756,34.82877194983786,0 32.8729004469164,34.8287646458013,0 32.87316305084762,34.82875966800493,0 32.87317764134105,34.82872227923797,0 32.87322391194565,34.82847664102638,0 32.87351600373974,34.82833830252023,0 32.87366166129425,34.82785818955256,0 32.87364045601299,34.82759726633384,0 32.87376622314346,34.82728333249999,0 32.87373577028839,34.82726097731766,0 32.87353624058353,34.8272424570565,0 32.87348968825201,34.82720373091685,0 32.87304555327596,34.82685213700695,0 32.87287504607822,34.82678774936507,0 32.87274251102789,34.8266849416172,0 32.87277569098085,34.82653379903964,0 32.8728878963487,34.8264022230473,0 32.8729642122786,34.82625568592292,0 32.87297842880002,34.82620745409573,0 32.87288002985482,34.82619161195092,0 32.87265730582281,34.82647553326493,0 32.87252090599421,34.82642313318541,0 32.87256284847096,34.82631502799917,0 32.87269558837801,34.82604264327438,0 32.87272278694686,34.82600121840968,0 32.87277156574917,34.82595987380108,0 32.87284733503758,34.82591566011378,0 32.87291583931741,34.82588476497212,0 32.87295363817471,34.82587897204782,0 32.87300219344833,34.82587914804422,0 32.87338160556703,34.82588942433234,0 32.87340536410581,34.82581832800854,0 32.87341980652676,34.82580799886065,0 32.87352802789946,34.8257490725364,0 32.87388728728048,34.82549085550646,0 32.8738963822731,34.82547160899169,0 32.87389289502522,34.82545083589501,0 32.87385392390957,34.82533947142942,0 32.87405898724668,34.82533131658727,0 32.87409140428137,34.82532253663157,0 32.87441433143152,34.82513240324189,0 32.87448462724289,34.82508062869857,0 32.87465134921172,34.82495783334149,0 32.87513113565471,34.82459816004986,0 32.87519668260567,34.82457489679128,0 32.87547163856453,34.82448371887462,0 32.87564272558561,34.82443836416275,0 32.87584434497498,34.82440053505471,0 32.87584189786322,34.82438420092623,0 32.87584274484835,34.82422481130562,0 32.87584903454442,34.82419441891162,0 32.87608097600434,34.8242041539866,0 32.87623011132047,34.82422841877161,0 32.87631639985766,34.82423466254814,0 32.87656464398673,34.82422221137674,0 32.87669055822862,34.824216732018,0 32.87673548647678,34.8242228262979,0 32.87691669530147,34.82430356002736,0 32.87702074821846,34.82435138999627,0 32.87707281252214,34.82436788962969,0 32.87715720336172,34.82439340396657,0 32.87719309239905,34.82440836285773,0 32.8773231055576,34.82451759873097,0 32.87733329966274,34.82442073161502,0 32.87734618726921,34.82436442450303,0 32.87736796133513,34.82436696421162,0 32.87746475989694,34.82438709564236,0 32.87758513957299,34.82440829100216,0 32.87813597602653,34.82449895868196,0 32.87847272542763,34.82456274251377,0 32.87850149936619,34.82456284607257,0 32.87853753612382,34.82454962798553,0 32.87872870122452,34.82444798870279,0 32.87889456298782,34.82436998618437,0 32.87910934246901,34.82420860794613,0 32.87910956546007,34.82418093534918,0 32.87893485339239,34.82389112912512,0 32.87884926766409,34.82375142230312,0 32.87877276059749,34.82359543519861,0 32.87868081977989,34.82329702822798,0 32.87862933438655,34.82317078960018,0 32.87858854228374,34.82306238606213,0 32.87856002871263,34.82301334647246,0 32.87820065878685,34.82261610153345,0 32.87815237861064,34.82256402398843,0 32.87834151721421,34.82238215025996,0 32.87836930186415,34.82235125457067,0 32.87814470231119,34.82231485719795,0 32.87807825906607,34.82229682285819,0 32.87787675789505,34.82219132376072,0 32.87767475374419,34.82208478985506,0 32.87762458084247,34.82205050128533,0 32.87755476151573,34.82199093058392,0 32.877354584031,34.82175738404381,0 32.87717568888924,34.82158026622528,0 32.87726049850209,34.82152570117199,0 32.87729117795249,34.82150504916056,0 32.87730923955469,34.82149028533505,0 32.87731653623381,34.82147103313133,0 32.87732026504734,34.82144583584731,0 32.87732965658826,34.82137023767701,0 32.877322674142,34.82133017182997,0 32.87729485701798,34.82130553679281,0 32.8771168470181,34.82114554198376,0 32.877014927101,34.82103543548624,0 32.87696849277236,34.82097446558112,0 32.87695069091659,34.82094029329254,0 32.87690647236811,34.82080073414512,0 32.87684646957872,34.82058548644947,0 32.87679834160696,34.82050523175881,0 32.87677153933365,34.82047251068303,0 32.87677161825985,34.82045768094334,0 32.87677170486124,34.82044136741811,0 32.87677720123997,34.82042210981427,0 32.87684085637149,34.82028738795992,0 32.87684632970765,34.82027257810326,0 32.87684639985456,34.82025923124598,0 32.87684466418818,34.82024736094548,0 32.87676160286822,34.82016362190836,0 32.87664965924921,34.8200568376113,0 32.87660320957981,34.81998544493045,0 32.87657871997525,34.81990986561995,0 32.87653617436904,34.81975390154804,0 32.87630066533434,34.81977129568557,0 32.87638309553443,34.81952472629273,0 32.87644214933903,34.81951183688761,0 32.87678456835472,34.81971030752124,0 32.87690154972181,34.81969293321364,0 32.87693929726611,34.81969603453904,0 32.87699680121782,34.81970365678728,0 32.87703676114037,34.81971929774272,0 32.87707753406499,34.8197395387252,0 32.87713469994227,34.81947132552096,0 32.87739827101394,34.81961760622799,0 32.87750050487678,34.81966839526121,0 32.87759200479807,34.81970876431918,0 32.87772123381464,34.81975520105788,0 32.87774997436328,34.81976123542572,0 32.87776975488735,34.81976130668156,0 32.87780400137647,34.81974660140434,0 32.8778310925194,34.81972445373951,0 32.87788129656784,34.81967526401003,0 32.87789171235291,34.81964953884985,0 32.87788916951465,34.81962381961448,0 32.87782861496076,34.81951237875892,0 32.87778922682598,34.81947961190991,0 32.87764216357163,34.81940493368005,0 32.87731192987078,34.8192821421947,0 32.87755294026086,34.81927411143192,0 32.87775435041942,34.81927335300761,0 32.87778668157232,34.81928088378267,0 32.87780460152718,34.8192928117936,0 32.87790126703315,34.81937620590625,0 32.87794066281607,34.81940748983512,0 32.87796752751884,34.81942834848657,0 32.87801780063207,34.81944335852997,0 32.87809864295709,34.8194584785112,0 32.87812377953188,34.81946598395916,0 32.87814889316412,34.81947793805518,0 32.87818652265087,34.81950328405961,0 32.87820981304844,34.81951968048657,0 32.87823315698932,34.8195256958167,0 32.8782457700861,34.8195212922151,0 32.87825302376424,34.81950945436593,0 32.87827544243076,34.81935085602032,0 32.87830057883423,34.81909609865869,0 32.87835329310585,34.81908181013807,0 32.87864709248103,34.81892157074768,0 32.87871566528214,34.81890710767841,0 32.87888610770751,34.81890397092295,0 32.87897181761667,34.81891280211802,0 32.8791816619508,34.81892120308571,0 32.87946475599541,34.8189378686947,0 32.87955165399449,34.81895433958166,0 32.87971686319577,34.8189155890389,0 32.87971813619445,34.81889408520456,0 32.8797111699476,34.81879935801066,0 32.87973120648842,34.81853963458048,0 32.87974377313523,34.81837673347148,0 32.87994541020905,34.8183649711948,0 32.87995178850362,34.81828948519378,0 32.88026922774491,34.81820374334148,0 32.88039964347676,34.81809934256067,0 32.87997953252734,34.81780891567877,0 32.88009603113859,34.81770824162209,0 32.8802356843136,34.81721753179065,0 32.8806671541251,34.81688737611082,0 32.88096006563243,34.81693310986111,0 32.88132134573529,34.81686165651249,0 32.88155635746268,34.81684001712123,0 32.88177759367225,34.81688009009349,0 32.88231450509397,34.81734349847986,0 32.88251144123554,34.81741879077771,0 32.88258802697689,34.81708577274578,0 32.88259742534328,34.81696617141339,0 32.88259642740571,34.81672036721971,0 32.88260638528682,34.81662162247361,0 32.88263980428865,34.8165607226886,0 32.88315306928241,34.8163543301149,0 32.88319230788545,34.81630143707519,0 32.88306190188526,34.81593621184285,0 32.88304694578137,34.81574515396592,0 32.88299364442565,34.8154840486288,0 32.88310748158366,34.81538922944159,0 32.88362650186767,34.81539726941372,0 32.88429146202576,34.81546180499519,0 32.8845369512313,34.81531011150231,0 32.88486012741802,34.81533559357252,0 32.88504277599624,34.8153087424558,0 32.88513098127343,34.81529097965515,0 32.88513145635467,34.81535819978897,0 32.8854072813077,34.81550538348149,0 32.88566279751718,34.81555759001706,0 32.88566978675788,34.81546476116032,0 32.88586398240002,34.8153870424507,0 32.88581462331793,34.81527198402312,0 32.88598598843236,34.81512742965588,0 32.88577169608939,34.81503157439294,0 32.88598523081988,34.81483872268604,0 32.88624824026975,34.81481774589129,0 32.88656475773013,34.81511813932465,0 32.88680122371985,34.81473587852521,0 32.88727259628367,34.81495578705783,0 32.88727810129951,34.81490003536722,0 32.88776574837019,34.81499557881875,0 32.88810423014198,34.81522715340701,0 32.88837529295559,34.81555849953952,0 32.88845467194606,34.81574720806935,0 32.88851582346604,34.81572755560647,0 32.88840134738279,34.81548498365272,0 32.88846614271041,34.81544439015328,0 32.88845305123007,34.81500983452163,0 32.88850127805206,34.81466576001122,0 32.88890969193346,34.81447519187731,0 32.88897392503104,34.81446590962662,0 32.88894501942576,34.81417308884799,0 32.889102094286,34.81391517526326,0 32.88887102872341,34.81381962656162,0 32.88909654043193,34.81355235704798,0 32.88900789290162,34.81348787085445,0 32.88920918016883,34.81331031347386,0 32.88949115473257,34.81321363280094,0 32.88963412262869,34.81305684264096,0 32.88978781469081,34.81303783683692,0 32.88974484322209,34.81295165304203,0 32.88983391088433,34.8128236675696,0 32.88935114785156,34.81280337768976,0 32.88934731874851,34.81276518766094,0 32.88971693527859,34.81269591193474,0 32.88968806206915,34.81266512179816,0 32.88958456977845,34.8125695953671,0 32.88957637697408,34.81247350090916,0 32.88953103982331,34.81240358795613,0 32.88964053566436,34.81225320015975,0 32.88964617152975,34.81220208463907,0 32.88973565984026,34.81219351088973,0 32.89010444784118,34.8120941083904,0 32.89014343026108,34.81213630826431,0 32.89051901464635,34.81208084667698,0 32.89071356915228,34.81207038078681,0 32.89064388635968,34.81192902045739,0 32.89085248307142,34.81186728947457,0 32.89105585440853,34.81192391635565,0 32.89119683109379,34.81184948671902,0 32.89122206862073,34.8116936593552,0 32.89128075543059,34.81163462951119,0 32.89128357987885,34.81137486231224,0 32.89148277020525,34.81143272424936,0 32.89170522502592,34.81152147330432,0 32.89177368331072,34.8114611033389,0 32.89185952599642,34.81149983497043,0 32.89219790980106,34.81123548500994,0 32.89227874827257,34.81090590421728,0 32.89228204822538,34.81082003898635,0 32.89229553173941,34.8102794813303,0 32.89228139687766,34.81017074424865,0 32.8925700020296,34.80980148096486,0 32.89233683103144,34.80983465849923,0 32.89231437218677,34.80957301452951,0 32.89236144258307,34.80949912147553,0 32.89215052999506,34.80884894901183,0 32.89208126010254,34.80882700385669,0 32.89208711227548,34.80821119655203,0 32.89222359554276,34.80812641567823,0 32.89235795669354,34.80806719085346,0 32.89250582673914,34.80793698454595,0 32.8930529472525,34.80759089552184,0 32.89335114379378,34.80736987679617,0 32.89339710787009,34.80715106154956,0 32.89383062469928,34.80695892195861,0 32.89391558325618,34.80709537374996,0 32.89423807668075,34.80689247344509,0 32.89467345131896,34.80640578072276,0 32.89455524669285,34.80623165853113,0 32.89463157064986,34.80609925924189,0 32.89460762625239,34.80593851515327,0 32.89501508742077,34.80488299594921,0 32.89520029641281,34.80494345401228,0 32.89510208762618,34.80478287227827,0 32.89498170790081,34.80468414730723,0 32.89465592111487,34.8047641909135,0 32.89461883138031,34.80458396395085,0 32.89404725997511,34.80495713670742,0 32.8939719244105,34.80486571839423,0 32.89382729766398,34.80490774079981,0 32.89364014382063,34.80493195816492,0 32.89339159931062,34.80496655493442,0 32.89310355338748,34.80499141683263,0 32.8931075329764,34.80493104888674,0 32.8931808630123,34.80458302215634,0 32.89316815775253,34.804423225127,0 32.89313240449692,34.80424064066727,0 32.89322729615682,34.80422503320668,0 32.8931841962815,34.80408579966868,0 32.89318990094296,34.804081726486,0 32.8933174719019,34.80399064072469,0 32.89359520286962,34.80386800722381,0 32.89437546378031,34.8034135766209,0 32.89418356017131,34.80320804995408,0 32.89273889135416,34.80313362840945,0 32.89266931948833,34.80309106068069,0 32.8925122734103,34.80289411783603,0 32.89245492214464,34.80287021552296,0 32.89210218937724,34.8028080390249,0 32.89208592463584,34.80277750758686,0 32.892082502341,34.8026437427868,0 32.89178522604582,34.8025749852197,0 32.89181669818896,34.80244134157718,0 32.89287431322217,34.80274130389515,0 32.89290525775647,34.80271093580995,0 32.89276538129261,34.80236675541235,0 32.89300653302613,34.80217119466976,0 32.89357564539426,34.80206480974221,0 32.89396420786913,34.80194256069051,0 32.89406096197041,34.80188702325766,0 32.89419101288953,34.80174186841263,0 32.89427390675014,34.80158639134943,0 32.89428941979609,34.80136126593883,0 32.89373059247499,34.8014643034731,0 32.89371764861253,34.80158785307635,0 32.89332405973203,34.80148829075043,0 32.89289432738098,34.80123114590203,0 32.89243977022348,34.80101285382697,0 32.89217721865437,34.80097808036798,0 32.89211782521887,34.80095247773548,0 32.8915621074778,34.80044769973718,0 32.89145430208793,34.80025600703108,0 32.89232139803089,34.80007616855631,0 32.89252701218394,34.80000577341752,0 32.89181688404824,34.79919232006861,0 32.89209706639603,34.79898843108478,0 32.89289142165582,34.7989827234089,0 32.89278800621121,34.79873517509021,0 32.89313722072598,34.79867882201698,0 32.89335114365984,34.79858813734867,0 32.89336966868697,34.79817508954972,0 32.89302236152897,34.7978572797136,0 32.89275878672839,34.79762271926997,0 32.89244980854531,34.79743710063488,0 32.89241725464901,34.79738111658774,0 32.89238932417216,34.79722356308068,0 32.89237996045735,34.79704744964494,0 32.89239096607497,34.79690188298019,0 32.89236252569282,34.79684421952917,0 32.89191913845111,34.79645327004464,0 32.89187846948892,34.79637863288656,0 32.89169583774759,34.79596996500393,0 32.89141419873183,34.79565745808536,0 32.89156683862721,34.79550899785951,0 32.89145911641747,34.79530206683803,0 32.89158228657361,34.79529741602009,0 32.8916379014078,34.7952586686037,0 32.89174535208744,34.79511682336519,0 32.89192994484285,34.79473990755071,0 32.89220815038401,34.79411612805337,0 32.89222911678851,34.794029853644,0 32.89218287147876,34.79384176131552,0 32.89192260560733,34.79296214631373,0 32.89181480754741,34.79236919298233,0 32.89174404916253,34.79215900373447,0 32.89170418821454,34.79192691395818,0 32.89162111663404,34.79171668211688,0 32.89142943885982,34.79147390358347,0 32.89141532413915,34.79142475609742,0 32.89141216224724,34.79124019858392,0 32.89132775976086,34.79088943696215,0 32.8912094645178,34.79034385148752,0 32.89106746934434,34.79001828529865,0 32.89094359034074,34.78976219796316,0 32.89085588157092,34.78965692091793,0 32.89065450080042,34.78956753181902,0 32.89054366047728,34.78951833154116,0 32.89050589101463,34.78945750229184,0 32.89042936422253,34.78919475285004,0 32.89045116396384,34.78906542305114,0 32.89069995115275,34.78849360255789,0 32.8905911793539,34.78844458085935,0 32.88999291276443,34.78839752274978,0 32.88925429865526,34.78838484644147,0 32.88937930010072,34.78765657316563,0 32.8895215371159,34.7868209812838,0 32.88951882170502,34.78669982541575,0 32.88862052410523,34.78572659821283,0 32.88839266392555,34.78547433066823,0 32.88852838899536,34.78525637669907,0 32.88866138119865,34.78492093827679,0 32.88877157138827,34.7849093930602,0 32.88881734648022,34.78466083761165,0 32.88908397955817,34.78429557960838,0 32.88927824810189,34.78415767630968,0 32.88964588470827,34.78405250062534,0 32.89012929298526,34.7839312075148,0 32.89040961012272,34.78393310356607,0 32.89045421798902,34.78391123194042,0 32.89061527027813,34.78330790003889,0 32.89083105923498,34.78309389431513,0 32.89094805139079,34.78305667333979,0 32.89100591959152,34.78305228547883,0 32.89110568567099,34.78312054855807,0 32.89122127334361,34.78314022349539,0 32.89150824016905,34.7831467294156,0 32.89169012394485,34.783036312028,0 32.89120879442732,34.78253536982077,0 32.89132800576016,34.78228156121963,0 32.89153257102517,34.78186835852068,0 32.89130019084573,34.78162984670788,0 32.89186593478275,34.78150149138511,0 32.89218558790598,34.78142275563927,0 32.89226588747287,34.78138173548282,0 32.89267818173622,34.78102339972553,0 32.89307700080736,34.78068887810498,0 32.89330525575047,34.7806456162827,0 32.89392419482746,34.78055414696131,0 32.89406554223795,34.78053903356843,0 32.89407789804022,34.78051521422214,0 32.89402302232953,34.78036909837073,0 32.89354807602522,34.78014443584372,0 32.89351973112203,34.77959367476217,0 32.89344281865754,34.77918775382309,0 32.89341402808945,34.77894352572293,0 32.89342312397888,34.77890501158191,0 32.89433827638555,34.7787457316156,0 32.8949708455795,34.77837621870305,0 32.8952930883619,34.77822222666409,0 32.89554953042358,34.7781028817533,0 32.89582799773219,34.77779118708015,0 32.89608880572077,34.77749925652796,0 32.8961580944194,34.77709986313084,0 32.89658303364139,34.77687375811102,0 32.89716201893638,34.77678138731537,0 32.89762069746028,34.77653319522372,0 32.89801816937572,34.7764179994324,0 32.89835676866416,34.77596957148476,0 32.89869455574221,34.77568210673865,0 32.89947755486764,34.77514639014836,0 32.89948035246472,34.77509259416946,0 32.8995030563678,34.77465601732186,0 32.89992649461589,34.77455847196899,0 32.90043932110481,34.7744763285225,0 32.90039852624719,34.77409532777816,0 32.9003660823889,34.77326470300692,0 32.90031860642626,34.77299944702745,0 32.9003516275981,34.77290224695208,0 32.90071100281079,34.77260146601085,0 32.90115694065069,34.77206776168238,0 32.90138608728915,34.77178499047473,0 32.90171199193247,34.77167032849798,0 32.90186494353517,34.77158024623565,0 32.90187840529914,34.77132694278997,0 32.9019124919546,34.77101498612592,0 32.90239646823559,34.771414268226,0 32.90301981306035,34.771592549,0 32.90322286106669,34.77165028151224,0 32.90386912021621,34.77171957863363,0 32.90407639971507,34.77174376787753,0 32.90407073250617,34.77165650283906,0 32.90402932994395,34.77139462447845,0 32.90432795005896,34.77145099983062,0 32.90459672023452,34.77137640565834,0 32.90483467189571,34.7713654624454,0 32.90504409404392,34.77136784536211,0 32.90528939898063,34.77151464113412,0 32.90534594173585,34.77159368829614,0 32.905312413745,34.77179491260893,0 32.90516040890425,34.77251753560707,0 32.90505378608599,34.77269670178782,0 32.90491021691942,34.7733572743477,0 32.90464279229254,34.77398051756567,0 32.90476061177554,34.77400440476244,0 32.9057031678644,34.77460655458956,0 32.90569681045849,34.77465854594112,0 32.90528766122316,34.77474609282887,0 32.90501619001518,34.77511136518546,0 32.90500181998381,34.77513070022778,0 32.9048310962614,34.77534771081172,0 32.90468920252138,34.77547489240467,0 32.9043633494581,34.77607323935596,0 32.90388434400641,34.77635469393017,0 32.90374233827307,34.7765040754839,0 32.90392393476095,34.77651024159491,0 32.90477516170707,34.77713476001716,0 32.90500247631564,34.77741859484222,0 32.90520408913797,34.77745812870757,0 32.90537851994365,34.77755307553642,0 32.90555943414616,34.77769799060015,0 32.90576706430981,34.77788185294751,0 32.90579361289365,34.77795409851914,0 32.90582472718303,34.77846484417507,0 32.90585059613423,34.77867584380588,0 32.90587692526518,34.77879249512383,0 32.90598444629284,34.77881505522513,0 32.90603189232922,34.77874305885554,0 32.90604570528536,34.77867094997322,0 32.90602716543513,34.77833786132427,0 32.90609575237089,34.77807167237849,0 32.90621828585136,34.77777791591787,0 32.90619190138218,34.77767236790232,0 32.90597188452538,34.77727199649812,0 32.90590546725404,34.77709970848964,0 32.90591273949138,34.77698872626416,0 32.90599343261519,34.77699454713387,0 32.90606712858173,34.77705584926291,0 32.90618011381501,34.77733375306175,0 32.90625364582167,34.77742835400484,0 32.90626772871342,34.77730074415687,0 32.90635053186042,34.77687918838691,0 32.90651364308093,34.77654116048581,0 32.90656270090709,34.7761416950399,0 32.90664550138258,34.77572013898467,0 32.90665955527508,34.77559807842621,0 32.9063719486716,34.77526408713652,0 32.90638160440823,34.77511595657159,0 32.90638382238068,34.77508193623637,0 32.90660922590189,34.77477737856076,0 32.90675723097105,34.77445238096252,0 32.90688621674268,34.77427328814024,0 32.90714354511253,34.77404596850393,0 32.90729302075484,34.77383506477539,0 32.90732880114205,34.77358854687339,0 32.90736463080049,34.77333196327132,0 32.90752449212498,34.77307579304155,0 32.9077108122468,34.77281467920407,0 32.90789534522185,34.7725032234068,0 32.90789986568419,34.77241095954415,0 32.90784713785923,34.77238226038176,0 32.90777778256028,34.7724273296157,0 32.90766280277444,34.77265344888291,0 32.90751935800807,34.77287947339465,0 32.90736792635179,34.77307526925873,0 32.90726980660453,34.77318064300143,0 32.90717002210574,34.77321050899406,0 32.90711732885848,34.77317509816596,0 32.9071971256411,34.77307469746451,0 32.90752659610654,34.77264795926872,0 32.90759304728653,34.77236631024062,0 32.90759630838485,34.77211632753508,0 32.90746632138401,34.77167295043054,0 32.90748507696006,34.77158073434959,0 32.90776174671249,34.77113871876748,0 32.9077396292974,34.77108831030339,0 32.90758923896127,34.77107270733011,0 32.90759607681186,34.77050898616188,0 32.90764960079481,34.77037494065097,0 32.90796969097246,34.76978542238781,0 32.9081241382029,34.76938829814709,0 32.908180014057,34.76918882604564,0 32.90821662922281,34.76877117297597,0 32.90822203793083,34.76849770773592,0 32.90805677150188,34.76820018350178,0 32.90806245292611,34.7678713524493,0 32.90811027068287,34.76765675221669,0 32.90832268702348,34.76746115803517,0 32.90876499391818,34.76723780866108,0 32.90931166336109,34.76687722381563,0 32.90957017080069,34.76681768429868,0 32.90981212252309,34.76681849027907,0 32.90993161043617,34.76691452316392,0 32.91011322153908,34.7671462213972,0 32.91016311692738,34.7671522664692,0 32.91019412719247,34.76713081471294,0 32.91020319107717,34.76709327279107,0 32.91015503152288,34.76696224397805,0 32.90998568804006,34.76666638698048,0 32.90982737027309,34.76661049185004,0 32.90964671339673,34.7665494893799,0 32.90965709055367,34.76650590146049,0 32.90972632581439,34.76648432042245,0 32.90977509872228,34.76648951564398,0 32.91009611873579,34.76653588454393,0 32.91019752233704,34.76658823427795,0 32.91034509238055,34.76676321680559,0 32.91050217491919,34.76707245550953,0 32.91052029288038,34.76710942697584,0 32.91058120026458,34.76712808601721,0 32.91061583785578,34.76711310030165,0 32.91063046953856,34.76703093734879,0 32.91064839683601,34.76669040149084,0 32.91069395398235,34.7665210934139,0 32.91075470720653,34.76615385514764,0 32.91080095908167,34.76584193616759,0 32.91091578711798,34.76564265730751,0 32.91134230911872,34.76531689972899,0 32.9114291799864,34.76501350361582,0 32.91142743375229,34.76495477476307,0 32.91140351835935,34.76485570465412,0 32.91122185938667,34.76458329636897,0 32.91122439072935,34.7644809587668,0 32.91131406961227,34.76443595549512,0 32.91155049908572,34.76473371201231,0 32.91170808125178,34.76494060387636,0 32.91177105972234,34.76495087932648,0 32.91178350290536,34.7649005867302,0 32.91174139293788,34.76477964483721,0 32.91155545577264,34.76455084670715,0 32.91153368786033,34.76442829417336,0 32.91156428957476,34.76440658394226,0 32.91172004856402,34.76456984819294,0 32.91193798595115,34.76490780929715,0 32.91201106550152,34.76493154084886,0 32.91206033506872,34.76483439066314,0 32.91207972591081,34.76460962856815,0 32.91198985765932,34.76427544642198,0 32.91197389647517,34.76421331418823,0 32.91239685378647,34.7637818393214,0 32.91249113333647,34.7636261136164,0 32.91258620345465,34.76330764371244,0 32.91270328731648,34.76306139307265,0 32.91275080454979,34.76290551281532,0 32.91273482761017,34.76242728519676,0 32.91282500604857,34.76227825683196,0 32.91305627330917,34.76196359254152,0 32.91306029802156,34.76155254177793,0 32.91311367765101,34.76144533822301,0 32.91332980001173,34.76131853739593,0 32.91345806049303,34.76128204815144,0 32.91337501251343,34.76121801766634,0 32.91302810264538,34.7610641916981,0 32.91281561803672,34.76086047492965,0 32.91266783405191,34.76073079540679,0 32.91262547071935,34.76063131198629,0 32.91257048360278,34.76050387412526,0 32.91217567015199,34.76046904592619,0 32.91205389617284,34.76042552012498,0 32.91176338519951,34.76044374487458,0 32.91136344363707,34.76026512873808,0 32.91096754162528,34.76046032581536,0 32.91077025923995,34.76041655238613,0 32.91046227712989,34.76044430231408,0 32.90983118577034,34.76001572629671,0 32.90953561722581,34.75987578295543,0 32.90881050635264,34.75967692555555,0 32.90812731285987,34.75921462386374,0 32.90768192495452,34.75882498371036,0 32.9070237206427,34.75799854130477,0 32.90706150387518,34.75738524855759,0 32.90691145449851,34.75718347741822,0 32.90626715824617,34.75709509406465,0 32.90602388069551,34.75695531490112,0 32.90577553205283,34.7566621634947,0 32.90566153098654,34.75621130907622,0 32.90545928198448,34.755994986601,0 32.90573903697061,34.75579463227201,0 32.90575701277558,34.75567967618441,0 32.90644838048529,34.7544263657152,0 32.90659362242381,34.7535843311931,0 32.90663040892119,34.75358779308164,0 32.90664269729757,34.75358895006698,0 32.90674012607762,34.75358080517006,0 32.90695397562546,34.7535407003498,0 32.90704671273182,34.75351447996899,0 32.90710554744677,34.7534978450718,0 32.90718704004811,34.75348334135104,0 32.90736486827281,34.75346817169653,0 32.90739720543753,34.75346541256981,0 32.90756584615885,34.75343916745668,0 32.90768915029408,34.7534458840472,0 32.90792706607478,34.75345893076533,0 32.90799965921339,34.75346893419034,0 32.90824641638753,34.75350293969751,0 32.90832792075948,34.7534795864489,0 32.90832823427028,34.75347954702048,0 32.9086171231917,34.75327437453311,0 32.9086172040783,34.75327431780156,0 32.90861728278145,34.75327426016692,0 32.90907842669475,34.75294159361066,0 32.90914468748538,34.75290515990164,0 32.90914410598781,34.75289060352297,0 32.90917734171937,34.75261354070452,0 32.90916360987106,34.75254127268213,0 32.90918149852487,34.75247300099713,0 32.9092543456854,34.75234299381954,0 32.90935941461391,34.75220416811817,0 32.90944540640209,34.7521317408286,0 32.90933949996118,34.75206571449457,0 32.90897691380256,34.75184800897915,0 32.9088172928742,34.75174904127712,0 32.90907417007494,34.75129962700052,0 32.9091306503439,34.75113132695514,0 32.90927600769837,34.75090556435484,0 32.90929995494469,34.75087162852702,0 32.90933524228035,34.75071881417466,0 32.9094310589602,34.75053529768177,0 32.90954846681391,34.7503104253239,0 32.90980970083142,34.74982800999202,0 32.90984664151127,34.74974245047206,0 32.91003064446249,34.74955363861784,0 32.91068774918944,34.74905310524121,0 32.91070357276244,34.7490426517385,0 32.91106806249208,34.74880185951498,0 32.91114990353643,34.74866609822772,0 32.91113057221224,34.74833077429274,0 32.91112068079335,34.74819906212855,0 32.91106686312384,34.74804192001379,0 32.91103761869709,34.74771186055865,0 32.91099365591363,34.74763106166689,0 32.91096826243234,34.74750796065891,0 32.91083073482268,34.74720481088276,0 32.91082565598731,34.74716249869729,0 32.9107807673504,34.74705244830013,0 32.91076379662465,34.74701084045747,0 32.91074112011748,34.7468976043121,0 32.91073222187436,34.74672764814959,0 32.91074346783991,34.74663803722108,0 32.91074734868224,34.74660710988961,0 32.91078437833917,34.74648937590475,0 32.91083030092499,34.74640024019371,0 32.91094903641753,34.74616977100006,0 32.91102978357542,34.74601303543938,0 32.91115229643759,34.74571140440635,0 32.91126312040977,34.74543854760931,0 32.91135132748354,34.74529825096676,0 32.91138100776408,34.74519605088668,0 32.91139008271912,34.74516480548338,0 32.91139011560369,34.74516469192263,0 32.91151350600299,34.7449184886318,0 32.91156146852217,34.74482278963062,0 32.91159412419383,34.74477404855964,0 32.9116756544382,34.74470821058116,0 32.9117750864016,34.74462791699399,0 32.91197279002989,34.74450533542585,0 32.91208383300734,34.74446390494673,0 32.91213879062315,34.74444244825754,0 32.91228195648807,34.74438655331291,0 32.91320647621216,34.74409339647474,0 32.91314280075553,34.74403464402777,0 32.91305621462687,34.74395475475347,0 32.91324552060325,34.74369355122853,0 32.91308859901451,34.74354448745591,0 32.91312376191104,34.7435248614913,0 32.91377030537578,34.74316400266053,0 32.91416201427177,34.74303202441128,0 32.91438611055374,34.74275699977294,0 32.91438966254285,34.7427247108598,0 32.91440273498912,34.74260587348678,0 32.91459238289853,34.74225361547521,0 32.91459255226058,34.74225352725029,0 32.91466130474836,34.74221745280089,0 32.91468096516024,34.74218043254972,0 32.91497919551629,34.74161887091278,0 32.91510499412385,34.74145722843773,0 32.91526535253739,34.7413534668739,0 32.91551309286078,34.74112303853574,0 32.91570052486252,34.74086505971592,0 32.91590508718119,34.74081245454146,0 32.91642290965988,34.74035795726022,0 32.9166039813968,34.74046405775307,0 32.9166567953878,34.74040502172221,0 32.91671832328919,34.74036939098658,0 32.91685464080108,34.74029044896801,0 32.91692415129497,34.7402516414008,0 32.91694574219304,34.74023958639378,0 32.91719259861971,34.7400978988405,0 32.91740208819918,34.74018184049697,0 32.91742345646882,34.74019040178846,0 32.91745683245748,34.74020377603005,0 32.91760449623246,34.74019103282509,0 32.91764097966594,34.74022146486082,0 32.91768815505126,34.74019934682366,0 32.91787172134788,34.74011328425399,0 32.91801719334686,34.74004508176356,0 32.91806314820747,34.74004118049186,0 32.91810250997999,34.74000782206171,0 32.91814084304397,34.73994786335983,0 32.91816455608581,34.73988097065979,0 32.91819538043726,34.73983958070697,0 32.91828483381785,34.73980525251856,0 32.91834236288625,34.73972828153461,0 32.91836810073524,34.73964877593067,0 32.91837867759291,34.73961609945365,0 32.91840426009801,34.7395701255823,0 32.91841230624576,34.73955566694402,0 32.91848615674342,34.73942294931987,0 32.91848710030356,34.7394195712552,0 32.9185540338223,34.73917981514095,0 32.91855743516928,34.7391668002397,0 32.91855932033211,34.73915868830207,0 32.91856103516337,34.73915055010799,0 32.91856257747552,34.73914238926184,0 32.91856394726771,34.73913420666514,0 32.91856514344444,34.73912600592297,0 32.91856616600395,34.73911778883835,0 32.91856701385078,34.73910955901631,0 32.91856768916812,34.73910131735989,0 32.91856818976754,34.73909306837488,0 32.91856851455707,34.7390848120606,0 32.91856866571553,34.73907655382725,0 32.91856864324295,34.73906829367491,0 32.9185684449518,34.73906003520794,0 32.91856807193149,34.73905178113146,0 32.91856752527234,34.73904353324912,0 32.91856680387972,34.73903529426461,0 32.91856590775015,34.73902706778381,0 32.91856483906686,34.7390188547096,0 32.91856359673431,34.73901065864715,0 32.91856218074991,34.73900248230078,0 32.91856059220488,34.73899432657277,0 32.91855883109479,34.73898619597038,0 32.91855689960293,34.73897809139658,0 32.91855479554258,34.73897001555424,0 32.91855252218635,34.73896197205147,0 32.91855102872851,34.73895707428677,0 32.91855007844141,34.73895396178894,0 32.91854746648828,34.73894598837397,0 32.91854468523323,34.73893805360879,0 32.91854173794971,34.73893016019996,0 32.91853862354313,34.73892231085114,0 32.91853534310374,34.73891450736593,0 32.91852905679318,34.73890064942396,0 32.91852532084195,34.73889298626256,0 32.91852142321645,34.73888537888378,0 32.91851736500701,34.73887782909132,0 32.91851314839677,34.73887033778805,0 32.91850877338141,34.73886290948131,0 32.91850424214407,34.73885554507399,0 32.91849955577509,34.73884824636971,0 32.91849471645498,34.73884101697586,0 32.91848972418199,34.73883385869528,0 32.91848458223136,34.73882677243165,0 32.91847929059869,34.73881976269225,0 32.91847385256095,34.7388128285778,0 32.91846826702086,34.73880597549635,0 32.91846253943944,34.73879920255008,0 32.9184566676282,34.73879251424481,0 32.91845065704732,34.73878591058419,0 32.91844450660123,34.73877939517335,0 32.91843821956425,34.73877296981736,0 32.91843179811957,34.73876663541913,0 32.91842524335745,34.73876039378234,0 32.91841855745839,34.73875424851427,0 32.91841174260558,34.73874820051783,0 32.91840480098219,34.73874225069593,0 32.9183977347687,34.73873640265585,0 32.91839054614832,34.73873065730055,0 32.9183832373033,34.73872501643434,0 32.91837580932477,34.73871948095949,0 32.91836826657819,34.7387140535832,0 32.91836061015378,34.73870873610917,0 32.9183528422347,34.73870352944029,0 32.91834496500236,34.73869843628242,0 32.91831397336018,34.73868395958384,0 32.91829554688722,34.73867582050354,0 32.9182769508913,34.73866794814082,0 32.91825819192267,34.73866034430287,0 32.91823927434576,34.73865301259845,0 32.91822020471166,34.73864595393336,0 32.91821299111834,34.73864340785548,0 32.9182009884768,34.73863917191706,0 32.91818163219317,34.73863266655385,0 32.91816214131717,34.73862644145321,0 32.91814252239899,34.73862049842245,0 32.9181227798048,34.73861483926732,0 32.91810292117768,34.73860946489442,0 32.91808295197581,34.73860437711026,0 32.91806287765643,34.73859957862287,0 32.91804270586353,34.73859506943732,0 32.91802244096233,34.73859085226093,0 32.91801631584377,34.73858969966981,0 32.91801018745019,34.7385885461747,0 32.91798945157832,34.73858464418909,0 32.91796897516275,34.73858119491088,0 32.91794842856619,34.73857804216447,0 32.91793838113642,34.7385766489398,0 32.91792781834144,34.73857518505269,0 32.91790715103867,34.73857262538292,0 32.91790691191139,34.73857259907926,0 32.91820398928491,34.73848633388469,0 32.91892349179591,34.73848837990369,0 32.91906934986912,34.73839448459515,0 32.91982441705329,34.7374939022441,0 32.91993678638881,34.73740177414355,0 32.92058742217434,34.7373098808832,0 32.92086906850184,34.73726052768952,0 32.92120023224103,34.73702637454869,0 32.9213260147351,34.73699639104075,0 32.92178375064068,34.73695845463771,0 32.92170045775465,34.73775989431187,0 32.92183374775648,34.73934390899142,0 32.92198426193386,34.74004193431323,0 32.92225877186356,34.74058090544418,0 32.92237403514213,34.74072036097289,0 32.923469649116,34.74190783456942,0 32.92392246184652,34.74235240941729,0 32.92436542370284,34.74271517831414,0 32.92453510603397,34.74279138352712,0 32.92473472635935,34.74283696527846,0 32.92530595466022,34.74288993191494,0 32.92589819635985,34.74297723017288,0 32.92687309706396,34.74319535128393,0 32.92695784687527,34.74331238988109,0 32.92833790975054,34.74334201338159,0 32.92849210451892,34.74335374103728,0 32.92859122554881,34.7434337880685,0 32.92861177165296,34.7435320535862,0 32.92839711226829,34.74412363352612,0 32.92817650928161,34.74458339450084,0 32.92819126275273,34.7446954274447,0 32.92878439093572,34.74486527020705,0 32.92906657284982,34.74491891884719,0 32.92933868324691,34.74494104304548,0 32.9298131033842,34.74492467812881,0 32.93024298027726,34.74485547258906,0 32.93044526188115,34.74486665197251,0 32.93060450281086,34.74494667127026,0 32.93066890966959,34.74508025829136,0 32.93068452562265,34.74519545916756,0 32.93061024797349,34.74535594175829,0 32.93044849329361,34.74544270840575,0 32.93031055267905,34.74557401365541,0 32.93027182267061,34.74570561267456,0 32.93034463692725,34.74580772909227,0 32.93076875939352,34.74601842076916,0 32.93085788437758,34.74618467640335,0 32.93079489663973,34.74634377723261,0 32.93045460520743,34.74659796521939,0 32.93038442836045,34.74661862006657,0 32.92973834409921,34.74662343335849,0 32.92947284232103,34.74664849207677,0 32.9293805761059,34.74668925876657,0 32.92938944352041,34.74674012008013,0 32.93029970118478,34.74717862501537,0 32.93034061268069,34.74723453386677,0 32.93039614853607,34.74743297904304,0 32.93046580936433,34.74759621921591,0 32.93060971910788,34.74771868693165,0 32.9308088897914,34.74778472260719,0 32.93130155880846,34.74786652283053,0 32.93134356550316,34.74789225270315,0 32.93135348691367,34.74792747313502,0 32.93131090192747,34.74811081075952,0 32.93133366221507,34.74821256115712,0 32.93144945763962,34.74836577902124,0 32.93148233812367,34.74843175773304,0 32.93145810943573,34.74849827313049,0 32.93085250956513,34.74902240228702,0 32.93068473732257,34.7491855739542,0 32.93086567958782,34.74932821556273,0 32.93090258006821,34.74938917103508,0 32.930907448078,34.7494400497792,0 32.93086520952367,34.74949649808406,0 32.93125584953575,34.74953748978437,0 32.93161341186227,34.74958853012368,0 32.93215382759967,34.74946632781197,0 32.93279564707838,34.74927818735109,0 32.93283207019034,34.74952309944101,0 32.93285034726532,34.74980826904552,0 32.93277062446339,34.75001679610897,0 32.9326207074147,34.75024095085382,0 32.93259734207916,34.75035836544774,0 32.93257359693145,34.75061781463065,0 32.93279711555356,34.7506028260274,0 32.9332432738846,34.75053146536282,0 32.93354197025729,34.75051651026997,0 32.93372329143536,34.75054735354792,0 32.93385346519857,34.7505927121174,0 32.93446173691323,34.75102641932218,0 32.93571902768165,34.75050243332851,0 32.93577917190282,34.75050246055383,0 32.93580315162034,34.75053379098966,0 32.93583976260696,34.75072731422929,0 32.93589052134047,34.75087498918693,0 32.93597346031114,34.75098185279994,0 32.93606660175973,34.75101769169213,0 32.93636427635691,34.75104356279496,0 32.93678802120445,34.7511757651521,0 32.93714611722911,34.75109986687652,0 32.93719720003953,34.75112002744861,0 32.93735453953316,34.75156869900486,0 32.93741438245546,34.75170129918097,0 32.93740000635948,34.75184393325964,0 32.93728842254188,34.75196582148553,0 32.93711571342584,34.75207313382577,0 32.93672426375431,34.75225081437045,0 32.93659874096335,34.75233241727177,0 32.93652416312224,34.75249068552479,0 32.93653699894192,34.75257180509888,0 32.93656981245908,34.75268426367711,0 32.93682996968575,34.7529031401909,0 32.93687208103054,34.75290316383182,0 32.93735182427758,34.75270986443984,0 32.93745907664598,34.75272502811655,0 32.9378265828926,34.7529344606576,0 32.93858273888314,34.75378083275107,0 32.93880556556828,34.75413794647434,0 32.9388592465241,34.75478539971648,0 32.9382912556417,34.75492773747283,0 32.93813667736482,34.75498359760159,0 32.93800605079357,34.75509039434633,0 32.93769984794122,34.75557679165402,0 32.93761361391514,34.75584101081625,0 32.93756340505355,34.75601834994883,0 32.93756685164339,34.75631511909845,0 32.93797099247607,34.75671536562623,0 32.93808255431858,34.75678816423929,0 32.93818956131199,34.75681886026661,0 32.93899980906382,34.75675436976513,0 32.93960959233947,34.75682369610771,0 32.94054394075545,34.75681586514945,0 32.9407766405286,34.75684121683673,0 32.9412378437238,34.75698483795659,0 32.94138217031809,34.75705603032319,0 32.94157731529778,34.75729575936897,0 32.94188864002647,34.75764306750252,0 32.94200879558515,34.75776519831965,0 32.94211098568143,34.75784197143578,0 32.94259512826554,34.75810210077963,0 32.94278049817041,34.75823996865954,0 32.94313899695447,34.75862320912007,0 32.94323605931827,34.75876606339057,0 32.94336198546874,34.75903100992763,0 32.94339399966196,34.75908198996545,0 32.9436589428745,34.75909227324294,0 32.94391989735723,34.75909247394016,0 32.94428328143041,34.75914031466762,0 32.94439051459353,34.75915443193069,0 32.94467038225683,34.75924648528157,0 32.94486593314213,34.75934295487198,0 32.94507540822657,34.75951168003415,0 32.94525677518721,34.75968486886594,0 32.94533085848622,34.75979245396872,0 32.94536561712988,34.75987467854068,0 32.94554874596616,34.7603078813506,0 32.9455857018356,34.7604098452802,0 32.94570192134307,34.76053707923677,0 32.94583193913293,34.76073652734302,0 32.94610560768121,34.76095555926176,0 32.94627512410774,34.76104917001988,0 32.94633959757007,34.76104694208804,0 32.94644982967687,34.76096988124139,0 32.94661090650401,34.76073889518046,0 32.94678322481516,34.76052787581831,0 32.94701702199252,34.76003796925332,0 32.94737523065334,34.76017099491505,0 32.94790701623563,34.76039098326977,0 32.94814982787145,34.7599061040312,0 32.94837801812795,34.75975336685156,0 32.94864940909172,34.75962718475304,0 32.9490871467818,34.75958623569009,0 32.94899524721069,34.7590142086118,0 32.94946070661918,34.75837190062472,0 32.94951590266733,34.75829897436535,0 32.94956897619053,34.75834480424263,0 32.94947459815705,34.75861238988661,0 32.95078468259736,34.75946744555425,0 32.9509046789121,34.759543821826,0 32.95111405882096,34.75992907082484,0 32.95114867256854,34.75994816329253,0 32.95199777384305,34.76019619073618,0 32.95205680875814,34.76018678198243,0 32.95212925428089,34.76015217535501,0 32.95247499390005,34.75994260873036,0 32.95252575445704,34.75994067235647,0 32.95414286092974,34.76028588649652,0 32.95436343410369,34.76033807396239,0 32.95478130193772,34.76053857923495,0 32.95482517564396,34.76057296562026,0 32.95485899809302,34.76076353312445,0 32.95486000659975,34.76085930678108,0 32.95487992649223,34.76129223837459,0 32.95461140803258,34.76131058161258,0 32.95362650020131,34.76263666684571,0 32.95243746121796,34.76382192422738,0 32.95240385716117,34.76399870061152,0 32.9533210640919,34.76447622169351,0 32.95355735231419,34.76476532466853,0 32.95354101309512,34.76496924015347,0 32.95366428379137,34.76637502634009,0 32.95337930237012,34.7666211836157,0 32.95303769327492,34.7670089931412,0 32.95274538678903,34.76716270650748,0 32.95214756765869,34.76739838844898,0 32.9520678037372,34.76753041321201,0 32.95178013526638,34.76794705832179,0 32.95141538570323,34.76832364074806,0 32.95121903196902,34.76861626254198,0 32.95081525083223,34.76908355604964,0 32.95058486326971,34.76920876330069,0 32.95047403298256,34.76937734488308,0 32.95090419769855,34.76949970870615,0 32.95200339805424,34.77032992576264,0 32.95199149589866,34.77040159631705,0 32.9523856579554,34.77076541441246,0 32.95287815535167,34.77079452763952,0 32.95318047140094,34.77070654890517,0 32.95338296798283,34.7708338715784,0 32.95385905590367,34.77057741843446,0 32.9541502079658,34.77021408778098,0 32.95474899684056,34.77016192605324,0 32.95489747549266,34.77012448213074,0 32.95503554930408,34.77004330696209,0 32.95582263082719,34.76972947793085,0 32.95609179680412,34.76954816686101,0 32.95627812591282,34.76933165582246,0 32.9566396131987,34.76903261683137,0 32.95748074584881,34.76846401055327,0 32.95770438046659,34.76819370562994,0 32.95872157544826,34.7677377615239,0 32.95866546420751,34.76764728523453,0 32.95912354034819,34.76746505239775,0 32.95938794979377,34.7671540732101,0 32.95960928546731,34.76700612218053,0 32.95973228368356,34.76673261319703,0 32.96022169048654,34.76665389159604,0 32.96035277830875,34.76655229624561,0 32.96096553161166,34.76611703007745,0 32.96142522446774,34.76596683965524,0 32.96151458331686,34.76571362721395,0 32.96176400363945,34.76560216961381,0 32.96182797895803,34.76550475147603,0 32.96170302234016,34.76541116743789,0 32.96171405722041,34.76530777312186,0 32.96208531177029,34.76477858635864,0 32.96242422642838,34.76396524909853,0 32.962726889972,34.76378693177654,0 32.96312617380912,34.76372250950422,0 32.9638485620882,34.76323801122974,0 32.96419674155963,34.76315013401557,0 32.96445342278881,34.76298916282936,0 32.96448688739453,34.7630081943698,0 32.96431448115857,34.76328011269317,0 32.96430865526505,34.7634053728944,0 32.96445790303223,34.7635995349176,0 32.96448722836539,34.76376276959342,0 32.96461571005744,34.76385781670189,0 32.96508955138877,34.76411553033067,0 32.96523377587007,34.7642455823992,0 32.96536192201858,34.76442074794343,0 32.96542804791986,34.76464963646637,0 32.9654185137864,34.764817130981,0 32.96512079854529,34.76507850094605,0 32.96511954401618,34.7653756651147,0 32.96503487945745,34.7656731929716,0 32.96535265279553,34.76578128446995,0 32.96619097035661,34.76595780570722,0 32.966427906345,34.76612002909665,0 32.96655035183933,34.76630189954965,0 32.96723288924586,34.76618763185029,0 32.96738969262475,34.7660464787447,0 32.96767333815396,34.76608902139844,0 32.96819258347025,34.76556222522174,0 32.96852575950312,34.76533442921671,0 32.96862232319437,34.7653927860005,0 32.96891009114571,34.76497425922767,0 32.96941682089032,34.76533509081982,0 32.96978609454564,34.76489137390939,0 32.97147845804835,34.76531356941977,0 32.97144064993608,34.76541148917155,0 32.97117968613691,34.76573570278487,0 32.97103474942416,34.76620001276275,0 32.97111577839616,34.76629099951952,0 32.97152199070945,34.76595811110406,0 32.9718319483927,34.76602250077917,0 32.97238727243835,34.76580982779257,0 32.97264043136427,34.76577603411845,0 32.97292416771354,34.76579678251729,0 32.97304275924786,34.76584975084285,0 32.97310840393997,34.76593706481976,0 32.9731678302909,34.76593178183791,0 32.97338983421552,34.76544952812512,0 32.97332909090399,34.76524060532053,0 32.97330135668484,34.76502995801155,0 32.97339022150398,34.76482144475163,0 32.97464193502297,34.76539849942267,0 32.9749139168697,34.76545083430582,0 32.97499010190761,34.76550388304013,0 32.97504031787949,34.76553885027199,0 32.97549206784502,34.76549930923715,0 32.97589299083983,34.76543843867822,0 32.97607032634138,34.76582857269064,0 32.97631345544523,34.76586467063637,0 32.97649235449878,34.76585926408275,0 32.97667139239751,34.76581843611491,0 32.97665398222291,34.76569736361688,0 32.97661885964099,34.76553196458833,0 32.97629082559559,34.76525358259831,0 32.97608433509228,34.76499915117984,0 32.97616400773876,34.76475437273918,0 32.97616455557454,34.76461563949771,0 32.97612239608445,34.76442070248335,0 32.97627425730034,34.76401377479524,0 32.97630357657515,34.76383674757864,0 32.97619757067417,34.76350289797676,0 32.97594945104743,34.76292069960979,0 32.97603960922171,34.7627379385014,0 32.97631929593406,34.76257341487663,0 32.9764134141311,34.76229325474484,0 32.97672232339036,34.76197531759248,0 32.97718906343469,34.76154859997232,0 32.97754048708942,34.76133409176462,0 32.97768056952445,34.76118984099945,0 32.97771339293349,34.76103053497256,0 32.97808737393602,34.76144777582051,0 32.97852929389719,34.76187405925412,0 32.97866100717165,34.7620397245052,0 32.97870350690914,34.76214905962075,0 32.97870279030094,34.76233207007576,0 32.97864477780156,34.76252968140565,0 32.97863360594481,34.76264181967594,0 32.97881917832035,34.76275745214713,0 32.97953706303399,34.76305756566818,0 32.97998352190121,34.76324180792388,0 32.98049752662106,34.7635354510298,0 32.98094067739797,34.76365178832482,0 32.98120845360181,34.76378830606118,0 32.98144064241625,34.76387749728302,0 32.98168383759717,34.76389587438229,0 32.98184821501258,34.7639435530463,0 32.98190876707519,34.76401160990261,0 32.98192988928677,34.76410022235302,0 32.98179674442966,34.7643005815284,0 32.98165653764298,34.76447730673323,0 32.98167411474819,34.76455705369976,0 32.98185969565026,34.7646726824049,0 32.9820667746237,34.76477951391233,0 32.98223443542859,34.76490394849709,0 32.98284582724564,34.76499712395305,0 32.98317840637417,34.76503050105411,0 32.98331820167988,34.7649600394108,0 32.98354053990669,34.76482190965964,0 32.98378043356532,34.76476942893602,0 32.98418502784553,34.76468197445429,0 32.98436743246158,34.7646942777433,0 32.98450293228958,34.76480976616564,0 32.98472350923143,34.76512916073323,0 32.98486189511997,34.76542471722468,0 32.98521465905082,34.76579169923358,0 32.98549336601748,34.76588100733356,0 32.98598315559405,34.7659679350817,0 32.98619034585723,34.76604819345906,0 32.98658322795901,34.76621750776637,0 32.98702575917269,34.76650207450794,0 32.98746129414219,34.76674529602597,0 32.98761734513191,34.76710288527865,0 32.98761656859487,34.76730655805821,0 32.98760459755877,34.76763122580005,0 32.98754802975755,34.76839264032743,0 32.98752054315135,34.76903311031885,0 32.98754066853427,34.76938443027703,0 32.98758237409029,34.76970628902302,0 32.98763821126198,34.77007541554115,0 32.98781583474408,34.77040649633455,0 32.98817217776508,34.77078233391293,0 32.98837526561978,34.77100426459457,0 32.98857467588356,34.77125275165547,0 32.98899558162067,34.77158743386521,0 32.98913455363232,34.77173539699225,0 32.9891841960311,34.77185360200503,0 32.98921198824414,34.77207211072695,0 32.98920379067268,34.77234660694535,0 32.98918168663406,34.77251480063548,0 32.98910551076929,34.77278911588235,0 32.98897877440087,34.77318727111847,0 32.98894232420815,34.77336428154029,0 32.98896607982905,34.77370380301283,0 32.98898279190733,34.77401378833621,0 32.98914303402189,34.77421494045348,0 32.98937895955464,34.77427165599231,0 32.98970134852507,34.77417215693224,0 32.99026692990223,34.77409987110085,0 32.99079179464396,34.7743875962803,0 32.99088388333949,34.77463579360433,0 32.9908621523245,34.77472593091436,0 32.99085116984762,34.77477148905223,0 32.99044594283865,34.77501540961812,0 32.99010206228684,34.77512075757178,0 32.98975834367431,34.77536728874944,0 32.98953013875114,34.77569138075878,0 32.9894842906685,34.77579205291164,0 32.98944678799175,34.77593728500307,0 32.98947483765923,34.7760287785444,0 32.98955400465348,34.77612509658969,0 32.98968432529448,34.77621686294328,0 32.99048980698953,34.77655655768868,0 32.99063443560567,34.77662257750208,0 32.99080708556608,34.77678712176144,0 32.99087738352421,34.77697248910688,0 32.99091037438178,34.77725386554692,0 32.99091189530852,34.77759141416655,0 32.99083296195752,34.77816080980237,0 32.99088918617246,34.77831332409595,0 32.99100492997365,34.77850115660507,0 32.9911491490652,34.77867265750234,0 32.99137890877995,34.77876468611211,0 32.99170813831904,34.77884760372992,0 32.99211694330324,34.77892369887412,0 32.99270492066069,34.77895104169649,0 32.99287229938187,34.7790124302845,0 32.99305934732437,34.77913012771506,0 32.99323770868641,34.77928999651437,0 32.99331399567397,34.77939802458378,0 32.99334496615392,34.77947077236625,0 32.99335838632962,34.77967239652445,0 32.99335537273858,34.7797169258177,0 32.99329819790731,34.77980819378124,0 32.99306710546283,34.78005839658581,0 32.9926567074946,34.78039016773901,0 32.9924910169037,34.78062413444337,0 32.99240220675513,34.78081376829963,0 32.99239331764936,34.78090750702613,0 32.99240722240393,34.78098489738449,0 32.99246378709736,34.78105068138064,0 32.99256870438315,34.78110252812633,0 32.9928981075355,34.78114324964419,0 32.99354860333855,34.78117075337713,0 32.99396619972369,34.78118123174594,0 32.99420448060874,34.78127562264324,0 32.99434886355324,34.78140727061801,0 32.99449304342752,34.7815928302545,0 32.99465965988696,34.78185346072272,0 32.99473205164831,34.78223573267955,0 32.99484173832487,34.78252434082053,0 32.99508943523952,34.7831250716012,0 32.99515926000083,34.78343701480046,0 32.9951133024548,34.78356581630199,0 32.99497300100082,34.78384673532481,0 32.99493523448644,34.78406228910443,0 32.99481804805509,34.78424247342497,0 32.99470115655312,34.78434764895003,0 32.99460428509602,34.78441771608528,0 32.99444213669721,34.78446885853114,0 32.99397846233231,34.784615311103,0 32.99371346238183,34.78481385689003,0 32.99350550445262,34.78495629557786,0 32.99343983038631,34.78504050824925,0 32.99341395825278,34.78511779352234,0 32.99342791039468,34.7851834638322,0 32.99353531868918,34.78532673501053,0 32.9935747852251,34.78540653794021,0 32.99360229748574,34.78563867252814,0 32.99361306339715,34.78579340778069,0 32.99357863066338,34.78588004797987,0 32.99328464211691,34.78622619178105,0 32.99316404106843,34.78655169678228,0 32.9931124280501,34.78667345133491,0 32.99304686166528,34.78672953552858,0 32.99293585188683,34.78678081137463,0 32.99283631624193,34.78680398749288,0 32.99198966087765,34.78679471186356,0 32.99151736229353,34.78696222966186,0 32.9913606361588,34.78707901535736,0 32.99125202340066,34.78724281093113,0 32.99103173052122,34.78763133751299,0 32.99083170467988,34.78792146818644,0 32.9907340754524,34.78818374224446,0 32.99059594974736,34.78862874523225,0 32.99044674232739,34.78900105257483,0 32.99031935484442,34.789605480012,0 32.99011530026812,34.78985263382544,0 32.990040440154,34.78987349019278,0 32.98999873365551,34.78988510928614,0 32.98991861332699,34.78995895201925,0 32.989722752155,34.79021342027865,0 32.98962343154356,34.79069542206939,0 32.98954541660606,34.79088368603082,0 32.98936225948837,34.7913238886819,0 32.98932435694316,34.79156492018119,0 32.98906146019831,34.79177763394228,0 32.98900714610915,34.79191884259455,0 32.98896352629573,34.79190486693363,0 32.98888591695757,34.7919905805028,0 32.98890241804762,34.79206545899125,0 32.98894891957815,34.79220139511598,0 32.98892127594639,34.79239533607559,0 32.98885672433963,34.79257809195268,0 32.98886283043353,34.79273332102061,0 32.98866329579884,34.79306538379304,0 32.98849391994879,34.79341692689448,0 32.98856029526297,34.79362498171169,0 32.98832476246955,34.79371304177056,0 32.9881251688773,34.79405896172478,0 32.98813084733793,34.7943222837497,0 32.98802977681712,34.79439130394204,0 32.98788875288508,34.79436875081794,0 32.98781801055488,34.79441567909892,0 32.98772985932609,34.79461777184402,0 32.98765555449718,34.79471458007487,0 32.98708864877106,34.79533390255452,0 32.9870437430037,34.79564420591298,0 32.98697911326028,34.79584359079154,0 32.98705502622473,34.79618748000916,0 32.98724318382396,34.79618798666861,0 32.98734363790189,34.79627417837649,0 32.98731619828906,34.79641545837372,0 32.9874765556815,34.79664870838038,0 32.98709278022767,34.79683614724986,0 32.98713532524563,34.79712174182711,0 32.98655975936839,34.79737795335068,0 32.98615924280266,34.7975487131323,0 32.98582617895112,34.79765590683899,0 32.98571584838085,34.79751702611813,0 32.98547080678242,34.7974581580325,0 32.98498667411875,34.79753168078137,0 32.98460953394973,34.79773853091937,0 32.98440392494079,34.79790150007874,0 32.98393273287437,34.79809977667146,0 32.98368711875388,34.79818225714951,0 32.98309198495409,34.79828595806671,0 32.98263742734251,34.79852307937136,0 32.98204476888851,34.79884574144972,0 32.98157760533076,34.79887495097336,0 32.9808746421441,34.7990531788359,0 32.98069571138767,34.7992633326955,0 32.98042620386855,34.79943720610021,0 32.98026734112127,34.79966958708329,0 32.97998692234277,34.80004852945561,0 32.979606571511,34.80021100995111,0 32.97980715359721,34.80046378239066,0 32.97974256397814,34.80064930516344,0 32.97978524370125,34.80089609890707,0 32.97996337575714,34.80088550288815,0 32.97995307210757,34.80094090748002,0 32.97984485385608,34.80111245230748,0 32.97975041229089,34.80120088403889,0 32.97984696466608,34.80142010930296,0 32.97993374589533,34.80156447493902,0 32.98008100388125,34.80170900457396,0 32.9801748901051,34.8017591508589,0 32.98018863932375,34.80168158358286,0 32.9802766883415,34.80151275669849,0 32.98049830720809,34.80154939790408,0 32.9803289731276,34.80187875690371,0 32.98018722793183,34.80203080617311,0 32.98020378329564,34.80209182852156,0 32.9804884873046,34.80231711445982,0 32.98008754598646,34.80258486077673,0 32.98022146589393,34.80270441135583,0 32.98039584994535,34.80279081090791,0 32.98114448210703,34.80296193747551,0 32.98138916881558,34.80311227782566,0 32.98133447041975,34.80334494458214,0 32.98124986201543,34.8034943832677,0 32.98075958813136,34.80341543282864,0 32.98029866190868,34.80355828962229,0 32.98016063662676,34.80362165946992,0 32.98012483965925,34.80333330991363,0 32.97995947390341,34.80351023794412,0 32.97990502713481,34.80367915753826,0 32.97975000861492,34.8037895982054,0 32.9794407921602,34.80380814701972,0 32.9793762052628,34.80399089751504,0 32.97941242609608,34.80417392649112,0 32.97963468441555,34.80405535827719,0 32.97986329137129,34.80402827238034,0 32.98007443384343,34.80416466424999,0 32.97994960470511,34.80435156267922,0 32.97983509349875,34.80452301080928,0 32.97961339006284,34.80474096421076,0 32.97936221506988,34.80517954290183,0 32.97921150507111,34.80518769706703,0 32.97873958610137,34.80560638103596,0 32.97887410928872,34.80574603382994,0 32.97843847719153,34.80618409970109,0 32.97817006484254,34.80638692199133,0 32.97806062145918,34.80646804603796,0 32.97786853966702,34.80706535164118,0 32.97775068950789,34.80729644651161,0 32.97771313121672,34.8075877597725,0 32.97767275701237,34.80793263794159,0 32.97783301795488,34.80813236060241,0 32.97833135432515,34.80824945131434,0 32.97889896835906,34.80858100941653,0 32.97931916342276,34.8087493068599,0 32.97945096435861,34.80892109360077,0 32.98004648640867,34.80941985946115,0 32.98036509699281,34.80965430165953,0 32.9811606197529,34.81016861178889,0 32.98122524970281,34.810248073427,0 32.9813799827245,34.81053348742235,0 32.98136641503215,34.81067701790117,0 32.98141243704447,34.81086142230308,0 32.98124811312493,34.81102168139458,0 32.98148605152217,34.81129018317698,0 32.98134461815288,34.8115726427416,0 32.98150946153285,34.81192879711411,0 32.98162342128823,34.81201696144939,0 32.98139601549573,34.81235704260779,0 32.98171273245331,34.8124200510108,0 32.98183929388682,34.8126046764157,0 32.98170385930732,34.8126878749239,0 32.98112951528212,34.81272701404799,0 32.98064603450263,34.81278354051059,0 32.98075009866781,34.81339237863398,0 32.98047454064275,34.81343019045516,0 32.98046445744839,34.81351886503806,0 32.98042874332239,34.81383290843981,0 32.98063613618369,34.81394704518128,0 32.9807266637525,34.81404800636459,0 32.98068387368608,34.814350021472,0 32.98063405824069,34.81446130816323,0 32.98066758426313,34.81452354097487,0 32.98026684342474,34.81467672137936,0 32.98020938852588,34.81474941714201,0 32.98048126996573,34.8149794431063,0 32.98087821849983,34.81512195865076,0 32.98128984240993,34.81549164643895,0 32.98141919996608,34.81562914002125,0 32.98130178052158,34.81575309739176,0 32.98145198182757,34.81587564800483,0 32.98136567282602,34.81601683698314,0 32.98101212434383,34.81606300804619,0 32.98074958536716,34.81609228481968,0 32.98044818516083,34.8160935997554,0 32.98026831816336,34.81623881500396,0 32.97998727845462,34.81634517868741,0 32.97976372724808,34.81637027608533,0 32.97961783606306,34.81646629908938,0 32.97932687850975,34.81645478258313,0 32.97919642888923,34.81658727697832,0 32.97936829315574,34.81713416054453,0 32.97942997339229,34.81730146754983,0 32.97942964272053,34.81738289143198,0 32.97954873655652,34.8174882176987,0 32.97978052755466,34.81735386029671,0 32.97989824797924,34.81715704886886,0 32.98022515777627,34.81727365970002,0 32.98035788562327,34.8172204547806,0 32.98060731549446,34.81722114113992,0 32.98063041498781,34.81729191446048,0 32.98116042596169,34.81729980068786,0 32.98104957005763,34.81772805218958,0 32.98109007196836,34.81799386875254,0 32.98126227568279,34.81846146930956,0 32.9813837448729,34.81862251035641,0 32.98139642018332,34.81886091287807,0 32.9814154523317,34.81921888443708,0 32.98152824943327,34.81938895567102,0 32.98148059557592,34.81942582424006,0 32.98150374315828,34.81957606152285,0 32.98161389406377,34.8197483011654,0 32.98138236677796,34.82022430529105,0 32.98139482526756,34.82040715917602,0 32.98135997298527,34.82054200154888,0 32.98148920258287,34.82056412044339,0 32.9815229853366,34.82069479864727,0 32.98163065745976,34.82082785614023,0 32.98155052562929,34.82106486708732,0 32.9818902849613,34.82123773600377,0 32.98205831602075,34.82145583899099,0 32.9823336623844,34.82189623081306,0 32.98248657864121,34.82193582497376,0 32.98260774552703,34.821994920079,0 32.98273119061376,34.82214325397004,0 32.98300003310792,34.82223322093409,0 32.98309930960052,34.82248595751684,0 32.9832539221821,34.82276060968413,0 32.98327410244651,34.82299354195526,0 32.98324931121974,34.82325246957756,0 32.98319521643631,34.82357878495763,0 32.98318471591011,34.82422298070783,0 32.98331515983298,34.82460203398742,0 32.983451451067,34.82483963713825,0 32.98361456423054,34.82497066663552,0 32.98415999779341,34.82514434360646,0 32.98424192014927,34.8251704288043,0 32.98408538536235,34.82537458775569,0 32.98423519479745,34.82553278629367,0 32.98416630229855,34.82560006817889,0 32.98455960685402,34.8255891669755,0 32.98481283086945,34.82628848819758,0 32.98490390646917,34.82661519992295,0 32.98511416795952,34.8268377659295,0 32.98516126818969,34.82694018584633,0 32.98553318274293,34.82699995646743,0 32.98593351747058,34.82721433035783,0 32.98614965590672,34.8272867364857,0 32.98609338979934,34.82749769817352,0 32.98610009782467,34.82780241641579,0 32.98463212304863,34.8312219563479,0 32.98372634100581,34.83337263226461,0 32.9830265162073,34.83503420415703,0 32.98077366131487,34.83487464353185,0 32.98067488988334,34.83499592643344,0 32.98005879647484,34.83544572120184,0 32.98023011275029,34.83561405575352,0 32.98008833468522,34.83595228191745,0 32.98058964141002,34.83611284131153,0 32.98080675310667,34.83624078104091,0 32.98094297169988,34.83640901707539,0 32.98059098513717,34.83664826635733,0 32.98041136951944,34.83679537530951,0 32.98018577141983,34.83702918089256,0 32.97968985066911,34.83727092627143,0 32.97929563031119,34.83753610129204,0 32.97892311129216,34.83764215805944,0 32.97878231612253,34.8377372755432,0 32.97868657530772,34.83797433259843,0 32.97886472647721,34.83818899402009,0 32.97922309055264,34.83897430340445,0 32.97913876534838,34.83899433004992,0 32.97901194729731,34.83910395724052,0 32.97896954264698,34.83917329951412,0 32.97873417791688,34.83921606223038,0 32.97911508949853,34.83963676822341,0 32.97954374578875,34.83953955008056,0 32.98006973399499,34.83967702588701,0 32.98038418934438,34.83917430664111,0 32.98057739476219,34.83914010771588,0 32.98057639887227,34.83938610927746,0 32.98077771257566,34.83995102615131,0 32.98096363019099,34.83998337153963,0 32.98062922560408,34.84021109126697,0 32.98087775637727,34.84038542449247,0 32.98144186641053,34.84064744941292,0 32.98157094454542,34.84084750027098,0 32.981763627169,34.84094353662368,0 32.98177370287429,34.84105643684149,0 32.98173078156267,34.8412531226415,0 32.98164248794682,34.84138601125888,0 32.98152975095685,34.84148699823503,0 32.98093057514757,34.84121330257872,0 32.98042194179324,34.84112218416296,0 32.98029883170658,34.84118262374241,0 32.98018236884512,34.84133569384203,0 32.98013199489786,34.84163944235516,0 32.98014901821683,34.84176972742061,0 32.98024963274058,34.84206231440017,0 32.97994034631557,34.84215407571308,0 32.9799005225461,34.84245206555413,0 32.97981553115076,34.84263416359703,0 32.97835700601097,34.84218732743128,0 32.97776420038562,34.84207570643775,0 32.97763709348743,34.84225479252694,0 32.9767671875067,34.84294697569884,0 32.97666569088938,34.84287144439122,0 32.97585479720732,34.84286629206842,0 32.9754376632968,34.84271752585398,0 32.97504492564838,34.84261223841255,0 32.97467222641253,34.84286076363286,0 32.97464899346882,34.84287625564286,0 32.97437654662586,34.84298176481288,0 32.97418227148132,34.84303274497242,0 32.97399418223113,34.84317865347604,0 32.97390855143925,34.84320553173885,0 32.97384608895078,34.84319722046344,0 32.97358373492584,34.84300665915209,0 32.97349503817581,34.84297929252541,0 32.97342118545784,34.84333975327019,0 32.97355269921483,34.84335368051565,0 32.97430001775672,34.84399304628596,0 32.97442344406772,34.84437304118562,0 32.97408796070311,34.84436667804211,0 32.97370378608476,34.84420289385731,0 32.97344984132503,34.84436488715091,0 32.97289537867254,34.84401893212037,0 32.97265160183674,34.84410773629553,0 32.9732124629132,34.84449709871325,0 32.97355672695644,34.84476653124755,0 32.97395399255759,34.84494662413319,0 32.97405921593073,34.84495505445634,0 32.97445415771573,34.84490192449677,0 32.97466368774961,34.84493445842692,0 32.97487726344135,34.84496762024174,0 32.97500646233042,34.84513584230196,0 32.97500610586152,34.84522266728717,0 32.97492485137492,34.84534688944095,0 32.97479100996331,34.84545359987959,0 32.97466150458164,34.84546462385435,0 32.97459325716908,34.84547043389099,0 32.97452063613103,34.84553260168814,0 32.97446086865656,34.84566802404593,0 32.97446355591458,34.84581446801994,0 32.97458781498259,34.84599379263495,0 32.97465920088764,34.8460240313761,0 32.97471112390573,34.84604602586703,0 32.97492824007131,34.84622961793877,0 32.97530548941057,34.84669084492084,0 32.97640815636316,34.84746666032731,0 32.97650940382951,34.84760296935298,0 32.97648257862121,34.84785793137192,0 32.97645081521777,34.84803202058041,0 32.97643690421295,34.84806234628999,0 32.97641010179536,34.84807907201705,0 32.97635124535089,34.84808452157381,0 32.97619201985094,34.84808063770679,0 32.97615476113845,34.84811041433467,0 32.97610149589728,34.84821303943686,0 32.97613518801207,34.84836800270117,0 32.97623534717359,34.84851141965876,0 32.97642813862986,34.8486347990496,0 32.97663985341266,34.84871909667806,0 32.97684555384411,34.8487276520197,0 32.97797556295962,34.8485167025453,0 32.97818919314538,34.8485036393653,0 32.97833908309794,34.84856316820117,0 32.97848769012864,34.8486707908129,0 32.97855854699043,34.84882004206334,0 32.97858035576403,34.84894496350591,0 32.97834225253609,34.84923290590783,0 32.97781445172936,34.84927741633498,0 32.97752657881383,34.84978759971955,0 32.97751975335481,34.85014093453163,0 32.97761715487397,34.85048628006721,0 32.97755812639356,34.85069239119166,0 32.9778872285756,34.85084286024924,0 32.97812069725396,34.8514468921061,0 32.97724353914609,34.85175028362128,0 32.97680694535135,34.85146681948822,0 32.97664212156296,34.85176301254847,0 32.97670430625159,34.85201655820015,0 32.97636796628867,34.85264423241135,0 32.97651442143987,34.85298728139996,0 32.97581034089192,34.85293076941204,0 32.97569446139877,34.85318713306879,0 32.97631665731561,34.85338642486591,0 32.97653325146179,34.85357098281237,0 32.97685154250662,34.85365549523969,0 32.97693265910719,34.85386393575357,0 32.97750259292626,34.85423469792021,0 32.9770697211463,34.85442638155216,0 32.97713171612898,34.85468982114999,0 32.97687788682146,34.85514136243255,0 32.9769507413159,34.85546581696305,0 32.97650039795383,34.85594045208527,0 32.97655939214324,34.85604736365454,0 32.97587767290965,34.85639244217635,0 32.9759403164407,34.8566664762568,0 32.97558517688132,34.85742393926177,0 32.97537211220141,34.85759267462853,0 32.97568935138295,34.8579073018556,0 32.97566418083655,34.85823122174221,0 32.97476509377938,34.85870588488152,0 32.9746070767853,34.85866035314942,0 32.97436632286472,34.8586011856078,0 32.97420817516942,34.85877950024859,0 32.97340561485326,34.85909838441938,0 32.97275257938785,34.85929308442405,0 32.97239129074063,34.85925072046842,0 32.97117511401393,34.86020753444981,0 32.97079627918176,34.86011283880831,0 32.97062851658337,34.85978677140641,0 32.97030289069208,34.85964493317434,0 32.96995302164476,34.8593912975991,0 32.96986719998706,34.8593730851235,0 32.96977221787644,34.85952021136238,0 32.96963195696021,34.85963247440799,0 32.96950060349015,34.85969069856691,0 32.96936758100926,34.85972225820743,0 32.9691578347467,34.85972589932589,0 32.96899417624511,34.85942857519241,0 32.96850894427885,34.85955098444488,0 32.96752058289055,34.8592792855874,0 32.96733444996188,34.86011551072715,0 32.96660511430802,34.86107139813592,0 32.96629683049181,34.86127128954175,0 32.96624532273616,34.86218772750736,0 32.96623473967593,34.86233429017345,0 32.96622433356303,34.86245723763962,0 32.96590183145793,34.8630759036071,0 32.96595395543579,34.86333649447083,0 32.96518648721004,34.86350230320205,0 32.9650783932724,34.86353251940121,0 32.96479736242274,34.86368504724537,0 32.96454541146017,34.86402605861187,0 32.96449673103851,34.86436871460539,0 32.96487851736487,34.86472466221102,0 32.96460948749743,34.86495897693116,0 32.96411464088775,34.86502434373073,0 32.96364105374184,34.86514206376466,0 32.96304389081597,34.86521300437597,0 32.96237441430848,34.86528527367336,0 32.96218412824515,34.86509483873751,0 32.9622486919676,34.86477010492693,0 32.96179119473346,34.86480114942552,0 32.9616706857156,34.86483102695346,0 32.96158927514801,34.86502282850764,0 32.96117597491164,34.86497413443699,0 32.96042078984804,34.8648236808745,0 32.96005040129412,34.86502115445541,0 32.95966042874768,34.86510358301922,0 32.95942016218195,34.86513130913723,0 32.95903045389009,34.86516375678536,0 32.9591896409296,34.86522855772157,0 32.95925595101778,34.8652920707442,0 32.95930649911721,34.86536167314579,0 32.95931653006585,34.86541809813116,0 32.95928518308277,34.8654612480661,0 32.95917177552574,34.86548499203945,0 32.95897046385733,34.86555740790411,0 32.95893507351656,34.86566597716441,0 32.95917613136787,34.8658353763981,0 32.95920686002815,34.86588862892869,0 32.95919674463338,34.86592348542631,0 32.95914282255172,34.86594605129361,0 32.95891033559342,34.86595735463285,0 32.95852422595473,34.86590686866301,0 32.95830821104651,34.86586020074867,0 32.95815323654886,34.8659052649795,0 32.95752928117225,34.86571158710358,0 32.95745876591911,34.86579842597416,0 32.95737676849109,34.86580321099029,0 32.95731295088781,34.86602118754892,0 32.95712435081399,34.86596261902742,0 32.95675625705814,34.86631457798004,0 32.95637595809156,34.86647712732245,0 32.95637025233773,34.86680194034707,0 32.95615804147968,34.86678799253814,0 32.95593831319187,34.86691009263597,0 32.95565750124062,34.86696875593037,0 32.95538747878667,34.86697412263543,0 32.95528902029104,34.86683214901787,0 32.95498222294288,34.86677159554898,0 32.95478486333008,34.86666890961946,0 32.95447533792228,34.8664579355742,0 32.95382478763698,34.86718833799811,0 32.95390678347766,34.86723234623401,0 32.95406702056695,34.8672694076927,0 32.9541609904193,34.86743414665721,0 32.95423287206876,34.86760616453532,0 32.95432782464042,34.86770790336168,0 32.9538288232625,34.86805744321035,0 32.95360900440815,34.86804823598981,0 32.95313123109607,34.86863602460727,0 32.95273214832778,34.86881878282172,0 32.95264156909366,34.86856658567846,0 32.95220790635525,34.86882968192243,0 32.9517030389848,34.86870376476787,0 32.95121342591201,34.86863432191156,0 32.95117103196242,34.86874624573695,0 32.95085033911487,34.86894819219428,0 32.9505931414442,34.86886074491345,0 32.9503404844942,34.86890965007655,0 32.94966767207551,34.86963246762026,0 32.94936469346965,34.86949316376703,0 32.94879558562104,34.86968722248309,0 32.94882000493904,34.87006470839671,0 32.94864536827437,34.87038544990771,0 32.94815945413971,34.87022086570829,0 32.94795077419738,34.87059917433394,0 32.94780887113102,34.870924419631,0 32.947588710773,34.8712717561524,0 32.94753757619986,34.87143274245622,0 32.94755649789126,34.87159398523475,0 32.94761179774962,34.87175352913378,0 32.94760310817618,34.87206473282284,0 32.94752998552762,34.8724378939966,0 32.94698624081686,34.87218431729593,0 32.94672678145822,34.87227879812146,0 32.9455281413284,34.87195563917268,0 32.9453941779535,34.87217213187247,0 32.94529143014297,34.87217311874166,0 32.94465492350005,34.87217923004514,0 32.94217927343946,34.87138845549075,0 32.94170278170881,34.87125615515745,0 32.93990928177978,34.87255003741985,0 32.93985728632042,34.87253628177479,0 32.93997495005643,34.87225927933265,0 32.9391597441366,34.87198241120658,0 32.93836990274433,34.87127205543614,0 32.93765106346856,34.87120523878269,0 32.93693936642673,34.87104984990744,0 32.93666878596552,34.87052444328205,0 32.93638809307524,34.87046584241849,0 32.93634015539469,34.87085624577729,0 32.93638899953113,34.87148014027447,0 32.9363424386372,34.87185595797664,0 32.93517286742552,34.87169617153724,0 32.93454107037338,34.87174358087896,0 32.93446685706662,34.87153843198018,0 32.93416806437209,34.87143625291878,0 32.93375703028121,34.87178390164831,0 32.93336711694258,34.87199611004079,0 32.93301926091978,34.87178500648293,0 32.932620541901,34.87223706640631,0 32.93169524076562,34.87240724086914,0 32.93134885013379,34.87219165047656,0 32.93121729883315,34.87205807275462,0 32.93095302536517,34.87197098743299,0 32.93079270252952,34.87203385513371,0 32.93050229424966,34.87184851337394,0 32.92975463338648,34.87132215977212,0 32.92963169098309,34.87097780715767,0 32.92958988037014,34.87068795602124,0 32.92946718784994,34.87061131149225,0 32.9293299767337,34.87063840684263,0 32.92919846233573,34.87030133246309,0 32.92885956836892,34.87001336299111,0 32.92874601694538,34.87004451181226,0 32.92859966094785,34.86980920865192,0 32.92820669363866,34.86966860480948,0 32.92757223520277,34.86904224827027,0 32.92752086175469,34.86908732607899,0</coordinates>
						</LinearRing>
					</outerBoundaryIs>
				</Polygon>
			</MultiGeometry>
		</Placemark>
	</Document>
</kml>