<?xml version='1.0' encoding='UTF-8'?>
<kml xmlns="http://www.opengis.net/kml/2.2">
	<Document>
		<name>AMATHOUNTA, GERMASOGEIA AGIA PARASKEVI</name>
		<Style id="PolyStyle60">
			<LabelStyle>
				<color>00000000</color>
				<scale>0.000000</scale>
			</LabelStyle>
			<LineStyle>
				<color>ffff7000</color>
				<width>2.000000</width>
			</LineStyle>
			<PolyStyle>
				<color>00828282</color>
				<outline>1</outline>
			</PolyStyle>
		</Style>
		<Placemark id="ID_60155">
			<name>AMATHOUNTA, GERMASOGEIA AGIA PARASKEVI</name>
			<snippet />
			<description>&lt;html xmlns:fo="http://www.w3.org/1999/XSL/Format" xmlns:msxsl="urn:schemas-microsoft-com:xslt"&gt;

&lt;head&gt;

&lt;META http-equiv="Content-Type" content="text/html"&gt;

&lt;meta http-equiv="content-type" content="text/html; charset=UTF-8"&gt;

&lt;/head&gt;

&lt;body style="margin:0px 0px 0px 0px;overflow:auto;background:#FFFFFF;"&gt;

&lt;table style="font-family:Arial,Verdana,Times;font-size:12px;text-align:left;width:100%;border-collapse:collapse;padding:3px 3px 3px 3px"&gt;

&lt;tr style="text-align:center;font-weight:bold;background:#9CBCE2"&gt;

&lt;td&gt;5&lt;/td&gt;

&lt;/tr&gt;

&lt;tr&gt;

&lt;td&gt;

&lt;table style="font-family:Arial,Verdana,Times;font-size:12px;text-align:left;width:100%;border-spacing:0px; padding:3px 3px 3px 3px"&gt;

&lt;tr&gt;

&lt;td&gt;DIST_CODE&lt;/td&gt;

&lt;td&gt;5&lt;/td&gt;

&lt;/tr&gt;

&lt;tr bgcolor="#D4E4F3"&gt;

&lt;td&gt;VIL_CODE&lt;/td&gt;

&lt;td&gt;13&lt;/td&gt;

&lt;/tr&gt;

&lt;tr&gt;

&lt;td&gt;QRTR_CODE&lt;/td&gt;

&lt;td&gt;1&lt;/td&gt;

&lt;/tr&gt;

&lt;tr bgcolor="#D4E4F3"&gt;

&lt;td&gt;QRTR_NM_E&lt;/td&gt;

&lt;td&gt;AGIA PARASKEVI&lt;/td&gt;

&lt;/tr&gt;

&lt;tr&gt;

&lt;td&gt;QRTR_NM_G&lt;/td&gt;

&lt;td&gt;ΑΓΙΑ ΠΑΡΑΣΚΕΥΗ&lt;/td&gt;

&lt;/tr&gt;

&lt;tr bgcolor="#D4E4F3"&gt;

&lt;td&gt;VIL_CCD&lt;/td&gt;

&lt;td&gt;5013&lt;/td&gt;

&lt;/tr&gt;

&lt;tr&gt;

&lt;td&gt;QRTR_CCD&lt;/td&gt;

&lt;td&gt;501301&lt;/td&gt;

&lt;/tr&gt;

&lt;/table&gt;

&lt;/td&gt;

&lt;/tr&gt;

&lt;/table&gt;

&lt;/body&gt;&lt;script type="text/javascript"&gt;

				function changeImage(attElement, nameElement) {

				document.getElementById('imageAttachment').src = attElement;

				document.getElementById('imageName').innerHTML = nameElement;}

			&lt;/script&gt;&lt;/html&gt;

</description>
			<styleUrl>#PolyStyle60</styleUrl>
			<MultiGeometry>
				<Polygon>
					<extrude>0</extrude>
					<altitudeMode>clampToGround</altitudeMode>
					<outerBoundaryIs>
						<LinearRing>
							<coordinates> 33.06643562861625,34.72240509004515,0 33.06660624153058,34.72195971893953,0 33.06669992308564,34.72185669737739,0 33.06675616349881,34.72163450040389,0 33.06660629349682,34.72145541542813,0 33.06627866556681,34.72149680295906,0 33.06624168835335,34.72138573952668,0 33.0663066308999,34.7211904135138,0 33.06641498226953,34.72100939626502,0 33.06641927630017,34.72095206047874,0 33.06659702472018,34.72072083934472,0 33.06626214627637,34.72059581775916,0 33.06640052649069,34.72005282167846,0 33.06650070447564,34.71970439237681,0 33.06654985566242,34.7194992623041,0 33.06667189138945,34.71907692472702,0 33.06684528706096,34.71892903378581,0 33.06722492348052,34.71859704083361,0 33.06732173033345,34.71860151185846,0 33.06741274936314,34.7182274489901,0 33.06739795131197,34.71799822425294,0 33.06743616109993,34.71781873761805,0 33.06743762153795,34.71736781081628,0 33.06744832701044,34.71705562499034,0 33.06743530046344,34.71675853387569,0 33.06741685688793,34.71653685189885,0 33.0674054956695,34.71641767033785,0 33.06821231408342,34.71625864915615,0 33.06846125763729,34.71615860052072,0 33.0683539415201,34.71568467235019,0 33.06847200876074,34.71554635931592,0 33.06879164305628,34.71586681864458,0 33.0691981172228,34.71571556250085,0 33.06950046916433,34.71555390918436,0 33.06972949090427,34.7151901559558,0 33.06988685476037,34.71494029186589,0 33.07019124774391,34.71461632864599,0 33.07063243004108,34.71409968992038,0 33.07057982700256,34.7140400520851,0 33.07069755012854,34.71381362915615,0 33.07080757921261,34.71361640920085,0 33.0705413117576,34.71366458857181,0 33.0704492104032,34.71334615959442,0 33.0705838495438,34.71329300129701,0 33.07081028057146,34.71319429142975,0 33.07044855030124,34.71256764650622,0 33.07060625571658,34.71234912080915,0 33.07040972435044,34.71227361016859,0 33.0705451080138,34.71183415691367,0 33.07061938203824,34.71162979557639,0 33.07067614036401,34.71147860587519,0 33.07132976737949,34.71112830744671,0 33.07138971998398,34.71088635455776,0 33.0717349233098,34.71080623193635,0 33.07187840046206,34.71036119042788,0 33.07196465680997,34.71028986021974,0 33.07217376376422,34.71012125795783,0 33.0731104829635,34.71047277707581,0 33.07367989733489,34.70956739974505,0 33.07377238529425,34.70960630085182,0 33.07397961946596,34.70974837413285,0 33.0742955743252,34.70962623182141,0 33.0747490984127,34.70955785193912,0 33.07489150216286,34.70950823408361,0 33.07509422438551,34.70934747351435,0 33.07700286969277,34.70963497569221,0 33.07762413711539,34.70974582391831,0 33.07864579282766,34.70985332097369,0 33.07916221229256,34.70988388809403,0 33.07962998133836,34.70990830344213,0 33.07995192458036,34.71004791886472,0 33.08028324042069,34.71020529434525,0 33.08035810949944,34.71023614560927,0 33.08067795987259,34.71014477753425,0 33.08079018812882,34.71011225744092,0 33.08090428929947,34.71008282534095,0 33.08143725527911,34.70958796218821,0 33.08279971627726,34.70920866964457,0 33.08436617295303,34.70877068557368,0 33.08491829134681,34.70877730829585,0 33.08575463755373,34.70882139858956,0 33.08601398223158,34.70893104470721,0 33.08640186857718,34.70909085980229,0 33.08691611389377,34.70936785863997,0 33.08716428434101,34.70956686225072,0 33.08738379563383,34.70977908974654,0 33.08754156598506,34.71010056988196,0 33.08759564466962,34.71030922419164,0 33.0875710751125,34.7105829373619,0 33.08746361749196,34.71082934139161,0 33.08735072905299,34.71109211991607,0 33.08803737016936,34.71124815078991,0 33.08867792162083,34.71140940921826,0 33.08895331244882,34.71150866051794,0 33.08894907122981,34.71164318644967,0 33.08892334911867,34.71178072364288,0 33.08890893715205,34.71191157718686,0 33.08891254929778,34.71226538456165,0 33.08887721482166,34.71248570716256,0 33.0887577232163,34.71263132312755,0 33.08871412177529,34.71268075545452,0 33.08860276587748,34.71287442993345,0 33.08858188891232,34.7130079582717,0 33.08859504071168,34.71321088859797,0 33.08858415766744,34.71361944732271,0 33.0885455653759,34.71381841000959,0 33.08848686354182,34.71411351645188,0 33.08886532950918,34.71422272185553,0 33.08877589900414,34.71455550612984,0 33.08868982713068,34.71490376611617,0 33.08868562186152,34.71583748829431,0 33.08893924838198,34.7163944622549,0 33.08915056467041,34.71682021261045,0 33.08941466756769,34.71685519803636,0 33.08949556579852,34.71690320320314,0 33.08961199304573,34.71691112808869,0 33.09036253363723,34.71719453851832,0 33.09058711128856,34.71727123195802,0 33.09075873580928,34.7173253582848,0 33.09092501302752,34.71749703999635,0 33.09112413830213,34.7176626678845,0 33.09117344740726,34.71768975801863,0 33.09141259778481,34.71773780474413,0 33.09165169081258,34.71773461061197,0 33.09188712743666,34.71772539154272,0 33.09246973859356,34.71806856029989,0 33.09259575123481,34.7181362830493,0 33.09265600576732,34.71815733523395,0 33.09284953348291,34.71820993559067,0 33.09374149220652,34.71841439729388,0 33.09404892377943,34.71848275949094,0 33.09379719466878,34.71879809282302,0 33.09368879667174,34.71877677804619,0 33.0934749533801,34.71926326878239,0 33.09384017230844,34.71930383901893,0 33.09394862163693,34.71936989624465,0 33.09412542285083,34.71946118860308,0 33.0947157261467,34.72061235171014,0 33.09453526335444,34.72067175354649,0 33.09432141485819,34.720795910052,0 33.0938409283227,34.72084277795721,0 33.09378865658481,34.72094134517047,0 33.09391152716621,34.72098698385086,0 33.09432134631616,34.72136048754169,0 33.09426851021924,34.72148778610695,0 33.09422277208453,34.72150372880954,0 33.09424709981867,34.72172044566688,0 33.09445026826036,34.72189456391101,0 33.0945378037515,34.72227637266158,0 33.09421714008754,34.72290754556249,0 33.09432795860707,34.72294126218621,0 33.09427057073534,34.72330319672079,0 33.09443434446364,34.7233130112828,0 33.09480532866073,34.7236899355134,0 33.09499926622465,34.72363688986774,0 33.09527766610736,34.72341817989735,0 33.09548077192203,34.72325596025729,0 33.09559992374817,34.72323995048681,0 33.09583323503606,34.72343655509616,0 33.09602772072583,34.7233987809648,0 33.09616439524569,34.72337986221385,0 33.0964730677593,34.72357785294101,0 33.09656264700598,34.72374997149715,0 33.09697493813632,34.7239828773827,0 33.09684546916439,34.72436249772898,0 33.09662174353547,34.72448589890369,0 33.09659032462964,34.72461625633052,0 33.09636956188112,34.72482022433459,0 33.09626635569689,34.72492220341637,0 33.09616311633049,34.72499574471213,0 33.09609997552284,34.72499816449535,0 33.09602820907589,34.72498637218334,0 33.09598520859965,34.72503143081241,0 33.09594800649365,34.72512624771948,0 33.09591073314678,34.7251594520083,0 33.09545229559946,34.72584228220757,0 33.09553770628835,34.7265276935317,0 33.09549051495478,34.72663135880869,0 33.09549639223965,34.72674983867378,0 33.09553376733115,34.72680431213674,0 33.09559124486451,34.72686824875365,0 33.09563156427927,34.72698670157732,0 33.09550562681402,34.72729249001637,0 33.09523277251378,34.72713156438798,0 33.09509553672817,34.72730953034846,0 33.09526772020303,34.72757229907241,0 33.09508443287049,34.72792789562217,0 33.09480326161032,34.7280252722714,0 33.0950273210867,34.72818386694878,0 33.09489827719854,34.72828586407044,0 33.09487549620226,34.72844465105418,0 33.09521456937016,34.7287785119886,0 33.09540721672282,34.72907397962245,0 33.09528392563389,34.72918782152603,0 33.09545638059305,34.72939503402912,0 33.09593150196024,34.72947286043507,0 33.0960537026758,34.72944475103242,0 33.09618632407962,34.72924478016361,0 33.09648746842069,34.72925429139246,0 33.09721375925479,34.72927808786379,0 33.09758549483196,34.72906329990907,0 33.09801931945022,34.72892645767332,0 33.09826719153629,34.72882632486171,0 33.0987986583446,34.7288746436748,0 33.09886761062121,34.72975692365645,0 33.09884993723742,34.72979106125556,0 33.09881454800832,34.72982277565475,0 33.09873785464113,34.72987889831317,0 33.09852561234987,34.73015205800366,0 33.09841087683092,34.73049338508923,0 33.09835821363795,34.73089803511488,0 33.0984027587016,34.73111736405124,0 33.09840582681857,34.73121485708621,0 33.09845928771776,34.73148292744335,0 33.09848690871252,34.73172737857714,0 33.09848226654186,34.73183570265419,0 33.09859244234666,34.73220587322839,0 33.09805815860945,34.73228114339606,0 33.09796323234372,34.73270268458575,0 33.09773860209308,34.7331030335483,0 33.09775162983887,34.7333114179733,0 33.09767509520496,34.73331553777034,0 33.09743545739136,34.73331775528001,0 33.09723333454161,34.73345683558023,0 33.09681979711121,34.73344439658442,0 33.09677296569601,34.73354873895813,0 33.09669505082635,34.7338277868828,0 33.09620580395188,34.73425934056262,0 33.09615917872205,34.73430706678773,0 33.09610029714868,34.73435287622937,0 33.09635569857083,34.73495577663252,0 33.0960210863603,34.73574026567996,0 33.09618322849895,34.7366823643554,0 33.09605956384917,34.73671907140458,0 33.0961042846362,34.73704081916731,0 33.09603680419951,34.73722199596769,0 33.09574724584463,34.73711046639347,0 33.09565140377259,34.7369852973231,0 33.09538773556103,34.73706065124653,0 33.09513734195924,34.73649820834717,0 33.09488275701263,34.73635003991446,0 33.09422251611436,34.73662031092777,0 33.0942038199975,34.73659913010224,0 33.09409202351862,34.73681116936606,0 33.09404235635767,34.73829680303711,0 33.09373518960385,34.73912943586958,0 33.09368995386955,34.73940470727816,0 33.09342321376406,34.73984260739626,0 33.09363654700778,34.7406594243734,0 33.09342694314069,34.74108156341487,0 33.0934573814008,34.74116439471216,0 33.09363243930775,34.7411565527327,0 33.09366558554498,34.74157079776744,0 33.09356299002386,34.74166914542818,0 33.09307311840799,34.74195276675787,0 33.09307086676817,34.7420259882471,0 33.09258770138928,34.74204755175101,0 33.09262991119549,34.74222093556039,0 33.09260922553313,34.74250997748275,0 33.09230573746508,34.74247937862464,0 33.09154217804797,34.7422468069566,0 33.09139738130672,34.74218140346167,0 33.09079481799917,34.74188319303997,0 33.09064042656571,34.74157886763416,0 33.09032680862436,34.74081607086656,0 33.09006000982086,34.74017270359528,0 33.08984520736482,34.74012083770763,0 33.0895907184643,34.74006321953416,0 33.08901902781099,34.74023705465058,0 33.08828852694877,34.74033392783448,0 33.08747166680654,34.74043856712257,0 33.0871590060438,34.74055440159103,0 33.08718021011577,34.74074129010756,0 33.08731573383417,34.74087414486943,0 33.08749552932025,34.74093182146537,0 33.0876518317972,34.74084692799885,0 33.08836610531821,34.74085026567111,0 33.0884551439902,34.74116813011899,0 33.0883819346381,34.74134764533029,0 33.08834992225853,34.74146794396141,0 33.08812283931149,34.74151055850163,0 33.08798806408058,34.74171406183291,0 33.08783374022189,34.74166995450391,0 33.08779090711666,34.74168944172552,0 33.0878424129227,34.74176546128029,0 33.08781047445515,34.74195650946518,0 33.08793715412486,34.74220050621294,0 33.08828878495024,34.74240896464269,0 33.08781112944413,34.74257557270685,0 33.08762693097965,34.74264999336533,0 33.08739135202494,34.74276689974769,0 33.08680419179589,34.74290424507079,0 33.08667584175911,34.7429283677519,0 33.08656016020971,34.74295498106011,0 33.08641445626137,34.74295862187248,0 33.08627727146747,34.74291273174455,0 33.08625801140926,34.74293573907575,0 33.08548879634522,34.74296988804437,0 33.08538599326849,34.74301771621148,0 33.08502385931843,34.74301089483594,0 33.08501739146291,34.74297198667504,0 33.08466067337807,34.74300263707971,0 33.08462217780151,34.74325251410644,0 33.0846777110897,34.74347692787914,0 33.08525358116471,34.74410810748832,0 33.0853771448261,34.74432730156305,0 33.0857569759233,34.74464420819477,0 33.08591835481533,34.74471149524322,0 33.0858015213836,34.7449142559155,0 33.08555437493111,34.74507178689449,0 33.08526754817871,34.74505639358022,0 33.08494637543783,34.74504385956008,0 33.08491738499739,34.74524518334339,0 33.08490545586477,34.74533591965798,0 33.08472183644621,34.74541804482521,0 33.0846581574921,34.74534743223639,0 33.08461010029935,34.74537865363287,0 33.08460678229228,34.74541812480245,0 33.08463275654025,34.74546358569148,0 33.08467035593031,34.74552037442226,0 33.08471068928427,34.74561066690856,0 33.08475568580159,34.74573170602373,0 33.08475095612212,34.74584319715377,0 33.08474617581134,34.74590405300334,0 33.08470089587104,34.74607036250331,0 33.08463413267224,34.74611042766839,0 33.08457002810399,34.74611451436773,0 33.08453486412525,34.74612115373225,0 33.0844948184029,34.74614286266473,0 33.08444714403924,34.74619448929847,0 33.08441949787438,34.74623838008022,0 33.08438027199762,34.74630065254588,0 33.08429291021866,34.74644428131584,0 33.08422560926226,34.7465016286194,0 33.08415308878858,34.74651899319328,0 33.08403560302322,34.7465502514913,0 33.0838875583953,34.74658377267176,0 33.08385669910811,34.74659774950747,0 33.08382291573346,34.74662750308979,0 33.08367673809595,34.74672893011214,0 33.0836046921124,34.74672109176694,0 33.08334459053953,34.746801997154,0 33.08330622616636,34.74684991915445,0 33.08321313997845,34.74693228296528,0 33.08300910365332,34.74708568031094,0 33.08286088409761,34.7471881976109,0 33.0827232276813,34.74726476158207,0 33.08261147959443,34.74730817086533,0 33.0826324688975,34.74748202763544,0 33.08254623161704,34.74755487942997,0 33.08247065467095,34.7476376959527,0 33.0822896681408,34.7479308477405,0 33.08242202251236,34.74799273397249,0 33.08210298343869,34.74837277097249,0 33.08199484700988,34.74850633998323,0 33.08196680298526,34.74853210199834,0 33.08217748301688,34.74862363722136,0 33.08220268500859,34.7486362497395,0 33.08222574371663,34.74866490977732,0 33.08221639595064,34.7486858580225,0 33.08218130029241,34.74872196825618,0 33.0821323535417,34.74875224722908,0 33.082059692965,34.74878609032855,0 33.08190179785436,34.74881309362339,0 33.0818491960508,34.74882954736799,0 33.0817372424086,34.74886423971262,0 33.08165950780708,34.74887408537333,0 33.08151788947641,34.74884613206111,0 33.08135776691687,34.74877041149644,0 33.08116943090119,34.74869910957739,0 33.08110516256667,34.74869989069257,0 33.08105498162909,34.74870032254686,0 33.08097681441446,34.74869878165482,0 33.08079286782881,34.74876948131975,0 33.08062694231186,34.74882746893802,0 33.08054375424245,34.74885846676803,0 33.08045599933495,34.74889124795149,0 33.08029676478078,34.7489535153621,0 33.08023997428511,34.74903111393924,0 33.08022683203238,34.74910877479267,0 33.08021700879026,34.74919993920615,0 33.0802414067028,34.74953767410986,0 33.08021459824077,34.74963586220186,0 33.08016652084439,34.74970134021049,0 33.08003443086205,34.74976291149897,0 33.07992803593263,34.74977316431737,0 33.07968123811217,34.74970968441487,0 33.07955169029443,34.74969831328624,0 33.07938364359345,34.74974297243048,0 33.07920634140712,34.74978509162541,0 33.07904291593164,34.74982465491838,0 33.07895814003969,34.74986671366614,0 33.07894432841613,34.74993672858022,0 33.07896133577584,34.74998381278481,0 33.07899888549359,34.75003852628276,0 33.07919797322004,34.75012266681912,0 33.07939110575169,34.75022854072073,0 33.07939330991145,34.75031772029844,0 33.07934315582176,34.7503449763193,0 33.079212364346,34.75034180987317,0 33.07910126225739,34.75033017656292,0 33.07896418085005,34.750340670226,0 33.07890484854211,34.75034445336547,0 33.0788509526353,34.75035004940806,0 33.07870396774172,34.75041053811851,0 33.07863447681298,34.75050861459972,0 33.07861907282424,34.75071161818884,0 33.07855071919704,34.75074235897276,0 33.07833234567812,34.75071576397995,0 33.07825434339689,34.75069303951836,0 33.07809114115864,34.75064957467697,0 33.07798670530728,34.75058428720182,0 33.07783662888026,34.75046357700902,0 33.07779869775495,34.75046157925961,0 33.07771869275634,34.75045979585937,0 33.07768667789172,34.75047753547758,0 33.07763873753704,34.75051120601066,0 33.07760773719917,34.75063045170091,0 33.07759668881003,34.75069832641894,0 33.07759230132412,34.7507588589684,0 33.07759241625587,34.75088175378389,0 33.07749696450854,34.75099737242417,0 33.0772636909513,34.75107272443245,0 33.07702817222705,34.7511242327698,0 33.07683036519235,34.75110234665291,0 33.07676194482714,34.75107618511842,0 33.07668397691643,34.75101728565349,0 33.07660677538296,34.75083606319789,0 33.07655563936866,34.75081133301647,0 33.0764373189016,34.75083066622781,0 33.07636119398246,34.75081925005407,0 33.07609169208228,34.7506230932226,0 33.07596930784772,34.75051131046131,0 33.07589287336712,34.75047032884509,0 33.07565527714569,34.75038416862417,0 33.07556565757643,34.75039532129475,0 33.07548549961057,34.75040175157135,0 33.07526798346944,34.75039116867845,0 33.07516989611327,34.75042395874264,0 33.07512974189456,34.75051900963242,0 33.07508184526662,34.75070355549546,0 33.0750394178194,34.75075616859319,0 33.0748874752108,34.75083837203698,0 33.0747522662931,34.7508836608556,0 33.07466734987084,34.75092246150835,0 33.07455587310142,34.75101909380673,0 33.07445291021121,34.75111387459745,0 33.07439439135798,34.7511487050938,0 33.0743641733628,34.75121042610553,0 33.07438306573162,34.75128313662936,0 33.07438165711716,34.75139191002494,0 33.0743741665682,34.7514366669132,0 33.07434632092121,34.7514571949412,0 33.07418595204787,34.75149520743735,0 33.07413142014254,34.75149183761347,0 33.07409176641442,34.75143621703256,0 33.07408715149639,34.75134159038522,0 33.07406091916319,34.7513011486037,0 33.07399259231929,34.75129455625594,0 33.07394237472715,34.75131448929346,0 33.07384770130736,34.75135494137049,0 33.07374205512053,34.75137516574125,0 33.07370116732886,34.7513820208898,0 33.0736064962973,34.75140076280301,0 33.07356052106778,34.75143474334762,0 33.07352989853629,34.75148940863006,0 33.07352065545772,34.75166707306724,0 33.07344827903175,34.75181037299435,0 33.07336705999536,34.75189202433177,0 33.07323092475351,34.75198458842421,0 33.07311450489185,34.75201185916553,0 33.07299364366942,34.75198654461728,0 33.07286397556825,34.75193947386203,0 33.07284411004132,34.75183431006288,0 33.07282867190068,34.75176722418295,0 33.07278246898515,34.75169290350497,0 33.07253441440403,34.75155767223204,0 33.07223370666874,34.75161766674402,0 33.07195835956704,34.75167166521484,0 33.07175181067986,34.75166879601912,0 33.07147101859488,34.75156443358947,0 33.07125966171559,34.75146060323424,0 33.07105257221747,34.75159485857122,0 33.07101868368566,34.75155799130329,0 33.07107004230231,34.75143724079507,0 33.07112822136294,34.75137237529039,0 33.07114848424296,34.75131312189654,0 33.07113892447222,34.7512203514336,0 33.07111449230982,34.75115553415986,0 33.07105893120873,34.75111309047185,0 33.07096861132189,34.75108604510527,0 33.07096408455961,34.75105837457732,0 33.0712510507809,34.75085259643249,0 33.07092204053664,34.75060836349426,0 33.07095580898496,34.75045679045483,0 33.07082580296654,34.75038458577286,0 33.07057157431581,34.75039639199689,0 33.07045853804293,34.75034749347689,0 33.07032287291224,34.75026363468756,0 33.07020130840893,34.75015178795073,0 33.07008824314344,34.75006791496659,0 33.06963619548127,34.74998656825726,0 33.06928017990694,34.74988651216589,0 33.06910779354241,34.74980267289849,0 33.06912733808866,34.74952753288648,0 33.06893977961813,34.74948107041615,0 33.06875194488867,34.74959523175168,0 33.06845722583263,34.74968207993608,0 33.06835767086996,34.74960609908344,0 33.06814029508528,34.74964576005227,0 33.06767968970464,34.74965362073949,0 33.06745852092082,34.74956097818475,0 33.0670266658451,34.74930205172615,0 33.06703165299859,34.7492564898383,0 33.0665670253685,34.74862900132151,0 33.06637194807453,34.7482431652938,0 33.06614337133213,34.74822493220493,0 33.0659258747666,34.74799663686297,0 33.06570596161442,34.7483148034566,0 33.06555837765625,34.74851210464302,0 33.06524846349195,34.74861506784724,0 33.06443181829835,34.74878324905305,0 33.0644317306653,34.74867039467509,0 33.06427498003048,34.7485704698531,0 33.06460499179455,34.74831437828848,0 33.06490705031761,34.74804593712408,0 33.06525133786371,34.7477106983432,0 33.06562450695511,34.74746308618008,0 33.06553379548516,34.74737961245456,0 33.06520921048413,34.74763693146192,0 33.06494330321581,34.74780745048297,0 33.06496748841119,34.74786276862299,0 33.06464156145763,34.74803963284324,0 33.06429963331071,34.74785878248252,0 33.06291765502502,34.74872578528847,0 33.06265338299198,34.7486963471546,0 33.06228404730427,34.74891649589338,0 33.06198175380186,34.74895176938794,0 33.06185418470184,34.74905534497722,0 33.06173333564666,34.74916076502877,0 33.06136371607409,34.74938859339154,0 33.06110380049565,34.74970656442537,0 33.06099468556718,34.74987970761757,0 33.06033133817522,34.75030378696586,0 33.05978841542679,34.75059990377559,0 33.05983306178555,34.75065155832621,0 33.05938770908165,34.75086413619217,0 33.05903819414549,34.75097453724657,0 33.05877116003077,34.75107517161799,0 33.05855132268142,34.7512633194642,0 33.05832721948271,34.75097163815021,0 33.05869825730954,34.75074451340027,0 33.05862746089124,34.75061324192446,0 33.05849185027315,34.75048038161717,0 33.05881762559024,34.75012845686703,0 33.05878027475761,34.75007984356716,0 33.05842698214961,34.75040098107115,0 33.058302233594,34.75035159910569,0 33.05788893599934,34.7505293010115,0 33.05783875683971,34.75038991510042,0 33.05786917880864,34.75036072112989,0 33.0578284914501,34.75017994534412,0 33.05793131919782,34.75010537867563,0 33.05813851073683,34.74963034669886,0 33.05817235056707,34.74946215772189,0 33.05785906465675,34.7492008937899,0 33.05775857741754,34.74904487172619,0 33.05762770098328,34.74882720734499,0 33.05748985704021,34.74865964232939,0 33.05745707775433,34.74836573595741,0 33.05747982458725,34.74811743283925,0 33.05752555718913,34.74796607054704,0 33.05792626109404,34.74742200223926,0 33.05808938412434,34.74717363212594,0 33.05845879356082,34.74698204632034,0 33.058715848319,34.74661318632594,0 33.05872114691329,34.7465261626003,0 33.05872645911376,34.74645683733959,0 33.05873884196989,34.74627983762204,0 33.05874149027716,34.74625347118143,0 33.05874692461578,34.7461993671041,0 33.05866472563508,34.74619752266039,0 33.05890878233068,34.74584309011995,0 33.05895669192346,34.74578841197888,0 33.05888817549894,34.74576206012726,0 33.05897937751386,34.74558108913707,0 33.05904547208345,34.74541332229641,0 33.05905456544747,34.74535866292419,0 33.05911159751356,34.74529078824548,0 33.05923715631651,34.74526434224478,0 33.05934843099258,34.74501602892079,0 33.0593820186613,34.74487388024693,0 33.05940442254606,34.74479662362136,0 33.05946425937602,34.74471934872128,0 33.05950539955815,34.74466989134358,0 33.05946043924832,34.74461120624161,0 33.0596737068343,34.74447514917786,0 33.06007047464416,34.7444533252737,0 33.06034848618003,34.74446623746397,0 33.06045584738231,34.74404338952483,0 33.06055634664484,34.74397779221288,0 33.06058543459166,34.74365015167831,0 33.06060946091567,34.74320795083144,0 33.06064042574484,34.7428654594582,0 33.0604958071517,34.74288972491777,0 33.06048298962781,34.7427866450328,0 33.06067261605855,34.74258480261357,0 33.06046449162665,34.74236194018111,0 33.06050262638767,34.74220998814041,0 33.06039743821047,34.74219228236225,0 33.06040778991639,34.74212770250301,0 33.06000053422796,34.74204843775072,0 33.06028218916949,34.74148792383932,0 33.06042324648411,34.74152534322489,0 33.06064549200659,34.74145025331741,0 33.06082475115522,34.74142845933093,0 33.06111443362087,34.74146989175755,0 33.06152191242852,34.7414429897044,0 33.06153818132914,34.74157468570606,0 33.06144227170941,34.74162456807901,0 33.06138516694035,34.74166642129858,0 33.06135188440144,34.7418515352246,0 33.06131307517804,34.74185244451343,0 33.06126149219483,34.74205034139552,0 33.06120581351996,34.74225096453833,0 33.06129503509844,34.74226915002213,0 33.06128791892149,34.74231468485481,0 33.06144559889787,34.74233216597332,0 33.06171583936163,34.74242795165291,0 33.06171825970891,34.74246214393779,0 33.06188250591769,34.74252982921898,0 33.06187937564713,34.7427358473614,0 33.06199106824626,34.74278729492948,0 33.06233258420512,34.74277085638695,0 33.06239207719857,34.74328044540481,0 33.06322581556341,34.74380702418563,0 33.06343587766663,34.74369435612666,0 33.06369078132325,34.74355297420902,0 33.06408422689999,34.74333869942305,0 33.06431892506921,34.7431596392242,0 33.06443325804508,34.74306315258362,0 33.06448980940392,34.74299850647262,0 33.06453069796051,34.74292392816798,0 33.06472340149673,34.74294669070585,0 33.06463796278921,34.7430312331905,0 33.06450807243193,34.74325298425862,0 33.06427432552896,34.74371536514361,0 33.06394880880094,34.74382006596242,0 33.06378188039295,34.74411311727948,0 33.06355844451503,34.74436638641956,0 33.06343419612969,34.74458771146634,0 33.06382940222477,34.74439892736878,0 33.0644086677959,34.74411878309388,0 33.06458549372122,34.74398416821629,0 33.06472506141621,34.74384422719135,0 33.0648106332693,34.74373623835896,0 33.06489907161637,34.74359470439032,0 33.06508381107458,34.74344893072382,0 33.06529735511151,34.74323420262672,0 33.06538986250275,34.7431622412546,0 33.06572875317214,34.7428910943938,0 33.06596589134833,34.74270061172519,0 33.0662438822484,34.74237919998026,0 33.06594958247317,34.74227210594958,0 33.06590329200247,34.74228076073956,0 33.06581514574464,34.74224135844012,0 33.06573000493643,34.74222537724911,0 33.06565528150544,34.74216254479478,0 33.06558952446954,34.74210710399569,0 33.06548491601242,34.74202395225101,0 33.06548328962446,34.74198897353408,0 33.06558238245688,34.74192622144559,0 33.06570304896947,34.74184695810513,0 33.06576446382549,34.74173840736335,0 33.0658241982998,34.74162769037206,0 33.06589011363899,34.74150590180384,0 33.06599004989138,34.74136366123546,0 33.06637722927525,34.74100596719584,0 33.06649131223532,34.74090670671957,0 33.06691757998428,34.74048736174728,0 33.06734995045179,34.7401895286551,0 33.06797447337348,34.7397502297825,0 33.06827298193149,34.73958761947475,0 33.0681422274133,34.73949658057125,0 33.06831960216336,34.73876906801057,0 33.06837168887072,34.73876545545544,0 33.0685123016132,34.73820458756073,0 33.06869025007204,34.73817761281752,0 33.06874210641337,34.737896293493,0 33.06839259278956,34.73779436577134,0 33.06807139865863,34.73781962900097,0 33.06753515776372,34.73762284431439,0 33.06761942520335,34.7371605497154,0 33.06774730630645,34.73695264637241,0 33.06736736059877,34.73678623355509,0 33.06752118388997,34.73645289949622,0 33.06764478333696,34.73631845645129,0 33.06821104274947,34.73607805928462,0 33.06839079047846,34.73560675175506,0 33.06834950184496,34.73554227586006,0 33.06903023950252,34.73465322927802,0 33.0693701253041,34.73363716548795,0 33.0693913263277,34.73303694739194,0 33.06957363054344,34.73304042674216,0 33.0695429228491,34.73265344608642,0 33.0696492190954,34.73259963535727,0 33.06956008364409,34.73241335384874,0 33.06922337600405,34.73202654741733,0 33.06885187118147,34.73154838513393,0 33.06798610351699,34.7317244538492,0 33.06782323816932,34.73160271217858,0 33.06778401778829,34.73141102608439,0 33.06768407967505,34.73127670706973,0 33.06732808988147,34.73118194643157,0 33.0672543392215,34.73122677839789,0 33.06654028805331,34.73115550473112,0 33.06631009733363,34.73096750564162,0 33.0665097616871,34.73097635558288,0 33.06651815828387,34.73062160177901,0 33.06662668248327,34.73064125126462,0 33.06663310733037,34.73053374771033,0 33.06643351713778,34.73061627341487,0 33.06563012689654,34.73008100257657,0 33.06500277078811,34.72985379761297,0 33.06480527891497,34.72984494494419,0 33.06444707328983,34.72967851033254,0 33.06428190218444,34.72937043256138,0 33.06485876009749,34.7288559204058,0 33.06519694407626,34.72840065803697,0 33.06555893429623,34.7278683406094,0 33.06540440915897,34.72730046708902,0 33.06551068287239,34.72722336870073,0 33.06567329960812,34.7270459064299,0 33.06605728384002,34.72689340836821,0 33.06590955087157,34.72668207150328,0 33.06601369684604,34.72666051599472,0 33.06610059441019,34.72677871809589,0 33.06612229387511,34.72677691510266,0 33.06620871638049,34.72630028613835,0 33.06641681446861,34.72601350678612,0 33.0663213171195,34.72599564212356,0 33.06640792645065,34.72575372101812,0 33.06623646777992,34.72572335553798,0 33.06624289738777,34.72562301949132,0 33.06621436004063,34.72521274418659,0 33.06639231292639,34.72522518947297,0 33.06669973493167,34.72432381517632,0 33.06680390045239,34.72432913356204,0 33.06685360857115,34.72407827350676,0 33.06662572411461,34.72403719039978,0 33.06677721477671,34.72352648395213,0 33.06671853200621,34.72341184925858,0 33.06678355856526,34.7233204389393,0 33.06690507993683,34.72332216438625,0 33.06678309323647,34.72274173217953,0 33.0667613934005,34.72274174407231,0 33.06643562861625,34.72240509004515,0</coordinates>
						</LinearRing>
					</outerBoundaryIs>
				</Polygon>
			</MultiGeometry>
		</Placemark>
	</Document>
</kml>