<?xml version='1.0' encoding='UTF-8'?>
<kml xmlns="http://www.opengis.net/kml/2.2">
	<Document>
		<name>DIMOS KYTHREAS CHARDAKIOTISSA</name>
		<Style id="PolyStyle60">
			<LabelStyle>
				<color>00000000</color>
				<scale>0.000000</scale>
			</LabelStyle>
			<LineStyle>
				<color>ffff7000</color>
				<width>2.000000</width>
			</LineStyle>
			<PolyStyle>
				<color>00828282</color>
				<outline>1</outline>
			</PolyStyle>
		</Style>
		<Placemark id="ID_60113">
			<name>DIMOS KYTHREAS CHARDAKIOTISSA</name>
			<snippet />
			<description>&lt;html xmlns:fo="http://www.w3.org/1999/XSL/Format" xmlns:msxsl="urn:schemas-microsoft-com:xslt"&gt;

&lt;head&gt;

&lt;META http-equiv="Content-Type" content="text/html"&gt;

&lt;meta http-equiv="content-type" content="text/html; charset=UTF-8"&gt;

&lt;/head&gt;

&lt;body style="margin:0px 0px 0px 0px;overflow:auto;background:#FFFFFF;"&gt;

&lt;table style="font-family:Arial,Verdana,Times;font-size:12px;text-align:left;width:100%;border-collapse:collapse;padding:3px 3px 3px 3px"&gt;

&lt;tr style="text-align:center;font-weight:bold;background:#9CBCE2"&gt;

&lt;td&gt;1&lt;/td&gt;

&lt;/tr&gt;

&lt;tr&gt;

&lt;td&gt;

&lt;table style="font-family:Arial,Verdana,Times;font-size:12px;text-align:left;width:100%;border-spacing:0px; padding:3px 3px 3px 3px"&gt;

&lt;tr&gt;

&lt;td&gt;DIST_CODE&lt;/td&gt;

&lt;td&gt;1&lt;/td&gt;

&lt;/tr&gt;

&lt;tr bgcolor="#D4E4F3"&gt;

&lt;td&gt;VIL_CODE&lt;/td&gt;

&lt;td&gt;139&lt;/td&gt;

&lt;/tr&gt;

&lt;tr&gt;

&lt;td&gt;QRTR_CODE&lt;/td&gt;

&lt;td&gt;5&lt;/td&gt;

&lt;/tr&gt;

&lt;tr bgcolor="#D4E4F3"&gt;

&lt;td&gt;QRTR_NM_E&lt;/td&gt;

&lt;td&gt;CHARDAKIOTISSA&lt;/td&gt;

&lt;/tr&gt;

&lt;tr&gt;

&lt;td&gt;QRTR_NM_G&lt;/td&gt;

&lt;td&gt;ΧΑΡΔΑΚΙΩΤΙΣΣΑ&lt;/td&gt;

&lt;/tr&gt;

&lt;tr bgcolor="#D4E4F3"&gt;

&lt;td&gt;VIL_CCD&lt;/td&gt;

&lt;td&gt;1139&lt;/td&gt;

&lt;/tr&gt;

&lt;tr&gt;

&lt;td&gt;QRTR_CCD&lt;/td&gt;

&lt;td&gt;113905&lt;/td&gt;

&lt;/tr&gt;

&lt;/table&gt;

&lt;/td&gt;

&lt;/tr&gt;

&lt;/table&gt;

&lt;/body&gt;&lt;script type="text/javascript"&gt;

				function changeImage(attElement, nameElement) {

				document.getElementById('imageAttachment').src = attElement;

				document.getElementById('imageName').innerHTML = nameElement;}

			&lt;/script&gt;&lt;/html&gt;

</description>
			<styleUrl>#PolyStyle60</styleUrl>
			<MultiGeometry>
				<Polygon>
					<extrude>0</extrude>
					<altitudeMode>clampToGround</altitudeMode>
					<outerBoundaryIs>
						<LinearRing>
							<coordinates> 33.47499626616339,35.26001999483636,0 33.47500939593749,35.25988372331169,0 33.4749678603459,35.25977666913695,0 33.47646096019487,35.25916237022037,0 33.47646947356869,35.25887018084692,0 33.47651308983449,35.25877521647581,0 33.47669954809452,35.2586095585562,0 33.47692220931522,35.25857224924538,0 33.47728528696911,35.25851140960927,0 33.47739946816726,35.25843422389273,0 33.47736122055001,35.25836617374274,0 33.47766172449732,35.25821505521881,0 33.47788871273258,35.25805621935568,0 33.47795249444265,35.25796123791729,0 33.47809926514565,35.25784716547577,0 33.47815222753611,35.25778680898676,0 33.47816440801783,35.25775218305296,0 33.47812081547271,35.25773437909998,0 33.47772876949892,35.25770922775983,0 33.47767428575136,35.2576892059839,0 33.47756790891835,35.25758328926242,0 33.47758961619596,35.25754753421542,0 33.47777480242186,35.25758636110788,0 33.47799785417212,35.2575023298028,0 33.47837074221588,35.25747615126397,0 33.47782980494308,35.25718437760931,0 33.47821069646196,35.25707780640543,0 33.47824043953165,35.25697728874022,0 33.47820900505479,35.25691257946805,0 33.47860765121042,35.25683724175111,0 33.47855585733448,35.25680047021576,0 33.47852445733117,35.25675362261852,0 33.47857861222831,35.25660953210443,0 33.47878443041598,35.256756620744,0 33.47912061293695,35.25675393355488,0 33.47958598719481,35.25669748090256,0 33.47967877839606,35.25681457904217,0 33.47979329673918,35.25690708606888,0 33.47991080618191,35.25713244169771,0 33.48006436397428,35.25701165983604,0 33.48018527700902,35.25690097026764,0 33.48023958124734,35.2568327943853,0 33.4804460244776,35.2566148119445,0 33.48077127330212,35.25659092348385,0 33.48095397984341,35.2567492034269,0 33.48100577805887,35.25678709072328,0 33.48105070805866,35.2567937283478,0 33.48121247574692,35.25669526208902,0 33.4812981639791,35.25666611773466,0 33.48142845352073,35.25663190319746,0 33.48170503758908,35.25665441953474,0 33.48179703576551,35.2566869590224,0 33.48186820794474,35.2567277685988,0 33.4819222694443,35.25677348758506,0 33.48201437542438,35.25685853631279,0 33.48209781911196,35.25689352894554,0 33.48216552280166,35.25687633940871,0 33.48224331093337,35.25687653780934,0 33.48246716004032,35.25695468744175,0 33.4824842134675,35.25692230320733,0 33.48249601556497,35.25686977786328,0 33.48262661289618,35.25684914278951,0 33.4827050904583,35.25682216877749,0 33.48273225140972,35.2568175517309,0 33.48288597668031,35.25682252963883,0 33.48284328265655,35.2566937568329,0 33.4827921057073,35.25665050734596,0 33.48258052643973,35.25651858087573,0 33.48251045145768,35.25646861023266,0 33.48244058246281,35.25641277345331,0 33.48239155093122,35.25636673358408,0 33.48228825149019,35.25628574449115,0 33.4822195993326,35.25622416184785,0 33.48221179753289,35.25621013863432,0 33.48220084518785,35.25613322072493,0 33.48217509721471,35.25610028597502,0 33.48199727847711,35.25596162493929,0 33.4820559324536,35.25588736012538,0 33.48173004857903,35.2557803472558,0 33.48164097171218,35.2557200227842,0 33.48157377962649,35.25562272851909,0 33.48160836368262,35.25562467397028,0 33.48180409934242,35.25561898048353,0 33.48221002679539,35.25556309245299,0 33.48224695321662,35.25551096816868,0 33.4822925058188,35.25547347673596,0 33.48238197449184,35.25552923007641,0 33.48242279824303,35.25552582417171,0 33.4824703719259,35.25549449906276,0 33.48258424637341,35.25527329090583,0 33.48277436556996,35.25506537578725,0 33.48289266244251,35.25500938963621,0 33.48303143879988,35.25498463734357,0 33.48303422529148,35.25501533440983,0 33.48300858566517,35.2551225458464,0 33.48307825735944,35.25524748824063,0 33.48313416913356,35.25529988213694,0 33.48322158679238,35.25545047624957,0 33.48328569033713,35.25551625619322,0 33.48353354638948,35.25558401334951,0 33.48364528392285,35.25564749352657,0 33.48386320924695,35.25572199025466,0 33.48416420348697,35.25581758183868,0 33.4844734844973,35.25597121444481,0 33.4846287241745,35.25600895642179,0 33.48478381992009,35.25597636326744,0 33.4849445205537,35.25602191053655,0 33.48504110019955,35.25599498144884,0 33.48516767889538,35.25599480392322,0 33.48539103353114,35.25606147468262,0 33.48562652827924,35.25607565678271,0 33.48577641184185,35.2561547109493,0 33.48594276231668,35.25629737761947,0 33.48615130803952,35.25644110132045,0 33.48631637651468,35.25662061016788,0 33.48638199149608,35.25675560376024,0 33.48641083077841,35.25687725240446,0 33.48658401899996,35.25703442180779,0 33.48668486374732,35.25709344867089,0 33.48692323352321,35.25717879584654,0 33.49018171421232,35.25714210877339,0 33.49204012463678,35.25712114577188,0 33.49254008471691,35.25711501864748,0 33.49263384777442,35.25712297561827,0 33.49263994963275,35.25690442777521,0 33.49274687235796,35.25691371379886,0 33.49281273457791,35.25694869129253,0 33.49305774510062,35.25692944571635,0 33.49311849630291,35.25688349016099,0 33.49346233248176,35.25693154895165,0 33.49354995025313,35.25713781641534,0 33.49349142538178,35.25744952282506,0 33.49431398841212,35.25755622916352,0 33.49465147618827,35.257706817037,0 33.49476662609163,35.25771743773301,0 33.49501979546312,35.25766849857045,0 33.49502331772192,35.25777371467247,0 33.49538047151531,35.25789189662002,0 33.49557451442645,35.25787946619307,0 33.49583443735934,35.25790875713198,0 33.49582857226337,35.25823117711811,0 33.49599647551648,35.25829702784645,0 33.49599992055416,35.25836717069395,0 33.49656898279338,35.25836901737534,0 33.49747208841285,35.25844860069522,0 33.49826662076436,35.25851620069501,0 33.49857517016324,35.25855604343781,0 33.49846100320518,35.25865417989538,0 33.4985322823084,35.25890228800327,0 33.4984914304541,35.25901971295932,0 33.49849666100879,35.25915190733371,0 33.49837506684725,35.25920200471721,0 33.49834419690896,35.25937067691113,0 33.49811727230545,35.25938990653278,0 33.49801561305854,35.25952900647437,0 33.49795846714327,35.25971525540927,0 33.49807710911255,35.2598149020823,0 33.49806589053064,35.2599457724404,0 33.49800694988945,35.26006592262448,0 33.49788859748533,35.26009577925778,0 33.49787891844925,35.2601794317928,0 33.4977070785452,35.26056145849213,0 33.49774686421694,35.26070034678214,0 33.49757626010877,35.26090025563423,0 33.49733804797771,35.26102202498443,0 33.49750159688502,35.26134419009658,0 33.49736220490856,35.26152786448377,0 33.49710948636899,35.26156903232597,0 33.49706361861775,35.26158259990466,0 33.49670189232657,35.26168960148078,0 33.4962352163535,35.26210592463413,0 33.49634668638195,35.26221219775175,0 33.49641919483992,35.262396248238,0 33.49635762900373,35.26250109124909,0 33.49618897045182,35.2626162318019,0 33.49617274159736,35.26272945458329,0 33.49629440571167,35.26278671679631,0 33.49628434344842,35.26296428616953,0 33.49619856703525,35.2632261374764,0 33.49620906911863,35.26331735617079,0 33.49631473964601,35.26359259102983,0 33.49619579373277,35.263832682103,0 33.49609705468066,35.26389534240909,0 33.49608713808418,35.26406768855837,0 33.4960294912299,35.26408298060138,0 33.49603390089372,35.26421306822846,0 33.49595967918681,35.26418445719814,0 33.49592252623735,35.26423196153483,0 33.49589407004026,35.26432478572092,0 33.49582810973145,35.2643062992742,0 33.49582409680591,35.26435530287109,0 33.49576044072177,35.26444663165716,0 33.49576883748077,35.26451757981291,0 33.49575256223215,35.26461052801776,0 33.49577335137676,35.2646949730961,0 33.49567687225279,35.26484886390503,0 33.49557192225821,35.26489801684617,0 33.49556387237349,35.26498419443821,0 33.49547967088508,35.2651008980584,0 33.49525123716038,35.26520429823798,0 33.49492595767189,35.26529601661497,0 33.49477132264067,35.26523542299499,0 33.49473430159281,35.26526251113142,0 33.49456131797431,35.26528811074719,0 33.49449549777014,35.26533382540181,0 33.49430400164274,35.26537296778459,0 33.49416597463475,35.26536979357763,0 33.49370417963657,35.26520996986141,0 33.49359692660644,35.26514930487981,0 33.4933269441202,35.26509394729099,0 33.49270008758333,35.2648127172601,0 33.49261771068782,35.26482297503508,0 33.49247779092965,35.26489751975619,0 33.49206069989803,35.26445040463124,0 33.49186677436312,35.26431890515536,0 33.49154060532882,35.26400005952878,0 33.49145351103502,35.26373492967053,0 33.49101574961043,35.26325067237288,0 33.49105869292456,35.26310362040729,0 33.49092668795146,35.26302609404625,0 33.49084427917723,35.26302114539871,0 33.49069574020623,35.26291829945091,0 33.4906706750983,35.26275783056295,0 33.49057974785256,35.26262279968901,0 33.49042107271281,35.26259599776461,0 33.49019354670679,35.26264802605102,0 33.49010093762683,35.26266920319083,0 33.49001121663754,35.26253337829191,0 33.4898844123348,35.26250688285761,0 33.4897498141828,35.26250707708606,0 33.48923127881879,35.26235326973669,0 33.48899346181,35.26234073201702,0 33.48874670849355,35.26234568601059,0 33.48854117192923,35.26221718543641,0 33.48799152053098,35.26219773248873,0 33.48758306752853,35.26211643788328,0 33.48735969437924,35.26203855914461,0 33.48725759468272,35.26202490523062,0 33.4870757581232,35.26196352607511,0 33.48696693724833,35.261953560368,0 33.48683350614927,35.26197490920595,0 33.48667305632026,35.26194937773229,0 33.48655655732672,35.26202221969179,0 33.48635808074738,35.26204825981698,0 33.48622132711331,35.26208985096369,0 33.4857008910207,35.26209518519509,0 33.48559199347083,35.26204842069954,0 33.48532965662,35.26211042710204,0 33.48492277372316,35.26224255272826,0 33.48486555644477,35.26223619384713,0 33.48468597071804,35.26217848781248,0 33.48461960283549,35.26208658412089,0 33.48459571633696,35.26192746395364,0 33.48446893644113,35.26191108250507,0 33.48434788227497,35.26177464327246,0 33.48430885957034,35.26175802662225,0 33.48431579163254,35.26168297987157,0 33.48428133031998,35.26165814511689,0 33.48420452776238,35.26171299487494,0 33.4841298356226,35.26180931396024,0 33.48409096051446,35.26192080953357,0 33.48409452423209,35.26201648107769,0 33.4841285462685,35.2621958264781,0 33.48413215306482,35.26228450314984,0 33.48400247126982,35.26234129588715,0 33.48391176735572,35.26236094455703,0 33.48382896892838,35.26236384819506,0 33.48370653110008,35.26239655567011,0 33.48363505627709,35.26239014774077,0 33.48359973592675,35.26231396832073,0 33.48353512405508,35.26233543957055,0 33.48343309079024,35.26236161045881,0 33.48342724813255,35.2624050261464,0 33.48345396199775,35.26246415888777,0 33.48345540369994,35.26250946180107,0 33.48339627879331,35.26260678455772,0 33.48337069716697,35.26262450058407,0 33.48332484968897,35.26262235456624,0 33.48322373614356,35.26262691466955,0 33.48310772897321,35.26260166067992,0 33.48299574885444,35.26256756060358,0 33.48294711585446,35.26252232255941,0 33.4828797029275,35.26252352092692,0 33.48277249891431,35.2625297598885,0 33.48254542748104,35.26251449223019,0 33.48232468339116,35.26262243264434,0 33.48224769311272,35.26281941121641,0 33.48216270099261,35.26294372367241,0 33.48202947389142,35.26306626232706,0 33.48196676706339,35.26311786633434,0 33.48189412657766,35.26324860129318,0 33.48178092768114,35.26329199552561,0 33.48162745838112,35.26338972277615,0 33.48132267314445,35.26354101502332,0 33.48081349794823,35.26357207190095,0 33.48060514242308,35.26370759079433,0 33.48040802707501,35.26385505483253,0 33.48029931479579,35.26389936099083,0 33.48026909635394,35.26393252005057,0 33.48023015701262,35.26408988665511,0 33.48012384322043,35.2642114672893,0 33.47997045283019,35.26434967120926,0 33.47976533637018,35.26442446619196,0 33.4796511415205,35.26453225682864,0 33.47949866059845,35.26456558301587,0 33.47935865850243,35.26466880830986,0 33.47923108955494,35.26481985548165,0 33.4791471654521,35.26492024531344,0 33.47897136409466,35.26507135700709,0 33.47888966465423,35.26516254379686,0 33.47884386014871,35.26525460253134,0 33.47882717507478,35.26532454157621,0 33.4789612686835,35.26562886766286,0 33.47908749071966,35.26592308515082,0 33.47909560148946,35.26605094863228,0 33.47907568607805,35.26618804953297,0 33.47895853643035,35.26650099576219,0 33.47875815022249,35.26669997836033,0 33.47875837947112,35.26681405311287,0 33.47872158964897,35.26692725848568,0 33.47869721864178,35.26708000502268,0 33.47854954338845,35.26727523629287,0 33.47850968603976,35.26753655908448,0 33.47853667875805,35.26757240107052,0 33.4787242289726,35.26768254391295,0 33.47894536219222,35.26775860133908,0 33.47916868311352,35.2678070576265,0 33.47923489042997,35.26781892704582,0 33.47935731881501,35.26789879806365,0 33.47949422522695,35.26792621089964,0 33.47979415955875,35.26803429587294,0 33.47981976513194,35.26804352358794,0 33.4798478563787,35.26806740414683,0 33.47986040309997,35.26816950298777,0 33.47980161829444,35.26849984937918,0 33.47972455758569,35.26877930791986,0 33.47970245056018,35.26885964429739,0 33.47957645850532,35.26931748910322,0 33.47939864048856,35.26982848060216,0 33.47924238654414,35.27035845953178,0 33.47915662635598,35.27053380608386,0 33.4790724071825,35.27065210011445,0 33.47894501072472,35.27071068202667,0 33.47871667389254,35.2708087938252,0 33.47871009285706,35.2708305367433,0 33.4787202110242,35.27092017561831,0 33.47871043950293,35.27100305083668,0 33.47864115126695,35.27113490709456,0 33.47861139927821,35.27116347315543,0 33.47852700981129,35.27119754550495,0 33.47850222930397,35.27122746377157,0 33.47846934548119,35.27134568683606,0 33.47831256573647,35.27161757437086,0 33.47829285028785,35.2716963857922,0 33.47830786727682,35.27175205946619,0 33.47834602610175,35.27178732550762,0 33.47849028660396,35.27187814206155,0 33.47853012656667,35.27192563127742,0 33.47859328060697,35.27203693407929,0 33.47858838044926,35.27207089931865,0 33.4784958424287,35.27217154442481,0 33.47840142486483,35.2721608047314,0 33.47837494560625,35.27216899117835,0 33.47800611644354,35.27240584534759,0 33.47770035891677,35.27271460729811,0 33.4776706781721,35.27277849149259,0 33.47765414959608,35.27279481398266,0 33.47743575356294,35.27289834375179,0 33.47740925086712,35.27289566217932,0 33.47736116213956,35.27286448401441,0 33.47714572147829,35.27278870331664,0 33.47710600290411,35.27280234004566,0 33.476966434675,35.27294180785759,0 33.4769507669836,35.27294732926427,0 33.4768214667541,35.27299289335052,0 33.47675853997161,35.27300112753908,0 33.47666409448694,35.27298631147926,0 33.47663594959619,35.27299449870034,0 33.47647379077998,35.27308029321861,0 33.47621741580593,35.27326809045443,0 33.47614956703374,35.27330078183027,0 33.47593263109426,35.27332959612814,0 33.47569275384842,35.27348476961974,0 33.47562489978737,35.27351474307129,0 33.47548415845657,35.2735434553008,0 33.47531201549378,35.27360752736347,0 33.47525079764329,35.27364292606062,0 33.47504570127989,35.27379669340031,0 33.47486041361342,35.27391647555164,0 33.47466348352752,35.27401182170287,0 33.47448311573613,35.27410578656912,0 33.47420177162127,35.27423520334079,0 33.47401644080671,35.27433324856863,0 33.47382119389177,35.27444353338531,0 33.47376995518851,35.2745006532885,0 33.47366580555714,35.27460674211628,0 33.47352028347394,35.27473326205072,0 33.47335648662609,35.2748326380446,0 33.47310827611998,35.27496608248423,0 33.47293945900422,35.27503965490465,0 33.4728865259813,35.27507775840068,0 33.47271963241368,35.27528988262647,0 33.47265529655864,35.27542716218294,0 33.47258780577445,35.27564730676835,0 33.47247730758927,35.27589875012367,0 33.47235275650067,35.27609372201066,0 33.47233541618864,35.27612160980051,0 33.47222874946664,35.27629314444221,0 33.47214453452824,35.27643044992629,0 33.47197762784072,35.27663713965308,0 33.47187188414875,35.27677854816924,0 33.47175461918264,35.2769580053553,0 33.47163565825753,35.27711709071644,0 33.47153649790627,35.27723675550277,0 33.47142564982138,35.27730753453008,0 33.47138601119638,35.27736871307516,0 33.47139435497475,35.27740130318066,0 33.47141930813644,35.27745560581923,0 33.47140278465951,35.27747736092869,0 33.47133653740529,35.27748423875843,0 33.47122384630724,35.27745857479583,0 33.47116083901697,35.27742741354037,0 33.47111942708506,35.27742746665102,0 33.47103346675854,35.2775199472855,0 33.47083345358575,35.27774162080045,0 33.47058699547403,35.27793075198711,0 33.47042651903229,35.2780382694427,0 33.47025274814089,35.27812407102437,0 33.47007570122892,35.27822889241032,0 33.46987539992389,35.27830114248626,0 33.46969653473959,35.27832174667111,0 33.46957401707785,35.27835586255719,0 33.46921315452902,35.27849216000509,0 33.46889534938445,35.27862296867352,0 33.46891861236426,35.27866097427714,0 33.46854785694324,35.27882309195995,0 33.46854459488157,35.27885026306417,0 33.46869217918324,35.27893157871213,0 33.46867898044666,35.27896012145185,0 33.46832962720693,35.27905293344982,0 33.46829493060471,35.27910052072266,0 33.46829503467505,35.27915621456106,0 33.46831991012861,35.27917112437901,0 33.46841104026254,35.27918187651823,0 33.46841603293097,35.27919409517311,0 33.46812139299382,35.27931264713607,0 33.46760988300816,35.27950482389262,0 33.46736822881119,35.27961244012177,0 33.46714804908093,35.27968742785337,0 33.46701235403917,35.27976366647679,0 33.46689335744168,35.27991120066061,0 33.4668255348355,35.27996290304199,0 33.46672620490214,35.27999698786145,0 33.4667460728244,35.28005127411255,0 33.46670892456422,35.28005745755576,0 33.46661289953565,35.28008746162105,0 33.46638442946002,35.28015974156018,0 33.46628017052792,35.28021556457888,0 33.46618342574688,35.28030398025968,0 33.46609242675833,35.28036386229304,0 33.46597402876885,35.2803891396016,0 33.46566510658793,35.28040310794437,0 33.4653139312132,35.28041101582855,0 33.46510274800686,35.28042621931458,0 33.4649097352295,35.28041355415854,0 33.46483018580652,35.28039531402871,0 33.46461966780099,35.28032222160157,0 33.46427407157721,35.28021058163385,0 33.46413980845423,35.28016524111496,0 33.46408257431197,35.28012048561573,0 33.46405683116058,35.28008384066258,0 33.46404012087896,35.28000507579158,0 33.46401423504862,35.2798896447684,0 33.46400829732963,35.27981358326128,0 33.46396923863676,35.2797423161121,0 33.46388208136223,35.27963986549405,0 33.46376601704164,35.27958159753238,0 33.46369781745654,35.2795668916049,0 33.46364543541487,35.27955559712017,0 33.46216894493657,35.28029635724899,0 33.46135045919424,35.28119659521332,0 33.46125456098144,35.28130538024755,0 33.45951624304804,35.2811132179404,0 33.45938703164532,35.28112288108898,0 33.45866633354917,35.28112645403314,0 33.45738776002473,35.28139284738629,0 33.45667668671087,35.28121709101046,0 33.45478054260106,35.28076423553712,0 33.45313801013427,35.28037354738153,0 33.45311448505033,35.28035001041241,0 33.45264843325766,35.27988372962664,0 33.45130585138446,35.27853230213086,0 33.45042861096346,35.27764005321606,0 33.44896338671573,35.27614970162534,0 33.44871935924418,35.27590148332727,0 33.44836428733033,35.27554462202816,0 33.44795943733265,35.27513347822541,0 33.44753304185748,35.27471284730488,0 33.44689259376118,35.27406152643037,0 33.44639154712669,35.27356626257689,0 33.44639945016885,35.27332989658465,0 33.44644954879119,35.27255420830412,0 33.44651897114119,35.27143618891377,0 33.4465674646957,35.27069446300604,0 33.44652270484149,35.27067006023361,0 33.44641499174048,35.27064029308241,0 33.44602734151657,35.27060403615135,0 33.4459726641637,35.27059458664859,0 33.44586322914799,35.27052271024137,0 33.44573554575392,35.27043455356209,0 33.44562783239663,35.27040342642871,0 33.4454257125704,35.27037647675527,0 33.44535780354256,35.2703779084538,0 33.44486287904616,35.27058627204698,0 33.44469729241393,35.27061769080161,0 33.44453829006063,35.27062329489349,0 33.44443884295031,35.27058264931951,0 33.44427960571047,35.27044154915419,0 33.4441651954125,35.27036560172014,0 33.4440276908425,35.27034944805971,0 33.44397469267707,35.27035357977283,0 33.44391514797299,35.27040661905018,0 33.44382079953299,35.27044747043649,0 33.44339347055553,35.27045743268683,0 33.44332388872718,35.27044799694486,0 33.44323602128762,35.27039783085192,0 33.44302376251619,35.27024319975897,0 33.44282796505639,35.27002199079319,0 33.44273172345508,35.2699120638189,0 33.44209733644358,35.269911372035,0 33.44215096134804,35.26924706988316,0 33.44218390427241,35.26890482210564,0 33.44220074974123,35.26872983082532,0 33.44228839646977,35.2687392309317,0 33.44241583769069,35.26829093286904,0 33.44241906022131,35.26823736655143,0 33.44229800687748,35.26801103838691,0 33.44224068067637,35.26783006983463,0 33.44218517989258,35.26775825880137,0 33.44213301881161,35.26770881858418,0 33.44208331108302,35.26764039174334,0 33.44199430122837,35.26728588631862,0 33.44223805965117,35.26667948870282,0 33.44216696904089,35.26615342772603,0 33.44203923764843,35.26588303624708,0 33.44188919992745,35.26562215902116,0 33.4418544055488,35.26557541255431,0 33.44161682007073,35.26536480008679,0 33.44159445007907,35.26533295667235,0 33.44156932235296,35.26512279980076,0 33.44152289359475,35.26503606272166,0 33.44143680734602,35.26496428358521,0 33.44134248556627,35.2649128533244,0 33.44123746918339,35.26489465619422,0 33.44106134485973,35.26486839756311,0 33.44059985442721,35.26473734175666,0 33.44051054748186,35.2647204848279,0 33.44047748199062,35.26472187434638,0 33.44029575109164,35.26481223747863,0 33.4402030471006,35.26473707432284,0 33.44017983078909,35.26469167156159,0 33.44015945254898,35.26434048343923,0 33.44018256657106,35.2643194413743,0 33.44030818237582,35.26429422522854,0 33.44036932003478,35.26427110949269,0 33.44038335214291,35.2642568562835,0 33.44037800136071,35.26400260825294,0 33.4403837537736,35.26397887201533,0 33.44049612251024,35.26394146495396,0 33.44053081369148,35.26392312267176,0 33.44056712126464,35.26388037053849,0 33.44058441410212,35.2638362814804,0 33.44058270331262,35.26379899312172,0 33.44052795472903,35.26367632988936,0 33.44053122626435,35.26365395204151,0 33.44057823333696,35.26358067808609,0 33.44077619328922,35.26329503095566,0 33.44081471348041,35.26307870548618,0 33.44093862488868,35.26248667385723,0 33.44097320661739,35.26239713995452,0 33.44099549491764,35.26237677677459,0 33.4410293721938,35.26236657136675,0 33.44123354141825,35.26235686731126,0 33.44126575800543,35.26234259455703,0 33.44134420457354,35.26228691685081,0 33.44147284863117,35.26208473494544,0 33.44152487383809,35.26205010158777,0 33.44154222633941,35.26204533847311,0 33.44166209666413,35.26204860296554,0 33.44170919478901,35.26203499417359,0 33.44193851932535,35.26172354667607,0 33.44197074559692,35.26171537694281,0 33.44231213676505,35.26170484888645,0 33.44237663180431,35.26171495103996,0 33.44253450242401,35.26170325885196,0 33.44259105989755,35.26165218892222,0 33.44277319362748,35.26148773192568,0 33.44282608304932,35.26141839802452,0 33.44292535231119,35.26135444954163,0 33.44297165055973,35.26130685755368,0 33.44298278135555,35.26101207633899,0 33.44296745266933,35.26098397514397,0 33.44360188835591,35.26029691031442,0 33.4437713543192,35.26011402715409,0 33.44452643474367,35.26003647440437,0 33.44539825714476,35.25994860275873,0 33.44658136796394,35.25982303263617,0 33.44805672577456,35.25965977404402,0 33.44862715559342,35.25959122789506,0 33.45011082031538,35.25945034883193,0 33.45039835343763,35.25942239977964,0 33.45183886073741,35.25928236956281,0 33.45290773326393,35.25918268222343,0 33.45466896235691,35.25905385833986,0 33.45503404744659,35.25903455215411,0 33.45575475272537,35.25923067070781,0 33.45654458390711,35.25945233697277,0 33.45669929131291,35.25951421067508,0 33.45670249178536,35.25946294434059,0 33.45703311048846,35.25948414130713,0 33.45831604198598,35.259528497912,0 33.46012530438511,35.25958974799373,0 33.46196581567296,35.25964958437394,0 33.46366160023017,35.25971080280272,0 33.46617556923428,35.25980151320155,0 33.47151743054855,35.26118240565378,0 33.47438480419613,35.26000928120801,0 33.47478682911912,35.26018500746339,0 33.47498509586301,35.26013593617719,0 33.47499626616339,35.26001999483636,0</coordinates>
						</LinearRing>
					</outerBoundaryIs>
				</Polygon>
			</MultiGeometry>
		</Placemark>
	</Document>
</kml>