<?xml version='1.0' encoding='UTF-8'?>
<kml xmlns="http://www.opengis.net/kml/2.2">
	<Document>
		<name>DIMOS AMMOCHOSTOU CHRYSOSPILIOTISSA</name>
		<Style id="PolyStyle60">
			<LabelStyle>
				<color>00000000</color>
				<scale>0.000000</scale>
			</LabelStyle>
			<LineStyle>
				<color>ffff7000</color>
				<width>2.000000</width>
			</LineStyle>
			<PolyStyle>
				<color>00828282</color>
				<outline>1</outline>
			</PolyStyle>
		</Style>
		<Placemark id="ID_60035">
			<name>DIMOS AMMOCHOSTOU CHRYSOSPILIOTISSA</name>
			<snippet />
			<description>&lt;html xmlns:fo="http://www.w3.org/1999/XSL/Format" xmlns:msxsl="urn:schemas-microsoft-com:xslt"&gt;

&lt;head&gt;

&lt;META http-equiv="Content-Type" content="text/html"&gt;

&lt;meta http-equiv="content-type" content="text/html; charset=UTF-8"&gt;

&lt;/head&gt;

&lt;body style="margin:0px 0px 0px 0px;overflow:auto;background:#FFFFFF;"&gt;

&lt;table style="font-family:Arial,Verdana,Times;font-size:12px;text-align:left;width:100%;border-collapse:collapse;padding:3px 3px 3px 3px"&gt;

&lt;tr style="text-align:center;font-weight:bold;background:#9CBCE2"&gt;

&lt;td&gt;3&lt;/td&gt;

&lt;/tr&gt;

&lt;tr&gt;

&lt;td&gt;

&lt;table style="font-family:Arial,Verdana,Times;font-size:12px;text-align:left;width:100%;border-spacing:0px; padding:3px 3px 3px 3px"&gt;

&lt;tr&gt;

&lt;td&gt;DIST_CODE&lt;/td&gt;

&lt;td&gt;3&lt;/td&gt;

&lt;/tr&gt;

&lt;tr bgcolor="#D4E4F3"&gt;

&lt;td&gt;VIL_CODE&lt;/td&gt;

&lt;td&gt;0&lt;/td&gt;

&lt;/tr&gt;

&lt;tr&gt;

&lt;td&gt;QRTR_CODE&lt;/td&gt;

&lt;td&gt;10&lt;/td&gt;

&lt;/tr&gt;

&lt;tr bgcolor="#D4E4F3"&gt;

&lt;td&gt;QRTR_NM_E&lt;/td&gt;

&lt;td&gt;CHRYSOSPILIOTISSA&lt;/td&gt;

&lt;/tr&gt;

&lt;tr&gt;

&lt;td&gt;QRTR_NM_G&lt;/td&gt;

&lt;td&gt;ΧΡΥΣΟΣΠΗΛΙΩΤΙΣΣΑ&lt;/td&gt;

&lt;/tr&gt;

&lt;tr bgcolor="#D4E4F3"&gt;

&lt;td&gt;VIL_CCD&lt;/td&gt;

&lt;td&gt;3000&lt;/td&gt;

&lt;/tr&gt;

&lt;tr&gt;

&lt;td&gt;QRTR_CCD&lt;/td&gt;

&lt;td&gt;300010&lt;/td&gt;

&lt;/tr&gt;

&lt;/table&gt;

&lt;/td&gt;

&lt;/tr&gt;

&lt;/table&gt;

&lt;/body&gt;&lt;script type="text/javascript"&gt;

				function changeImage(attElement, nameElement) {

				document.getElementById('imageAttachment').src = attElement;

				document.getElementById('imageName').innerHTML = nameElement;}

			&lt;/script&gt;&lt;/html&gt;

</description>
			<styleUrl>#PolyStyle60</styleUrl>
			<MultiGeometry>
				<Polygon>
					<extrude>0</extrude>
					<altitudeMode>clampToGround</altitudeMode>
					<outerBoundaryIs>
						<LinearRing>
							<coordinates> 33.93156929364248,35.10169610331267,0 33.93165427383168,35.10191832897348,0 33.93170847687084,35.10208568661701,0 33.9318754174212,35.10233564835649,0 33.93213070142387,35.10263378588047,0 33.93224442403335,35.10274389555605,0 33.93229745409046,35.10278159415282,0 33.93234540322652,35.10281568124524,0 33.9328518118936,35.10316948327289,0 33.93317518454757,35.10341032705494,0 33.93348963898695,35.10360386973351,0 33.93385560931326,35.10381442294091,0 33.93423334628066,35.1040364318153,0 33.93450351964506,35.10421254610964,0 33.93463532806379,35.10429846545915,0 33.93484523276526,35.10439749411305,0 33.93504383936147,35.10448604276394,0 33.93518607767361,35.10453865920649,0 33.93542253637067,35.10465203914651,0 33.93549818074365,35.10469380005796,0 33.93552627431251,35.1047030431527,0 33.9356505932068,35.10474395150494,0 33.93570815251599,35.10476377727957,0 33.93584771540601,35.10479844655082,0 33.93602531569933,35.10483916582125,0 33.93618516714131,35.10487719970434,0 33.93628749032275,35.10489957109991,0 33.93641341433116,35.10491696481162,0 33.93659682530492,35.10494447022167,0 33.93674807150652,35.10496103968713,0 33.93683259282102,35.10497378903126,0 33.93700847947152,35.10501104621098,0 33.93714805944622,35.10504779510978,0 33.93732052670761,35.10507951860981,0 33.9374270199056,35.10509492975785,0 33.9375394954085,35.10512002304557,0 33.93764184579857,35.10514586155729,0 33.937800922239,35.10519291660793,0 33.93796675282165,35.10523993721669,0 33.9381774700342,35.10530545969735,0 33.93835182741308,35.10536353670425,0 33.9384551698659,35.10540879589788,0 33.93868985438106,35.10551721026169,0 33.93895365921473,35.1056802830958,0 33.93907960790413,35.10581145749175,0 33.93930884956509,35.10598095273414,0 33.93946150828432,35.10607174835776,0 33.93959199473623,35.10613351843533,0 33.93986472566355,35.10624867168649,0 33.93995102454349,35.10628520485189,0 33.94003548060056,35.10632095813747,0 33.94010333404639,35.10634519260537,0 33.94027520730722,35.1064081390514,0 33.94046138806557,35.10646476741505,0 33.94059679419559,35.10650639315488,0 33.94084050798524,35.10657868200528,0 33.94110628393303,35.10666542743127,0 33.94144408211947,35.10678579833616,0 33.941879139513,35.10692717353576,0 33.94206370792649,35.10699352150556,0 33.94233220527059,35.10710453410034,0 33.94255164463561,35.10720400511767,0 33.94289393083002,35.10735834574516,0 33.94314981816542,35.10747636088532,0 33.94348368077669,35.10763282499107,0 33.94370649890639,35.10773227660272,0 33.9437692063477,35.10776178601681,0 33.94383619637771,35.10779084922626,0 33.9443771187474,35.10802552023404,0 33.94525510442347,35.10840641498174,0 33.94524215105315,35.10843023463926,0 33.94555486930081,35.10855062545733,0 33.94590983685976,35.10869452071213,0 33.94602474772106,35.10872781655349,0 33.94651666728027,35.10887506506585,0 33.94670843781477,35.10892761817158,0 33.94694243140346,35.10900028691471,0 33.94744902858051,35.10912508551564,0 33.94728099622277,35.10947642132244,0 33.94712008339814,35.10978840244537,0 33.94686323556223,35.11017477284993,0 33.94675844698045,35.11027767684804,0 33.94663603027018,35.11044778212366,0 33.94640091915171,35.11076557324701,0 33.94618122808799,35.11105074467037,0 33.94589814104148,35.11140606194085,0 33.94580513040894,35.11152280207192,0 33.94562222536764,35.11177390211799,0 33.945535742311,35.11190179874772,0 33.94549007814076,35.11197253927707,0 33.94534353967058,35.11223158473641,0 33.94531251217243,35.11227445427634,0 33.9452289626912,35.11235488242293,0 33.94516092913089,35.11241421376121,0 33.94485553162958,35.11261849512468,0 33.94481115613401,35.11264245329195,0 33.94460699715976,35.11270588108742,0 33.94441346923018,35.1127542710914,0 33.94436633138726,35.11276605689268,0 33.94428594479843,35.11279016832729,0 33.9439833616445,35.11287118133472,0 33.94381977094006,35.11293927734571,0 33.94324775837423,35.11316698379719,0 33.94304566195913,35.11324608036218,0 33.94293099482652,35.11327942712889,0 33.94274424117126,35.11336854875539,0 33.94219657999448,35.11362051413546,0 33.94197723875305,35.11371851309287,0 33.94175183179599,35.11379981944882,0 33.94162910957352,35.11383355477097,0 33.94140877986764,35.11391343925101,0 33.9412230478689,35.11397014908191,0 33.94087201263714,35.11409356595775,0 33.9406820007161,35.1141454182552,0 33.94050160596517,35.11417945037246,0 33.94016760210474,35.11425643512042,0 33.9400122299999,35.11430338464955,0 33.93992626201957,35.114329361766,0 33.93966930489475,35.11438306651015,0 33.93936044329054,35.11444230446446,0 33.9391250943651,35.11449866819705,0 33.93878779754531,35.11458909155985,0 33.93841685656223,35.11469104969797,0 33.93814255445007,35.1147706151004,0 33.93792639273372,35.11482216702866,0 33.93777997513207,35.11486338291732,0 33.93756790317144,35.11492045590693,0 33.93740225554198,35.11496121616558,0 33.9372493647703,35.1149941501161,0 33.93709232562189,35.11501352419073,0 33.93699730373699,35.11502675986925,0 33.93683220249141,35.11505061083884,0 33.93672810509909,35.11506805013219,0 33.93663720424369,35.11508002421319,0 33.93659479114051,35.11508561143708,0 33.93646265187054,35.11511332466242,0 33.9363237672511,35.11513806935998,0 33.9360561081199,35.11521063188908,0 33.93584740469341,35.11527064858544,0 33.93560676257494,35.11532271259679,0 33.93556179897092,35.11533244111177,0 33.93548757481565,35.11534670218693,0 33.9352803023291,35.11541508329803,0 33.93489691193837,35.11553919411116,0 33.93479668717001,35.11557787781815,0 33.93461812618439,35.11564541713109,0 33.93429563772759,35.11578101311431,0 33.93406570886098,35.1158696357956,0 33.9337793088588,35.11597450943683,0 33.9337557224059,35.11598295760352,0 33.93357865361546,35.11602480927719,0 33.93336449436653,35.11607656663124,0 33.93304771583617,35.11618575658292,0 33.93283875556354,35.1162548369832,0 33.93269047778926,35.11630625736689,0 33.93264671289989,35.11632730039438,0 33.93257771228542,35.1163623537696,0 33.9324529964225,35.11643697321518,0 33.93241626063555,35.11645895269129,0 33.93229676401161,35.11651855376243,0 33.93215355894535,35.11657064205141,0 33.93202380023472,35.11661363831723,0 33.93181564484065,35.11667785419337,0 33.93170852483459,35.11669852581591,0 33.93164532928256,35.11671897421145,0 33.93158183897977,35.11673935903956,0 33.93143598345316,35.11665995426311,0 33.93131575255114,35.11660394037644,0 33.93120276559856,35.11654583452159,0 33.93096397670497,35.11642303094891,0 33.93084740673156,35.11632377588574,0 33.93078052096821,35.11626639091466,0 33.930632763686,35.11605964516095,0 33.93053604426174,35.11594858896692,0 33.93018093769146,35.11568985233023,0 33.92925134553521,35.11511766724804,0 33.92887789390994,35.11488779401427,0 33.92865043239885,35.11474482996334,0 33.92834866577418,35.11455665848361,0 33.92829405599785,35.11452286249285,0 33.92800974901845,35.11434657260828,0 33.92768089058359,35.11413229222513,0 33.92676694929703,35.113530024341,0 33.92665743272249,35.11345785418281,0 33.92637535502562,35.11327959276731,0 33.92617092250982,35.11315297188934,0 33.92590732387379,35.11301737157179,0 33.92590181033169,35.113014534708,0 33.92577754410095,35.11293815342592,0 33.92551287465478,35.11277263669467,0 33.92528510699732,35.11263017509363,0 33.92505559821004,35.11248043605207,0 33.92468241044885,35.11225510762704,0 33.92437281073008,35.11206483871386,0 33.92403015941977,35.11185773815745,0 33.92370488226534,35.1116592213807,0 33.92344874494042,35.11152079154492,0 33.92314138127885,35.11135467446491,0 33.92297312197979,35.11126667218252,0 33.9225505042256,35.11104010446908,0 33.92233465115986,35.11094259257533,0 33.92182360099477,35.1107117249619,0 33.92175637518064,35.11067976425408,0 33.92163526049399,35.11060770198885,0 33.92133871340745,35.11048587074915,0 33.92110217143006,35.11038575928288,0 33.92088554599783,35.1102743767235,0 33.9206252181524,35.11000968954168,0 33.91961174785936,35.10869701092987,0 33.91930051498048,35.10837400956344,0 33.91880218268871,35.10791808958287,0 33.91830297157824,35.10746135839144,0 33.91690751443629,35.10626705371772,0 33.91477543383153,35.10446298068654,0 33.91411794955221,35.10386933816659,0 33.91376043298732,35.10353565080537,0 33.91356862340805,35.10339847147081,0 33.9134536666411,35.10333269105499,0 33.9133167729511,35.10325435741643,0 33.91184787917182,35.10223579087744,0 33.91085380741815,35.10156021427598,0 33.90979117649587,35.10081266794353,0 33.90963999567307,35.10071109168342,0 33.90870635844087,35.10008378627884,0 33.90786890955082,35.0995012492248,0 33.90696475627834,35.09886669207693,0 33.90710017818423,35.0988791157113,0 33.90730732346493,35.09890209296857,0 33.90751748350304,35.09897521331177,0 33.90779916283896,35.09903053735981,0 33.90828895079147,35.09924186027754,0 33.90872263849439,35.09940111736789,0 33.90901054412042,35.09958289440883,0 33.90924999117237,35.0996689530884,0 33.90967071616594,35.0998697049876,0 33.90994210389007,35.09996869079483,0 33.91001940381137,35.10001628904478,0 33.91028557931823,35.10012838402608,0 33.91058347056532,35.10022287613162,0 33.9110408276364,35.10035147699303,0 33.91164951577319,35.10049023606226,0 33.9118808663512,35.10055670222072,0 33.912323642241,35.10069790272479,0 33.91295271304739,35.10089850913253,0 33.9129676286601,35.10087897039813,0 33.91343678029325,35.10102153656103,0 33.91356671975257,35.10106102193346,0 33.91408426282811,35.10121076539898,0 33.91426479869396,35.10086821513042,0 33.91434515913789,35.10073237686315,0 33.91439862272458,35.10068766479519,0 33.91446520085389,35.10063198591723,0 33.91454346265648,35.10054456532088,0 33.9146664567162,35.10029407586091,0 33.91472883122039,35.10007018891924,0 33.91470872170274,35.09994666222993,0 33.91472730955995,35.09986239855864,0 33.91411536434842,35.09977862094446,0 33.91417191783083,35.09963367361762,0 33.91476814600317,35.09975698302577,0 33.91478609861757,35.09958592182433,0 33.91468624653608,35.09949961330995,0 33.91477017524581,35.09915988406404,0 33.91487259412386,35.09915937713883,0 33.91491541712877,35.09888823885431,0 33.91529687978737,35.09896789204318,0 33.91554866248768,35.09899853591043,0 33.9156140149024,35.09873661235814,0 33.91559184945205,35.09859810876919,0 33.91563039013806,35.0984627107443,0 33.9152408234083,35.09835106509612,0 33.91514207202054,35.09836237014432,0 33.91497076542922,35.09836321782708,0 33.91497794307029,35.09827305418666,0 33.91492270746964,35.09825342988383,0 33.91489421995737,35.09827527694065,0 33.91475069458047,35.09823619290574,0 33.91479207307236,35.09816906272759,0 33.91470136874393,35.09812067358365,0 33.91472955169582,35.09805722594368,0 33.91491061700005,35.09810697661453,0 33.9151003112535,35.09813136121088,0 33.91510453239858,35.09810601786204,0 33.91556565172272,35.09817575326387,0 33.91556981492523,35.09815446111294,0 33.91616714331165,35.09832876418411,0 33.91654758130657,35.09799372605353,0 33.91670673781925,35.09787457073509,0 33.91703370450591,35.09750733087943,0 33.9173083946575,35.09699567993236,0 33.91727627288839,35.09698005607566,0 33.91753794505099,35.09643953561892,0 33.91766945292943,35.09647833687541,0 33.91778893955436,35.09618840498498,0 33.91775348730987,35.0961543859792,0 33.91784841517624,35.09600661537569,0 33.91800226841481,35.09603741326814,0 33.91839864398843,35.09553567651475,0 33.91916163658304,35.09570811147771,0 33.91949807130615,35.09575904164166,0 33.91974820323481,35.09539217618709,0 33.91978579390538,35.09528151414503,0 33.91942327375641,35.09516495522192,0 33.92063228225726,35.09375957832512,0 33.92094264191103,35.09340285590706,0 33.92158828826954,35.09266075201559,0 33.92184445321849,35.09236016037387,0 33.92211984457198,35.09261602425965,0 33.9224615064883,35.09286242906092,0 33.92251318774673,35.0929353851792,0 33.92277000672868,35.09308595059333,0 33.92314077737252,35.09336679062371,0 33.92317231251409,35.09339169614981,0 33.92399485628535,35.09404128456845,0 33.92448139249995,35.09448073889568,0 33.92458246651796,35.09473011472651,0 33.92495462061679,35.09528061597736,0 33.92521520892508,35.09546079979373,0 33.92565862493461,35.09569529941018,0 33.92617408854646,35.09614775076854,0 33.92653848301278,35.0965141646038,0 33.92664091660658,35.09656460318713,0 33.92681053408519,35.09664812230237,0 33.92749008934547,35.09707772549942,0 33.92757932870578,35.09715821504067,0 33.92789842481347,35.09746552564787,0 33.92839636167731,35.09798102803509,0 33.92849425535304,35.09812082945171,0 33.9289540502726,35.09858391105397,0 33.92937315051882,35.09909171433954,0 33.92970506981624,35.09957432700354,0 33.92995623787182,35.10001417958189,0 33.9302507733671,35.10032700461178,0 33.93060704270869,35.10060646755444,0 33.93080624283529,35.10076272174049,0 33.93096414012196,35.10091783885226,0 33.93113890352133,35.10112168058978,0 33.93134731635705,35.10141212249703,0 33.93155183761839,35.10170270929932,0 33.93156929364248,35.10169610331267,0</coordinates>
						</LinearRing>
					</outerBoundaryIs>
				</Polygon>
			</MultiGeometry>
		</Placemark>
	</Document>
</kml>