<?xml version='1.0' encoding='UTF-8'?>
<kml xmlns="http://www.opengis.net/kml/2.2">
	<Document>
		<name>DIMOS AMMOCHOSTOU AGIOS NIKOLAOS</name>
		<Style id="PolyStyle60">
			<LabelStyle>
				<color>00000000</color>
				<scale>0.000000</scale>
			</LabelStyle>
			<LineStyle>
				<color>ffff7000</color>
				<width>2.000000</width>
			</LineStyle>
			<PolyStyle>
				<color>00828282</color>
				<outline>1</outline>
			</PolyStyle>
		</Style>
		<Placemark id="ID_60048">
			<name>DIMOS AMMOCHOSTOU AGIOS NIKOLAOS</name>
			<snippet />
			<description>&lt;html xmlns:fo="http://www.w3.org/1999/XSL/Format" xmlns:msxsl="urn:schemas-microsoft-com:xslt"&gt;

&lt;head&gt;

&lt;META http-equiv="Content-Type" content="text/html"&gt;

&lt;meta http-equiv="content-type" content="text/html; charset=UTF-8"&gt;

&lt;/head&gt;

&lt;body style="margin:0px 0px 0px 0px;overflow:auto;background:#FFFFFF;"&gt;

&lt;table style="font-family:Arial,Verdana,Times;font-size:12px;text-align:left;width:100%;border-collapse:collapse;padding:3px 3px 3px 3px"&gt;

&lt;tr style="text-align:center;font-weight:bold;background:#9CBCE2"&gt;

&lt;td&gt;3&lt;/td&gt;

&lt;/tr&gt;

&lt;tr&gt;

&lt;td&gt;

&lt;table style="font-family:Arial,Verdana,Times;font-size:12px;text-align:left;width:100%;border-spacing:0px; padding:3px 3px 3px 3px"&gt;

&lt;tr&gt;

&lt;td&gt;DIST_CODE&lt;/td&gt;

&lt;td&gt;3&lt;/td&gt;

&lt;/tr&gt;

&lt;tr bgcolor="#D4E4F3"&gt;

&lt;td&gt;VIL_CODE&lt;/td&gt;

&lt;td&gt;0&lt;/td&gt;

&lt;/tr&gt;

&lt;tr&gt;

&lt;td&gt;QRTR_CODE&lt;/td&gt;

&lt;td&gt;6&lt;/td&gt;

&lt;/tr&gt;

&lt;tr bgcolor="#D4E4F3"&gt;

&lt;td&gt;QRTR_NM_E&lt;/td&gt;

&lt;td&gt;AGIOS NIKOLAOS&lt;/td&gt;

&lt;/tr&gt;

&lt;tr&gt;

&lt;td&gt;QRTR_NM_G&lt;/td&gt;

&lt;td&gt;ΑΓΙΟΣ ΝΙΚΟΛΑΟΣ&lt;/td&gt;

&lt;/tr&gt;

&lt;tr bgcolor="#D4E4F3"&gt;

&lt;td&gt;VIL_CCD&lt;/td&gt;

&lt;td&gt;3000&lt;/td&gt;

&lt;/tr&gt;

&lt;tr&gt;

&lt;td&gt;QRTR_CCD&lt;/td&gt;

&lt;td&gt;300006&lt;/td&gt;

&lt;/tr&gt;

&lt;/table&gt;

&lt;/td&gt;

&lt;/tr&gt;

&lt;/table&gt;

&lt;/body&gt;&lt;script type="text/javascript"&gt;

				function changeImage(attElement, nameElement) {

				document.getElementById('imageAttachment').src = attElement;

				document.getElementById('imageName').innerHTML = nameElement;}

			&lt;/script&gt;&lt;/html&gt;

</description>
			<styleUrl>#PolyStyle60</styleUrl>
			<MultiGeometry>
				<Polygon>
					<extrude>0</extrude>
					<altitudeMode>clampToGround</altitudeMode>
					<outerBoundaryIs>
						<LinearRing>
							<coordinates> 33.9540938677556,35.11486589246012,0 33.95402041597732,35.11498965429686,0 33.95389520515981,35.11520062970032,0 33.95365907797188,35.1156028556781,0 33.95336963950212,35.11609925182428,0 33.95326702896289,35.11627125121374,0 33.95291163050257,35.11686697656734,0 33.95181676982823,35.11639806038652,0 33.95123803318165,35.11614499075554,0 33.95012735678539,35.11566322694667,0 33.95025922135987,35.1154622669844,0 33.95048481922757,35.11500823646382,0 33.95061039068877,35.11475551569372,0 33.94999962890763,35.11500127959714,0 33.94997001851491,35.11501093367288,0 33.9496972681521,35.1150998592754,0 33.94961721528158,35.1151178089711,0 33.94954292745901,35.11512001160972,0 33.94945898522602,35.11511077844769,0 33.94917164676071,35.1150151122709,0 33.9488548490598,35.11490963657364,0 33.94884318983342,35.11490494698257,0 33.94849388201779,35.11476444434015,0 33.94823137946011,35.11496647675406,0 33.9481711325706,35.11502034153083,0 33.9479905293102,35.11518181202162,0 33.94792665037568,35.11521960753815,0 33.94777173567816,35.11527730412166,0 33.94750041491553,35.11534948331694,0 33.94737395089622,35.11537373073604,0 33.94693698196713,35.11542595979258,0 33.94689136769103,35.11542342274297,0 33.94683037385296,35.11539737732981,0 33.94637560759686,35.11502970455862,0 33.94597738499328,35.11470774245569,0 33.9457357387039,35.11494016585718,0 33.94562601655934,35.1150336051187,0 33.94560268209068,35.11505347666463,0 33.94548954069474,35.11516726294126,0 33.94536735053071,35.11503495039356,0 33.9453559341452,35.11502258882225,0 33.94529500206914,35.11493059528073,0 33.94487874730891,35.11445618727703,0 33.94472472502757,35.11427937461027,0 33.94523209092838,35.11404760531059,0 33.94489420350256,35.11367651129159,0 33.9445144618693,35.11322767391941,0 33.94470227954508,35.11286333878398,0 33.94481115613401,35.11264245329195,0 33.94485553162958,35.11261849512468,0 33.94516092913089,35.11241421376121,0 33.9452289626912,35.11235488242293,0 33.94531251217243,35.11227445427634,0 33.94534353967058,35.11223158473641,0 33.94549007814076,35.11197253927707,0 33.945535742311,35.11190179874772,0 33.94562222536764,35.11177390211799,0 33.94580513040894,35.11152280207192,0 33.94589814104148,35.11140606194085,0 33.94618122808799,35.11105074467037,0 33.94640091915171,35.11076557324701,0 33.94663603027018,35.11044778212366,0 33.94675844698045,35.11027767684804,0 33.94686323556223,35.11017477284993,0 33.94712008339814,35.10978840244537,0 33.94728099622277,35.10947642132244,0 33.94744902858051,35.10912508551564,0 33.9474637075325,35.10910331718004,0 33.94808513347074,35.10925056192122,0 33.94835313151351,35.10934677524328,0 33.94860147427013,35.10946139361212,0 33.94864636238071,35.10939947338266,0 33.94880105463942,35.10946232302345,0 33.94906603330892,35.10956998054088,0 33.94921714534743,35.1093919531496,0 33.94935059731154,35.10936842070808,0 33.94938599774783,35.10932664440631,0 33.94956248075746,35.10909357314949,0 33.94975498100047,35.10883595173105,0 33.95010990715329,35.10896430253218,0 33.95034405625299,35.10908676142265,0 33.95040281266873,35.10915631644569,0 33.95054836849749,35.10932844089743,0 33.95062150563138,35.10941830717075,0 33.95077522001867,35.10957598149924,0 33.95111868818292,35.10993191666161,0 33.9513324415625,35.11011102333003,0 33.95153550806499,35.11027686512205,0 33.95178777461204,35.11047398085262,0 33.95205271147714,35.11068380588545,0 33.95226570914797,35.110850409392,0 33.95234199226016,35.11091878376077,0 33.95236753431409,35.11097056954649,0 33.95251310336668,35.11093120321503,0 33.95261360253946,35.11083852339768,0 33.95287503543718,35.11059820431014,0 33.95297964192204,35.11052344176698,0 33.95303206882188,35.1105019627942,0 33.95322200858519,35.11049647354597,0 33.95329013455566,35.11049450462836,0 33.95355219671529,35.11066513580253,0 33.95362867048033,35.11070969008312,0 33.95372273600403,35.11075258890251,0 33.95393540621333,35.11056890202997,0 33.95403318836241,35.11047847151383,0 33.95413599547638,35.1103614308126,0 33.95425950888251,35.11021496227523,0 33.95434991498061,35.11009407732918,0 33.95443793359615,35.10997203302452,0 33.95445281498417,35.10992816971123,0 33.95448085976671,35.10974193697338,0 33.95453397581048,35.10959818392504,0 33.95463161182803,35.10930642338461,0 33.95468565683759,35.10909894156213,0 33.95475998120068,35.10880769529771,0 33.95476932288542,35.10878536331095,0 33.95480133183174,35.10874140921397,0 33.95486255382685,35.10866094399017,0 33.95502241461282,35.10847831566215,0 33.9551235989687,35.10833665428556,0 33.95521619464284,35.10819191111865,0 33.95525784268985,35.10810294949408,0 33.95548254632039,35.10799894707471,0 33.95574688129778,35.10803507952092,0 33.95603593043578,35.1080675633334,0 33.95618445019257,35.10807772482934,0 33.95647383186809,35.10815281719432,0 33.95661490655434,35.10818412713759,0 33.95673196599242,35.10824723025775,0 33.95683380310595,35.10831080405027,0 33.95688927953,35.10834725827863,0 33.95702061116425,35.10841028540885,0 33.95723113042833,35.10849986698869,0 33.95739543150971,35.10858070219803,0 33.95754916443163,35.10864869232744,0 33.95759306945309,35.10866566080071,0 33.95762066081438,35.10867487386014,0 33.95802642737852,35.10881037845278,0 33.95841459153144,35.10894740264403,0 33.95893702159319,35.10913869853906,0 33.95929750622395,35.10925969526738,0 33.95963033618562,35.10936789948812,0 33.96026051217838,35.10957694715934,0 33.96026091137546,35.10962761893512,0 33.96052932162998,35.10971999094637,0 33.96064740372138,35.10975791230999,0 33.96066069670344,35.10976218130503,0 33.960635911689,35.10983064466649,0 33.96061069707938,35.10995148634145,0 33.96058370767938,35.11006158514285,0 33.96051384929485,35.11019480391477,0 33.96040385968889,35.11037714429968,0 33.96030714810519,35.11058438785906,0 33.96027796218353,35.1106299813358,0 33.96018807590806,35.11073902703643,0 33.96014575946781,35.11077879438756,0 33.96009063281466,35.11085331539174,0 33.96003614521953,35.11095558263804,0 33.96001047568252,35.11101884746896,0 33.95994862186353,35.1110968730247,0 33.95986066131726,35.1111826686604,0 33.95977983089517,35.11133303768828,0 33.95974900840721,35.11139037530342,0 33.95971452724398,35.11146292813073,0 33.95969721383669,35.11149935699774,0 33.95966805437592,35.11154735677019,0 33.95956995793662,35.11164778863684,0 33.9595028082566,35.11170971057877,0 33.95944977197306,35.11176979735791,0 33.9593051305513,35.11193942950221,0 33.95924628785512,35.11202347093763,0 33.95921884923074,35.11207251699279,0 33.95907976127675,35.11224071050479,0 33.95899940384736,35.11231079400125,0 33.95889116898262,35.1124830463293,0 33.95886960722972,35.11251728500861,0 33.95882576975314,35.11260441190334,0 33.95882059254983,35.1126182996741,0 33.95881753600482,35.11262649926132,0 33.95873102166339,35.11285856207837,0 33.95871580803584,35.11293814882928,0 33.95854505554699,35.11327185621239,0 33.9585116388786,35.11337757332411,0 33.95852310207454,35.11341972799822,0 33.95852252139032,35.11345491118509,0 33.95845417259699,35.11369133066859,0 33.95845884979672,35.11374161255837,0 33.95844550479018,35.11378671347273,0 33.95841382491425,35.11384105866872,0 33.95838583067123,35.11398298138116,0 33.95837652997432,35.11405233586905,0 33.95833490090722,35.11442053763135,0 33.95832204092934,35.11463625824357,0 33.95836287574919,35.11492938924225,0 33.95836294276769,35.11492986643736,0 33.9582891319269,35.11496376997044,0 33.95828212528914,35.11496711806134,0 33.95770920011315,35.11524089020293,0 33.95767234002626,35.1152585516971,0 33.9571803986894,35.11549426389998,0 33.95685739393159,35.11565257057171,0 33.95659660914083,35.1157495358131,0 33.95653556749237,35.11575121455832,0 33.95650250822101,35.11574393279558,0 33.95646927989629,35.11571495913478,0 33.9563756010295,35.11555275622347,0 33.95617483606874,35.11520130671946,0 33.95614322918637,35.11516893373332,0 33.95587620476691,35.1149798587165,0 33.95585887963147,35.11496759161492,0 33.95559656965141,35.11479152789478,0 33.95541999831883,35.11468535052082,0 33.95479267484119,35.11443987006506,0 33.95476616812111,35.11442645106914,0 33.95432250839011,35.11413864696361,0 33.95427198861418,35.11453684560456,0 33.9540938677556,35.11486589246012,0</coordinates>
						</LinearRing>
					</outerBoundaryIs>
				</Polygon>
			</MultiGeometry>
		</Placemark>
	</Document>
</kml>