<?xml version='1.0' encoding='UTF-8'?>
<kml xmlns="http://www.opengis.net/kml/2.2">
	<Document>
		<name>DIMOS KYTHREAS AGIA MARINA</name>
		<Style id="PolyStyle60">
			<LabelStyle>
				<color>00000000</color>
				<scale>0.000000</scale>
			</LabelStyle>
			<LineStyle>
				<color>ffff7000</color>
				<width>2.000000</width>
			</LineStyle>
			<PolyStyle>
				<color>00828282</color>
				<outline>1</outline>
			</PolyStyle>
		</Style>
		<Placemark id="ID_60082">
			<name>DIMOS KYTHREAS AGIA MARINA</name>
			<snippet />
			<description>&lt;html xmlns:fo="http://www.w3.org/1999/XSL/Format" xmlns:msxsl="urn:schemas-microsoft-com:xslt"&gt;

&lt;head&gt;

&lt;META http-equiv="Content-Type" content="text/html"&gt;

&lt;meta http-equiv="content-type" content="text/html; charset=UTF-8"&gt;

&lt;/head&gt;

&lt;body style="margin:0px 0px 0px 0px;overflow:auto;background:#FFFFFF;"&gt;

&lt;table style="font-family:Arial,Verdana,Times;font-size:12px;text-align:left;width:100%;border-collapse:collapse;padding:3px 3px 3px 3px"&gt;

&lt;tr style="text-align:center;font-weight:bold;background:#9CBCE2"&gt;

&lt;td&gt;1&lt;/td&gt;

&lt;/tr&gt;

&lt;tr&gt;

&lt;td&gt;

&lt;table style="font-family:Arial,Verdana,Times;font-size:12px;text-align:left;width:100%;border-spacing:0px; padding:3px 3px 3px 3px"&gt;

&lt;tr&gt;

&lt;td&gt;DIST_CODE&lt;/td&gt;

&lt;td&gt;1&lt;/td&gt;

&lt;/tr&gt;

&lt;tr bgcolor="#D4E4F3"&gt;

&lt;td&gt;VIL_CODE&lt;/td&gt;

&lt;td&gt;139&lt;/td&gt;

&lt;/tr&gt;

&lt;tr&gt;

&lt;td&gt;QRTR_CODE&lt;/td&gt;

&lt;td&gt;1&lt;/td&gt;

&lt;/tr&gt;

&lt;tr bgcolor="#D4E4F3"&gt;

&lt;td&gt;QRTR_NM_E&lt;/td&gt;

&lt;td&gt;AGIA MARINA&lt;/td&gt;

&lt;/tr&gt;

&lt;tr&gt;

&lt;td&gt;QRTR_NM_G&lt;/td&gt;

&lt;td&gt;ΑΓΙΑ ΜΑΡΙΝΑ&lt;/td&gt;

&lt;/tr&gt;

&lt;tr bgcolor="#D4E4F3"&gt;

&lt;td&gt;VIL_CCD&lt;/td&gt;

&lt;td&gt;1139&lt;/td&gt;

&lt;/tr&gt;

&lt;tr&gt;

&lt;td&gt;QRTR_CCD&lt;/td&gt;

&lt;td&gt;113901&lt;/td&gt;

&lt;/tr&gt;

&lt;/table&gt;

&lt;/td&gt;

&lt;/tr&gt;

&lt;/table&gt;

&lt;/body&gt;&lt;script type="text/javascript"&gt;

				function changeImage(attElement, nameElement) {

				document.getElementById('imageAttachment').src = attElement;

				document.getElementById('imageName').innerHTML = nameElement;}

			&lt;/script&gt;&lt;/html&gt;

</description>
			<styleUrl>#PolyStyle60</styleUrl>
			<MultiGeometry>
				<Polygon>
					<extrude>0</extrude>
					<altitudeMode>clampToGround</altitudeMode>
					<outerBoundaryIs>
						<LinearRing>
							<coordinates> 33.48240256869675,35.24047507513576,0 33.48360224962154,35.23998260958786,0 33.48364620828507,35.23997392039004,0 33.48360791216426,35.24015767400047,0 33.48352088452764,35.24033498090592,0 33.48346303751617,35.24048185682912,0 33.48333284177731,35.24052128315008,0 33.48290982310761,35.24070640642172,0 33.48288719972411,35.2410880333896,0 33.48288530988428,35.24165333319505,0 33.48325164160787,35.24161608532366,0 33.48358735644717,35.24153796386168,0 33.48370048503064,35.24210393793419,0 33.48393034850226,35.2420259626895,0 33.48424897711959,35.24187760899377,0 33.48445789035153,35.24168788491242,0 33.48466204914458,35.24148552862233,0 33.48488562327884,35.24127597058766,0 33.48493327316076,35.24123130823411,0 33.48511207373043,35.24107157093155,0 33.48540061901046,35.24082818046644,0 33.48567795623424,35.24057895818214,0 33.48588115467394,35.24040666203827,0 33.4859990287657,35.24031631565497,0 33.48611085564198,35.24025436712562,0 33.48649117721542,35.24009684867571,0 33.48674235417783,35.23999378802421,0 33.48693460172067,35.23994007480848,0 33.48717265137027,35.23988713150086,0 33.48736568311777,35.23987441918268,0 33.48761401696731,35.23985063744946,0 33.48766237188113,35.23983971348794,0 33.48777936238433,35.23981328317831,0 33.48812206506517,35.23977585802617,0 33.4883123916256,35.23977894280257,0 33.48864912932654,35.23982379216741,0 33.48866852064245,35.23980025903521,0 33.48870921281583,35.23968855150651,0 33.48907282957117,35.23890396355624,0 33.48924047269669,35.23834715353067,0 33.4893574362636,35.23801707343018,0 33.48941013785357,35.23778110671111,0 33.48941503391396,35.23767784447492,0 33.48954524884443,35.23732507959301,0 33.48962345173583,35.23705297778439,0 33.4896508813621,35.23696059598969,0 33.48998035512867,35.23696347933721,0 33.49013843956367,35.23699320592743,0 33.49039800924287,35.2370420153534,0 33.4905500193864,35.23702755865629,0 33.49075983641181,35.23699674618828,0 33.49093253230827,35.23699513996255,0 33.49101930058492,35.23699772559891,0 33.49105979413797,35.23700037903868,0 33.49139684475534,35.23696124594281,0 33.49182061231392,35.23690097011345,0 33.49185447079534,35.23689210715585,0 33.49186931315396,35.23687784917997,0 33.49188331048346,35.23685410128581,0 33.4919357712251,35.23665945556849,0 33.49236060877633,35.23671239153633,0 33.49247384988614,35.23672917426806,0 33.49255074467087,35.23675143377418,0 33.49265543533017,35.23663670801449,0 33.49272307631883,35.23658305196263,0 33.49273873081146,35.23656269092518,0 33.49275107438257,35.23653894425473,0 33.49275432976113,35.23651588988631,0 33.4927591594104,35.23645758058223,0 33.49277192227894,35.23624739944726,0 33.49279139718031,35.23608398710608,0 33.4928388489487,35.23586629952704,0 33.49296319467311,35.2358608626035,0 33.49298714960005,35.23585709911935,0 33.49310644740363,35.23581014604056,0 33.49324721301759,35.23575604213618,0 33.49345324905781,35.23569845315784,0 33.49349703213856,35.23569398227578,0 33.49354124871822,35.23569832332011,0 33.49367722249361,35.23572015642343,0 33.49370201836087,35.23572283154273,0 33.4938523948808,35.23571922009027,0 33.49388089295024,35.23571443195109,0 33.49401590215618,35.23567355678489,0 33.49405015386871,35.23565520186351,0 33.49423754340449,35.23557357209651,0 33.49431142310217,35.23553990395904,0 33.49436799817849,35.23552795674151,0 33.49453944117966,35.23552227985962,0 33.49464766108684,35.2355105947174,0 33.49476576900275,35.23548703031407,0 33.49485168917015,35.23548046224464,0 33.49487398964381,35.23547602190432,0 33.49498629113202,35.23544195919802,0 33.49519968816548,35.23535147547942,0 33.49525169958076,35.23533072109277,0 33.49529174965601,35.23531981454951,0 33.49541275086228,35.23529624578916,0 33.49544867092524,35.23528602312042,0 33.49564848168673,35.23521725352254,0 33.49582267404366,35.2351471652584,0 33.49606693071294,35.23500036597347,0 33.4963978638436,35.23481614955143,0 33.49663809154939,35.23471613202198,0 33.49695183478299,35.23460583571779,0 33.49717732517942,35.23456753122935,0 33.49721530839416,35.23455594929315,0 33.49732838956666,35.23450222208111,0 33.49734157240452,35.23448593222894,0 33.497351410565,35.23445066400681,0 33.49733937463276,35.23442644646394,0 33.49725194136994,35.23430997219376,0 33.49755126746191,35.23440426337667,0 33.49753566865289,35.23481850784883,0 33.49745870512891,35.23513454479827,0 33.49732883234912,35.23543981305231,0 33.49725975256202,35.23558703016658,0 33.49723667783399,35.23561418263079,0 33.49717316590481,35.23566512369904,0 33.49710562357497,35.23576081414559,0 33.49702494546511,35.23589516826777,0 33.49694336129472,35.23599359158134,0 33.49680150280469,35.23611244417943,0 33.49668444445779,35.23623668245549,0 33.49648155267288,35.23640714943223,0 33.4961854470856,35.23664893964563,0 33.49580438206183,35.23696000491176,0 33.49569218795227,35.23704288134236,0 33.49555105232563,35.2371169867417,0 33.49540908833981,35.23719041572559,0 33.49531833926383,35.23725631124456,0 33.4952870153631,35.23729025474782,0 33.49517662675876,35.23744295512591,0 33.49513788522396,35.23748640155258,0 33.49507108913222,35.23754751531852,0 33.49491356803674,35.23768604922446,0 33.49469503771262,35.23788772166646,0 33.4946060119561,35.23798615397659,0 33.49445940017957,35.2382012790424,0 33.49443961731468,35.23822367986072,0 33.49441568516507,35.23823727400421,0 33.49424647903977,35.2383243011697,0 33.49408063658477,35.23843776269597,0 33.4940517698039,35.23846288845078,0 33.49393191674039,35.23860581748247,0 33.49425613126225,35.2385096335064,0 33.49492463993564,35.23834393203916,0 33.49514883383717,35.238299237703,0 33.49539110912104,35.23827998254224,0 33.49565645627905,35.23828040962115,0 33.49626635269858,35.23832550250268,0 33.49653568030171,35.23833473495255,0 33.49693227237508,35.23834832804611,0 33.49757710616669,35.23834407258971,0 33.4972971572796,35.23853097434024,0 33.49704213121185,35.2386693707377,0 33.49659766443426,35.23917115246967,0 33.49629326240752,35.23962096967271,0 33.49616762532323,35.23982729798795,0 33.4959773846204,35.24012422100634,0 33.4960382064236,35.24014828830304,0 33.49592867845733,35.2403489067904,0 33.49587739352219,35.24046026348713,0 33.49584109373531,35.24052832223662,0 33.49567442023488,35.24076053001735,0 33.49558499806157,35.24080621492695,0 33.49542579183435,35.24096301832272,0 33.49532726422814,35.24111637779754,0 33.49522323596963,35.24135953451502,0 33.49510350567544,35.24164123981893,0 33.49505791543249,35.24177208594627,0 33.4949989245315,35.24193303258377,0 33.49497047729002,35.24204941801712,0 33.49493247411511,35.24216268137787,0 33.49474115014394,35.24259166988281,0 33.49470917563625,35.24264785023038,0 33.49463879966628,35.24275671276792,0 33.49458114282202,35.24281117725165,0 33.4945128028056,35.24287267466342,0 33.49427167465437,35.24318176413733,0 33.49406907058337,35.24341727211309,0 33.49388280093539,35.24355756697327,0 33.49370522209371,35.2436944855783,0 33.49358465516674,35.24379131418375,0 33.49334439351566,35.24394517063008,0 33.4930974723878,35.24411896342292,0 33.49274700171217,35.24439242473763,0 33.49257512908797,35.24458943691469,0 33.49240003249957,35.24490159797803,0 33.49217439570386,35.24495860147112,0 33.49206728967232,35.24497765319928,0 33.49165168087282,35.24496265050947,0 33.49157756364072,35.24495618671892,0 33.49147453654306,35.24500973430832,0 33.4913945368701,35.24506160549124,0 33.49113637028645,35.24515070297616,0 33.4907058862595,35.24520308240811,0 33.49035452883164,35.24526438159469,0 33.49032551190933,35.24527592505592,0 33.49015611662251,35.24522493509255,0 33.48960304339612,35.24505844979544,0 33.48929031402539,35.24492006544858,0 33.48911293092099,35.24485624360997,0 33.48893758873943,35.24480967019428,0 33.48876730549762,35.24478691219946,0 33.4881604703836,35.24478942359507,0 33.48790214678484,35.24481754544788,0 33.48771804099428,35.24484076613723,0 33.48750346023465,35.24490881958552,0 33.48737036096644,35.24491887603006,0 33.48734416894374,35.24492036962841,0 33.48670342443249,35.24487624753848,0 33.48645128939669,35.24488138324541,0 33.48614385946829,35.24492960750986,0 33.48596404549736,35.24492534593016,0 33.48558336054763,35.24492227147387,0 33.4852953818783,35.24498240390342,0 33.48514220411891,35.24504403158156,0 33.48511380104607,35.24506226859377,0 33.48507887849957,35.24509517736269,0 33.48496328940341,35.24527535245948,0 33.48493069016527,35.24529305730219,0 33.48482264483108,35.24542878830766,0 33.48459413941304,35.24574128190417,0 33.4845400594839,35.24578123399285,0 33.48418894989558,35.24590762012632,0 33.48397875624261,35.24600988241529,0 33.48389961266972,35.24601910723035,0 33.48350532388624,35.24608630630954,0 33.48344917067293,35.2461319575114,0 33.48339575830107,35.24615937543025,0 33.48329164025041,35.24618059782256,0 33.48317289795575,35.24618190121418,0 33.48309724157532,35.24619852633964,0 33.48305718027224,35.24630282995521,0 33.48297243495633,35.2466270846838,0 33.48289277332194,35.24672232875028,0 33.48284993725904,35.2468277745944,0 33.48276042361823,35.24686036866873,0 33.48264793596955,35.2468639433167,0 33.48224169204371,35.24685994716192,0 33.48191459504835,35.24684729583431,0 33.48184517354192,35.24685707550614,0 33.48180445230482,35.24697960814635,0 33.48176981068563,35.24701839274263,0 33.48173372034066,35.24702755742243,0 33.48168579199024,35.24702135650349,0 33.48161845242165,35.24703056439647,0 33.48158997239836,35.2470380825722,0 33.48157750808451,35.24704315286068,0 33.48147815484938,35.24710060014743,0 33.48137011995174,35.24716306651864,0 33.48118219727781,35.24729263733798,0 33.4811246578065,35.24734113772934,0 33.48099494640137,35.247412522566,0 33.48094371136166,35.24748721807113,0 33.48089794072965,35.2475174736138,0 33.48083132079572,35.24753978157838,0 33.4807322022679,35.2476299230937,0 33.48060180267949,35.24770529704822,0 33.48051422961402,35.24766838802786,0 33.4804017418837,35.24767252936372,0 33.48028307524391,35.24771256735534,0 33.47996467012513,35.24787820358707,0 33.47978083267115,35.24797073813632,0 33.47959484195154,35.24802795674118,0 33.47955051027657,35.24808327436401,0 33.47951569790856,35.24818140497757,0 33.47946159931848,35.24824184234703,0 33.47939454680813,35.24828005789612,0 33.47919196235828,35.24832798708756,0 33.47908612135684,35.24833660328076,0 33.4790538248136,35.24832605608046,0 33.47904398919309,35.24828846959149,0 33.47902653054153,35.2482339601118,0 33.47899409986646,35.24815669594873,0 33.47887629165388,35.24799164888221,0 33.47877796319928,35.24788376319587,0 33.47869894147354,35.24774831616561,0 33.47864981223623,35.24771131772132,0 33.47855586534786,35.24767711409616,0 33.47845087725176,35.24764804504601,0 33.47817839601121,35.24760181571722,0 33.47789295554723,35.24753230471057,0 33.47762824248934,35.24749771273756,0 33.47757011454954,35.24747978742517,0 33.47738789516638,35.24738154467127,0 33.47708166611559,35.24724322392297,0 33.47698221279132,35.24721794010699,0 33.47689961762931,35.2471938661342,0 33.47689179408996,35.24719158582313,0 33.47669412533622,35.2471134829498,0 33.47668354282975,35.24710708516869,0 33.4765105907463,35.24700253186926,0 33.47611119588528,35.24675207770473,0 33.47590595475744,35.2466039741433,0 33.47563804074694,35.24641064459492,0 33.47559270570012,35.24633339774671,0 33.47546675688117,35.24596291038237,0 33.47542254998988,35.24560601189228,0 33.47538658575735,35.24557072438492,0 33.47447685316278,35.24516556314764,0 33.47409091416998,35.24500789348677,0 33.47320710105042,35.24453451992429,0 33.4731104582749,35.24441254516143,0 33.47285465891802,35.24420336345776,0 33.47259552864142,35.24402054879598,0 33.47222114528336,35.24371161944899,0 33.4716030033433,35.2432933901274,0 33.47148097490206,35.24316173385051,0 33.4713179918509,35.2428400400206,0 33.47104829844097,35.24243662110769,0 33.47046052882688,35.24197255852009,0 33.47041047446064,35.24191280578192,0 33.47037577177888,35.24187137884411,0 33.47012137746462,35.24150401307581,0 33.46954711808824,35.24102327918354,0 33.4690000093706,35.24058690787999,0 33.46863243858312,35.24028767026046,0 33.46830147091222,35.23993123329189,0 33.46824196890319,35.23986582214884,0 33.46817269282676,35.23978966554809,0 33.46806839773868,35.23969962514139,0 33.46793097039186,35.23956894592658,0 33.46781914417478,35.23942874364955,0 33.4677420864604,35.2393203627095,0 33.46758370723098,35.23903173911793,0 33.46750855569469,35.23905878334963,0 33.46717990194271,35.23919225179462,0 33.46642069423046,35.23954812963443,0 33.46636371640331,35.2395719302545,0 33.46632696146368,35.23958180680031,0 33.46609892100515,35.2396064988115,0 33.46577708785412,35.23963198493858,0 33.46559613103467,35.2396450923153,0 33.46553169794844,35.2396594098372,0 33.465408679698,35.2397212589614,0 33.46526749013076,35.23978889438115,0 33.46510397286487,35.23984808205229,0 33.46506963199302,35.23986979039941,0 33.46487305374431,35.23999406110297,0 33.46451817496421,35.240149900718,0 33.46411273760304,35.24040570267235,0 33.46387465380214,35.2406168979593,0 33.46362716046458,35.24081243665687,0 33.46308367349882,35.24124182567193,0 33.46291959699755,35.24143695448658,0 33.46272340996897,35.24160851571867,0 33.46257231200267,35.24170785052876,0 33.46234160635116,35.24188619796703,0 33.46215611507301,35.24206179256548,0 33.46185816583459,35.24233802182017,0 33.46168169552393,35.24250281245005,0 33.46157673237747,35.24265605023666,0 33.46129990943773,35.24279465565139,0 33.46082774606149,35.24312235444567,0 33.46072689942634,35.24316812477215,0 33.46072044143015,35.24312564739193,0 33.46046927782033,35.24341901876438,0 33.46048217328865,35.24350057361301,0 33.46042737284009,35.24359936624652,0 33.46034768113877,35.24363318637756,0 33.46026579514793,35.24381944569649,0 33.46017055819404,35.24389645234705,0 33.46013393826961,35.24410828742575,0 33.46004875581946,35.24429117713506,0 33.45992822130876,35.24447613279222,0 33.45988638528766,35.24452946789075,0 33.45974467671848,35.24482843847721,0 33.45924613097868,35.24512581054385,0 33.4591475489244,35.24517179360019,0 33.45887004319743,35.2453974046162,0 33.4586768879309,35.24543270660575,0 33.45823539143414,35.24591481910428,0 33.45809754181931,35.24607483684913,0 33.4580451711639,35.2462178914443,0 33.45802153348393,35.24633595643889,0 33.45802582497817,35.24643847416102,0 33.45830998262542,35.24672007708427,0 33.45828392796259,35.24686647358218,0 33.45817074335802,35.24702646198664,0 33.45812968516636,35.24713041330378,0 33.45806503985592,35.24729407576331,0 33.45811168491515,35.24745430995532,0 33.45809547153891,35.24765129433175,0 33.45782374976833,35.24850671673477,0 33.45789211724217,35.24877831197789,0 33.45791068241016,35.24897797249922,0 33.45779349890869,35.24919816897734,0 33.45776612999714,35.24964510879651,0 33.45772497682556,35.24978507047459,0 33.45766050547861,35.24984763219101,0 33.4573894531021,35.2501440782872,0 33.45705044576122,35.25040664333059,0 33.45669664465836,35.25073442769246,0 33.45646508802771,35.25089227051862,0 33.45619576120915,35.25123489687763,0 33.45586810304182,35.25136160744241,0 33.45558833215244,35.25141083351581,0 33.45522069951518,35.25140446780176,0 33.45477405433889,35.25167394378535,0 33.4546336457057,35.25187650418165,0 33.45447328504908,35.25203290210536,0 33.45434621070925,35.25228842409826,0 33.45411122017508,35.25237970562232,0 33.4538629614189,35.25246013515267,0 33.45337457863282,35.25253676241812,0 33.45304509387385,35.25256838101135,0 33.45249195286256,35.25254184251808,0 33.45232814673907,35.25262217213111,0 33.45213797050232,35.25277724340555,0 33.45191473569404,35.25296902759344,0 33.45141488530676,35.25312308775946,0 33.4512013297327,35.25316272108784,0 33.45110192861941,35.25313702282651,0 33.45105393876582,35.25315745303293,0 33.45101608523147,35.25329876659374,0 33.45088551659808,35.25345105200223,0 33.45077139811341,35.25353811607076,0 33.45070351870025,35.25354770089639,0 33.45038871032601,35.25361259878652,0 33.45027191094805,35.25363667575402,0 33.44994618488789,35.25392634539585,0 33.44976754422454,35.25408508554015,0 33.44975060413802,35.25409747217891,0 33.44973580767414,35.25410423524606,0 33.44971233296081,35.25410973798205,0 33.44961847751977,35.25411295042179,0 33.44948046144768,35.25411460518626,0 33.44936018105822,35.2541281552601,0 33.44916837566065,35.25415828571165,0 33.44914087971534,35.2541696991948,0 33.44876624723881,35.25438065921708,0 33.44874915135967,35.25439332932716,0 33.44867999514511,35.25444458498502,0 33.44853436776559,35.25450791052517,0 33.44844992800507,35.25451887058389,0 33.44833563276158,35.25450133768046,0 33.4481327355875,35.25439400824744,0 33.44809645020237,35.25437481430409,0 33.4480826836195,35.25437306612332,0 33.44805515486529,35.25437256773357,0 33.44802591982872,35.25438070908066,0 33.44801044896587,35.25438936282701,0 33.44800603358671,35.25439414657687,0 33.4479821422402,35.2544200298401,0 33.44794884546628,35.25443791751272,0 33.44790257247443,35.25449705802887,0 33.44778515265756,35.25459431169803,0 33.4475748703215,35.25461491820627,0 33.44735799990306,35.25465930189275,0 33.44677688327916,35.25475298490235,0 33.44666637804627,35.25503089464999,0 33.44661776611219,35.25518172815786,0 33.44652857156657,35.25532513529354,0 33.4462804307861,35.25549044810775,0 33.44606463038843,35.25568696779156,0 33.44591052106844,35.25562736589564,0 33.44562821588933,35.25566027144288,0 33.44555933784179,35.25556491921621,0 33.44550462775635,35.25552694266176,0 33.44543586438608,35.25550392484841,0 33.44542492790053,35.25539662326887,0 33.44533871801219,35.25533694736117,0 33.44514405077434,35.25528621729742,0 33.44504626898538,35.25523945816906,0 33.44501712019283,35.2551342146748,0 33.44506421925031,35.25507235726172,0 33.44504346309098,35.25503774034936,0 33.44497799040277,35.25500045483079,0 33.44483055707681,35.25497208688615,0 33.44478898216273,35.25486278141495,0 33.44466462131591,35.25476375213416,0 33.44451632894056,35.25471500853943,0 33.44442267315503,35.25465873589133,0 33.44437872544678,35.25461871011392,0 33.44413273849283,35.25457754121545,0 33.44420048566599,35.25448238254295,0 33.44417935459464,35.25439828373941,0 33.44417361690268,35.2543754475796,0 33.44414809048095,35.25429640993158,0 33.4440702916195,35.25423718356807,0 33.44398874180358,35.25419175663762,0 33.44355272601807,35.25398108122259,0 33.44345840961901,35.25394124331637,0 33.4423154625552,35.25358829727256,0 33.44227342257499,35.25351824955241,0 33.44193241068027,35.25301308315121,0 33.44187810828919,35.25293742479868,0 33.4418065667605,35.25261423972827,0 33.44178600131453,35.25252366558517,0 33.44140921169411,35.252037009178,0 33.44134682678652,35.2519624770329,0 33.44096184996539,35.25187445617691,0 33.4408659690531,35.25184006897196,0 33.44052357798819,35.25167156945547,0 33.44043181640553,35.25163339913357,0 33.44013858423978,35.25158121956348,0 33.43985301411407,35.25151041592947,0 33.43977321368636,35.25148154985911,0 33.43960505430306,35.25139373438981,0 33.43952216791669,35.25135539232059,0 33.43951116737533,35.25135030431272,0 33.43930537891415,35.25106660160019,0 33.43922797790819,35.25099882822867,0 33.4391333214072,35.25098882658527,0 33.43907331481736,35.25099780123838,0 33.43890337333066,35.25085281930545,0 33.43880596265437,35.25078192102721,0 33.43871673911617,35.25072643636346,0 33.43859354921458,35.25067293068377,0 33.43848189202702,35.25065947204808,0 33.43822825831345,35.2506455585297,0 33.43811163531786,35.25063082585378,0 33.4380715447145,35.25061048347612,0 33.4380403634303,35.25059155916037,0 33.43802590668661,35.25055899318281,0 33.43802136019607,35.25040689063419,0 33.43800045349182,35.25036086873315,0 33.4379550438327,35.25031033034445,0 33.43793840582911,35.25029408004951,0 33.43793568598702,35.25028055113602,0 33.4380016693033,35.25019997577863,0 33.43802804406505,35.25015331042202,0 33.43806597297146,35.25007232458338,0 33.43807858988664,35.25002700790645,0 33.43808745836859,35.24994813372869,0 33.43805658101093,35.2498520680474,0 33.43800948430993,35.24975095743603,0 33.43798516895765,35.24969323891187,0 33.43798332008384,35.24960914666448,0 33.43800280938036,35.24958146860148,0 33.43817993479083,35.24946805730899,0 33.43822752203567,35.24942590132968,0 33.43821143623747,35.24937645297322,0 33.43816360042153,35.24932768023167,0 33.43803236251156,35.24923873010888,0 33.43799990936211,35.24920653121969,0 33.43794484224518,35.24913095131854,0 33.4379126762033,35.24904219324683,0 33.43791032273951,35.2489950261291,0 33.43796107964902,35.24881633004208,0 33.43797161366967,35.24874701169121,0 33.43794474914954,35.24868842713151,0 33.43777996979802,35.24855380697988,0 33.43772604630709,35.2485019814628,0 33.4376740819658,35.24839963718146,0 33.43758714444927,35.2482055766018,0 33.43755537299614,35.24814717103843,0 33.43754184974873,35.24813607524131,0 33.43752062498046,35.24813397603875,0 33.43749868893677,35.24813876596394,0 33.43742093496351,35.24820107473899,0 33.43736149207575,35.24822832563308,0 33.43733143089787,35.24823649352619,0 33.43731822928547,35.24823740926271,0 33.43731161675849,35.24823108021539,0 33.43729678615656,35.24808168733536,0 33.43730154181472,35.24787808215238,0 33.43732770252349,35.24769585251359,0 33.43736433354911,35.24748211596618,0 33.43740737039507,35.24734388307598,0 33.43740645259223,35.24731252279436,0 33.437391407636,35.24724617773967,0 33.43729828589867,35.24715321487144,0 33.43722736018591,35.24708240974766,0 33.4372404806113,35.24699681845244,0 33.4373378908892,35.24680518862873,0 33.43738421275171,35.24677661506286,0 33.4374636759869,35.24676295133865,0 33.43797126637147,35.24680183093526,0 33.43805900082891,35.2467834028272,0 33.43812351146261,35.24673783157451,0 33.43813664468684,35.24666174881773,0 33.43816050153935,35.24655984589464,0 33.43820681824317,35.24652855526633,0 33.43846856705416,35.24660639707479,0 33.43862010722618,35.24662322209765,0 33.43868383416871,35.24660685637414,0 33.43874751729428,35.24656196472698,0 33.43875324874409,35.24651916974779,0 33.43872996425711,35.24645263298503,0 33.43863542059191,35.24634813318696,0 33.43857070103045,35.24625582910954,0 33.43854157267446,35.24615669695898,0 33.43853646780425,35.24606569024812,0 33.43857695711208,35.24601335077694,0 33.43867379754811,35.24599355517919,0 33.43881212272574,35.24603280739076,0 33.43895126005837,35.24606187087588,0 33.43900258539264,35.24605706332254,0 33.43903069086639,35.24602850923243,0 33.43903554903995,35.24595583026569,0 33.43900973336985,35.24585737306079,0 33.43902372884058,35.24580506103625,0 33.4390733206131,35.24574999594894,0 33.43924458979292,35.24567510956709,0 33.43937784118938,35.24564440883058,0 33.43942911340426,35.24560496296252,0 33.43944223753348,35.24552480493759,0 33.43946443769809,35.24542290325405,0 33.43948993981904,35.24538355724177,0 33.43966267323301,35.24511706166338,0 33.43960799058856,35.24509130949677,0 33.43948833685521,35.24508648359126,0 33.43941093092208,35.24508336103355,0 33.43930574518475,35.24505765957792,0 33.43927504556396,35.24501422251048,0 33.43927496238921,35.24495988746809,0 33.43930886074727,35.24492860993898,0 33.43943883411593,35.24492168418497,0 33.43948729751557,35.24489386280303,0 33.43959765777375,35.24483050943579,0 33.43967449954182,35.24472855163854,0 33.43971079919658,35.24464429371885,0 33.43976196468862,35.24453557052669,0 33.43982315250203,35.24448456788626,0 33.43991919845404,35.24448854454432,0 33.44000031667031,35.24447623513262,0 33.44008053339745,35.24441706245422,0 33.4401317454659,35.2443382233761,0 33.44014899181131,35.24424719401694,0 33.44016465943474,35.24420642608695,0 33.44022167861858,35.24413641021597,0 33.44032511119477,35.24409894745985,0 33.44037473135455,35.24406289910004,0 33.44038791382545,35.24402077548954,0 33.44037872393044,35.24396712888351,0 33.44033311382479,35.24391895277706,0 33.44016327672318,35.24384441688397,0 33.44011600732708,35.24379352635545,0 33.44011180531332,35.24375277930446,0 33.44014239015546,35.24372150457422,0 33.44020196708894,35.24369970879316,0 33.44035514468185,35.24370837991833,0 33.44040310769648,35.243672333068,0 33.44038724067192,35.2435826960073,0 33.44039616288573,35.24346246955476,0 33.44042342372137,35.24342304753092,0 33.44061468030291,35.24342896304014,0 33.44068172110941,35.24341598872499,0 33.4407238701895,35.24336772213771,0 33.44078338849576,35.24330857027663,0 33.4407626386858,35.24327463306602,0 33.44042640400593,35.24320774049759,0 33.44037832005203,35.24316568027179,0 33.44034756737953,35.24308760531506,0 33.44029277618577,35.24299053642743,0 33.44026782940817,35.24291856792713,0 33.44028675140364,35.24284044113772,0 33.4403612610841,35.2428396851162,0 33.44052610301259,35.24289724606245,0 33.44076713778384,35.24297102823814,0 33.44088390468691,35.24299196210595,0 33.44097166147122,35.24299051296241,0 33.44103455068837,35.24296939245838,0 33.44104942040677,35.242949001272,0 33.44104689604368,35.24292251522358,0 33.44101950973855,35.24288043390749,0 33.44095733984615,35.24283023797618,0 33.44092085000611,35.24279088223482,0 33.44091664021092,35.24274470169868,0 33.44095383931757,35.24270866589737,0 33.44109286536298,35.24266777013267,0 33.44118061882565,35.2426649615655,0 33.44125019633471,35.24268594450076,0 33.44144326615679,35.24279441414308,0 33.441518635546,35.24281403183564,0 33.44161214273037,35.24278337086844,0 33.44165761442617,35.24274257150552,0 33.44170299684729,35.24264539996693,0 33.44171607230987,35.24253467685188,0 33.44165009977828,35.24216798175207,0 33.44165160510495,35.24207153459326,0 33.44168046873901,35.24199883097902,0 33.44172760470138,35.24196414229766,0 33.44186004043127,35.24194498672509,0 33.44206112031302,35.24188161084606,0 33.442145488679,35.24183261987175,0 33.44217437576303,35.24177485827875,0 33.44218997256698,35.24168994329968,0 33.44218148757749,35.24155683011515,0 33.4421896407417,35.24147599765013,0 33.44223577712899,35.24133196023773,0 33.44228868524029,35.24128232334225,0 33.44235156118364,35.24125441028128,0 33.44259661415746,35.24125279420029,0 33.44281838643077,35.24118667870793,0 33.44317761560421,35.24113875605519,0 33.44335065528357,35.24114536493266,0 33.44354780654324,35.24121782948253,0 33.44369523303062,35.24125706714808,0 33.44377051716893,35.24122166874955,0 33.44382919113509,35.241155045113,0 33.44394085589317,35.2410910826726,0 33.44400045690303,35.24108694392923,0 33.44409901787544,35.2411140069008,0 33.44419432718539,35.2411784287268,0 33.44426387941112,35.24118378816082,0 33.4443416441043,35.2411483875136,0 33.44444837519286,35.24110616334489,0 33.44458990268078,35.24107952327568,0 33.44470995060102,35.24108211178984,0 33.44485307171795,35.24101675656713,0 33.44496389741518,35.24094600074271,0 33.44487769722652,35.24088360750248,0 33.44477886169326,35.24068470921821,0 33.44476462368743,35.240581487381,0 33.44479163899098,35.24039060497049,0 33.44494895326677,35.24039994556444,0 33.44510453638716,35.24036310184649,0 33.44526660288635,35.24023863586771,0 33.44541874379546,35.24012029143627,0 33.44553779529152,35.24001828540638,0 33.44550873881963,35.23996737678323,0 33.44530277157449,35.23989264661268,0 33.44511558999709,35.23982473176891,0 33.44492476292434,35.23976962697144,0 33.44483594519117,35.23975218537036,0 33.44475364192201,35.23969696352883,0 33.44469927162663,35.23962822281596,0 33.44466120483991,35.23947312826052,0 33.44466927669059,35.23937868862816,0 33.44466590070201,35.23932338314202,0 33.44463457482571,35.23927080516344,0 33.4442218802869,35.23928338682019,0 33.44415771668114,35.23926052254738,0 33.44410161038119,35.23913377580178,0 33.44407841053911,35.23902048403158,0 33.44407663884892,35.2389395454089,0 33.44416195953689,35.23882478910617,0 33.44421924775758,35.23866014941483,0 33.44427665656132,35.23857105328922,0 33.44452328406691,35.23856269602604,0 33.44459230122592,35.23853564260008,0 33.44470892620662,35.23846132235172,0 33.44472019854398,35.23831157016965,0 33.44470035986108,35.23824414206401,0 33.44465908186814,35.23813626561945,0 33.44463751283307,35.23801487803212,0 33.44464396485369,35.2379352801999,0 33.44467506687744,35.23784890985213,0 33.44474231481109,35.23774361554401,0 33.44488684865435,35.23764228536879,0 33.44497040667392,35.23745468424408,0 33.44497033118301,35.23740746915212,0 33.4449158057122,35.2372402502213,0 33.44491402918064,35.23715796313812,0 33.44492535254668,35.23704058751577,0 33.44494009490572,35.23700549744534,0 33.44533400526448,35.23656260067251,0 33.44539804931289,35.23651127008992,0 33.44550646195952,35.23644505207299,0 33.44556564199631,35.23643689394709,0 33.4457761372405,35.23645825146801,0 33.44593576704268,35.2365457646936,0 33.44610359718572,35.23661977810815,0 33.44622873236015,35.23672756399466,0 33.44623718105823,35.23686919969365,0 33.4462965108448,35.23695412292958,0 33.44635574898809,35.23698238820932,0 33.44641985924795,35.23697287563352,0 33.44671234996441,35.23685924164202,0 33.44671063670562,35.23681607529984,0 33.44668097939272,35.23677833565653,0 33.44647869255081,35.23675022601623,0 33.44642766128889,35.236712509265,0 33.44636670725338,35.23663972920947,0 33.44644221658992,35.23656140442616,0 33.44653922049466,35.23655860114241,0 33.44683359153827,35.23659200712732,0 33.44707857790659,35.23658904281255,0 33.44712295046273,35.23657550417735,0 33.44734948988018,35.23635132140027,0 33.44752535520695,35.23630931040422,0 33.44765028313246,35.2362889386762,0 33.44794952110835,35.23628186625115,0 33.44824883337758,35.23632065881134,0 33.44854633732291,35.23625962640168,0 33.44889981290379,35.23623900113245,0 33.44926127547625,35.23607672070912,0 33.44954552814055,35.2359563437715,0 33.44973944036468,35.23589272487666,0 33.44998962904742,35.23605432797729,0 33.45009491690445,35.23608928515721,0 33.45023631780811,35.23608777765757,0 33.45028724808078,35.23606343923409,0 33.45035957135801,35.23605009288618,0 33.45054584343367,35.2360157167704,0 33.45073746859132,35.23597550470798,0 33.45092984752345,35.23589326252947,0 33.45096450891045,35.23586814073462,0 33.45107332900724,35.23572091339796,0 33.4511228374153,35.23568153943672,0 33.45116248871239,35.23567607168224,0 33.45124351425459,35.23570784176857,0 33.45139401485592,35.23578156451583,0 33.45150061126607,35.23578754602998,0 33.4516650149596,35.2357751587921,0 33.45188061986499,35.2357477993054,0 33.45215741782437,35.2357501971811,0 33.45229293750337,35.23575885702564,0 33.45258117409503,35.2356846386649,0 33.45272070071304,35.23561940025268,0 33.45291228156466,35.23555478176342,0 33.45310474493034,35.23552405709388,0 33.45328411430172,35.23556791655204,0 33.45361567807122,35.23570718657655,0 33.4536487208232,35.23570308223023,0 33.45385685973764,35.23565877956658,0 33.45390223858746,35.23562008607987,0 33.45402679847756,35.23550063269906,0 33.45414461263145,35.23530119229732,0 33.45423354153196,35.2351221223774,0 33.45424801495745,35.2348882275536,0 33.45427828097753,35.23470990233399,0 33.4543177636296,35.23460613740517,0 33.45437541126537,35.23449557184071,0 33.45457086270131,35.23428045021349,0 33.4547126582744,35.23409589565518,0 33.45478185136331,35.23397311513575,0 33.45488643628334,35.2337702993249,0 33.45489880347704,35.23375537190515,0 33.45497725502987,35.23373155453867,0 33.45506395810699,35.23370162626726,0 33.45529934992739,35.23365322283613,0 33.45549412749147,35.23352961791949,0 33.45578056747508,35.2333781113756,0 33.45601840064413,35.23330801096654,0 33.45610344321015,35.23327401665738,0 33.4561983477772,35.23321018267227,0 33.45634515644147,35.23306019428965,0 33.45643745658456,35.2329231487353,0 33.456596384345,35.23262774458625,0 33.45675574695072,35.23233152913513,0 33.45685450565571,35.23199996729804,0 33.4568558992374,35.23184918486136,0 33.45681921729605,35.23169980535467,0 33.45684052444351,35.23170414893303,0 33.45689208703284,35.23171466185804,0 33.45713393711866,35.23179452355331,0 33.45714392375277,35.23182575484315,0 33.45840618653553,35.23224129280759,0 33.458961121329,35.23242401778054,0 33.45930565089796,35.23252141155768,0 33.45962938000214,35.23262416454108,0 33.45971545616192,35.23265148490044,0 33.46026522567229,35.23285659491531,0 33.46100933709626,35.23314313431842,0 33.46188907731714,35.23349729442428,0 33.46265640727947,35.23382311375654,0 33.46305006570569,35.23402871838405,0 33.46327840614527,35.23419384879151,0 33.46361570269955,35.234521743386,0 33.46380293029648,35.23470375090206,0 33.46398424029211,35.23488997493924,0 33.46431456254494,35.23522280048849,0 33.46450954422684,35.23542833027032,0 33.46487546836227,35.23579670426022,0 33.4649959222407,35.2359152033855,0 33.46529186412679,35.23619721930684,0 33.46556877658392,35.23646468094227,0 33.46570332834732,35.2366099421535,0 33.46583126304117,35.23675148343133,0 33.46597947154788,35.23690723613927,0 33.46615749183065,35.23709685056618,0 33.46626024804976,35.23725164311974,0 33.46636525123827,35.23728049656018,0 33.46638055245141,35.23728725656223,0 33.46639090455209,35.23729944753398,0 33.46640128213203,35.23732587664649,0 33.46642246218562,35.23738347901055,0 33.46643656123472,35.2374109195521,0 33.46645476994857,35.23742581323312,0 33.4665750951394,35.23747363021862,0 33.46659081657586,35.23748411939633,0 33.46666283579531,35.23755182852632,0 33.46669521834155,35.2376417076205,0 33.46674937994509,35.23759278174843,0 33.46683295535294,35.23769734881241,0 33.46682890095469,35.23775366119792,0 33.46704360504458,35.23789305738426,0 33.46724378795381,35.23799992877168,0 33.46742655551164,35.23807427759834,0 33.46761919419448,35.23812284993605,0 33.46790108217824,35.2381719882768,0 33.46861781169457,35.23830871426419,0 33.4693742050418,35.2384426726836,0 33.47020171245401,35.23859890901226,0 33.47029761487955,35.23862048236398,0 33.47045226949582,35.23868401468314,0 33.47067891820906,35.23879830491964,0 33.47070684046243,35.23870673938873,0 33.47078002414035,35.23851545366145,0 33.47092504283456,35.23829356410916,0 33.47092746075043,35.23826101840671,0 33.47083468188721,35.23771128825513,0 33.47079395841295,35.23759065872004,0 33.47076633625211,35.23740628112279,0 33.47073636310649,35.23728902779036,0 33.47069043577083,35.23703890871801,0 33.4706718489502,35.23682536686697,0 33.47067708210126,35.23653653634379,0 33.47071525347845,35.23618664515388,0 33.4714374989609,35.23618978334501,0 33.47177799407505,35.23620764890187,0 33.47206563455528,35.23624253223777,0 33.47196395643809,35.23665352470812,0 33.47190410299957,35.23689835632271,0 33.47187711787831,35.23704687054165,0 33.47179424825691,35.2373554627646,0 33.47249371132576,35.237537613215,0 33.47274213781861,35.23737592941038,0 33.47296259581635,35.23728140100911,0 33.47324086901686,35.23717120368852,0 33.47335973521972,35.23710325058015,0 33.47345463367279,35.23703464927267,0 33.47354040662835,35.23694639830354,0 33.47366972090713,35.23672791732403,0 33.47372990028126,35.23665325916637,0 33.47391531579953,35.23681234391862,0 33.47397825249354,35.23688005990565,0 33.47415980690563,35.23717745938301,0 33.47422917390155,35.23715296026715,0 33.4742066105516,35.23702417172986,0 33.47421222708897,35.23693738266198,0 33.47422373968219,35.23690923065237,0 33.47423033886259,35.23690312046597,0 33.47423943251476,35.23690446395141,0 33.47426345851584,35.23693629767638,0 33.47437444229158,35.23706429171006,0 33.47452508358891,35.23718816588867,0 33.47457071039614,35.23727827756237,0 33.47461309406286,35.2374002603886,0 33.47464872896444,35.23745174100955,0 33.47479858463453,35.23759595400032,0 33.47487558669276,35.23767178806459,0 33.47527087025604,35.2378122871832,0 33.47543863374759,35.23781681126226,0 33.4758593457797,35.23786032350439,0 33.47614935365638,35.23783485197316,0 33.47641461647594,35.23783178725823,0 33.47655341837289,35.23781736496132,0 33.47678636517806,35.23777095030176,0 33.47688089202139,35.23775766380428,0 33.47694643364318,35.2377484512247,0 33.47701495334896,35.2377307313466,0 33.47711522621444,35.23773059662135,0 33.47720732333088,35.23773467105213,0 33.47745586237945,35.23768480984141,0 33.47765425931863,35.23763249684816,0 33.47785883106152,35.23759864289289,0 33.47798258145776,35.23756993468907,0 33.4782495747914,35.23753935434964,0 33.47832937090904,35.23753253104886,0 33.47837234566893,35.23753247297944,0 33.47843479479459,35.23754917753771,0 33.47850343660408,35.23759273769598,0 33.47859257903183,35.23765473925432,0 33.47861618738681,35.23769164312755,0 33.47863376175575,35.23778144322228,0 33.47867173314127,35.23783763664689,0 33.47874149694226,35.23793072407128,0 33.47877550644617,35.23805156221955,0 33.47884015081952,35.23814297613642,0 33.4788892733918,35.23814710752079,0 33.4789731491612,35.23813314312957,0 33.47903439887385,35.23806254426518,0 33.47909772098956,35.23800453578192,0 33.47922965762432,35.23797581463207,0 33.47930735033257,35.23794045134573,0 33.47956292958118,35.23783097388082,0 33.47986760686628,35.23771303375508,0 33.48036046242619,35.23704666106811,0 33.48086050566537,35.2363962266643,0 33.48134729813526,35.23577519095605,0 33.48157078697838,35.23548694494304,0 33.48185957136558,35.23560911013175,0 33.48202952087625,35.23565924525812,0 33.48230832853714,35.23564328884659,0 33.48225170904408,35.2357365893653,0 33.4821957439853,35.23588777130655,0 33.48217447765438,35.23599525300217,0 33.48217296294241,35.23625465246847,0 33.48216515083347,35.23643682766675,0 33.48213491786576,35.23666268751271,0 33.48209959955432,35.23690366484573,0 33.48205533555476,35.23727309316734,0 33.48199592562791,35.23774159946834,0 33.4820007344719,35.23809165269015,0 33.48201070212982,35.23846184565177,0 33.48204205963916,35.23878499862673,0 33.48205470584941,35.23896462878758,0 33.48210794588356,35.23928717356311,0 33.48213471309647,35.23937684725468,0 33.48225898920963,35.23984729066838,0 33.48230721068231,35.24000484840092,0 33.4823572965832,35.24013434588404,0 33.48240256869675,35.24047507513576,0</coordinates>
						</LinearRing>
					</outerBoundaryIs>
				</Polygon>
			</MultiGeometry>
		</Placemark>
	</Document>
</kml>