<?xml version='1.0' encoding='UTF-8'?>
<kml xmlns="http://www.opengis.net/kml/2.2">
	<Document>
		<name>DIMOS KARAVA EXO GEITONIA</name>
		<Style id="PolyStyle60">
			<LabelStyle>
				<color>00000000</color>
				<scale>0.000000</scale>
			</LabelStyle>
			<LineStyle>
				<color>ffff7000</color>
				<width>2.000000</width>
			</LineStyle>
			<PolyStyle>
				<color>00828282</color>
				<outline>1</outline>
			</PolyStyle>
		</Style>
		<Placemark id="ID_60010">
			<name>DIMOS KARAVA EXO GEITONIA</name>
			<snippet />
			<description>&lt;html xmlns:fo="http://www.w3.org/1999/XSL/Format" xmlns:msxsl="urn:schemas-microsoft-com:xslt"&gt;

&lt;head&gt;

&lt;META http-equiv="Content-Type" content="text/html"&gt;

&lt;meta http-equiv="content-type" content="text/html; charset=UTF-8"&gt;

&lt;/head&gt;

&lt;body style="margin:0px 0px 0px 0px;overflow:auto;background:#FFFFFF;"&gt;

&lt;table style="font-family:Arial,Verdana,Times;font-size:12px;text-align:left;width:100%;border-collapse:collapse;padding:3px 3px 3px 3px"&gt;

&lt;tr style="text-align:center;font-weight:bold;background:#9CBCE2"&gt;

&lt;td&gt;2&lt;/td&gt;

&lt;/tr&gt;

&lt;tr&gt;

&lt;td&gt;

&lt;table style="font-family:Arial,Verdana,Times;font-size:12px;text-align:left;width:100%;border-spacing:0px; padding:3px 3px 3px 3px"&gt;

&lt;tr&gt;

&lt;td&gt;DIST_CODE&lt;/td&gt;

&lt;td&gt;2&lt;/td&gt;

&lt;/tr&gt;

&lt;tr bgcolor="#D4E4F3"&gt;

&lt;td&gt;VIL_CODE&lt;/td&gt;

&lt;td&gt;217&lt;/td&gt;

&lt;/tr&gt;

&lt;tr&gt;

&lt;td&gt;QRTR_CODE&lt;/td&gt;

&lt;td&gt;2&lt;/td&gt;

&lt;/tr&gt;

&lt;tr bgcolor="#D4E4F3"&gt;

&lt;td&gt;QRTR_NM_E&lt;/td&gt;

&lt;td&gt;EXO GEITONIA&lt;/td&gt;

&lt;/tr&gt;

&lt;tr&gt;

&lt;td&gt;QRTR_NM_G&lt;/td&gt;

&lt;td&gt;ΕΞΩ ΓΕΙΤΟΝΙΑ&lt;/td&gt;

&lt;/tr&gt;

&lt;tr bgcolor="#D4E4F3"&gt;

&lt;td&gt;VIL_CCD&lt;/td&gt;

&lt;td&gt;2217&lt;/td&gt;

&lt;/tr&gt;

&lt;tr&gt;

&lt;td&gt;QRTR_CCD&lt;/td&gt;

&lt;td&gt;221702&lt;/td&gt;

&lt;/tr&gt;

&lt;/table&gt;

&lt;/td&gt;

&lt;/tr&gt;

&lt;/table&gt;

&lt;/body&gt;&lt;script type="text/javascript"&gt;

				function changeImage(attElement, nameElement) {

				document.getElementById('imageAttachment').src = attElement;

				document.getElementById('imageName').innerHTML = nameElement;}

			&lt;/script&gt;&lt;/html&gt;

</description>
			<styleUrl>#PolyStyle60</styleUrl>
			<MultiGeometry>
				<Polygon>
					<extrude>0</extrude>
					<altitudeMode>clampToGround</altitudeMode>
					<outerBoundaryIs>
						<LinearRing>
							<coordinates> 33.19143879939158,35.33923591428412,0 33.19144065491379,35.33923580768755,0 33.19163006979304,35.33921088650544,0 33.19165391032946,35.33921105512736,0 33.19190735244689,35.33921284972109,0 33.19207831793535,35.33924215955274,0 33.19247700692831,35.33927794372065,0 33.19263281052132,35.33925798517281,0 33.19293504611534,35.33925551566587,0 33.19287703250534,35.33898907953187,0 33.1927876118534,35.33877949274419,0 33.1928214837574,35.33877328412918,0 33.19301113505896,35.33876237680073,0 33.193116152547,35.33873473515252,0 33.19336255961396,35.33870099308101,0 33.19360809535323,35.33868389851176,0 33.19390704662962,35.33861066752497,0 33.19429613748878,35.33826906674222,0 33.19451618066039,35.33831437659396,0 33.1946904724825,35.33838392021193,0 33.19485893084065,35.33839102475967,0 33.19504922288888,35.33851816071556,0 33.19521088919353,35.33853913167969,0 33.19539120998503,35.33854000404723,0 33.19559524515675,35.33853396298638,0 33.19578060771261,35.33856050681275,0 33.19597440296689,35.33860925649982,0 33.19615330384414,35.33842352360543,0 33.19638110003456,35.33837865736236,0 33.19644465656708,35.33833501764955,0 33.19651842959296,35.33825254084107,0 33.19654762429914,35.33826158736051,0 33.19637959618336,35.33853820602941,0 33.19630319389398,35.33868172458244,0 33.19620560132278,35.33884117864762,0 33.1961301854552,35.33888966343854,0 33.19600229063491,35.33893115837997,0 33.19593702212448,35.33898589566586,0 33.19589205526187,35.33905313905902,0 33.19585469752639,35.33912594060954,0 33.19581296750051,35.33929377315879,0 33.19582461940956,35.33942974844156,0 33.19580162061149,35.33952545590565,0 33.19568724693777,35.33958222585726,0 33.19549675463531,35.33958897348815,0 33.19530704342327,35.33963873140102,0 33.19528328606113,35.3396754737973,0 33.1952654081843,35.33974274439784,0 33.19527535059203,35.33988912345941,0 33.19526761654001,35.3399661152328,0 33.19528597859822,35.34014441281947,0 33.19525281126209,35.34024565932328,0 33.19519431156825,35.34030248366836,0 33.19509178737199,35.34036065268343,0 33.19496897952595,35.34039521485098,0 33.19482757837462,35.3404068668527,0 33.19473696282593,35.34042689359605,0 33.19458528681746,35.34051692204756,0 33.1945454084014,35.34057654011202,0 33.19453345630555,35.34064312232333,0 33.19463146750229,35.34077432832801,0 33.19475317300977,35.34091318932001,0 33.19476997780501,35.34099852971457,0 33.19472504683013,35.34103941277272,0 33.19448699014118,35.3411473913827,0 33.19441406927039,35.34122293126777,0 33.19450625052126,35.34128892411184,0 33.19463901605069,35.34139172321024,0 33.19465818383226,35.34142846395685,0 33.19465915194619,35.34143031923129,0 33.19469629411653,35.34147542463474,0 33.19470033977711,35.34154128702724,0 33.19468621506645,35.34156707288687,0 33.19463149095136,35.34159010281262,0 33.19458674918962,35.34158802055246,0 33.19451964871045,35.34157505319094,0 33.19448235932408,35.34157637421165,0 33.19441933921873,35.34160618581541,0 33.19434468830156,35.34165635291644,0 33.19428160321284,35.34173029589084,0 33.19424914681014,35.34182463731935,0 33.19423574533752,35.34192103480655,0 33.19432826361857,35.34211327115936,0 33.19435711412302,35.34221514238206,0 33.19432305726203,35.34227146187978,0 33.19396246688801,35.34236343773553,0 33.19386379314698,35.34240746955795,0 33.19384138781832,35.34242917364725,0 33.19378317165212,35.34257033671851,0 33.19378060276222,35.34262600887045,0 33.19373407801694,35.34270675742608,0 33.19370087212106,35.34274746085812,0 33.19357891001665,35.34284918081759,0 33.19353494432077,35.34288172595978,0 33.19347347685066,35.34298011210715,0 33.19345267006213,35.34304119735054,0 33.19352088423188,35.34341604671348,0 33.19360722952325,35.34363673003414,0 33.19361416395143,35.34365445258145,0 33.19361072293178,35.34373795967803,0 33.19359906675147,35.34377461203219,0 33.19356920502196,35.34379562854116,0 33.19325845445529,35.34380142672673,0 33.19317307404203,35.34382170892789,0 33.19315060272505,35.34388618594163,0 33.19315380351544,35.34396223254536,0 33.19316862721741,35.34402267309687,0 33.19320742657907,35.34412048149075,0 33.19318995617213,35.3441659531357,0 33.19307880286541,35.34424256281893,0 33.19305134397796,35.34431789852854,0 33.19308188405448,35.34439736635021,0 33.19313066733572,35.34446802742838,0 33.19324731411574,35.34459714595319,0 33.19324810273186,35.34462294655062,0 33.19322154275682,35.344652114235,0 33.19302173264161,35.34472184472948,0 33.19294294689043,35.34476453883936,0 33.19293048129211,35.34478761049793,0 33.19293786433254,35.34483718154657,0 33.19300240582591,35.34489903091605,0 33.19312000780302,35.34494396051416,0 33.19316551144918,35.34499221232109,0 33.19318490048041,35.34504694797398,0 33.19322664913079,35.34516480902467,0 33.19315851903842,35.34535455095561,0 33.19305574380146,35.34547511267643,0 33.19299115189467,35.34551301046315,0 33.1929026771388,35.34551384934743,0 33.19286208110589,35.34551423501312,0 33.19270148375346,35.34557237111516,0 33.19257206321835,35.34580408105711,0 33.19251904264591,35.3458501239072,0 33.19235669905838,35.34596791351033,0 33.19222571540207,35.34613860969709,0 33.19216776629953,35.34616024288811,0 33.19195924122673,35.3461776561597,0 33.1916847120243,35.34607297978713,0 33.19162014788435,35.34609189474408,0 33.1915687661936,35.34614742966005,0 33.19156530327008,35.34624775455213,0 33.19174869558903,35.34643504166547,0 33.1917502105153,35.3465272372754,0 33.19170690086636,35.34671429254175,0 33.19160215042782,35.34704364334846,0 33.19153921932191,35.34707611775445,0 33.19126631787847,35.34698771128959,0 33.1911636769137,35.34701743333348,0 33.19113378704572,35.3470851927624,0 33.19111357661107,35.34731565662902,0 33.19091134146563,35.34754593398073,0 33.1908512562247,35.34788075249342,0 33.19071053870844,35.34791992568317,0 33.19072006617909,35.34818160400224,0 33.19067350450516,35.34832933701622,0 33.19058570563827,35.34839161352917,0 33.19043332872933,35.34847958265456,0 33.19040503171654,35.34858666093677,0 33.19036165760626,35.34868049472434,0 33.19033220694107,35.34874420787846,0 33.19025579910208,35.34882970634754,0 33.19014954096647,35.34891653167973,0 33.19014105428521,35.34904285011186,0 33.19008445634306,35.34918541846883,0 33.19000469220055,35.34929672208895,0 33.18994324730988,35.34935506817042,0 33.18986030936537,35.34937399843355,0 33.18975585535964,35.34936574001299,0 33.18957362816189,35.34925280701857,0 33.18953218260993,35.34924733036231,0 33.18935455695105,35.34937483142236,0 33.18925663860791,35.34942906362674,0 33.18909555759166,35.34958103144196,0 33.18905732565119,35.34964076042003,0 33.189057206946,35.34971682758066,0 33.18903726661762,35.34974397480905,0 33.18895430111206,35.34977920494551,0 33.18882328505506,35.34978993502795,0 33.18877348229397,35.34982655813408,0 33.18878488773023,35.34995697368184,0 33.18877312883106,35.35005340483694,0 33.18874152481585,35.35011585632662,0 33.18868506284355,35.3501687731177,0 33.18856720717079,35.35024743427591,0 33.18854393290026,35.3502854436741,0 33.18855863278843,35.35042944501473,0 33.18854194562838,35.35049598704995,0 33.18836759024358,35.35065065796924,0 33.18813532759101,35.35072240672792,0 33.18810544242886,35.35074546712356,0 33.18810852506478,35.35089489032515,0 33.18798588122537,35.350852652545,0 33.1877471912095,35.35079263236034,0 33.18751520017224,35.35069050984258,0 33.18724165159764,35.35065354489586,0 33.18731709032625,35.35013473132992,0 33.18755424382634,35.35011596473535,0 33.18774498099152,35.35008899967046,0 33.18775229227918,35.34965704886385,0 33.1878396563639,35.34867786192332,0 33.18785680102698,35.34848570641258,0 33.18804710811763,35.34848183925896,0 33.18829199129097,35.34849836603216,0 33.1883465388694,35.34853774142162,0 33.18840309211753,35.34835205758182,0 33.18846141700796,35.34809180654406,0 33.18880371248213,35.34824943656903,0 33.18880128940183,35.34768135716595,0 33.18875872930202,35.34632145115108,0 33.18904076442222,35.34638614646056,0 33.18900138250022,35.34617256779675,0 33.18956519317395,35.3459352137703,0 33.18951937872452,35.34453361424162,0 33.18960127759123,35.34453912301313,0 33.18981046498892,35.34462678876088,0 33.18996924176929,35.34467576253322,0 33.19001490479372,35.34403790842468,0 33.19039212341212,35.34407219360297,0 33.19040103150306,35.3436607189571,0 33.19080074718356,35.34359130838539,0 33.19087789821073,35.34345648598507,0 33.191051170594,35.34322278944032,0 33.19116814007049,35.34301750740694,0 33.19097963063986,35.34293596590523,0 33.19074066055298,35.34285030423088,0 33.19050245993854,35.34280260589487,0 33.18983903594611,35.34273616358912,0 33.18950069132096,35.34271140726919,0 33.18879007460686,35.34266795785179,0 33.18837235707699,35.34261057714143,0 33.18818711882253,35.3425561503633,0 33.18810697704244,35.34248624273745,0 33.18805168959278,35.3423939909613,0 33.18804604027712,35.34230314651868,0 33.18797548820978,35.34192209432544,0 33.18794914331711,35.3418393628812,0 33.18776668455556,35.34173537620759,0 33.18785329781404,35.34163640942887,0 33.18801485756509,35.34143948894565,0 33.18801479492079,35.34141244687601,0 33.18799078112297,35.34140756811975,0 33.18793074149516,35.34139291136242,0 33.18790701301662,35.34124660632344,0 33.18801841611403,35.34103481896942,0 33.18805173222744,35.3409329775069,0 33.18812175221944,35.34068175433251,0 33.18815696280502,35.34042777840779,0 33.18824995916302,35.34032463973972,0 33.18839106560507,35.34019846078476,0 33.1883483212624,35.33997021072216,0 33.18839984382586,35.33988604650362,0 33.18851769784123,35.33978701070173,0 33.18858226633615,35.33984141258187,0 33.18869395705178,35.33988268535804,0 33.18872972078616,35.33989590138652,0 33.18891365137013,35.3399477118144,0 33.18907445439346,35.33994652118836,0 33.18936465959362,35.33988433984161,0 33.1898490005207,35.33970418117941,0 33.19026530164076,35.33957013479967,0 33.19039803320518,35.33949827816974,0 33.19061544003958,35.33934093303225,0 33.1907464714975,35.33929488418639,0 33.1912057311743,35.33925188865766,0 33.19136587858255,35.33924010665982,0 33.19143879939158,35.33923591428412,0</coordinates>
						</LinearRing>
					</outerBoundaryIs>
				</Polygon>
			</MultiGeometry>
		</Placemark>
	</Document>
</kml>