<?xml version='1.0' encoding='UTF-8'?>
<kml xmlns="http://www.opengis.net/kml/2.2">
	<Document>
		<name>LAKATAMEIA, LAKATAMEIA AGIOS NIKOLAOS</name>
		<Style id="PolyStyle60">
			<LabelStyle>
				<color>00000000</color>
				<scale>0.000000</scale>
			</LabelStyle>
			<LineStyle>
				<color>ffff7000</color>
				<width>2.000000</width>
			</LineStyle>
			<PolyStyle>
				<color>00828282</color>
				<outline>1</outline>
			</PolyStyle>
		</Style>
		<Placemark id="ID_60115">
			<name>LAKATAMEIA, LAKATAMEIA AGIOS NIKOLAOS</name>
			<snippet />
			<description>&lt;html xmlns:fo="http://www.w3.org/1999/XSL/Format" xmlns:msxsl="urn:schemas-microsoft-com:xslt"&gt;

&lt;head&gt;

&lt;META http-equiv="Content-Type" content="text/html"&gt;

&lt;meta http-equiv="content-type" content="text/html; charset=UTF-8"&gt;

&lt;/head&gt;

&lt;body style="margin:0px 0px 0px 0px;overflow:auto;background:#FFFFFF;"&gt;

&lt;table style="font-family:Arial,Verdana,Times;font-size:12px;text-align:left;width:100%;border-collapse:collapse;padding:3px 3px 3px 3px"&gt;

&lt;tr style="text-align:center;font-weight:bold;background:#9CBCE2"&gt;

&lt;td&gt;1&lt;/td&gt;

&lt;/tr&gt;

&lt;tr&gt;

&lt;td&gt;

&lt;table style="font-family:Arial,Verdana,Times;font-size:12px;text-align:left;width:100%;border-spacing:0px; padding:3px 3px 3px 3px"&gt;

&lt;tr&gt;

&lt;td&gt;DIST_CODE&lt;/td&gt;

&lt;td&gt;1&lt;/td&gt;

&lt;/tr&gt;

&lt;tr bgcolor="#D4E4F3"&gt;

&lt;td&gt;VIL_CODE&lt;/td&gt;

&lt;td&gt;21&lt;/td&gt;

&lt;/tr&gt;

&lt;tr&gt;

&lt;td&gt;QRTR_CODE&lt;/td&gt;

&lt;td&gt;4&lt;/td&gt;

&lt;/tr&gt;

&lt;tr bgcolor="#D4E4F3"&gt;

&lt;td&gt;QRTR_NM_E&lt;/td&gt;

&lt;td&gt;AGIOS NIKOLAOS&lt;/td&gt;

&lt;/tr&gt;

&lt;tr&gt;

&lt;td&gt;QRTR_NM_G&lt;/td&gt;

&lt;td&gt;ΑΓΙΟΣ ΝΙΚΟΛΑΟΣ&lt;/td&gt;

&lt;/tr&gt;

&lt;tr bgcolor="#D4E4F3"&gt;

&lt;td&gt;VIL_CCD&lt;/td&gt;

&lt;td&gt;1021&lt;/td&gt;

&lt;/tr&gt;

&lt;tr&gt;

&lt;td&gt;QRTR_CCD&lt;/td&gt;

&lt;td&gt;102104&lt;/td&gt;

&lt;/tr&gt;

&lt;/table&gt;

&lt;/td&gt;

&lt;/tr&gt;

&lt;/table&gt;

&lt;/body&gt;&lt;script type="text/javascript"&gt;

				function changeImage(attElement, nameElement) {

				document.getElementById('imageAttachment').src = attElement;

				document.getElementById('imageName').innerHTML = nameElement;}

			&lt;/script&gt;&lt;/html&gt;

</description>
			<styleUrl>#PolyStyle60</styleUrl>
			<MultiGeometry>
				<Polygon>
					<extrude>0</extrude>
					<altitudeMode>clampToGround</altitudeMode>
					<outerBoundaryIs>
						<LinearRing>
							<coordinates> 33.29246632117621,35.09576896416031,0 33.29285711019637,35.09559779329291,0 33.2930692258587,35.09548264399852,0 33.29310359875257,35.09547788800514,0 33.29322034636352,35.09545062924299,0 33.29324757013173,35.09542767570919,0 33.29338759742904,35.09550943647607,0 33.29352487490973,35.09561737076048,0 33.29359552157327,35.09565623977638,0 33.29370048274454,35.09562387646403,0 33.29333869765289,35.09528993530107,0 33.29314412514091,35.09503052038928,0 33.29309114772212,35.09491406280802,0 33.29306001329898,35.09478810653564,0 33.29346400641181,35.09454338729881,0 33.29352704386419,35.09449040578397,0 33.2936517608406,35.09438844279554,0 33.2937477654111,35.09433924296138,0 33.2938423785227,35.09429505195262,0 33.29414514505711,35.09408070984001,0 33.29417748679587,35.09405781398844,0 33.29427594889803,35.09411955151038,0 33.29451108130001,35.09438503177679,0 33.29456033223396,35.09441539782564,0 33.29465219934442,35.09438021343529,0 33.29482520371493,35.09433782325731,0 33.29486892436061,35.0943872151654,0 33.29516452925103,35.09427002386643,0 33.29509595801377,35.09415655362294,0 33.29573361409136,35.09392625649313,0 33.29558265152387,35.09356090452773,0 33.29544365612466,35.0931303232985,0 33.29553188072809,35.09309404468926,0 33.29538949627872,35.09276621254811,0 33.29589599146421,35.09257221016812,0 33.29586731081334,35.09243850367253,0 33.29681151677772,35.09212954089128,0 33.29697389234625,35.09244406268284,0 33.29706165623321,35.09252548752022,0 33.29700265215991,35.09260727097004,0 33.29691509250774,35.09258189707582,0 33.29683188066555,35.09273882086877,0 33.29668865013382,35.09291899190598,0 33.29663721771959,35.09310328483137,0 33.29664770702623,35.0931569498571,0 33.29673300524099,35.09328390306182,0 33.29686137395475,35.09344309425639,0 33.2969128428117,35.09355516223201,0 33.29692230276459,35.09364005549276,0 33.29684328698892,35.09388017814545,0 33.29674723498438,35.09396769046637,0 33.29664541643913,35.09411858052655,0 33.29660173867887,35.09421636956059,0 33.2965787705703,35.09442955959971,0 33.29661107219891,35.0945280894172,0 33.29664369863657,35.09469114765489,0 33.29668490865934,35.09477980324426,0 33.29677813684266,35.0948830920952,0 33.29685126111518,35.09497861847511,0 33.29723787683038,35.09522441153072,0 33.29734026051347,35.09536024092029,0 33.29739993262605,35.09525840834854,0 33.29733193026117,35.09502688938269,0 33.29769898923203,35.09508318408655,0 33.29769379177861,35.09500051684163,0 33.29763839273483,35.09491480528123,0 33.2974887970632,35.09467831886714,0 33.29769981270312,35.09452488851209,0 33.29776672712052,35.09454054034291,0 33.29780384981905,35.09441839918536,0 33.29786136631769,35.09430983272816,0 33.29793250954238,35.09378724314252,0 33.29830674249428,35.09388958856226,0 33.29919431744935,35.09415292822354,0 33.29905640993156,35.0945439610751,0 33.30037087233973,35.09458019824701,0 33.30048686347235,35.09481980031889,0 33.30065280461931,35.09477017380673,0 33.30051306483119,35.09450683533915,0 33.30045065736197,35.0942785511262,0 33.30043183466823,35.09410470680236,0 33.3007654589713,35.09398935921124,0 33.30114233552414,35.09386390935996,0 33.30092394876478,35.09300699620047,0 33.30105596854919,35.09294449013412,0 33.3008857237503,35.09256456275589,0 33.30128963422428,35.09247400383322,0 33.30135951848413,35.09258649560398,0 33.30165312806535,35.09245711810527,0 33.30226481950625,35.09216262306484,0 33.30287987121409,35.09191557758489,0 33.30291398960167,35.0919597065214,0 33.30349263058978,35.09173904031364,0 33.30357757738062,35.09187909428842,0 33.30363115503226,35.09185309868651,0 33.30377485201613,35.09210942700349,0 33.30369153337785,35.09214482585098,0 33.30399562380865,35.09263469770017,0 33.30451344242329,35.09243783390924,0 33.3042339385977,35.09194550211033,0 33.30429059383872,35.09190042105443,0 33.30419526867193,35.09173996316057,0 33.30423997372569,35.09172283778891,0 33.30419540250592,35.09162302109553,0 33.30453001415309,35.09152164063058,0 33.30461083279169,35.09149106372014,0 33.30453003675746,35.09134215991078,0 33.30444785566132,35.09121444175714,0 33.30436465238771,35.09105830284555,0 33.30393272691463,35.09117950363771,0 33.30351959971856,35.09049971682907,0 33.30319376845082,35.09060216326764,0 33.30309183585369,35.09041940296638,0 33.30300712447078,35.09023502207319,0 33.30340930576008,35.09012221991491,0 33.30329447078972,35.0898464376591,0 33.30324219857203,35.08975755411691,0 33.30321634501328,35.08964810461782,0 33.30337210410497,35.08960931675786,0 33.30326359588679,35.08924443583097,0 33.30324505282798,35.08918208026287,0 33.30332587396342,35.08914763353906,0 33.30320161479649,35.08874769099982,0 33.30302258732091,35.08878595087317,0 33.30289524850536,35.08833052034384,0 33.30357964040073,35.0882473042669,0 33.30424051987592,35.08805872786216,0 33.30453046843789,35.08802098002424,0 33.30476165599251,35.08797653117096,0 33.30631516835686,35.08773667448531,0 33.30631126208795,35.08771438435619,0 33.30643576337424,35.08769810221578,0 33.30642623170071,35.08766332464226,0 33.30634775420718,35.08734129747529,0 33.30630466054725,35.08712047328687,0 33.30702348540733,35.08697812463827,0 33.30685429868438,35.08675530319223,0 33.30673543616977,35.08676645328797,0 33.30663041019666,35.08674046080745,0 33.30644989574882,35.08655078796237,0 33.30622659683699,35.08660139026789,0 33.30613915310272,35.08640943388439,0 33.30583591038971,35.08588764488344,0 33.30543251692624,35.08547081885916,0 33.30536118904325,35.08513912691498,0 33.30527333179439,35.08499150499101,0 33.3052135920513,35.08484712131459,0 33.30520714937482,35.08463572058032,0 33.30519030020287,35.08448563567312,0 33.30521853457138,35.08447679478532,0 33.30529939817476,35.08458912609849,0 33.30536836342245,35.08478993647383,0 33.30568088143902,35.08474603912844,0 33.30571969028338,35.08453699150942,0 33.30562580067335,35.08438027447168,0 33.30545392243165,35.08431253650569,0 33.30533821561111,35.08413553384656,0 33.30544613041243,35.08411320996236,0 33.30528604001244,35.08384731549229,0 33.30505734840054,35.08383350086058,0 33.30486023539979,35.08384407792712,0 33.30478325937491,35.08358990668766,0 33.30500664981176,35.08339939876333,0 33.30519043393427,35.08337563220344,0 33.30527327676781,35.08365601408025,0 33.30549000984151,35.08364256189734,0 33.30538915150157,35.08344958851439,0 33.30534576820144,35.08338284369007,0 33.30528148277992,35.0832042430624,0 33.30528169283562,35.08306135442093,0 33.30520152409618,35.08300238666789,0 33.30520490121123,35.08290983657808,0 33.3052769974698,35.08279767909033,0 33.3055951487822,35.08255353548297,0 33.30558747730217,35.0823421684356,0 33.30599475352425,35.08226335237502,0 33.3062483427643,35.08221427581041,0 33.30651133060373,35.08212389753053,0 33.30648608178821,35.08207842203888,0 33.30630707897249,35.08210929061849,0 33.30617707792732,35.08201372405131,0 33.3061639701819,35.08197840468866,0 33.30639874154133,35.08187750629858,0 33.30659851930552,35.08184980760885,0 33.30689025886191,35.08205224962615,0 33.30719484396016,35.08194985063749,0 33.30729169202128,35.08168890266472,0 33.30739008769478,35.08151854433882,0 33.30749025195706,35.08141663283085,0 33.30750910166498,35.0813674590109,0 33.30748975134838,35.08122038419688,0 33.30744199607673,35.0809754871938,0 33.30747088602772,35.0809012304844,0 33.30787913361299,35.0805912530603,0 33.30801145069903,35.08058014430507,0 33.3079993184027,35.08069276863637,0 33.30852734670021,35.08052856752688,0 33.30868857576822,35.08069077099222,0 33.30861859680484,35.08095897570361,0 33.30864422010344,35.08109201472092,0 33.30868765759278,35.08115674810099,0 33.30864431799856,35.08133054778102,0 33.30871541255891,35.08157062001469,0 33.3087050833644,35.08162489505077,0 33.30859597572886,35.08163918518022,0 33.30850898693704,35.08176938732591,0 33.30851514516376,35.08201401921657,0 33.30862679184546,35.08199069235868,0 33.30885492734776,35.08207492625608,0 33.30906349570267,35.08203319228547,0 33.30933765565541,35.08192148266581,0 33.30952193478975,35.08186044033378,0 33.30961801583621,35.08180276885588,0 33.30980305762101,35.08191486814444,0 33.3099734767943,35.08189499193269,0 33.3098398045637,35.0812880238272,0 33.30980473850281,35.08124246864088,0 33.31011999267808,35.08106259569669,0 33.31019135943572,35.08102788911827,0 33.31056737450974,35.08089777434044,0 33.3107059440748,35.0808796633988,0 33.31068048183339,35.08110495980416,0 33.31083452486142,35.08113326962236,0 33.31087898991742,35.08134700739147,0 33.31100230549614,35.08138717540273,0 33.3110369698076,35.08172769740456,0 33.31108097359743,35.08173708270803,0 33.31118274427802,35.08159991255094,0 33.31127730247738,35.08144859423806,0 33.31136896804724,35.08146940417227,0 33.31145271535645,35.08142270423917,0 33.31158629964505,35.08154248317278,0 33.31155041793838,35.08157946832183,0 33.31192572667429,35.08191246384136,0 33.31198124856749,35.08187159525852,0 33.31209936419439,35.08194596695537,0 33.3121858432733,35.08187109399227,0 33.31254053976102,35.0821878602541,0 33.3126047493739,35.08213597809066,0 33.31271425706107,35.08221532733023,0 33.31306488471389,35.08232264882009,0 33.31321651650264,35.08222710612299,0 33.31353180820491,35.08244493948627,0 33.31358578120585,35.08243929772042,0 33.31377228398711,35.08254339883894,0 33.3138492350021,35.08257015371046,0 33.31383753434729,35.08264056076312,0 33.31391239820995,35.08275793714935,0 33.31409613957248,35.08294779704585,0 33.31423993940262,35.08290456422008,0 33.31446174189923,35.08316403915143,0 33.31467708363125,35.08307401011342,0 33.31493344778439,35.08343951218841,0 33.31520146079012,35.08387160940021,0 33.31511035512122,35.0839132236307,0 33.31521465827996,35.08415978139247,0 33.31547719853089,35.08465535508275,0 33.31541076539941,35.08468003093823,0 33.31563455650841,35.0851269972894,0 33.31567564517093,35.08518977184531,0 33.31575820913815,35.0852750277508,0 33.31589507321286,35.08558234258761,0 33.31585674917011,35.08574525790264,0 33.3157864383724,35.08579005092619,0 33.31589544507194,35.08593194109823,0 33.31591268640893,35.08592401515119,0 33.31632969454828,35.08630204782685,0 33.31645447081134,35.08646423036043,0 33.31653035495212,35.08660991657815,0 33.31658658284523,35.0867594841552,0 33.31665270154227,35.08703105971524,0 33.31656355770036,35.08712105310247,0 33.31660041504882,35.08724427883153,0 33.31635257095689,35.08738744223906,0 33.31645927761202,35.08764625257834,0 33.31673658267127,35.08763130342811,0 33.3167570450494,35.08766363043971,0 33.31677161333798,35.08771364589464,0 33.31689111792363,35.08770122321194,0 33.31688960525521,35.08788399981401,0 33.31675946969041,35.08798441889165,0 33.31669382381186,35.08810838101883,0 33.3166685716879,35.08815194812114,0 33.31665946885246,35.0882181930919,0 33.31674664882202,35.08892646296516,0 33.3171784518613,35.08889551474031,0 33.31715926810553,35.08920888784505,0 33.31715092266052,35.08934520737657,0 33.31776538216882,35.08936773399132,0 33.31801875256694,35.0893980277925,0 33.31811259582033,35.08940924847956,0 33.31815842130969,35.08926631786802,0 33.31873952895034,35.0893580300402,0 33.31865810997802,35.08969756898552,0 33.31955323210913,35.08978131247549,0 33.31982979122086,35.08975927492541,0 33.31988469524845,35.09012351511916,0 33.32113043514165,35.08990998213011,0 33.32124528680199,35.09027678065966,0 33.32178239958271,35.09013654123191,0 33.32251097244191,35.08998817164297,0 33.32271217290877,35.09050232327444,0 33.32278559474777,35.09076524031845,0 33.32248224462152,35.09081581607292,0 33.3226179626995,35.09124662812241,0 33.32280930465824,35.09120926926582,0 33.32282886178018,35.09147078191552,0 33.32301428367659,35.09181822497691,0 33.32310594221771,35.09205238058728,0 33.3231751978059,35.0923282779009,0 33.32320497970795,35.09274120446374,0 33.32310820542083,35.09277295671587,0 33.32322787619265,35.09327184815575,0 33.32328950219073,35.09326236149,0 33.32344786189665,35.09344986586864,0 33.32369383188776,35.0934260126279,0 33.32415144092388,35.09415936470613,0 33.32418854479023,35.09415024961569,0 33.32437812164186,35.09435467796155,0 33.32450860485888,35.09446889971472,0 33.32506285640481,35.09491567138029,0 33.32517250130683,35.09498769472238,0 33.32534577679561,35.09491564812593,0 33.32567306607518,35.09478320976423,0 33.3257609057534,35.09491561252457,0 33.32593149369536,35.09515256807899,0 33.32597740073988,35.09524882330841,0 33.3260325310975,35.09543918333858,0 33.32650578057581,35.09528142983046,0 33.32660645924298,35.09549541635279,0 33.32721878067397,35.09532886892441,0 33.32726736464904,35.09579850609478,0 33.32727932066185,35.09596736447103,0 33.32729661284005,35.09618077318225,0 33.3272439154438,35.09644950185477,0 33.32714110438111,35.09741576299412,0 33.32708468378893,35.09803642407433,0 33.32696868264842,35.09867233172388,0 33.32708546277161,35.09901797004394,0 33.3271546733198,35.09916844469433,0 33.327448531391,35.09977489318285,0 33.32755561517331,35.10009098737233,0 33.32767741927569,35.10048825132058,0 33.32696762796638,35.10079235918348,0 33.32713913861254,35.10107702721029,0 33.32670190147593,35.10128408956267,0 33.32672460896076,35.10132415995657,0 33.32624700168537,35.10154806949613,0 33.32627646600327,35.10160146893796,0 33.32568009988206,35.10187503163524,0 33.32550839695335,35.10195530790472,0 33.32530751147113,35.10159890395372,0 33.32525844926619,35.10154489341538,0 33.32505533275431,35.10112991429659,0 33.32467951753564,35.10124910579153,0 33.32472309285011,35.10136950734458,0 33.32380023253901,35.10165382867774,0 33.32396035556071,35.1019887237962,0 33.32336972195302,35.10211702948421,0 33.3231339652914,35.10216823875716,0 33.32256166581704,35.10229255609908,0 33.3225369840567,35.10223283678162,0 33.32250951702751,35.10216827799684,0 33.32249547507174,35.10213482263416,0 33.32242762911842,35.1019731057012,0 33.32232491141347,35.10172830942057,0 33.3219132153476,35.10183418199179,0 33.32172499889133,35.10130999448083,0 33.32166101544939,35.10115372126206,0 33.32151732533839,35.10086384265228,0 33.32143240692991,35.10070993151695,0 33.3207896769991,35.10088611394935,0 33.32102647142745,35.10141885401186,0 33.3211515186491,35.10174138739359,0 33.32074992317629,35.10186973381687,0 33.32065999501522,35.10190718722443,0 33.32031690473122,35.10198899551461,0 33.32036097027229,35.10216838908921,0 33.32041152062739,35.10237414520932,0 33.31941945279672,35.10264653993769,0 33.31839147223801,35.10294362209629,0 33.31856021110394,35.10337770344577,0 33.31872511810566,35.10368185215112,0 33.31779416839471,35.10409048473966,0 33.31780245353795,35.10412875753025,0 33.31729351736595,35.10430575869087,0 33.31726676743931,35.10427422083063,0 33.31658605193152,35.10447906130951,0 33.31633790077081,35.10453149221961,0 33.3158258426973,35.10461409002903,0 33.31456224203537,35.10488108018487,0 33.31450174231528,35.10474370304306,0 33.31446118395019,35.10475966581459,0 33.31410114072404,35.10510195236225,0 33.3140636330621,35.10501710807298,0 33.31353185251374,35.10517918024552,0 33.31355331343634,35.10528209525746,0 33.3135547884681,35.10544843091927,0 33.31367970351265,35.10567779548788,0 33.31368744329738,35.10582097128513,0 33.31366585890585,35.10594788764089,0 33.31350695800469,35.1062878895567,0 33.31355990982807,35.10645544327432,0 33.31362606002099,35.10667143691402,0 33.31363713841947,35.10687206427723,0 33.31357782431858,35.10695343723169,0 33.31350410854036,35.10698233320034,0 33.31332501388954,35.10700672135291,0 33.31318241146865,35.10707964861642,0 33.31311941765544,35.1071630121448,0 33.31310396214737,35.1072909311365,0 33.31311030381664,35.10744591537773,0 33.31293581921769,35.10733249108765,0 33.31287851203584,35.10728284885484,0 33.31283286895669,35.10723220207532,0 33.31179337540546,35.10762248695751,0 33.31186821328172,35.10781527768602,0 33.31151340367168,35.10794863189391,0 33.31145026151123,35.10785262657009,0 33.31113461558753,35.10799924782566,0 33.31086714984252,35.10765447135172,0 33.31038316710474,35.10790909886198,0 33.31022580613236,35.10801715042163,0 33.31055658570263,35.10841760019703,0 33.31086125808506,35.10825182573726,0 33.31111541294734,35.10856732798691,0 33.31115059486527,35.10862592291881,0 33.31076138807163,35.10879329036734,0 33.31096585923531,35.10901487191835,0 33.31108846900243,35.10920382944469,0 33.31058547586317,35.10935649604649,0 33.31059632813999,35.10938575676737,0 33.31046012397848,35.10942073410965,0 33.31012751105032,35.10950614735685,0 33.31007797854429,35.10942071879298,0 33.31005058995986,35.10937348118742,0 33.30993049462316,35.10916635012163,0 33.30935312895347,35.10935352821969,0 33.30912236755382,35.1094206740589,0 33.3084521559443,35.10961568794759,0 33.30760344472115,35.10985686424651,0 33.30738386419549,35.10973625493595,0 33.3072696592361,35.10961596590321,0 33.30713086502958,35.10962624210441,0 33.30688490280619,35.10989616311932,0 33.30684236025402,35.10995012988943,0 33.30693920550215,35.11006507556132,0 33.30672535588548,35.11016814377496,0 33.30650774429562,35.11027619869329,0 33.30631955339586,35.1103836146037,0 33.30614853080894,35.11049023689549,0 33.30608625497065,35.11054585502987,0 33.30593811273263,35.11060743813159,0 33.30581064723795,35.11067734116506,0 33.30583421930498,35.11072799937532,0 33.30595011510734,35.11095508599455,0 33.30593270880382,35.110968966522,0 33.30575551719906,35.11094456446283,0 33.30563602431508,35.11091384205168,0 33.30555821166079,35.11088163351827,0 33.30537876234891,35.11078065664954,0 33.30521405201799,35.11067785581632,0 33.30503465204288,35.11057487177587,0 33.30497039386781,35.11053880949317,0 33.30473667617174,35.11045931439754,0 33.30462938056096,35.11056572025735,0 33.30489239612353,35.11071709490501,0 33.30515613214691,35.11089668661523,0 33.30515093861829,35.11091273572183,0 33.30505161352645,35.11098500182042,0 33.30485027157989,35.11107611774491,0 33.30452745130065,35.1112153545948,0 33.30446314382959,35.11124309106521,0 33.30428123284192,35.11148160941893,0 33.30407763544642,35.11168666036486,0 33.30408166120486,35.11176133364638,0 33.30406268005138,35.11181059718121,0 33.30399935072993,35.11187562396412,0 33.3038595225931,35.11208222186946,0 33.30381047193801,35.11218468965932,0 33.3037716006089,35.11225597388614,0 33.30368213227674,35.11235305693133,0 33.30346775519172,35.11253582311245,0 33.30329954766523,35.11265240929079,0 33.30298866687685,35.11238651445004,0 33.30284114531256,35.11220673597317,0 33.30272136020004,35.11206754060862,0 33.30258416911632,35.11184448559531,0 33.30251297973766,35.11174504065061,0 33.30251314082228,35.11162804481421,0 33.30240806024501,35.11138711567134,0 33.30222390461183,35.11098818932226,0 33.30213767496102,35.11081298410038,0 33.30202953928679,35.11062347847844,0 33.3019886154902,35.11045471168348,0 33.30193405924762,35.11029793328762,0 33.30188209378379,35.1102329513436,0 33.301875154611,35.11019759649656,0 33.30178680742898,35.11009802074579,0 33.30173319629994,35.11006832301594,0 33.30160623103912,35.10991598380985,0 33.30140881636868,35.10970658026761,0 33.30126231037815,35.10954803079846,0 33.30116096763947,35.10942001501343,0 33.30093692192593,35.10913699758285,0 33.30086252596845,35.10902824082163,0 33.30087505853867,35.10884589372449,0 33.30083610711407,35.10874461087756,0 33.30072176863093,35.10860110561409,0 33.30070148556282,35.10856356181821,0 33.30072147646384,35.108538590113,0 33.30065118018371,35.10840165134582,0 33.30058835316334,35.10833941169822,0 33.30035334988189,35.10847680800061,0 33.30018230719126,35.10860083265736,0 33.30016255523145,35.10861323625678,0 33.2999979093759,35.10871663052237,0 33.29946902531125,35.1088334174666,0 33.29895373304652,35.10894631867681,0 33.29750767470568,35.10926596179424,0 33.29736809972732,35.10933990867809,0 33.29721401704835,35.10941949411914,0 33.29698416417803,35.109538213025,0 33.29686462969367,35.10958862766311,0 33.2967501466685,35.10962698430865,0 33.29675460072453,35.10966432953946,0 33.29667101844476,35.10968177172507,0 33.29652108116497,35.10971176241244,0 33.29642758422542,35.10973819678459,0 33.29553194316146,35.11010263753455,0 33.29553368206667,35.11005530218699,0 33.29566082958643,35.10941925370952,0 33.29573554470009,35.10904548756115,0 33.29572599263894,35.10878132538228,0 33.29567547754458,35.10814075136586,0 33.29562517554076,35.10789827453161,0 33.29552572883687,35.10766530203167,0 33.29541454330208,35.10739792426043,0 33.29537527614243,35.10731985975342,0 33.29475451207356,35.10602898575538,0 33.29459019830644,35.10569042949946,0 33.29443743472803,35.10536886353692,0 33.29419667709989,35.10486112671361,0 33.29405614136169,35.10456644209486,0 33.29388015195131,35.10419310340686,0 33.29375305259504,35.10392430042236,0 33.29359908609434,35.10360373316577,0 33.29337300015091,35.10312586053094,0 33.29320802558713,35.1027784087086,0 33.29312239285567,35.10248849736897,0 33.29298619315426,35.10204019722323,0 33.29219796146542,35.10190632654446,0 33.29209111878286,35.10185673788337,0 33.29200734971008,35.10182600060931,0 33.29189220297771,35.10179361983622,0 33.29183779972955,35.10178687575445,0 33.29163073191022,35.10178393692947,0 33.2915532074582,35.10174459028739,0 33.29148208543661,35.10174132332062,0 33.29143392663919,35.10172596911078,0 33.29132933420304,35.10172106441793,0 33.29123310840404,35.10171613863647,0 33.29101365795602,35.10175963663762,0 33.29085282820467,35.10182018169417,0 33.29058112063004,35.10187239829568,0 33.29037832627545,35.10189522918789,0 33.29014199041985,35.10189579498706,0 33.29004992954047,35.10188570224087,0 33.28990134344395,35.10186027461436,0 33.28982596505924,35.10183639171538,0 33.28976950179081,35.1018382447611,0 33.28971953133559,35.10190196128541,0 33.28968817185633,35.10190547419131,0 33.28954350782065,35.10180612753062,0 33.28943652603026,35.10171700376388,0 33.28937582869009,35.10164644212774,0 33.28940127489662,35.10161154824385,0 33.2893794130903,35.10147633499004,0 33.28940532930908,35.10147234118508,0 33.28938455021787,35.10131853558607,0 33.28936826250523,35.1011323830128,0 33.2892665505298,35.10114777390222,0 33.28922685639889,35.10102704462813,0 33.28909307412322,35.10103959851728,0 33.28906328138748,35.1008051454377,0 33.28890523363864,35.10081253510608,0 33.28888448403265,35.10060552095223,0 33.2888538736123,35.10060670622157,0 33.28882166713547,35.10033759602511,0 33.28873840193227,35.10034103310881,0 33.2886974799195,35.10009007907406,0 33.28859109697834,35.10008813109496,0 33.28855761059062,35.09989593118717,0 33.28849704453447,35.09991029234294,0 33.28833312446677,35.09969728624145,0 33.28821843252932,35.0995270357277,0 33.2880668762689,35.09934650918691,0 33.28760697457168,35.09844429046964,0 33.28798854684092,35.09823498428459,0 33.28817080799057,35.09842676780507,0 33.28850155590293,35.09827984565483,0 33.28907252310539,35.09810274062336,0 33.2901726849359,35.09774527283627,0 33.29013989731865,35.09766935075566,0 33.29032628771985,35.09758435868654,0 33.29059896855564,35.09789477737894,0 33.2909385068442,35.09772766478729,0 33.29087849019876,35.097468756299,0 33.29086772905536,35.09741516176627,0 33.29129277200875,35.09733592877104,0 33.29140274492691,35.09730964082472,0 33.29150947774614,35.09718963921129,0 33.29172502741475,35.09698288909297,0 33.29164278235909,35.09666689587935,0 33.29184681140782,35.09661417097189,0 33.29177088053865,35.0963908987576,0 33.29172734095992,35.09633915894156,0 33.29166345287508,35.09624392906729,0 33.29158568985475,35.09618384784273,0 33.29157804688061,35.09610016041201,0 33.2916393654407,35.09609663355592,0 33.29240999406949,35.09579363548429,0 33.29246632117621,35.09576896416031,0</coordinates>
						</LinearRing>
					</outerBoundaryIs>
				</Polygon>
			</MultiGeometry>
		</Placemark>
	</Document>
</kml>