<?xml version='1.0' encoding='UTF-8'?>
<kml xmlns="http://www.opengis.net/kml/2.2">
	<Document>
		<name>LARNAKA, LARNAKA CHRYSOPOLITISSA</name>
		<Style id="PolyStyle60">
			<LabelStyle>
				<color>00000000</color>
				<scale>0.000000</scale>
			</LabelStyle>
			<LineStyle>
				<color>ffff7000</color>
				<width>2.000000</width>
			</LineStyle>
			<PolyStyle>
				<color>00828282</color>
				<outline>1</outline>
			</PolyStyle>
		</Style>
		<Placemark id="ID_60054">
			<name>LARNAKA, LARNAKA CHRYSOPOLITISSA</name>
			<snippet />
			<description>&lt;html xmlns:fo="http://www.w3.org/1999/XSL/Format" xmlns:msxsl="urn:schemas-microsoft-com:xslt"&gt;

&lt;head&gt;

&lt;META http-equiv="Content-Type" content="text/html"&gt;

&lt;meta http-equiv="content-type" content="text/html; charset=UTF-8"&gt;

&lt;/head&gt;

&lt;body style="margin:0px 0px 0px 0px;overflow:auto;background:#FFFFFF;"&gt;

&lt;table style="font-family:Arial,Verdana,Times;font-size:12px;text-align:left;width:100%;border-collapse:collapse;padding:3px 3px 3px 3px"&gt;

&lt;tr style="text-align:center;font-weight:bold;background:#9CBCE2"&gt;

&lt;td&gt;4&lt;/td&gt;

&lt;/tr&gt;

&lt;tr&gt;

&lt;td&gt;

&lt;table style="font-family:Arial,Verdana,Times;font-size:12px;text-align:left;width:100%;border-spacing:0px; padding:3px 3px 3px 3px"&gt;

&lt;tr&gt;

&lt;td&gt;DIST_CODE&lt;/td&gt;

&lt;td&gt;4&lt;/td&gt;

&lt;/tr&gt;

&lt;tr bgcolor="#D4E4F3"&gt;

&lt;td&gt;VIL_CODE&lt;/td&gt;

&lt;td&gt;0&lt;/td&gt;

&lt;/tr&gt;

&lt;tr&gt;

&lt;td&gt;QRTR_CODE&lt;/td&gt;

&lt;td&gt;2&lt;/td&gt;

&lt;/tr&gt;

&lt;tr bgcolor="#D4E4F3"&gt;

&lt;td&gt;QRTR_NM_E&lt;/td&gt;

&lt;td&gt;CHRYSOPOLITISSA&lt;/td&gt;

&lt;/tr&gt;

&lt;tr&gt;

&lt;td&gt;QRTR_NM_G&lt;/td&gt;

&lt;td&gt;ΧΡΥΣΟΠΟΛΙΤΙΣΣΑ&lt;/td&gt;

&lt;/tr&gt;

&lt;tr bgcolor="#D4E4F3"&gt;

&lt;td&gt;VIL_CCD&lt;/td&gt;

&lt;td&gt;4000&lt;/td&gt;

&lt;/tr&gt;

&lt;tr&gt;

&lt;td&gt;QRTR_CCD&lt;/td&gt;

&lt;td&gt;400002&lt;/td&gt;

&lt;/tr&gt;

&lt;/table&gt;

&lt;/td&gt;

&lt;/tr&gt;

&lt;/table&gt;

&lt;/body&gt;&lt;script type="text/javascript"&gt;

				function changeImage(attElement, nameElement) {

				document.getElementById('imageAttachment').src = attElement;

				document.getElementById('imageName').innerHTML = nameElement;}

			&lt;/script&gt;&lt;/html&gt;

</description>
			<styleUrl>#PolyStyle60</styleUrl>
			<MultiGeometry>
				<Polygon>
					<extrude>0</extrude>
					<altitudeMode>clampToGround</altitudeMode>
					<outerBoundaryIs>
						<LinearRing>
							<coordinates> 33.64594841983375,34.94397553504502,0 33.64765352333382,34.94696621528618,0 33.64799293563595,34.94759700354189,0 33.64807040076395,34.94770128973106,0 33.64856444721232,34.94836637845029,0 33.64886264074651,34.94879778817999,0 33.64924891756355,34.94935086456093,0 33.64927862323057,34.94940664492484,0 33.64936177754809,34.94956279071469,0 33.64987942415735,34.95039444182608,0 33.65023006439352,34.95083816644321,0 33.65029885546584,34.95092521832737,0 33.65046870942076,34.95114015994339,0 33.65054766587967,34.95127482407599,0 33.65059495309718,34.95135547462003,0 33.65067496535924,34.95149193764083,0 33.65077594823171,34.95166416547458,0 33.65087919216731,34.95184024997462,0 33.65088887922121,34.95185120163939,0 33.65093882797477,34.95190767264167,0 33.65095422852979,34.95192508387036,0 33.65109764370229,34.9520872252331,0 33.65121162970644,34.95227985771626,0 33.6512762524269,34.95238789647035,0 33.65130765594523,34.952439733418,0 33.65138538892803,34.95256804223806,0 33.65156703428016,34.95282978895778,0 33.65186028638788,34.9532259612057,0 33.65193728255498,34.95330636250487,0 33.65203318527162,34.95340841700551,0 33.65220272970802,34.95358789245594,0 33.65226095637097,34.95364560836293,0 33.65240138887446,34.95379622511696,0 33.65257093416298,34.95398555068754,0 33.65273020510762,34.95415306290707,0 33.65283810046316,34.95426848968564,0 33.65294770847014,34.9544057286012,0 33.65307187544964,34.95455915425691,0 33.6531335301733,34.95463023910535,0 33.65321059985749,34.95471751245451,0 33.6533304847206,34.95485686634497,0 33.6533904288329,34.95493639299038,0 33.65350346626261,34.95507082034889,0 33.65361136428164,34.9551953948506,0 33.65374752208192,34.95533897761407,0 33.65377835118119,34.95537838917479,0 33.65393591857389,34.95554801371791,0 33.65406608337496,34.95568666879395,0 33.65422194082514,34.95585066381263,0 33.65428188658426,34.95592385935502,0 33.65441205440575,34.95606040381813,0 33.65451652990513,34.95616949970921,0 33.65458691778587,34.95624817350676,0 33.65449968783611,34.95627105635117,0 33.65442658342989,34.95630929703844,0 33.65433972445287,34.95636605742137,0 33.65425291723336,34.95645125167206,0 33.65409716981258,34.9566971751191,0 33.65396950272432,34.9569557229137,0 33.6539011743621,34.95702400063131,0 33.65381706411082,34.9570695277431,0 33.65340209632777,34.9566829836155,0 33.65319050931789,34.95647358197927,0 33.65274707894866,34.95591157687004,0 33.65170808876027,34.95455816652159,0 33.64993666309226,34.95224789951247,0 33.64954716059366,34.95178803213183,0 33.64830273859258,34.95050189487313,0 33.64808074887693,34.95025375968729,0 33.64771167519022,34.94989115077362,0 33.64725313160226,34.94941219400872,0 33.64682356354082,34.94898578783466,0 33.64659925731541,34.94875315570113,0 33.64628411181574,34.94840246398744,0 33.64606684401627,34.94817154303149,0 33.64596951252865,34.94805058045004,0 33.64588410398144,34.94794365524073,0 33.64571942072865,34.94771420367127,0 33.64557928885161,34.94748116986459,0 33.64542420616182,34.94723815732167,0 33.64528084768362,34.94696979576148,0 33.64514387647105,34.94671912283585,0 33.64467599038533,34.94588759942138,0 33.6442577562385,34.94505644441291,0 33.64410163215155,34.94476666105842,0 33.64390672669203,34.94445450888026,0 33.64357699008365,34.94389403277693,0 33.64333118272036,34.94351800355205,0 33.6432060482347,34.94333754721259,0 33.64307210220009,34.94320241644916,0 33.64297058686411,34.9431123947582,0 33.64285984726694,34.9430148742309,0 33.64269908716274,34.94296667245186,0 33.64257974288682,34.94294089047723,0 33.64218161984336,34.94301091479536,0 33.64187963398251,34.9430691107835,0 33.6415090325834,34.94314276171161,0 33.64104704969192,34.94325085284615,0 33.64072223885838,34.94332048640306,0 33.64046613209189,34.94338598265666,0 33.64015494971821,34.94344044952222,0 33.63979348026368,34.94351027377528,0 33.63922592486229,34.9435962748871,0 33.63893762404808,34.94364684400229,0 33.63839761895556,34.94374024300656,0 33.63841632829447,34.94378919799383,0 33.63808681378588,34.94384375501298,0 33.63778928725257,34.94388682410665,0 33.63723553339997,34.94398029014017,0 33.63626586747124,34.94414718530157,0 33.63621097880652,34.94395805710399,0 33.63620400413213,34.94382366980389,0 33.63622598219376,34.94378689406432,0 33.63626424510063,34.94374514464211,0 33.63639411222645,34.94365036724056,0 33.63656403772431,34.94355415837614,0 33.63659511790528,34.94354299731776,0 33.63648777826142,34.94328815493281,0 33.63642394904989,34.9430941861638,0 33.63640345384499,34.94298875560557,0 33.63629521200532,34.94275880137057,0 33.63620061526968,34.94261631851293,0 33.63604642974166,34.94263667853743,0 33.63591143923544,34.94222080963863,0 33.63582995267392,34.94194033106432,0 33.63581037503002,34.94184414952938,0 33.6358400609105,34.94183664670225,0 33.63599441342963,34.94179542546846,0 33.63613668733689,34.94173099990221,0 33.63620185699185,34.94169636780443,0 33.63619569117066,34.94166823350389,0 33.63603915583961,34.94142657457617,0 33.63602400041246,34.94138991485099,0 33.63602542183912,34.94138133492863,0 33.63611870532196,34.94132818749619,0 33.63615257846973,34.94128514771914,0 33.63623400198061,34.94123695970475,0 33.63634406910592,34.94123883325897,0 33.63646301239574,34.94123453597992,0 33.63661010742108,34.94121662028007,0 33.63679597124531,34.94121197197035,0 33.63695627035108,34.94117071834786,0 33.63704093257098,34.94115680363576,0 33.63711829260004,34.94116007212169,0 33.63727029324377,34.94119968810466,0 33.63738801411907,34.94122968625232,0 33.63751176025094,34.94126945017229,0 33.63761158804512,34.94129341867083,0 33.63770535387911,34.94130272400195,0 33.63779606974749,34.94130224776748,0 33.63788677503316,34.94130054649462,0 33.6380700631043,34.94129419346093,0 33.63813739673742,34.94127381569564,0 33.63818455528861,34.94127561147965,0 33.63824114937009,34.94127817435774,0 33.63827581058333,34.94126818482958,0 33.63829264105773,34.94126278434751,0 33.63829539682084,34.94123416428904,0 33.63829524166582,34.94121414101848,0 33.6382738900267,34.9411484605501,0 33.63824859035155,34.94108566191827,0 33.63818847440253,34.94094867203747,0 33.63813998653259,34.94083940903785,0 33.63806099761445,34.94063471540285,0 33.63803679972787,34.94057618545474,0 33.63797636076981,34.94043696974737,0 33.63790291647351,34.94029071281615,0 33.63763195618268,34.93972511568938,0 33.63745493503016,34.93944342410079,0 33.63746022144007,34.93942917649777,0 33.63762680644594,34.93933853910114,0 33.6377956655203,34.93926299729873,0 33.63786036432302,34.93925554813323,0 33.63813859548397,34.93908789167909,0 33.63824158731281,34.93900825213937,0 33.6383435765097,34.93893839455725,0 33.63850747059767,34.93877933626497,0 33.63861249623493,34.93868368826102,0 33.6388805486826,34.93845653776275,0 33.63904795434834,34.93833301038681,0 33.63907802812334,34.93831418833371,0 33.63915854062983,34.93825866290882,0 33.63926669667575,34.93817402581458,0 33.63923529302935,34.93814065290695,0 33.63902977589682,34.93795752307396,0 33.63879360204192,34.93773060275012,0 33.63841778200769,34.93737500650783,0 33.63778256363295,34.93677766406861,0 33.6371979525586,34.93624310157511,0 33.63628515247957,34.93538928201065,0 33.63579022928058,34.93492990061719,0 33.63564298808954,34.93478967208972,0 33.6349490311795,34.93415135381453,0 33.63484107525368,34.93405104110717,0 33.63471076007892,34.93394129277893,0 33.63422205781854,34.93354610018148,0 33.6334527798974,34.93292443868695,0 33.63325702657246,34.93279763974851,0 33.63308909755322,34.93260927011308,0 33.63248405942045,34.93204441465713,0 33.63236415154881,34.93189393663083,0 33.63189943791404,34.93152728281495,0 33.63155835713198,34.93130881611574,0 33.63140941263415,34.93121148248451,0 33.63069394909299,34.93071893113869,0 33.63063049728506,34.93060549235476,0 33.63041663528541,34.93041708507354,0 33.63038770594616,34.93039910672757,0 33.63033171358933,34.93036430767045,0 33.63022144971046,34.93030731501555,0 33.63006846235945,34.93022790827579,0 33.62999185374588,34.93016234595646,0 33.6295449534248,34.92977781816479,0 33.62908824092684,34.92938187523102,0 33.62892851930172,34.92925481408915,0 33.62868945326478,34.92904169101816,0 33.62784342422017,34.92830273055896,0 33.62766473051452,34.92814411508746,0 33.62753365195888,34.92801369774131,0 33.62712359049704,34.92809476218096,0 33.62709202639639,34.92798434068916,0 33.627020053443,34.92776920784087,0 33.6270063395691,34.92770809742942,0 33.62663356612102,34.92604625303917,0 33.62656856689232,34.92587143685788,0 33.62647161080756,34.9256815595131,0 33.6263451629465,34.92545156766063,0 33.62627492435866,34.9252886887755,0 33.62623700011834,34.92518874814494,0 33.62620800485382,34.92504518681763,0 33.62611975775171,34.92462530558414,0 33.62604536050651,34.92427930544302,0 33.62599029091943,34.92408434596252,0 33.62597955324843,34.92404630183533,0 33.62596030689932,34.92400359161709,0 33.62592007000721,34.92391431937023,0 33.62555668065266,34.92339677857389,0 33.6259570788238,34.92315046852295,0 33.62596630455172,34.92314479342668,0 33.62608324835608,34.92304976530036,0 33.62663357169986,34.92294388260234,0 33.6268883572625,34.92287224946994,0 33.62711340502538,34.92276186396367,0 33.62733046572932,34.9226435209706,0 33.6274048471753,34.92255686555962,0 33.62745380969522,34.92246510140297,0 33.62748388646072,34.92234197516672,0 33.62747046726472,34.92219110154591,0 33.62773040079826,34.92213320747245,0 33.627826820946,34.92209555456528,0 33.62793743461707,34.92202902243108,0 33.62799472826939,34.92199316438887,0 33.6280565742056,34.92192851484612,0 33.62814703018084,34.92177276762065,0 33.62833065923083,34.92145662290406,0 33.62792047161984,34.9211522384929,0 33.62767438060695,34.92099558997432,0 33.6274408576815,34.92085749490465,0 33.62701991948411,34.92059383862486,0 33.62684382803572,34.92045592828487,0 33.62665919823242,34.92031134162163,0 33.62649572978927,34.92018913602979,0 33.62638361405354,34.92011816370577,0 33.62621772864218,34.92003367483763,0 33.62594497652297,34.91992092324465,0 33.6258241094033,34.91987095622485,0 33.62571631326959,34.91984253335364,0 33.62534457252397,34.91976157120217,0 33.62517711667895,34.91973905087996,0 33.62448902533682,34.9197914046096,0 33.62446190054645,34.91976277604371,0 33.6242600737401,34.91946340895995,0 33.6241599892081,34.91929975800815,0 33.62404333604318,34.9191416014862,0 33.62386329801422,34.91887980933284,0 33.62373325735424,34.91867305077115,0 33.62368553191037,34.91858430108168,0 33.62366402514387,34.91851298011117,0 33.62364670161711,34.91846892189619,0 33.62364130703392,34.91840752851606,0 33.62365494757785,34.91809043392902,0 33.6231602935676,34.9181927905076,0 33.62309279316037,34.9181882482292,0 33.62302531766593,34.91818758099738,0 33.62292149929237,34.91815088000763,0 33.62279809865129,34.91808061930361,0 33.62275669963199,34.91806816829968,0 33.62233042308709,34.91743861590796,0 33.62318510120708,34.91714749541596,0 33.62388579523622,34.9168371840757,0 33.6241518913686,34.91671933501668,0 33.62450411732991,34.91653480269755,0 33.6249906195757,34.91633090859419,0 33.62509934005851,34.91630377186806,0 33.62519200915723,34.91631756014759,0 33.62542939603193,34.91636751865354,0 33.62593199545127,34.91649537564282,0 33.62724186850978,34.91682858292632,0 33.62775174529849,34.91695827965716,0 33.62865538316672,34.9171862579426,0 33.62913773489888,34.91731915695162,0 33.62962951905099,34.9174429801314,0 33.63011000489221,34.91753080484408,0 33.63033852780175,34.91755292502325,0 33.63197157701374,34.91771099787223,0 33.6326439021116,34.91775859026517,0 33.63387627924298,34.91783078642977,0 33.63353402788345,34.91838946014953,0 33.63389486580206,34.91835868062796,0 33.6347438394016,34.91828627285768,0 33.63496683287389,34.91826724529852,0 33.63529986549235,34.91823370342038,0 33.63579217164572,34.91818151622741,0 33.63657235381784,34.91809154887447,0 33.63658215048962,34.9185779592307,0 33.63662412196566,34.91892161425385,0 33.63674729080581,34.91897123934537,0 33.63788109910932,34.91895202760321,0 33.63788390900515,34.91898506254081,0 33.63796180837013,34.9189873163917,0 33.63797970603589,34.91899991443083,0 33.6380570038397,34.91896530507662,0 33.63806998080265,34.91890687355421,0 33.63809300319224,34.91890656877457,0 33.6380930653361,34.91890003404977,0 33.63810806482403,34.91889930896699,0 33.6381077360633,34.91889359568631,0 33.63805924361513,34.91889511320971,0 33.63807685325502,34.91857185962062,0 33.63810595145799,34.91828719770638,0 33.63813549766607,34.91812844928545,0 33.63824862775739,34.91767173531426,0 33.63844405462168,34.91766369837444,0 33.6383605434565,34.91679953113149,0 33.63834096113455,34.91659684763,0 33.63829906876315,34.91659861812538,0 33.63829256144387,34.91651008859321,0 33.63844148971769,34.9165020398948,0 33.63859282560895,34.91649385937442,0 33.63913925243479,34.91646398459977,0 33.63925820402441,34.91645748435409,0 33.63926480271542,34.91654101046264,0 33.63934232480142,34.91653681936553,0 33.63933572603234,34.91645329326202,0 33.63934249829995,34.91645292410632,0 33.63933719769378,34.91639342305479,0 33.63933102711065,34.91639376470629,0 33.63932423295597,34.91630775981888,0 33.63924671101417,34.91631194188843,0 33.6392535521861,34.91639865775438,0 33.63913904125575,34.91640469564749,0 33.63842519192812,34.91644230812179,0 33.63836374214672,34.91626254775147,0 33.63840359526679,34.91626017227721,0 33.63857352099527,34.91625107653206,0 33.63857417800659,34.9162587585953,0 33.63895161589226,34.91614200029883,0 33.63894760140492,34.91613375537589,0 33.63894798282271,34.91611801455927,0 33.639113576694,34.91606401401323,0 33.63929333193865,34.91600728856582,0 33.63943795261546,34.91595545315196,0 33.63961005096776,34.91587807991488,0 33.63975407881658,34.91580208014859,0 33.63989411888802,34.91574529246422,0 33.64001473893167,34.91571308048015,0 33.6402871479658,34.91567151422441,0 33.64065572278345,34.91561245764597,0 33.64084889751472,34.91560142430101,0 33.64097208839924,34.91561281757303,0 33.64113175286084,34.91566069711535,0 33.64124635578148,34.91570758830309,0 33.6413735370221,34.91579019039258,0 33.6414214345103,34.9158349635624,0 33.64150243465576,34.91591895406454,0 33.64180295856988,34.91631056702795,0 33.64190487586766,34.91643152221406,0 33.64243633160476,34.9170938090114,0 33.64246209626849,34.91712233797627,0 33.64307822475707,34.91790431547914,0 33.64314521369021,34.91800003435092,0 33.6431902166928,34.91808170824028,0 33.64319575344622,34.91810826182431,0 33.64321635139658,34.91817863486414,0 33.64320626238767,34.91821524988068,0 33.64319207443517,34.91826091882489,0 33.64312791700986,34.91830655477009,0 33.64308275999453,34.91831738544374,0 33.64303917466768,34.91830803399388,0 33.64298914969682,34.91825598025842,0 33.6429744348424,34.91817657086089,0 33.64294666601069,34.91803565449487,0 33.64287244718656,34.91795163814329,0 33.64280987293402,34.91786485588577,0 33.64268928858699,34.91772501631526,0 33.64258477908881,34.91758354117442,0 33.64252375895392,34.91748546475694,0 33.64225486434024,34.91714150689872,0 33.64203960345918,34.9168702530938,0 33.64157393323283,34.91627682830534,0 33.64138921524912,34.91604153196446,0 33.64132110431803,34.91596148469031,0 33.64124097686357,34.91587993231278,0 33.6411207705444,34.91581191433556,0 33.64106308054944,34.91578424758922,0 33.6410217865611,34.91577100720541,0 33.64093268057774,34.91575633333076,0 33.6405504805225,34.91577028335143,0 33.64034856526681,34.91577756729949,0 33.6399877509232,34.91583695166264,0 33.63981074083095,34.91589758486241,0 33.63941822535546,34.91604766415353,0 33.63939504757825,34.91605478113466,0 33.63935082603058,34.91604926273608,0 33.63932619533306,34.91605727524799,0 33.63934322949797,34.91626637389385,0 33.63934366603061,34.91626650050036,0 33.63934409933626,34.91626663433524,0 33.63934423427818,34.91626667779492,0 33.63934453049524,34.91626677358992,0 33.63934495842023,34.91626691917156,0 33.63934522288849,34.91626701333078,0 33.63934538311126,34.91626707108018,0 33.63934580456129,34.91626722841436,0 33.63934622277735,34.9162673920755,0 33.63934663775942,34.91626756206362,0 33.63934704840621,34.91626773748305,0 33.63934714724309,34.91626778203411,0 33.63934745472472,34.9162679192352,0 33.63934785780923,34.91626810731432,0 33.63934807969746,34.91626821431744,0 33.63934825764579,34.91626829991764,0 33.63934865205974,34.9162684988594,0 33.63934899048945,34.9162686755602,0 33.63934904323273,34.91626870322676,0 33.63934942898314,34.9162689139326,0 33.63934981148557,34.91626912916264,0 33.63934987854569,34.91626916847234,0 33.6393501885654,34.91626935073112,0 33.63935056020868,34.91626957683533,0 33.63935074056229,34.91626969036691,0 33.63935092861797,34.9162698092665,0 33.63935129049636,34.91627004623912,0 33.63935157653228,34.91627024034258,0 33.63935164803951,34.91627028864308,0 33.63935200014606,34.91627053558276,0 33.63935234791735,34.91627078795376,0 33.63935238644167,34.91627081659657,0 33.63935268915775,34.91627104486623,0 33.63935302496858,34.91627130721581,0 33.63935316373863,34.91627142096616,0 33.63935366816627,34.91627183567013,0 33.63935391494702,34.91627204800854,0 33.63935398766738,34.91627211162683,0 33.63935430063761,34.91627239212498,0 33.63935460817825,34.91627267806022,0 33.63935463244167,34.91627270227094,0 33.63935490918104,34.91627296763554,0 33.63935520474026,34.9162732608452,0 33.63935531837627,34.9162733792349,0 33.63935549268128,34.91627355950344,0 33.63935577517179,34.91627386089463,0 33.63935596945388,34.91627407711489,0 33.63935605113836,34.91627416772868,0 33.6393563205601,34.9162744773014,0 33.63935658345095,34.91627479141559,0 33.63935683980397,34.91627510916988,0 33.63935708961908,34.91627543056423,0 33.63935716923379,34.91627553651303,0 33.63935733179505,34.91627575470305,0 33.63935756744015,34.91627608338334,0 33.63935771353792,34.91627629535002,0 33.63935779654037,34.91627641480232,0 33.63935801800844,34.91627674986714,0 33.63935823183735,34.91627708767639,0 33.6393584391214,34.91627742822438,0 33.63935863877327,34.91627777241818,0 33.63935868981724,34.91627786319315,0 33.63935883188029,34.91627811935069,0 33.63935901734815,34.91627846902762,0 33.63935911958987,34.91627867040803,0 33.63935919516985,34.91627882054765,0 33.63935936535242,34.91627917481216,0 33.63935950897109,34.9162794904553,0 33.63935952789579,34.91627953182108,0 33.63935968389432,34.91627989156875,0 33.6393598311524,34.9162802531652,0 33.6393598579609,34.91628032333499,0 33.63935997076431,34.91628061660473,0 33.63936010382439,34.91628098188158,0 33.63936016654532,34.91628116724429,0 33.63936022814401,34.91628134900724,0 33.63936034481748,34.916281717976,0 33.63936043362309,34.91628202128764,0 33.6393604538448,34.91628208878781,0 33.63936055412466,34.91628246054706,0 33.63936064785269,34.91628283414364,0 33.63936065917319,34.91628288276082,0 33.63936073283327,34.91628320868767,0 33.63936084100003,34.91628375077399,0 33.63936754142838,34.91638024418556,0 33.63939444888997,34.91637694313164,0 33.63939375945287,34.91637271008064,0 33.63955127148522,34.91636452561853,0 33.63955250010874,34.91638056624825,0 33.63977553080557,34.91636842105991,0 33.63977456826476,34.91635395741988,0 33.63981413705186,34.91635217160778,0 33.63981507485962,34.91636626759793,0 33.63992270139812,34.91636040594297,0 33.63992068676063,34.9163406736306,0 33.64009335226194,34.91633165958747,0 33.64009485088415,34.91635103044078,0 33.64018711592239,34.91634600575763,0 33.64018626828763,34.91632647733312,0 33.64071065859943,34.91629687835194,0 33.64071203914832,34.91630554274212,0 33.64081608868953,34.9163006005769,0 33.64080711562694,34.91618859586811,0 33.64080716121781,34.91618840723073,0 33.6408072100916,34.91618821857605,0 33.64080726335661,34.91618803170103,0 33.64080727722526,34.91618798565546,0 33.64080731990453,34.91618784480872,0 33.64080738083666,34.91618765879472,0 33.64080744616002,34.91618747456039,0 33.64080748047014,34.91618738333595,0 33.64080751476628,34.91618729030877,0 33.64080758776375,34.91618710783678,0 33.64080766404415,34.91618692534753,0 33.640807723201,34.91618679252669,0 33.64080774472278,34.91618674553933,0 33.64080782868431,34.91618656571382,0 33.64080791703707,34.91618638766798,0 33.64080800867973,34.91618621050625,0 33.64080810361933,34.91618603512997,0 33.64080820294312,34.91618586063196,0 33.64080830556387,34.91618568791943,0 33.64080833042459,34.91618564812581,0 33.64080841257581,34.91618551698659,0 33.64080852287766,34.91618534693779,0 33.64080863647644,34.91618517867447,0 33.64080869275671,34.91618509815125,0 33.64080875337215,34.91618501219663,0 33.64080887465909,34.91618484749844,0 33.64080899924293,34.91618468458571,0 33.64080909134794,34.91618456691531,0 33.64080912602938,34.9161845234642,0 33.64080925720707,34.91618436412239,0 33.64080939168166,34.91618420656605,0 33.64080952946018,34.91618405169653,0 33.64080967052863,34.91618389771111,0 33.640809814901,34.9161837464125,0 33.64080996257729,34.91618359780072,0 33.64080999515418,34.9161835651778,0 33.64081011244921,34.9161834500788,0 33.64081026671933,34.91618330503797,0 33.64081047645563,34.91618311553501,0 33.64081063733362,34.91618297586783,0 33.64081080042122,34.91618283889329,0 33.64081096680574,34.91618270370417,0 33.64081103097729,34.91618265288619,0 33.64081113649419,34.9161825712019,0 33.64081130839224,34.91618244139224,0 33.64081148358725,34.91618231336805,0 33.64081159460365,34.91618223526044,0 33.64081166099185,34.91618218803647,0 33.64081184170739,34.91618206629312,0 33.64081202462554,34.91618194634098,0 33.64081220975333,34.91618182908147,0 33.64081239709073,34.91618171451456,0 33.64081258773206,34.9161816026345,0 33.64081277948872,34.9161814934528,0 33.64081297454927,34.91618138695794,0 33.64081317181947,34.91618128315569,0 33.64081337021199,34.91618118295322,0 33.64081344325707,34.91618114741262,0 33.64081357190843,34.91618108543758,0 33.6408137747202,34.91618099062033,0 33.64081397974159,34.91618089849568,0 33.64081410626039,34.91618084374325,0 33.64081418697258,34.91618080906364,0 33.64081439642022,34.9161807232256,0 33.64081460698319,34.91618064008594,0 33.64081478921336,34.91618057241985,0 33.64081481976277,34.91618056054028,0 33.64081503365767,34.916180483693,0 33.6408152497692,34.91618041043971,0 33.64081546698903,34.9161803389834,0 33.64081568533821,34.91618027202827,0 33.64081590589701,34.91618020776572,0 33.64081612757112,34.91618014620157,0 33.64081620511251,34.91618012596143,0 33.64081635036757,34.9161800882372,0 33.64081657428632,34.91618003387257,0 33.64081679932042,34.91617998220634,0 33.64081693370249,34.91617995355364,0 33.64081702547683,34.91617993413986,0 33.64081725274855,34.91617988877177,0 33.64081767349472,34.91617981443938,0 33.64084895590172,34.91617917172062,0 33.64084916818949,34.91617916969968,0 33.64084938050527,34.9161791712843,0 33.64084959174776,34.91617917557881,0 33.64084980411258,34.91617918347312,0 33.64085001540411,34.91617919407732,0 33.64085022671668,34.9161792073857,0 33.64085043805724,34.91617922429955,0 33.64085064941887,34.91617924391763,0 33.64085073485154,34.91617925338271,0 33.64085085970716,34.91617926624559,0 33.64085106892919,34.91617929218488,0 33.64085127817226,34.91617932082832,0 33.6408514490867,34.91617934606818,0 33.64085148743632,34.91617935217589,0 33.64085169453981,34.91617938714056,0 33.64085190166431,34.91617942480934,0 33.64085210880985,34.91617946518231,0 33.64085215594193,34.91617947484941,0 33.64085231379479,34.91617950917235,0 33.64085251879374,34.91617955496515,0 33.64085272163913,34.91617960527645,0 33.6408528510331,34.91617963884807,0 33.64085292449852,34.91617965739046,0 33.64085312519033,34.91617971222018,0 33.64085332481585,34.91617977066122,0 33.64085352446241,34.9161798318064,0 33.64085372194135,34.91617989566728,0 33.64085391725272,34.91617996224388,0 33.64085411149081,34.91618003153038,0 33.64085420039556,34.91618006531551,0 33.64085430466261,34.91618010442815,0 33.64085449675414,34.91618017913451,0 33.64085468668506,34.91618025745792,0 33.6408548744414,34.91618033759566,0 33.64085506112448,34.91618042044332,0 33.64085524564693,34.91618050690804,0 33.64085542908914,34.91618059518132,0 33.64085547852893,34.91618062016037,0 33.64085560926942,34.91618068617605,0 33.64085578837644,34.91618077988068,0 33.64085596531588,34.91618087630103,0 33.64085608622166,34.91618094417141,0 33.64085614118201,34.91618097543131,0 33.64085631377925,34.91618107638165,0 33.64085648420891,34.91618118004768,0 33.64085665247099,34.91618128642944,0 33.64085681856546,34.91618139552686,0 33.64085705070345,34.91618155385416,0 33.64085721136846,34.91618166838875,0 33.64085736876456,34.91618178474342,0 33.64085752399309,34.91618190381377,0 33.64085767704702,34.91618202469846,0 33.64085775193604,34.91618208560014,0 33.64085782793335,34.91618214829879,0 33.6408579755508,34.91618227371926,0 33.64085811989935,34.91618240095978,0 33.64085826317461,34.91618253091023,0 33.64085840207967,34.91618266178514,0 33.64085853881716,34.91618279537576,0 33.64085867228573,34.91618293078647,0 33.64085871311123,34.91618297383935,0 33.64085880358672,34.91618306891285,0 33.64085893161181,34.91618320795791,0 33.640859056368,34.91618334882308,0 33.64085914471794,34.91618345202056,0 33.6408591789496,34.91618349150256,0 33.64085929826931,34.91618363690351,0 33.64085941431311,34.91618378322311,0 33.64085952708101,34.91618393046144,0 33.64085963658702,34.91618408042126,0 33.64085974281713,34.91618423129975,0 33.64085984577835,34.9161843839983,0 33.64085990005076,34.91618446754423,0 33.64085994547065,34.91618453851697,0 33.64086004298138,34.91618469394854,0 33.64086013612189,34.9161848503046,0 33.6408602259935,34.91618500848072,0 33.64086031259624,34.91618516847694,0 33.64086039591604,34.91618532849044,0 33.64086047596695,34.91618549032405,0 33.64086050377992,34.91618554876973,0 33.64086055274898,34.91618565397772,0 33.64086062515378,34.91618581765449,0 33.64086069538399,34.91618598314557,0 33.64086074671679,34.91618611087662,0 33.64086076123699,34.91618614865972,0 33.64086082382111,34.91618631599397,0 33.64086088202801,34.91618648335129,0 33.64086093806028,34.91618665252292,0 33.64086094705291,34.91618668312381,0 33.64086098971538,34.91618682171764,0 33.64086103809456,34.91618699183105,0 33.64086108210355,34.91618716286894,0 33.6408611058686,34.91618726370275,0 33.64086112282963,34.91618733392416,0 33.64086116027978,34.91618750589805,0 33.64086119445405,34.91618767879061,0 33.6408612242511,34.91618785170629,0 33.64086126005915,34.91618809399966,0 33.64087528445558,34.91636060608234,0 33.64093464069876,34.91635199094922,0 33.64120525538469,34.91632996588422,0 33.64132053478726,34.9170996306427,0 33.64175792023278,34.91702545127817,0 33.64176272016118,34.91704458111952,0 33.64130768856099,34.91712234212699,0 33.64076629320326,34.91721189672974,0 33.64076194799406,34.91719210641343,0 33.6412968938496,34.91710349630161,0 33.64118588698992,34.91634987229635,0 33.64093680207998,34.91636959331334,0 33.64087643637033,34.91637364356743,0 33.64089582673213,34.91661559984728,0 33.64091031676695,34.91679871918024,0 33.64090822211838,34.91680941206425,0 33.64086901029535,34.91687544962607,0 33.64086889982456,34.9168755980417,0 33.64086878715813,34.91687574556747,0 33.64086867010045,34.91687589131354,0 33.64086855084013,34.9168760352684,0 33.64086842828286,34.91687617743779,0 33.64086830242864,34.91687631782175,0 33.64086817436478,34.91687645551308,0 33.64086804301096,34.91687659232036,0 33.64086790836021,34.91687672734218,0 33.64086777149982,34.91687685967139,0 33.64086763134947,34.91687699111653,0 33.64086748898947,34.91687711986904,0 33.64086734441985,34.91687724592897,0 33.64086719546597,34.91687737111057,0 33.64086704538975,34.91687749269244,0 33.64086689202357,34.91687761339022,0 33.64086673644776,34.91687773139541,0 33.64086657866231,34.91687784670795,0 33.64086641757991,34.91687796023505,0 33.64086625429484,34.91687807197094,0 33.64086608879317,34.91687818011285,0 33.64086592218315,34.91687828645772,0 33.64086575227618,34.91687839101718,0 33.64086558015256,34.91687849198261,0 33.6408654058263,34.91687859115682,0 33.64086522929041,34.91687868763844,0 33.64086505163917,34.91687878142167,0 33.64086487069099,34.91687887341944,0 33.64086468862047,34.91687896181746,0 33.64086450544162,34.91687904841847,0 33.64086431895181,34.91687913143126,0 33.64086413244799,34.91687921264128,0 33.64086394263321,34.91687929026309,0 33.6408637517101,34.91687936608788,0 33.64086355966464,34.91687943831295,0 33.64086336540956,34.91687950784535,0 33.64086317004616,34.91687957558077,0 33.6408629735604,34.91687963971644,0 33.64086258706369,34.91687975623517,0 33.64086238613762,34.91687981228148,0 33.64086218518355,34.91687986472223,0 33.64086198202682,34.91687991537177,0 33.64086177884207,34.91687996241577,0 33.6408615734407,34.91688000586576,0 33.64086136802527,34.916880047513,0 33.64086116148753,34.91688008556049,0 33.64086095492875,34.91688012090379,0 33.64086074725466,34.91688015354873,0 33.64086053845823,34.91688018259391,0 33.64086032854646,34.91688020894072,0 33.64086011970098,34.91688023167619,0 33.64085990865288,34.91688025262047,0 33.64085969866403,34.91688026905203,0 33.64085948756687,34.91688028368662,0 33.64085927644168,34.91688029471565,0 33.64085906529548,34.91688030304054,0 33.64085885412125,34.91688030775988,0 33.64085864183169,34.91688030978084,0 33.64085843061541,34.91688030909191,0 33.64085821937113,34.91688030479739,0 33.64085800810582,34.91688029779878,0 33.64085779681949,34.91688028809597,0 33.64085758550513,34.91688027478764,0 33.64085737526407,34.91688025876939,0 33.64085716390067,34.91688023915138,0 33.64085695470487,34.91688021681767,0 33.64085674548807,34.9168801917798,0 33.64085653624323,34.91688016313642,0 33.64085632807869,34.91688013268448,0 33.64085612097344,34.91688009771983,0 33.64085591385417,34.91688006095245,0 33.64085570780119,34.91688002057374,0 33.6408555028215,34.91687997748513,0 33.64085529891511,34.91687993168655,0 33.64085509607499,34.91687988227672,0 33.64085489430818,34.91687983015694,0 33.64085469361467,34.91687977532726,0 33.64085443366715,34.91687970007735,0 33.64082397752877,34.91686841264443,0 33.64082380836718,34.91686833150717,0 33.64082364027888,34.91686824766004,0 33.64082347326389,34.91686816110294,0 33.6408233095178,34.91686807272577,0 33.64082314684501,34.9168679816387,0 33.64082298634684,34.91686788873729,0 33.64082282801628,34.91686779312022,0 33.64082267185334,34.91686769478745,0 33.64082251786498,34.91686759464035,0 33.64082236495694,34.91686749268472,0 33.64082221531081,34.91686738800762,0 33.64082206783931,34.91686728151623,0 33.6408219225424,34.91686717321051,0 33.64082177941312,34.91686706218913,0 33.64082163845843,34.91686694935341,0 33.64082149967837,34.91686683470339,0 33.64082136416723,34.91686671823328,0 33.64082123082369,34.91686659904747,0 33.64082109966176,34.91686647894877,0 33.64082097176178,34.91686635612858,0 33.64082084603638,34.91686623149408,0 33.64082072358694,34.9168661059409,0 33.64082060221077,34.91686597767779,0 33.64082048520488,34.91686584849021,0 33.64082037037356,34.91686571748831,0 33.64082025881117,34.91686558466633,0 33.64082014942341,34.91686545003007,0 33.64082004221025,34.91686531357946,0 33.64081993936736,34.91686517620442,0 33.64081983870606,34.91686503791644,0 33.64081974130668,34.91686489690698,0 33.64081964718322,34.91686475497886,0 33.64081955524139,34.91686461213779,0 33.64081946656851,34.91686446747663,0 33.64081938117153,34.91686432189681,0 33.64081929905049,34.91686417539827,0 33.64081922019837,34.91686402707965,0 33.64081914352788,34.91686387784811,0 33.64081907122763,34.91686372769209,0 33.64081900110898,34.91686357662316,0 33.64081893426627,34.91686342463554,0 33.64081887179383,34.91686327172344,0 33.64081881150298,34.9168631178984,0 33.64081872537741,34.91686287857464,0 33.64081867382706,34.91686272290068,0 33.64081862554561,34.91686256540662,0 33.6408185805471,34.91686240789529,0 33.64081853883156,34.91686225036666,0 33.64081850039192,34.91686209191928,0 33.64081846522821,34.91686193255323,0 33.64081843444175,34.9168617731641,0 33.64081840583692,34.91686161286205,0 33.64081838160934,34.91686145253691,0 33.64081835956336,34.91686129129882,0 33.64081834189464,34.91686113003767,0 33.64081832750885,34.91686096875922,0 33.640818316406,34.91686080746342,0 33.64081830858609,34.91686064615036,0 33.6408183040421,34.91686048391858,0 33.64081830278806,34.91686032257086,0 33.64081830591127,34.91686016120006,0 33.64081831231039,34.91685999891057,0 33.64081832090517,34.91685983751092,0 33.64081833387717,34.91685967608821,0 33.64081835013213,34.91685951464817,0 33.64081836967702,34.9168593540922,0 33.64081839359915,34.91685919351313,0 33.64081841970989,34.91685903292253,0 33.6408184491106,34.91685887321602,0 33.64081848288856,34.91685871348642,0 33.64081851995645,34.91685855464087,0 33.64081855921997,34.91685839668518,0 33.64081860286074,34.91685823870642,0 33.64081864979144,34.91685808161171,0 33.64081870001209,34.91685792540107,0 33.64081875242838,34.91685777008028,0 33.6408188092219,34.91685761473642,0 33.64081886931239,34.916857461178,0 33.6408189326858,34.91685730760227,0 33.64081899935616,34.91685715581198,0 33.64081906821514,34.91685700401018,0 33.64081914146537,34.91685685398806,0 33.64081921691125,34.91685670485577,0 33.64081929674137,34.91685655660179,0 33.64081937877413,34.91685641013902,0 33.64081946409683,34.91685626456033,0 33.64081955270946,34.91685611986573,0 33.64081964352474,34.9168559769623,0 33.64081973762995,34.91685583494301,0 33.64081983612643,34.91685569470338,0 33.64081993572423,34.91685555535936,0 33.64082003971328,34.91685541779503,0 33.64082014590497,34.91685528202193,0 33.64082025429229,34.91685514713866,0 33.64082036707085,34.91685501403506,0 33.64082048095775,34.91685488272847,0 33.64082053846588,34.91685481932576,0 33.64082059923592,34.91685475320158,0 33.6408207186224,34.91685462547167,0 33.64082084240012,34.91685449952148,0 33.6408209672862,34.91685437536825,0 33.64082109546921,34.91685425300048,0 33.64082122694916,34.91685413241817,0 33.64082138127655,34.91685399458837,0 33.64085582276256,34.91679653668223,0 33.64082302807608,34.91638720945984,0 33.6407218309254,34.91639321739589,0 33.64072241756087,34.91640040764147,0 33.64045967521512,34.91641524097388,0 33.6404604328924,34.91642472984403,0 33.64032578716736,34.91643219104612,0 33.63983385817175,34.91645805684671,0 33.63937950170469,34.91648355981844,0 33.63938021305639,34.91649569911726,0 33.63937656471012,34.91649657466287,0 33.63938271642766,34.91655179939951,0 33.6393809282483,34.91655829002458,0 33.63937542571887,34.91656279002391,0 33.63936659184704,34.91656529738181,0 33.63945337979296,34.91762289246927,0 33.63951193880205,34.91761999722992,0 33.63952619494697,34.91780154947299,0 33.63946806818934,34.9178051635818,0 33.63947892947965,34.91792998925526,0 33.63948130937058,34.91796733160628,0 33.63949116971428,34.91808797093624,0 33.63949253242408,34.9181046472594,0 33.63949680187815,34.91815688916342,0 33.63949816944318,34.91817362675735,0 33.63950244732052,34.91822596596969,0 33.63950380028784,34.91824251434185,0 33.63950815560762,34.91829580684885,0 33.63950944813451,34.91831161727525,0 33.63951382761433,34.91836520171459,0 33.63951516125942,34.91838151581855,0 33.63951948029028,34.91843436050875,0 33.63952081035418,34.91845063587022,0 33.63952513057122,34.9185034913704,0 33.63952647398277,34.91851993522699,0 33.63953100461278,34.91857536678057,0 33.63977488201171,34.91856145233387,0 33.63979494732857,34.9185603073527,0 33.64007160756278,34.91854452232835,0 33.64006383514805,34.91847233243436,0 33.64006254410933,34.91845588199838,0 33.64005694856809,34.91838455591615,0 33.64005568423893,34.9183684442733,0 33.64005013015169,34.91829766333082,0 33.64004885116799,34.91828135525513,0 33.64004328489079,34.91821041211975,0 33.64004199993458,34.91819403917292,0 33.64003642277876,34.91812296178177,0 33.64003513289543,34.91810651764836,0 33.64003035003215,34.91804555992797,0 33.64002951100574,34.91803573796024,0 33.64002809896234,34.91801920522926,0 33.64002578916161,34.91801911823853,0 33.64002282614818,34.91798563705164,0 33.64002743341668,34.91798140315099,0 33.64021058441639,34.91797114472394,0 33.64021490898914,34.91797419578469,0 33.64022574242892,34.91810937885165,0 33.64028108911435,34.91810710411615,0 33.6402695639183,34.91797163624479,0 33.64027452877794,34.91796835595663,0 33.64117765919426,34.91791773878096,0 33.64201061798243,34.91787281304715,0 33.64201510662398,34.91787584514832,0 33.64201539509925,34.91788056706807,0 33.64202174311818,34.91792843501917,0 33.64201649128663,34.9179327985992,0 33.64093757751381,34.91799111895774,0 33.64058541331969,34.91801143700144,0 33.64058714842942,34.91804178770222,0 33.64062061137616,34.91844561900233,0 33.64066190127799,34.91894966498968,0 33.64071457238602,34.91959664863995,0 33.64089181818133,34.91957582320698,0 33.64104181444621,34.91957144435971,0 33.64112309355792,34.91955859398166,0 33.64129774700419,34.9194867576351,0 33.64141585162469,34.91942740674504,0 33.64156576426777,34.91936310126641,0 33.64168773133844,34.91930229646196,0 33.6418714877558,34.91914173849855,0 33.64193160427148,34.91911386451591,0 33.64200330510348,34.91903894726946,0 33.64204914741681,34.91901908114187,0 33.64209524435749,34.91904736752994,0 33.6420998753985,34.91906164860123,0 33.64208939594883,34.9190833380644,0 33.64196452192031,34.91919237560514,0 33.64178291542647,34.91933246912433,0 33.64164326314447,34.91942000438093,0 33.64152329537307,34.91947195565185,0 33.64124765556702,34.91959354282828,0 33.6411517663951,34.91962047845006,0 33.64102877225941,34.91964501498006,0 33.64082613475843,34.91966900689996,0 33.64083455443035,34.91975396644013,0 33.64082896420461,34.91987391187318,0 33.64084430411992,34.91995370583276,0 33.64085338907557,34.9201340952293,0 33.64089440327861,34.9201913084075,0 33.6408789925995,34.92030232748261,0 33.64092013696759,34.92084079922151,0 33.64094103533995,34.92114140276838,0 33.64094854019676,34.92123253281796,0 33.64097075753214,34.92134663457257,0 33.64106928708178,34.92166177409211,0 33.6410940272634,34.92169916968479,0 33.64112289408138,34.92175494148289,0 33.64115869483475,34.9218185460839,0 33.64133143772911,34.92204211511557,0 33.64143805159448,34.92213288424337,0 33.64165333990233,34.92229363359925,0 33.64173923784975,34.92234094622007,0 33.64277191350164,34.92287350940828,0 33.64342833250895,34.9231817011616,0 33.64368498641855,34.92331161559136,0 33.64384574869194,34.92339564154192,0 33.64424708564,34.92358806770831,0 33.64444681063092,34.92367200345026,0 33.64474684931017,34.92381981304908,0 33.64519570085123,34.9240556216327,0 33.64576498417964,34.92439002581379,0 33.64605777355946,34.9245702045689,0 33.64634417448985,34.92472969295862,0 33.64648891414098,34.92482561819752,0 33.64685405199157,34.92510915438585,0 33.64714475717383,34.92531040773409,0 33.64750611438335,34.92558999580696,0 33.64794592008991,34.92589388137768,0 33.64811266687763,34.92602514009378,0 33.6482949004394,34.92626345860559,0 33.64834910614196,34.92634087169188,0 33.64840651587556,34.92649721392431,0 33.64840872169716,34.92657030722744,0 33.64838331155585,34.92665426576994,0 33.64831220468935,34.9267059900159,0 33.64824512177283,34.92671410914815,0 33.64819005136484,34.92669515765051,0 33.6481573326073,34.92667509533592,0 33.64809504699105,34.92659039673032,0 33.64807160754734,34.9265046615978,0 33.64803941070905,34.92641037362965,0 33.64800116219141,34.92632063313319,0 33.6479523208252,34.92625281933945,0 33.64791461259136,34.92619948514623,0 33.6478218200862,34.92610169820156,0 33.6476630635692,34.9259927607024,0 33.64759820623005,34.92592607687358,0 33.64736255634531,34.92575910075973,0 33.64681634464865,34.92535423466068,0 33.64662713189517,34.92521879392179,0 33.64639386378652,34.92506054697893,0 33.6460249473655,34.92481833251824,0 33.64583313447467,34.92471389513805,0 33.64558371000888,34.92460809593418,0 33.64550154049642,34.92457487348109,0 33.64522493512225,34.92448503783738,0 33.64514249858644,34.92446940325021,0 33.64505981946412,34.92452345863059,0 33.64496881716794,34.92472371427771,0 33.64485825818867,34.92492979765743,0 33.64481029098697,34.92503232725863,0 33.64478855428051,34.92506442496708,0 33.64477690661965,34.92506409916547,0 33.64475765194247,34.92510498605748,0 33.64473329184157,34.92509693764136,0 33.64128935305363,34.92395902631137,0 33.64118643017115,34.92416997885719,0 33.64106293287817,34.92412970421589,0 33.64099731837817,34.92422050062849,0 33.6409659459142,34.92433803097032,0 33.64092258219338,34.9244631243652,0 33.64084515434375,34.92476924021664,0 33.64078211641642,34.92500755646558,0 33.64071221146961,34.92522419368709,0 33.64065320196881,34.9253908888578,0 33.64060725772526,34.92550656688192,0 33.64052394811855,34.92576309035415,0 33.64039953262487,34.92611370243976,0 33.64033242384396,34.92631759302896,0 33.64029276477577,34.92647912275235,0 33.64023562901159,34.92675424226555,0 33.64020919802964,34.92691202716305,0 33.64018948820836,34.92710559904334,0 33.64018583245529,34.92741049724848,0 33.6402473654064,34.92741321711762,0 33.64026803176485,34.92741209862773,0 33.64029042808917,34.92749700247435,0 33.64031120084911,34.92759410205991,0 33.64019213278112,34.92763810577342,0 33.64019340398182,34.92780034552652,0 33.6402100071592,34.92792146287371,0 33.64026457884998,34.92823982700328,0 33.64051328509028,34.92812027702483,0 33.64055650613418,34.92808916655232,0 33.64064405403416,34.92804671686743,0 33.64066087005231,34.92806277261835,0 33.64066315685815,34.9280612732188,0 33.64066095085332,34.92805767917397,0 33.64066900093886,34.92805275103522,0 33.64067974933906,34.92804998108808,0 33.64071723261734,34.92802981699968,0 33.64072542155537,34.92802304021568,0 33.64072845950346,34.92802693094622,0 33.64130086260457,34.92771705540626,0 33.64137284339688,34.92780789007251,0 33.64079939248378,34.92811776336239,0 33.64080515110898,34.92812513814989,0 33.64079267879202,34.92812719606461,0 33.64075609189612,34.92814722023604,0 33.64074913679288,34.92815643336126,0 33.64075390928747,34.92816352940452,0 33.64056208666882,34.92828471804697,0 33.64031675366985,34.92842150350996,0 33.64038559009752,34.92871764451173,0 33.64044206835195,34.92882203763718,0 33.64059393301265,34.92893335555693,0 33.64101780794155,34.92905031465103,0 33.64109232739995,34.92907342147073,0 33.64113253618222,34.92911513430263,0 33.64117872661881,34.92918794515779,0 33.64128742339727,34.92916037039645,0 33.64286920171529,34.92875485525505,0 33.6449312394782,34.92822824285211,0 33.64512320679951,34.92756569132614,0 33.64516713075766,34.92757430102381,0 33.64498164258941,34.9282153698618,0 33.64503022806316,34.92820296171661,0 33.64508427404579,34.92818915891154,0 33.64508318242413,34.9281391882413,0 33.64515317434126,34.92788729370234,0 33.64523923192738,34.92758911607847,0 33.64531183932778,34.92730933566612,0 33.64531867945144,34.92730228629793,0 33.64532953212919,34.92728910399722,0 33.64538017630743,34.92727117620795,0 33.64543689292208,34.92727116339278,0 33.64552864929529,34.92732488727992,0 33.64554188411731,34.92737549473977,0 33.64515935795687,34.92874151749304,0 33.64512070646673,34.92883046740184,0 33.6450644228322,34.92892928228938,0 33.64499818660133,34.92904305945085,0 33.64487943560519,34.92917508058987,0 33.64474540129327,34.92927448825645,0 33.64463014929494,34.92935578577956,0 33.6445388802741,34.92941917097886,0 33.64440980453477,34.92948513637894,0 33.6443670551544,34.9295064833449,0 33.64363458590721,34.92978644324577,0 33.64346580189946,34.92984993176269,0 33.64316840459535,34.92994774188539,0 33.64296673878624,34.92999982955239,0 33.64287152984762,34.93002283276506,0 33.64275982589398,34.93003315907713,0 33.64235294687319,34.9301331328396,0 33.6422259208721,34.93016052239619,0 33.64218278147292,34.93017547959884,0 33.64214145178094,34.93022603326295,0 33.64247285107633,34.93118441840476,0 33.64277811480992,34.93205652173624,0 33.64281637588024,34.93210362575013,0 33.64285720385051,34.93210374325457,0 33.64300958843612,34.93209112828649,0 33.64311035189901,34.93207408999147,0 33.64322818508119,34.93204374644944,0 33.64323915123942,34.93202394732813,0 33.64328716264367,34.9320132547066,0 33.64333051490431,34.9320198579137,0 33.64337043609001,34.93203842306831,0 33.64338478312192,34.93206752600872,0 33.6433662743621,34.9321096120902,0 33.64328180666948,34.9321473960975,0 33.64127820917256,34.9326079490091,0 33.64125661889968,34.93260711016553,0 33.6411775108023,34.93260085176843,0 33.64116003844364,34.93259947015598,0 33.64112872764886,34.93259684279152,0 33.64114276857078,34.93264324403093,0 33.64189148512059,34.93476157273097,0 33.64195536559103,34.93492130092197,0 33.64202448423929,34.93509412784252,0 33.64202568320032,34.93509712593299,0 33.64311752015052,34.93782708297654,0 33.64366228124391,34.93917397865756,0 33.64400242663521,34.94000426797967,0 33.64423359894106,34.94053561577291,0 33.64499189246308,34.94216568890529,0 33.64499761997504,34.94217800159619,0 33.64594841983375,34.94397553504502,0</coordinates>
						</LinearRing>
					</outerBoundaryIs>
				</Polygon>
			</MultiGeometry>
		</Placemark>
	</Document>
</kml>