<?xml version='1.0' encoding='UTF-8'?>
<kml xmlns="http://www.opengis.net/kml/2.2">
	<Document>
		<name>LATSIA - GERI, LATSIA ARCHANGELOS MICHAIL</name>
		<Style id="PolyStyle60">
			<LabelStyle>
				<color>00000000</color>
				<scale>0.000000</scale>
			</LabelStyle>
			<LineStyle>
				<color>ffff7000</color>
				<width>2.000000</width>
			</LineStyle>
			<PolyStyle>
				<color>00828282</color>
				<outline>1</outline>
			</PolyStyle>
		</Style>
		<Placemark id="ID_60107">
			<name>LATSIA - GERI, LATSIA ARCHANGELOS MICHAIL</name>
			<snippet />
			<description>&lt;html xmlns:fo="http://www.w3.org/1999/XSL/Format" xmlns:msxsl="urn:schemas-microsoft-com:xslt"&gt;

&lt;head&gt;

&lt;META http-equiv="Content-Type" content="text/html"&gt;

&lt;meta http-equiv="content-type" content="text/html; charset=UTF-8"&gt;

&lt;/head&gt;

&lt;body style="margin:0px 0px 0px 0px;overflow:auto;background:#FFFFFF;"&gt;

&lt;table style="font-family:Arial,Verdana,Times;font-size:12px;text-align:left;width:100%;border-collapse:collapse;padding:3px 3px 3px 3px"&gt;

&lt;tr style="text-align:center;font-weight:bold;background:#9CBCE2"&gt;

&lt;td&gt;1&lt;/td&gt;

&lt;/tr&gt;

&lt;tr&gt;

&lt;td&gt;

&lt;table style="font-family:Arial,Verdana,Times;font-size:12px;text-align:left;width:100%;border-spacing:0px; padding:3px 3px 3px 3px"&gt;

&lt;tr&gt;

&lt;td&gt;DIST_CODE&lt;/td&gt;

&lt;td&gt;1&lt;/td&gt;

&lt;/tr&gt;

&lt;tr bgcolor="#D4E4F3"&gt;

&lt;td&gt;VIL_CODE&lt;/td&gt;

&lt;td&gt;23&lt;/td&gt;

&lt;/tr&gt;

&lt;tr&gt;

&lt;td&gt;QRTR_CODE&lt;/td&gt;

&lt;td&gt;3&lt;/td&gt;

&lt;/tr&gt;

&lt;tr bgcolor="#D4E4F3"&gt;

&lt;td&gt;QRTR_NM_E&lt;/td&gt;

&lt;td&gt;ARCHANGELOS MICHAIL&lt;/td&gt;

&lt;/tr&gt;

&lt;tr&gt;

&lt;td&gt;QRTR_NM_G&lt;/td&gt;

&lt;td&gt;ΑΡΧΑΓΓΕΛΟΣ ΜΙΧΑΗΛ&lt;/td&gt;

&lt;/tr&gt;

&lt;tr bgcolor="#D4E4F3"&gt;

&lt;td&gt;VIL_CCD&lt;/td&gt;

&lt;td&gt;1023&lt;/td&gt;

&lt;/tr&gt;

&lt;tr&gt;

&lt;td&gt;QRTR_CCD&lt;/td&gt;

&lt;td&gt;102303&lt;/td&gt;

&lt;/tr&gt;

&lt;/table&gt;

&lt;/td&gt;

&lt;/tr&gt;

&lt;/table&gt;

&lt;/body&gt;&lt;script type="text/javascript"&gt;

				function changeImage(attElement, nameElement) {

				document.getElementById('imageAttachment').src = attElement;

				document.getElementById('imageName').innerHTML = nameElement;}

			&lt;/script&gt;&lt;/html&gt;

</description>
			<styleUrl>#PolyStyle60</styleUrl>
			<MultiGeometry>
				<Polygon>
					<extrude>0</extrude>
					<altitudeMode>clampToGround</altitudeMode>
					<outerBoundaryIs>
						<LinearRing>
							<coordinates> 33.39183650764227,35.10535223391301,0 33.39181226089346,35.10541822572603,0 33.39159310706933,35.10534843669785,0 33.39129255823462,35.10528943931731,0 33.39111823597896,35.10526328867848,0 33.39098163316856,35.10521502276483,0 33.39067644052875,35.10506212502171,0 33.39050263264947,35.10499465322238,0 33.39016244428637,35.1048881621647,0 33.39003302373122,35.10511132846047,0 33.38981413669895,35.10536318198328,0 33.3891913235064,35.10648753243697,0 33.38909228239505,35.10651089566509,0 33.38901022791301,35.10671618627507,0 33.38904646434427,35.10681802792176,0 33.38895665987342,35.10697369577046,0 33.3888994313274,35.10693475387919,0 33.38835584912296,35.10777780291281,0 33.388176158051,35.10809208173543,0 33.3879808112066,35.10854797601525,0 33.38795841137702,35.10864507581704,0 33.38793873030689,35.10885410967079,0 33.38773542544351,35.10885122566838,0 33.38737004354097,35.10885672858404,0 33.38713745821598,35.10888120463106,0 33.38698695800331,35.10890604921505,0 33.38688249245124,35.10891412751038,0 33.38687887060458,35.10891440768734,0 33.38669068629893,35.10893068261539,0 33.38658693282295,35.10892161997491,0 33.38651894652745,35.10881788404425,0 33.3865206856625,35.10868695665546,0 33.38654654618161,35.10853557068918,0 33.38650465301767,35.10839329941138,0 33.38652201503689,35.1082104283224,0 33.38650399431724,35.10805373416026,0 33.38617271680364,35.10788897912312,0 33.38607837034982,35.10786005246159,0 33.38586210492601,35.10766942138051,0 33.38590913095894,35.10750957967855,0 33.38600996389336,35.10752962140465,0 33.38602637542564,35.10745856096501,0 33.386028122056,35.10741629482963,0 33.38590945278741,35.10741286690433,0 33.38570768349464,35.10725692052242,0 33.3855648959522,35.10703719390004,0 33.38540498101875,35.10687642206714,0 33.38536797225856,35.10670508974237,0 33.38522895136072,35.10663157037115,0 33.38529661703949,35.10629802109167,0 33.38569465827181,35.10505298010563,0 33.38580029625941,35.10477888985822,0 33.3858534166215,35.10464940697984,0 33.38587978058707,35.10457458123091,0 33.38600780938859,35.10455908413892,0 33.3862529679432,35.10455498615732,0 33.38658844545322,35.10455950740302,0 33.38702430167091,35.10456688748233,0 33.38774908993461,35.10461172770502,0 33.38775100513008,35.10456541548146,0 33.38875579133717,35.10460108795997,0 33.38874873804024,35.10412001968452,0 33.38848019006787,35.10412247056442,0 33.38841925192857,35.10408444892413,0 33.3883705842061,35.1040165324955,0 33.38836127828236,35.10358984594554,0 33.38754023946828,35.10367644181569,0 33.38719456331268,35.10370896927878,0 33.38754797626543,35.10301541003429,0 33.38691963741953,35.1026831594566,0 33.3868981924703,35.10266844213471,0 33.38682504651121,35.10257062061634,0 33.38680507577514,35.10240172753866,0 33.38693564293875,35.10214726590792,0 33.38699616970907,35.10202930585559,0 33.38752275263293,35.10214691682775,0 33.38770743796531,35.10218816602748,0 33.38772738669386,35.10214679531296,0 33.38775859471205,35.10208207823159,0 33.38782132327602,35.10188619411051,0 33.38784662107262,35.10156297992192,0 33.38749234228585,35.10156621390273,0 33.38730124982016,35.10152198315197,0 33.387197397952,35.10145116869195,0 33.38723469858652,35.10130192998137,0 33.38731138842824,35.10131942648925,0 33.38743070114904,35.10081461039399,0 33.38743192572198,35.10081541504204,0 33.38746911269372,35.10064091290275,0 33.38846261652689,35.10081267956264,0 33.38841725751413,35.10128374728513,0 33.38824854432835,35.10128866128699,0 33.38826847337958,35.1014225202416,0 33.38859981097686,35.10202524015442,0 33.38886126781631,35.10195355045999,0 33.38884851749562,35.10162912132129,0 33.38945049659991,35.10148004005644,0 33.38948516548581,35.10133571907897,0 33.38949709862892,35.10078681830471,0 33.38948313027083,35.10004419568964,0 33.3900965164959,35.09991950087689,0 33.39016435646,35.10033362467181,0 33.39060311571245,35.10023593096759,0 33.39084574742363,35.10012112480421,0 33.39123708479462,35.10004013508937,0 33.39120287253576,35.09964513669544,0 33.39120548291285,35.09950278003307,0 33.3918550513231,35.09938560891632,0 33.39196753470074,35.09936531794244,0 33.39218202347685,35.099276861646,0 33.39265848995809,35.09964229542839,0 33.39287401662464,35.09967759488701,0 33.39283238709919,35.09987671874402,0 33.392862146429,35.10015737510857,0 33.39291153996091,35.10073676853487,0 33.39296584998254,35.101066751318,0 33.39262830061901,35.10095842956139,0 33.39244807192237,35.10202255283274,0 33.39249095299182,35.10214385048675,0 33.39266618131668,35.1026395203854,0 33.39276431534213,35.1030529611608,0 33.39265971245035,35.10356433827653,0 33.3923206004344,35.10357491707797,0 33.39208471482993,35.10467667196278,0 33.39183650764227,35.10535223391301,0</coordinates>
						</LinearRing>
					</outerBoundaryIs>
				</Polygon>
			</MultiGeometry>
		</Placemark>
	</Document>
</kml>