<?xml version='1.0' encoding='UTF-8'?>
<kml xmlns="http://www.opengis.net/kml/2.2">
	<Document>
		<name>LEFKOSIA, LEFKOSIA AGIA SOFIA</name>
		<Style id="PolyStyle60">
			<LabelStyle>
				<color>00000000</color>
				<scale>0.000000</scale>
			</LabelStyle>
			<LineStyle>
				<color>ffff7000</color>
				<width>2.000000</width>
			</LineStyle>
			<PolyStyle>
				<color>00828282</color>
				<outline>1</outline>
			</PolyStyle>
		</Style>
		<Placemark id="ID_60064">
			<name>LEFKOSIA, LEFKOSIA AGIA SOFIA</name>
			<snippet />
			<description>&lt;html xmlns:fo="http://www.w3.org/1999/XSL/Format" xmlns:msxsl="urn:schemas-microsoft-com:xslt"&gt;

&lt;head&gt;

&lt;META http-equiv="Content-Type" content="text/html"&gt;

&lt;meta http-equiv="content-type" content="text/html; charset=UTF-8"&gt;

&lt;/head&gt;

&lt;body style="margin:0px 0px 0px 0px;overflow:auto;background:#FFFFFF;"&gt;

&lt;table style="font-family:Arial,Verdana,Times;font-size:12px;text-align:left;width:100%;border-collapse:collapse;padding:3px 3px 3px 3px"&gt;

&lt;tr style="text-align:center;font-weight:bold;background:#9CBCE2"&gt;

&lt;td&gt;1&lt;/td&gt;

&lt;/tr&gt;

&lt;tr&gt;

&lt;td&gt;

&lt;table style="font-family:Arial,Verdana,Times;font-size:12px;text-align:left;width:100%;border-spacing:0px; padding:3px 3px 3px 3px"&gt;

&lt;tr&gt;

&lt;td&gt;DIST_CODE&lt;/td&gt;

&lt;td&gt;1&lt;/td&gt;

&lt;/tr&gt;

&lt;tr bgcolor="#D4E4F3"&gt;

&lt;td&gt;VIL_CODE&lt;/td&gt;

&lt;td&gt;0&lt;/td&gt;

&lt;/tr&gt;

&lt;tr&gt;

&lt;td&gt;QRTR_CODE&lt;/td&gt;

&lt;td&gt;26&lt;/td&gt;

&lt;/tr&gt;

&lt;tr bgcolor="#D4E4F3"&gt;

&lt;td&gt;QRTR_NM_E&lt;/td&gt;

&lt;td&gt;AGIA SOFIA&lt;/td&gt;

&lt;/tr&gt;

&lt;tr&gt;

&lt;td&gt;QRTR_NM_G&lt;/td&gt;

&lt;td&gt;ΑΓΙΑ ΣΟΦΙΑ&lt;/td&gt;

&lt;/tr&gt;

&lt;tr bgcolor="#D4E4F3"&gt;

&lt;td&gt;VIL_CCD&lt;/td&gt;

&lt;td&gt;1000&lt;/td&gt;

&lt;/tr&gt;

&lt;tr&gt;

&lt;td&gt;QRTR_CCD&lt;/td&gt;

&lt;td&gt;100026&lt;/td&gt;

&lt;/tr&gt;

&lt;/table&gt;

&lt;/td&gt;

&lt;/tr&gt;

&lt;/table&gt;

&lt;/body&gt;&lt;script type="text/javascript"&gt;

				function changeImage(attElement, nameElement) {

				document.getElementById('imageAttachment').src = attElement;

				document.getElementById('imageName').innerHTML = nameElement;}

			&lt;/script&gt;&lt;/html&gt;

</description>
			<styleUrl>#PolyStyle60</styleUrl>
			<MultiGeometry>
				<Polygon>
					<extrude>0</extrude>
					<altitudeMode>clampToGround</altitudeMode>
					<outerBoundaryIs>
						<LinearRing>
							<coordinates> 33.36742742695922,35.17633525328231,0 33.36741792776879,35.17632948882736,0 33.36735134408887,35.17626536358588,0 33.36730592712216,35.17624206593189,0 33.36725925860369,35.17621656183351,0 33.36712459541943,35.17615448441084,0 33.36709901465086,35.17616496855065,0 33.36707857051218,35.17619129537047,0 33.36706267715602,35.1762284260442,0 33.36704146197637,35.17628691969043,0 33.3670327171303,35.17632660759103,0 33.3670253624629,35.17637833572527,0 33.36704410738795,35.17649395410893,0 33.36704708809161,35.17652938344031,0 33.36697525995794,35.17653068455057,0 33.36692356790368,35.17653015698739,0 33.36634881960968,35.17651850371014,0 33.36629466380681,35.17651890996456,0 33.36621270607112,35.17653004483164,0 33.3659778323301,35.17657870804229,0 33.36577167750325,35.17661625730806,0 33.36575050852825,35.17654411404031,0 33.36563559882993,35.17655595555188,0 33.36558236726932,35.1765622222759,0 33.36556631788864,35.17657055453866,0 33.36555196514148,35.17658929189598,0 33.36555197817157,35.1766101050793,0 33.36555876580653,35.17665589081093,0 33.3655731752245,35.17672803648424,0 33.36560872150837,35.17682029339225,0 33.36570095523155,35.17703046827131,0 33.36575087838551,35.17714214375476,0 33.36576694258711,35.17715670686738,0 33.36581512629271,35.17718859965696,0 33.36587515066417,35.17723575153975,0 33.36588445598463,35.17725239744455,0 33.3658895457134,35.17728500357018,0 33.36591413411368,35.17741750202232,0 33.36593278092773,35.17750907253151,0 33.36593791882932,35.17762076783873,0 33.36594894700647,35.17769014016046,0 33.36599298286814,35.17784413940443,0 33.36606325623391,35.17806611558337,0 33.36608525716117,35.17811675167473,0 33.36609709429753,35.17812923447608,0 33.36610639080541,35.17812992478977,0 33.36623060685243,35.17813126013112,0 33.36626609796387,35.17813332608159,0 33.36631678996766,35.17827387427761,0 33.366324384217,35.17830722546948,0 33.36635006429536,35.17842000789393,0 33.36636300514615,35.1784768395806,0 33.36635010178738,35.1784790158159,0 33.36615915720259,35.17851351538871,0 33.36617392342772,35.17856465737883,0 33.36600113520488,35.17861092901997,0 33.36596094878973,35.17861754499509,0 33.36589663663861,35.17860602295057,0 33.36579950187419,35.17859066360712,0 33.36576600223879,35.1785785779075,0 33.36573115997599,35.17856209293686,0 33.36567017195286,35.17850932010006,0 33.3655984572811,35.17843950357724,0 33.36557834745913,35.17841641283785,0 33.36550964741372,35.17831244411231,0 33.36550686774699,35.17830756783917,0 33.36547102082751,35.17824466216444,0 33.36541267293164,35.17817530907556,0 33.36538392783309,35.17815034511298,0 33.36533321091979,35.17812261613233,0 33.36529687213166,35.17811708029014,0 33.36527997165657,35.17811708708932,0 33.36525716078567,35.17812334125204,0 33.36521069940499,35.17814694827235,0 33.36515663401624,35.17817125244226,0 33.36510594767266,35.17819208594628,0 33.36505103129754,35.17820875961875,0 33.36500625785638,35.17822612201527,0 33.36495894904527,35.17824487297203,0 33.36486771400882,35.17828584312534,0 33.36483148944185,35.17830784622881,0 33.36473884599273,35.17836411810661,0 33.36469347248083,35.17840472377053,0 33.36466474139779,35.17843621127805,0 33.36461837020848,35.1784921409327,0 33.36457046319848,35.17851245295218,0 33.36432181659381,35.17855521151048,0 33.36418614731851,35.17858177258086,0 33.36414138644099,35.1785892382013,0 33.36412600135979,35.17859180385224,0 33.3641100103717,35.1785202901514,0 33.36402865344616,35.17856229452654,0 33.36380214311149,35.17864800908618,0 33.36360546322397,35.17869442478714,0 33.36359309082584,35.17852049804406,0 33.36358909083773,35.17831304580561,0 33.36358790838364,35.17830834947971,0 33.36358489972688,35.17829640150168,0 33.3635484462618,35.17829641627167,0 33.36343987697443,35.17829759209747,0 33.36334430646452,35.17828792380815,0 33.36322981515395,35.17827179148976,0 33.36313463484773,35.17825678380134,0 33.36302428566724,35.17824776800622,0 33.36296044205685,35.17824245451099,0 33.36287452208393,35.17822566385183,0 33.36279017821921,35.1782100050705,0 33.36272967530194,35.17819304172906,0 33.36270385699499,35.17818269891183,0 33.36268927159502,35.17817299760011,0 33.36267665193311,35.1781565010908,0 33.36265987692535,35.1781128282322,0 33.36264151400577,35.17804780156083,0 33.36261448114035,35.17798051309953,0 33.36258843616448,35.17792034269805,0 33.36257106075291,35.17785887447094,0 33.36255743873676,35.17781293596495,0 33.36254618007534,35.17776667128933,0 33.36253491821253,35.17771523171051,0 33.3625295607551,35.17764922864006,0 33.36251907666058,35.17757934598217,0 33.36250937549469,35.17749910845214,0 33.36250401799204,35.17743407618116,0 33.36250062495989,35.17735998441365,0 33.36249188631824,35.17724059639083,0 33.36248041881332,35.17717297917041,0 33.36246324447878,35.17711668793387,0 33.36244764744313,35.17706427879225,0 33.36243578620906,35.1769969845418,0 33.36242492774205,35.17695897092722,0 33.36241545854956,35.17694085596908,0 33.36240559815013,35.1769271085408,0 33.362388843462,35.17691562981855,0 33.36236617408544,35.17689832774492,0 33.3623267542712,35.1768756944412,0 33.36231275510453,35.17686097776534,0 33.3623050578708,35.17683865609315,0 33.36230206052554,35.17676585843412,0 33.36229507986132,35.17661751229858,0 33.36227925413922,35.17651598496298,0 33.36227061835084,35.17649590335826,0 33.36223701495784,35.17641482686506,0 33.36222801955537,35.17640672768347,0 33.36206387970695,35.17633279558641,0 33.36193223608257,35.17626379776248,0 33.36192046284052,35.17625413211951,0 33.36190894111811,35.17624300546286,0 33.36189783457059,35.17622746252854,0 33.36187856198469,35.17619475257074,0 33.36171171963056,35.17586371845055,0 33.36167591471862,35.17569437918277,0 33.36168890908075,35.17569026427132,0 33.36172942053888,35.17568292131672,0 33.36176926581224,35.17567958974664,0 33.36183244551901,35.17567205736599,0 33.36193189253549,35.17566414166738,0 33.36195325822017,35.17563336366598,0 33.36197463349898,35.17559980031903,0 33.36203380839736,35.17549968932592,0 33.36208706655634,35.17540072453683,0 33.36213322125395,35.17529869818601,0 33.3621551528206,35.17524158417652,0 33.36216418115853,35.1751925320664,0 33.3621603164954,35.17511497760655,0 33.36215685004614,35.17508018056937,0 33.36209330759394,35.17506793847894,0 33.36205076150193,35.17506769337611,0 33.36201382564388,35.17507050164606,0 33.36197102053869,35.17508067562282,0 33.36200649678391,35.17504008611446,0 33.36224396033991,35.17482879390953,0 33.36228343948496,35.17480044231874,0 33.36235644871522,35.17480338783919,0 33.36247477883477,35.17480080916142,0 33.36262227743894,35.17478574525332,0 33.36300700250656,35.1747583478821,0 33.3632221399901,35.17474038985909,0 33.36333346982518,35.17472536683118,0 33.36340846391607,35.17470636488708,0 33.36346709923929,35.17468239391268,0 33.36357342548833,35.17463342919386,0 33.36354989683409,35.17456876246062,0 33.36385514785254,35.17452394525368,0 33.36407208690008,35.17449189780337,0 33.3640670075589,35.17460670673604,0 33.36406422062458,35.17468215473485,0 33.36405247594559,35.1747387427076,0 33.36413949122267,35.17475894104194,0 33.36430854647455,35.17481407678694,0 33.36444578259344,35.17487286674293,0 33.36457179037011,35.17493361661968,0 33.36472755108199,35.17500115893854,0 33.36483152150291,35.17503215672275,0 33.36497003877526,35.17506793499606,0 33.36543830566294,35.17519419328795,0 33.36559311633701,35.17523341640102,0 33.36571446010966,35.17527512275095,0 33.36609273662768,35.17539635897084,0 33.36634884329682,35.17545293326766,0 33.3665309339806,35.17547656055089,0 33.36675485492342,35.17551305813914,0 33.36699357786717,35.17555585809546,0 33.36730506549392,35.17563094579013,0 33.36748378639967,35.17567211400064,0 33.36760031455891,35.17569895642994,0 33.36775610482876,35.17573903102343,0 33.36771100503901,35.17579783436889,0 33.36764123776317,35.17587146390603,0 33.36761863334755,35.17588413672445,0 33.36761256620517,35.17588841152731,0 33.36755995567817,35.17591081311648,0 33.36754138481245,35.1759140027178,0 33.36750563310752,35.17591554170746,0 33.36750061178369,35.1759419245647,0 33.36749787738534,35.17602517764091,0 33.36748801754187,35.17612417988273,0 33.36747212368748,35.17621238728718,0 33.36745646031168,35.1762822893507,0 33.36743492436327,35.17631847630176,0 33.36742742695922,35.17633525328231,0</coordinates>
						</LinearRing>
					</outerBoundaryIs>
				</Polygon>
			</MultiGeometry>
		</Placemark>
	</Document>
</kml>