<?xml version='1.0' encoding='UTF-8'?>
<kml xmlns="http://www.opengis.net/kml/2.2">
	<Document>
		<name>LEMESOS, LEMESOS APOSTOLOS ANDREAS</name>
		<Style id="PolyStyle60">
			<LabelStyle>
				<color>00000000</color>
				<scale>0.000000</scale>
			</LabelStyle>
			<LineStyle>
				<color>ffff7000</color>
				<width>2.000000</width>
			</LineStyle>
			<PolyStyle>
				<color>00828282</color>
				<outline>1</outline>
			</PolyStyle>
		</Style>
		<Placemark id="ID_60136">
			<name>LEMESOS, LEMESOS APOSTOLOS ANDREAS</name>
			<snippet />
			<description>&lt;html xmlns:fo="http://www.w3.org/1999/XSL/Format" xmlns:msxsl="urn:schemas-microsoft-com:xslt"&gt;

&lt;head&gt;

&lt;META http-equiv="Content-Type" content="text/html"&gt;

&lt;meta http-equiv="content-type" content="text/html; charset=UTF-8"&gt;

&lt;/head&gt;

&lt;body style="margin:0px 0px 0px 0px;overflow:auto;background:#FFFFFF;"&gt;

&lt;table style="font-family:Arial,Verdana,Times;font-size:12px;text-align:left;width:100%;border-collapse:collapse;padding:3px 3px 3px 3px"&gt;

&lt;tr style="text-align:center;font-weight:bold;background:#9CBCE2"&gt;

&lt;td&gt;5&lt;/td&gt;

&lt;/tr&gt;

&lt;tr&gt;

&lt;td&gt;

&lt;table style="font-family:Arial,Verdana,Times;font-size:12px;text-align:left;width:100%;border-spacing:0px; padding:3px 3px 3px 3px"&gt;

&lt;tr&gt;

&lt;td&gt;DIST_CODE&lt;/td&gt;

&lt;td&gt;5&lt;/td&gt;

&lt;/tr&gt;

&lt;tr bgcolor="#D4E4F3"&gt;

&lt;td&gt;VIL_CODE&lt;/td&gt;

&lt;td&gt;0&lt;/td&gt;

&lt;/tr&gt;

&lt;tr&gt;

&lt;td&gt;QRTR_CODE&lt;/td&gt;

&lt;td&gt;9&lt;/td&gt;

&lt;/tr&gt;

&lt;tr bgcolor="#D4E4F3"&gt;

&lt;td&gt;QRTR_NM_E&lt;/td&gt;

&lt;td&gt;APOSTOLOS ANDREAS&lt;/td&gt;

&lt;/tr&gt;

&lt;tr&gt;

&lt;td&gt;QRTR_NM_G&lt;/td&gt;

&lt;td&gt;ΑΠΟΣΤΟΛΟΣ ΑΝΔΡΕΑΣ&lt;/td&gt;

&lt;/tr&gt;

&lt;tr bgcolor="#D4E4F3"&gt;

&lt;td&gt;VIL_CCD&lt;/td&gt;

&lt;td&gt;5000&lt;/td&gt;

&lt;/tr&gt;

&lt;tr&gt;

&lt;td&gt;QRTR_CCD&lt;/td&gt;

&lt;td&gt;500009&lt;/td&gt;

&lt;/tr&gt;

&lt;/table&gt;

&lt;/td&gt;

&lt;/tr&gt;

&lt;/table&gt;

&lt;/body&gt;&lt;script type="text/javascript"&gt;

				function changeImage(attElement, nameElement) {

				document.getElementById('imageAttachment').src = attElement;

				document.getElementById('imageName').innerHTML = nameElement;}

			&lt;/script&gt;&lt;/html&gt;

</description>
			<styleUrl>#PolyStyle60</styleUrl>
			<MultiGeometry>
				<Polygon>
					<extrude>0</extrude>
					<altitudeMode>clampToGround</altitudeMode>
					<outerBoundaryIs>
						<LinearRing>
							<coordinates> 33.02445696441,34.6786375946497,0 33.02518445184018,34.67920350565902,0 33.02602337617157,34.67985077284659,0 33.0271766671806,34.68076330659397,0 33.02726253501709,34.68083159762168,0 33.0275312492284,34.68104530499141,0 33.02769451169128,34.68117620640543,0 33.02801383381179,34.68143225069832,0 33.02830865531507,34.68166865218179,0 33.02805241852035,34.68176717865577,0 33.02801271923939,34.68176815777196,0 33.02794531263523,34.68176982925251,0 33.02781649993148,34.68172946901514,0 33.0275928673863,34.68168587491274,0 33.02744251246732,34.68164665411089,0 33.02726278004764,34.68157930194861,0 33.02725172188427,34.68157515853623,0 33.02704360283166,34.68152914850953,0 33.02670993138106,34.6814376916797,0 33.02660051618596,34.68141130237662,0 33.02625883623296,34.68140778948202,0 33.02595598678748,34.681455763244,0 33.02583994255869,34.68146879167731,0 33.02571744173723,34.68148701566305,0 33.02561589002035,34.68150864089925,0 33.02537726861848,34.68155524298973,0 33.02532123828289,34.68157712082511,0 33.02517369748376,34.68164819394369,0 33.02502194055781,34.68173288453229,0 33.02489629286349,34.6818271838352,0 33.02478285865513,34.68191103783577,0 33.02471818264049,34.6819654333618,0 33.02468698640381,34.68200291040264,0 33.02457606307328,34.68218008711812,0 33.02427980115937,34.68268033899371,0 33.02404398366622,34.68307851950593,0 33.02408587557416,34.68310611079711,0 33.02387675397129,34.68341456187274,0 33.02383499398069,34.68348965299736,0 33.02376377171487,34.68362090994275,0 33.02361531060195,34.68386583348376,0 33.02359099022743,34.68390595743388,0 33.02353979382219,34.68398325348188,0 33.02350490800731,34.6840334831848,0 33.02345454505278,34.68410637352675,0 33.02340706126563,34.68417673646009,0 33.02336267102385,34.68424235792481,0 33.02331520430235,34.68430797094635,0 33.02325887442511,34.6843833882779,0 33.02319943181818,34.68446590979693,0 33.02316106126018,34.68451697031897,0 33.02312248958101,34.684563125942,0 33.02307794317181,34.68461417138183,0 33.0230542081812,34.68464578879257,0 33.02299504026517,34.68470882297506,0 33.02294164599025,34.68476238063987,0 33.02290896242142,34.68479120873926,0 33.02284297004325,34.68484942213998,0 33.02281023406364,34.68487441985587,0 33.02275690649154,34.68492130651234,0 33.02267106283223,34.68499570679838,0 33.02262839047032,34.68502546609921,0 33.02256925054491,34.6850651374456,0 33.02251594682463,34.68510836490472,0 33.02243664882723,34.68517988630686,0 33.02232978146087,34.68527502954519,0 33.02222447323941,34.68532072831763,0 33.02217511479619,34.68533709546676,0 33.02208384533225,34.68536264630684,0 33.02202813362287,34.68538908401993,0 33.02191117029892,34.68547838895877,0 33.02182075697383,34.68557345396541,0 33.02172331860614,34.6856770742489,0 33.02168335306118,34.6857651220863,0 33.02162726298319,34.68588667066807,0 33.02160060489079,34.68591142988872,0 33.02148129996328,34.68602380355861,0 33.02133453868385,34.68613961653625,0 33.02120564298995,34.68623290378697,0 33.02108622615694,34.68632104815116,0 33.02099254339301,34.68638973054088,0 33.02087485370416,34.6864952845768,0 33.02069664040757,34.68665474614839,0 33.02058037915658,34.68674516028966,0 33.02049957113266,34.68680479743062,0 33.02041476157677,34.68690668008639,0 33.02033001983254,34.6869921585387,0 33.02020534225579,34.68710474278123,0 33.02004395267296,34.68722740601167,0 33.01987788975937,34.6874061757546,0 33.01975617864935,34.68748789616803,0 33.01955806857308,34.68762256512047,0 33.01930637354408,34.68779579109385,0 33.01921115929001,34.68782469207957,0 33.01891584844706,34.68791431776869,0 33.0187439839478,34.68796505224842,0 33.01855251154406,34.68800947464322,0 33.01832027395191,34.68804677581387,0 33.01796355680358,34.68810022232418,0 33.0176801909409,34.68815978719937,0 33.01760830620977,34.68818565188747,0 33.01744859400408,34.6882739111585,0 33.01731530237124,34.68833101151718,0 33.01710585895584,34.68834319927007,0 33.01710483211409,34.68819524764641,0 33.01707076955383,34.68791321084612,0 33.016999167,34.68752540656568,0 33.01690567675972,34.68708260178964,0 33.01673949459326,34.68631585120379,0 33.01665206440536,34.68586966297956,0 33.01656463843911,34.68548928321628,0 33.01652206358916,34.68535742667768,0 33.01643047268455,34.68477559206787,0 33.01641732984505,34.68469213890354,0 33.01634272469558,34.68436708880783,0 33.01632013933737,34.6842024626827,0 33.0162712727616,34.68403007565565,0 33.01624356195344,34.68357015222505,0 33.01630486758415,34.68322270203914,0 33.01633930255365,34.68309578506354,0 33.0164175106849,34.68282697541488,0 33.01632807102827,34.68282935199547,0 33.01630042679246,34.68287026914303,0 33.01632929062451,34.68276024745318,0 33.01633206909276,34.68246027310958,0 33.01632110521575,34.6824506107639,0 33.01644993657234,34.68220495407837,0 33.0155061307816,34.68175361806234,0 33.01601689287459,34.68117132067002,0 33.01549912356511,34.68083913891798,0 33.01535642648479,34.68075715967144,0 33.01497612461357,34.68054285414642,0 33.01443273044509,34.6802777308358,0 33.014532347959,34.68010152471155,0 33.01448197494695,34.68006663639025,0 33.0144252131025,34.68002161802186,0 33.01427497606832,34.67991614864123,0 33.01401468063506,34.67974940405524,0 33.01395493623382,34.67968757689435,0 33.01377556889128,34.67957848358652,0 33.01370219746724,34.67953769557531,0 33.01337040667291,34.67940308620828,0 33.01292480081069,34.67922420756855,0 33.01272598500927,34.67956145429099,0 33.01221352867687,34.67936685016623,0 33.01186663467144,34.67923086526643,0 33.01117815179651,34.67893812020639,0 33.01104635323299,34.67890042078422,0 33.0105921515312,34.67871992614734,0 33.01046415197738,34.67865460003992,0 33.01032360260847,34.67858286176195,0 33.01027433781486,34.67855771655207,0 33.00994230303877,34.67842998332405,0 33.00974579946845,34.67837817695037,0 33.00885835113468,34.67807847599303,0 33.00879639409931,34.67823072171535,0 33.00822685254834,34.67810571324917,0 33.00772822935276,34.67802641779632,0 33.0076833014372,34.67801647104623,0 33.0079155194847,34.67757044108713,0 33.00794306085437,34.67750170085623,0 33.0079611653666,34.67745651680076,0 33.00801224166658,34.67726980246282,0 33.0080589688856,34.67715833188076,0 33.00811880099995,34.67695236859451,0 33.00814372619872,34.67677049144164,0 33.00831207440493,34.67604114716729,0 33.00881686896658,34.67591391793883,0 33.0089659754149,34.67586616939722,0 33.00922023309891,34.67579943038409,0 33.00950073043823,34.67573267617782,0 33.01047581560945,34.67546837633927,0 33.01077325091841,34.675387744026,0 33.01153382186143,34.67519580605711,0 33.01183088715279,34.67512083697321,0 33.01335396234195,34.67473632715117,0 33.01486957699724,34.67434439806605,0 33.01656620649437,34.67389661254386,0 33.016949263625,34.67379550619,0 33.01709312610532,34.67374749059859,0 33.01727968465599,34.67369827253442,0 33.01759035713717,34.67360732682802,0 33.01787707096603,34.67351016636034,0 33.01836668770158,34.67390098009869,0 33.01883291972869,34.67427312227709,0 33.01925814317905,34.6746050984462,0 33.02008772314007,34.67524924698971,0 33.0213655649164,34.6762414297108,0 33.02216357361937,34.67685634632951,0 33.02292927755686,34.67745532564551,0 33.02303720941259,34.67753885228233,0 33.02363587344293,34.67800215938502,0 33.02445696441,34.6786375946497,0</coordinates>
						</LinearRing>
					</outerBoundaryIs>
				</Polygon>
			</MultiGeometry>
		</Placemark>
	</Document>
</kml>