<?xml version='1.0' encoding='UTF-8'?>
<kml xmlns="http://www.opengis.net/kml/2.2">
	<Document>
		<name>LEMESOS, LEMESOS AGIOS NEKTARIOS</name>
		<Style id="PolyStyle60">
			<LabelStyle>
				<color>00000000</color>
				<scale>0.000000</scale>
			</LabelStyle>
			<LineStyle>
				<color>ffff7000</color>
				<width>2.000000</width>
			</LineStyle>
			<PolyStyle>
				<color>00828282</color>
				<outline>1</outline>
			</PolyStyle>
		</Style>
		<Placemark id="ID_60119">
			<name>LEMESOS, LEMESOS AGIOS NEKTARIOS</name>
			<snippet />
			<description>&lt;html xmlns:fo="http://www.w3.org/1999/XSL/Format" xmlns:msxsl="urn:schemas-microsoft-com:xslt"&gt;

&lt;head&gt;

&lt;META http-equiv="Content-Type" content="text/html"&gt;

&lt;meta http-equiv="content-type" content="text/html; charset=UTF-8"&gt;

&lt;/head&gt;

&lt;body style="margin:0px 0px 0px 0px;overflow:auto;background:#FFFFFF;"&gt;

&lt;table style="font-family:Arial,Verdana,Times;font-size:12px;text-align:left;width:100%;border-collapse:collapse;padding:3px 3px 3px 3px"&gt;

&lt;tr style="text-align:center;font-weight:bold;background:#9CBCE2"&gt;

&lt;td&gt;5&lt;/td&gt;

&lt;/tr&gt;

&lt;tr&gt;

&lt;td&gt;

&lt;table style="font-family:Arial,Verdana,Times;font-size:12px;text-align:left;width:100%;border-spacing:0px; padding:3px 3px 3px 3px"&gt;

&lt;tr&gt;

&lt;td&gt;DIST_CODE&lt;/td&gt;

&lt;td&gt;5&lt;/td&gt;

&lt;/tr&gt;

&lt;tr bgcolor="#D4E4F3"&gt;

&lt;td&gt;VIL_CODE&lt;/td&gt;

&lt;td&gt;0&lt;/td&gt;

&lt;/tr&gt;

&lt;tr&gt;

&lt;td&gt;QRTR_CODE&lt;/td&gt;

&lt;td&gt;13&lt;/td&gt;

&lt;/tr&gt;

&lt;tr bgcolor="#D4E4F3"&gt;

&lt;td&gt;QRTR_NM_E&lt;/td&gt;

&lt;td&gt;AGIOS NEKTARIOS&lt;/td&gt;

&lt;/tr&gt;

&lt;tr&gt;

&lt;td&gt;QRTR_NM_G&lt;/td&gt;

&lt;td&gt;ΑΓΙΟΣ ΝΕΚΤΑΡΙΟΣ&lt;/td&gt;

&lt;/tr&gt;

&lt;tr bgcolor="#D4E4F3"&gt;

&lt;td&gt;VIL_CCD&lt;/td&gt;

&lt;td&gt;5000&lt;/td&gt;

&lt;/tr&gt;

&lt;tr&gt;

&lt;td&gt;QRTR_CCD&lt;/td&gt;

&lt;td&gt;500013&lt;/td&gt;

&lt;/tr&gt;

&lt;/table&gt;

&lt;/td&gt;

&lt;/tr&gt;

&lt;/table&gt;

&lt;/body&gt;&lt;script type="text/javascript"&gt;

				function changeImage(attElement, nameElement) {

				document.getElementById('imageAttachment').src = attElement;

				document.getElementById('imageName').innerHTML = nameElement;}

			&lt;/script&gt;&lt;/html&gt;

</description>
			<styleUrl>#PolyStyle60</styleUrl>
			<MultiGeometry>
				<Polygon>
					<extrude>0</extrude>
					<altitudeMode>clampToGround</altitudeMode>
					<outerBoundaryIs>
						<LinearRing>
							<coordinates> 33.03743682022786,34.68671489438426,0 33.04116430994277,34.68736257028588,0 33.0412461476235,34.68737677960624,0 33.04140383892358,34.68740028888236,0 33.04183119463815,34.68747346439045,0 33.04191808694822,34.68749053280417,0 33.04223853957418,34.68754572853534,0 33.0426878201015,34.68761502971918,0 33.04306821899667,34.68766886988006,0 33.04308604391635,34.68767060703207,0 33.04342246049904,34.68770340588965,0 33.04376843424592,34.68772977557957,0 33.044341978423,34.68776118298989,0 33.04448023790707,34.68776091265583,0 33.04470531668385,34.68776004242518,0 33.04486252738608,34.68775739833541,0 33.04500611561408,34.68775246121538,0 33.04512088541282,34.68774743363218,0 33.04532128845939,34.68773433929089,0 33.04546894448955,34.68773010506601,0 33.04555346264429,34.68772257594744,0 33.04627631282833,34.68765814753754,0 33.04994566253729,34.68714190690953,0 33.05031953984912,34.68708929544373,0 33.05130086119554,34.68696515091253,0 33.0523832124039,34.68680016879543,0 33.05293676341837,34.68672040878932,0 33.0537897103147,34.68660912878287,0 33.05375363674326,34.68667441775548,0 33.05354435066624,34.687043310258,0 33.05342446695994,34.68722803889843,0 33.05333994205826,34.68734566512995,0 33.05302938331695,34.68779154091187,0 33.05262465974889,34.68839987156091,0 33.0525692505162,34.68848521008463,0 33.05235732713903,34.68881159617528,0 33.05121708784846,34.69044294625959,0 33.05067838199056,34.69127529307156,0 33.05011531183487,34.69210630421802,0 33.04992898270314,34.69238128236463,0 33.04917161171705,34.69349901446989,0 33.0485270982902,34.6932243567333,0 33.04843448045187,34.69319010152203,0 33.04806314946194,34.69303924810031,0 33.04797055660335,34.6930040910519,0 33.04792503413832,34.69298860451694,0 33.04788703152258,34.69298623235189,0 33.04787311154217,34.69298823007662,0 33.04786251165467,34.69299587693205,0 33.04784904487055,34.69300970090713,0 33.04783910486016,34.69302608458275,0 33.04782696892886,34.69305011451607,0 33.0467940361117,34.6929115244694,0 33.04678290216431,34.69263160137163,0 33.04675595470872,34.69261557900428,0 33.04672989370331,34.69260575031608,0 33.04670603436463,34.69260028120635,0 33.04665525212198,34.69259136254489,0 33.04654814227057,34.69254057030346,0 33.04652119874599,34.6925236373941,0 33.04651257521815,34.69250762780977,0 33.04650926279184,34.6924959748231,0 33.04651477372689,34.69247906017386,0 33.04653530222453,34.69243811101263,0 33.04654721329504,34.69241937113841,0 33.04656664423202,34.69240063830645,0 33.04657679213478,34.69236733759951,0 33.0455387504941,34.69223553956324,0 33.04543160862179,34.69222193574287,0 33.04540155978948,34.69209603090257,0 33.04537105818964,34.69196826738201,0 33.04517511551923,34.69194547157829,0 33.04483754930301,34.69192079307747,0 33.0448327538388,34.69188674618004,0 33.04446795074199,34.69177231152452,0 33.04406916684466,34.69163779962459,0 33.0439545177394,34.6916109545688,0 33.04384480678538,34.69157894669159,0 33.04310746362881,34.69139874456553,0 33.04297825009323,34.69136079758314,0 33.0427890330296,34.69131134980626,0 33.04262348978029,34.69127036460809,0 33.04239607236958,34.6917121083736,0 33.042264071271,34.69197490135083,0 33.04222139929613,34.69208893633466,0 33.04220245186299,34.6921395768699,0 33.04213460950039,34.6922450195727,0 33.04205935875141,34.69238347044688,0 33.04197615594783,34.69269327070386,0 33.04193534653774,34.69283813532896,0 33.04189588379428,34.69304796416493,0 33.04183923726998,34.69336599913893,0 33.04144998980592,34.6933402661554,0 33.04114485438667,34.69328962830379,0 33.04104038730268,34.69327228491796,0 33.04112123904292,34.69284585437312,0 33.04110368490459,34.69273830998897,0 33.04095674456821,34.69253890481315,0 33.04082790887196,34.69238962974838,0 33.0405564841916,34.69208520706884,0 33.04035675592846,34.69186119314298,0 33.04018191650668,34.69165154828359,0 33.0400102312482,34.69143553862707,0 33.03987990758213,34.69127834447438,0 33.03966688490453,34.69101655116413,0 33.03953662712155,34.69085285788645,0 33.03941539586166,34.69070564409515,0 33.03931176694588,34.69058134718237,0 33.03918438074249,34.69042425859089,0 33.03902184477507,34.69022793545098,0 33.03891208387932,34.69009057148274,0 33.03865767478011,34.68977330293234,0 33.03848026797577,34.68955099516778,0 33.03834443782159,34.68937769802896,0 33.03821146782736,34.68921431334794,0 33.03800752301586,34.6889625061384,0 33.03779769805934,34.68870111232071,0 33.03768546271636,34.6885541337567,0 33.0375987773035,34.68845209200835,0 33.03743005878234,34.68825347162989,0 33.03740045985398,34.68826788987992,0 33.03706568625486,34.6878613253652,0 33.03724025472895,34.68730136642924,0 33.03743682022786,34.68671489438426,0</coordinates>
						</LinearRing>
					</outerBoundaryIs>
				</Polygon>
			</MultiGeometry>
		</Placemark>
	</Document>
</kml>