<?xml version='1.0' encoding='UTF-8'?>
<kml xmlns="http://www.opengis.net/kml/2.2">
	<Document>
		<name>LEMESOS, LEMESOS ZAKAKI</name>
		<Style id="PolyStyle60">
			<LabelStyle>
				<color>00000000</color>
				<scale>0.000000</scale>
			</LabelStyle>
			<LineStyle>
				<color>ffff7000</color>
				<width>2.000000</width>
			</LineStyle>
			<PolyStyle>
				<color>00828282</color>
				<outline>1</outline>
			</PolyStyle>
		</Style>
		<Placemark id="ID_60151">
			<name>LEMESOS, LEMESOS ZAKAKI</name>
			<snippet />
			<description>&lt;html xmlns:fo="http://www.w3.org/1999/XSL/Format" xmlns:msxsl="urn:schemas-microsoft-com:xslt"&gt;

&lt;head&gt;

&lt;META http-equiv="Content-Type" content="text/html"&gt;

&lt;meta http-equiv="content-type" content="text/html; charset=UTF-8"&gt;

&lt;/head&gt;

&lt;body style="margin:0px 0px 0px 0px;overflow:auto;background:#FFFFFF;"&gt;

&lt;table style="font-family:Arial,Verdana,Times;font-size:12px;text-align:left;width:100%;border-collapse:collapse;padding:3px 3px 3px 3px"&gt;

&lt;tr style="text-align:center;font-weight:bold;background:#9CBCE2"&gt;

&lt;td&gt;5&lt;/td&gt;

&lt;/tr&gt;

&lt;tr&gt;

&lt;td&gt;

&lt;table style="font-family:Arial,Verdana,Times;font-size:12px;text-align:left;width:100%;border-spacing:0px; padding:3px 3px 3px 3px"&gt;

&lt;tr&gt;

&lt;td&gt;DIST_CODE&lt;/td&gt;

&lt;td&gt;5&lt;/td&gt;

&lt;/tr&gt;

&lt;tr bgcolor="#D4E4F3"&gt;

&lt;td&gt;VIL_CODE&lt;/td&gt;

&lt;td&gt;0&lt;/td&gt;

&lt;/tr&gt;

&lt;tr&gt;

&lt;td&gt;QRTR_CODE&lt;/td&gt;

&lt;td&gt;21&lt;/td&gt;

&lt;/tr&gt;

&lt;tr bgcolor="#D4E4F3"&gt;

&lt;td&gt;QRTR_NM_E&lt;/td&gt;

&lt;td&gt;ZAKAKI&lt;/td&gt;

&lt;/tr&gt;

&lt;tr&gt;

&lt;td&gt;QRTR_NM_G&lt;/td&gt;

&lt;td&gt;ΖΑΚΑΚΙ&lt;/td&gt;

&lt;/tr&gt;

&lt;tr bgcolor="#D4E4F3"&gt;

&lt;td&gt;VIL_CCD&lt;/td&gt;

&lt;td&gt;5000&lt;/td&gt;

&lt;/tr&gt;

&lt;tr&gt;

&lt;td&gt;QRTR_CCD&lt;/td&gt;

&lt;td&gt;500021&lt;/td&gt;

&lt;/tr&gt;

&lt;/table&gt;

&lt;/td&gt;

&lt;/tr&gt;

&lt;/table&gt;

&lt;/body&gt;&lt;script type="text/javascript"&gt;

				function changeImage(attElement, nameElement) {

				document.getElementById('imageAttachment').src = attElement;

				document.getElementById('imageName').innerHTML = nameElement;}

			&lt;/script&gt;&lt;/html&gt;

</description>
			<styleUrl>#PolyStyle60</styleUrl>
			<MultiGeometry>
				<Polygon>
					<extrude>0</extrude>
					<altitudeMode>clampToGround</altitudeMode>
					<outerBoundaryIs>
						<LinearRing>
							<coordinates> 33.00855754730346,34.66528011256373,0 33.00834711716383,34.66561476378509,0 33.00831142981373,34.66568377253549,0 33.00821578947151,34.66588725784795,0 33.00811776918594,34.66615946557948,0 33.00788624355849,34.66662221821998,0 33.00784910583999,34.66669644196497,0 33.00766461380947,34.66725224341328,0 33.00762715451099,34.66737060433951,0 33.00762144867244,34.66738863424465,0 33.00752754903952,34.66768532620429,0 33.0074373367333,34.66800741607475,0 33.00730472040073,34.66798322212721,0 33.00706786850716,34.66792221508095,0 33.00685790551187,34.66785615598891,0 33.00647035584768,34.66774300118718,0 33.00611541461147,34.66758614891179,0 33.00559277142109,34.66738874413078,0 33.00554504377505,34.6673707167611,0 33.00521345275526,34.66724547109308,0 33.00387897404796,34.666758962772,0 33.00388221098932,34.66661212009314,0 33.00389291473213,34.66612725102408,0 33.00391320827472,34.66565383578367,0 33.0039178277199,34.66537264130209,0 33.003919586257,34.66508892366295,0 33.00391465129101,34.66504028278548,0 33.00283087407472,34.66484670325436,0 33.00277672759211,34.66505706884651,0 33.00267042967033,34.66504475432741,0 33.00265499990816,34.66528428812071,0 33.00173580053816,34.66500921330122,0 33.00147851121171,34.66493221605948,0 33.00133060388225,34.66518696546057,0 33.00087909681378,34.66498825228862,0 33.00072006331469,34.6648894044849,0 33.00037017220251,34.66512263005975,0 32.99975045110304,34.66551921474258,0 32.9992278399998,34.66606223022789,0 32.99831955834045,34.66600661341958,0 32.99823103572904,34.66527097121789,0 32.99820326252475,34.66512992650401,0 32.99819075439477,34.66493949995697,0 32.99818909972161,34.66481823494225,0 32.99795183736693,34.66478310509796,0 32.99759854822908,34.66338235431369,0 32.99735296065584,34.66336564303169,0 32.99672046422322,34.6633226118147,0 32.99674392824013,34.66298346378083,0 32.99672079791464,34.66296716083072,0 32.99644053777216,34.66276963460552,0 32.99551641700025,34.66249619569886,0 32.99628180334014,34.66131890260785,0 32.99513207515112,34.66122378137113,0 32.99558390990383,34.6602790861771,0 32.99575578055529,34.65973440995125,0 32.99521303360827,34.65960977214313,0 32.99421642892498,34.65933416764286,0 32.99406388289805,34.65929197922129,0 32.99395227705273,34.65925256559552,0 32.99308634138667,34.65895775495876,0 32.9936396781162,34.6579337800605,0 32.99408969396958,34.65711821403726,0 32.99353094509934,34.65701817828754,0 32.99410789390373,34.65570742274542,0 32.99413568973902,34.65564746490447,0 32.99438374590113,34.65570814793924,0 32.99515264233604,34.65589626285443,0 32.99520426120897,34.655839487037,0 32.9952551861317,34.6557834738215,0 32.99514712867512,34.65571016218303,0 32.9940246346523,34.65494864364152,0 32.99500000906873,34.65208341347423,0 32.99501507908123,34.65203914242391,0 32.99501408078127,34.65198680697909,0 32.99447686915325,34.65184839766438,0 32.99466212639364,34.65103670180256,0 32.99481669479265,34.65012463076486,0 32.99460425093684,34.65011364963101,0 32.99314543573466,34.65003926010807,0 32.99056851553456,34.64986680431163,0 32.99091138979999,34.64757329979641,0 32.99150237882407,34.64644901512197,0 32.98997922019425,34.6445617722707,0 32.99045787615955,34.64216656580134,0 32.99067612540514,34.64222214367618,0 32.9909004649997,34.6424243294906,0 32.99091253808431,34.64256945172119,0 32.99119835011756,34.64251690913135,0 32.99105462512204,34.64282617879915,0 32.99126464193866,34.64303059403753,0 32.99130190871979,34.64316054519102,0 32.99131164837605,34.64319046063125,0 32.99099859814034,34.64317647397755,0 32.99113226000895,34.64342508248106,0 32.9916060878147,34.6432382606551,0 32.99179876247067,34.64317815580462,0 32.99182339576016,34.6431299101957,0 32.99185462496659,34.64305883321246,0 32.99226399894532,34.64308211899068,0 32.99229622314542,34.6430988164599,0 32.99247187758882,34.64307598390516,0 32.99261223155125,34.64306282906622,0 32.99278642867213,34.64305132217756,0 32.99289084419409,34.64305947679888,0 32.99301835666193,34.6430694347164,0 32.99311988658935,34.64308424821658,0 32.99316461715186,34.6430417702428,0 32.99330877044654,34.6429021649713,0 32.99354701276128,34.64301667131764,0 32.99360504736208,34.64312814971662,0 32.99392353176221,34.64314649942933,0 32.99395047117794,34.64298788247866,0 32.99399602440049,34.64279963926115,0 32.99457010000115,34.64296243850843,0 32.99555265457639,34.64299998264014,0 32.99564608680248,34.64293498832966,0 32.99671203987962,34.64296586142255,0 32.99672586184907,34.64305574486279,0 32.99667375430428,34.64339144325739,0 32.99717710943037,34.64356920456899,0 32.99734428085788,34.64316095914371,0 32.99742999346325,34.64316997939851,0 32.99759785191416,34.64318764193646,0 33.00144923861715,34.6440396232918,0 33.00181469595698,34.64404222909995,0 33.00275575624168,34.6440647133559,0 33.00399355806272,34.64405776568078,0 33.00620299129414,34.64407325907834,0 33.00809903403979,34.64408649978438,0 33.01059045887639,34.64411417912757,0 33.01174786400722,34.64412702022546,0 33.01193768162072,34.64412922484938,0 33.01205262953117,34.64416626260674,0 33.01214479366747,34.64416903633721,0 33.01213868872561,34.644155327224,0 33.01718406219339,34.64430706294712,0 33.0195557130132,34.64440973691083,0 33.0202351131764,34.64456819115459,0 33.02048899213829,34.64464646671752,0 33.02089140431094,34.6448532008457,0 33.02115803479564,34.64501201562226,0 33.02153066985384,34.64524162515762,0 33.02323243773375,34.64635105172065,0 33.02375565997251,34.64670369934682,0 33.02485501341346,34.64742840302963,0 33.02607710573058,34.64816171662674,0 33.02692518668695,34.64871316791103,0 33.02706538138273,34.64882181211435,0 33.03169766000043,34.65038007806331,0 33.0319360480668,34.65038257156602,0 33.03216990357934,34.65037372608283,0 33.03241770675119,34.65031415017059,0 33.03255253796969,34.65026162198235,0 33.03265349937513,34.6502023001505,0 33.03276775967744,34.65017152362972,0 33.03290330467124,34.65020662501964,0 33.03296711466249,34.65028347157023,0 33.03298042597406,34.65034276371309,0 33.03296717029777,34.65042402398996,0 33.03291406359298,34.6505316479871,0 33.03272544794897,34.65070080014056,0 33.03269695668998,34.65072330511352,0 33.03268833326662,34.65072864418588,0 33.03267959961463,34.65073385707997,0 33.03267075682492,34.6507389437955,0 33.03266180816903,34.65074390162712,0 33.03265275691963,34.65074873057394,0 33.03264360416618,34.65075342702971,0 33.03263435318168,34.65075799189499,0 33.03262500832825,34.65076242156275,0 33.03261557069711,34.6507667169341,0 33.03260604355952,34.65077087440221,0 33.03259643018848,34.65077489486769,0 33.03258673385557,34.65077877562522,0 33.03257695674223,34.65078251577269,0 33.03256710212077,34.65078611440775,0 33.03255717326346,34.650789570628,0 33.03254717235142,34.65079288262991,0 33.03253710374815,34.6507960504123,0 33.03252696963478,34.65079907217155,0 33.03251677219304,34.65080194790715,0 33.03250651687632,34.65080467491314,0 33.03249620477624,34.65080725499216,0 33.0324858402553,34.65080968543866,0 33.03247542549489,34.65081196535049,0 33.03246496485896,34.65081409562801,0 33.0324544594377,34.65081607446795,0 33.0324439146852,34.65081790096735,0 33.03243333387413,34.65081957512532,0 33.03242271809538,34.65082109694161,0 33.03241207171217,34.65082246551349,0 33.03240139908771,34.6508236799384,0 33.03239070131291,34.650824740216,0 33.03237998384222,34.65082564634483,0 33.03236924776654,34.65082639832461,0 33.03235849853959,34.65082699435092,0 33.03234773834355,34.65082743532467,0 33.0323369693602,34.65082772124526,0 33.03232619704396,34.65082785211127,0 33.03231542248546,34.6508278270209,0 33.03230465113944,34.65082764687419,0 33.03229388518769,34.65082731167058,0 33.03228312681203,34.65082682140947,0 33.03227238146654,34.65082617518801,0 33.03226165133371,34.65082537480843,0 33.03225093968588,34.65082441936856,0 33.03223601811449,34.65082282679289,0 33.03200284513083,34.65078574453058,0 33.03192531710145,34.65077216242126,0 33.03184808756968,34.6507574650541,0 33.03177118162959,34.65074165512756,0 33.03169462001302,34.6507247389472,0 33.03161842781453,34.65070672101459,0 33.03154262794726,34.65068760673335,0 33.03145021414023,34.65066267132769,0 33.0271403711436,34.6491517894571,0 33.02713669507542,34.64915878846503,0 33.02699139224817,34.64921473501134,0 33.02688537046044,34.649218892617,0 33.02675029690105,34.64917147652013,0 33.02656926315882,34.64893399862229,0 33.02594542466927,34.64851353203883,0 33.02595634877393,34.64845533826657,0 33.02534633032329,34.64799577295011,0 33.02483390713937,34.64764480678187,0 33.02473364592169,34.64766794922421,0 33.02466735827745,34.64763844367601,0 33.02463650250034,34.64754443002207,0 33.02464376841046,34.6475219492405,0 33.02448762848417,34.64744873721494,0 33.02447652123004,34.6474435288881,0 33.02447546183,34.64744282865048,0 33.0234826437563,34.64678642338404,0 33.02338956108724,34.64678730939579,0 33.02332012660141,34.64668797503788,0 33.02226602469378,34.64598848702272,0 33.02217581299895,34.64599823133486,0 33.0220623658699,34.64593765708898,0 33.02201481712363,34.64581231660793,0 33.02141241104717,34.64544617841695,0 33.02137176804886,34.64548557574223,0 33.02148864521411,34.64556530288861,0 33.0213612484099,34.64569426043474,0 33.02126639867846,34.64562652803641,0 33.02093869774717,34.64595063185217,0 33.02088708498747,34.64597217617118,0 33.02083326977058,34.64595848106738,0 33.01918221691997,34.64485864349932,0 33.01281961149982,34.64479380887638,0 33.01267946943863,34.64555246100658,0 33.01267110875143,34.64569802215127,0 33.01279954839887,34.64595027186386,0 33.01292533010548,34.64608738371341,0 33.01292891535648,34.64620530871025,0 33.01310113013277,34.6464382329059,0 33.01335554570284,34.646937353255,0 33.01375628906733,34.64782593849431,0 33.01610930035694,34.64783610579364,0 33.01606525932984,34.64905930306436,0 33.0160634347792,34.6490615876553,0 33.01505610284617,34.6503227560131,0 33.01495582095341,34.65040358512547,0 33.0146319963654,34.65084678200336,0 33.0145095274133,34.65101630549613,0 33.01424386885441,34.65138676027299,0 33.01382436691325,34.65198679920069,0 33.01376598447668,34.65205758367889,0 33.01371662295373,34.65213107606061,0 33.01371094299086,34.65213952536674,0 33.01266488054527,34.65362108581552,0 33.01247121204917,34.65390939348573,0 33.0117636577404,34.6535609987046,0 33.01165236420191,34.65370810379017,0 33.01139093994719,34.65407811997704,0 33.01121959446193,34.65433072406782,0 33.01164287476691,34.65462399962908,0 33.01148134290363,34.65502705731189,0 33.01235303183993,34.65546525781485,0 33.01230656513422,34.65552778730505,0 33.01217672600143,34.65566611248179,0 33.01211206147334,34.65575348396901,0 33.01155209304805,34.65646789285736,0 33.01153170685832,34.65649390245662,0 33.0113846247331,34.65677634423916,0 33.01125793134591,34.65701695352479,0 33.01112102977247,34.65728678684255,0 33.01070911660766,34.65713927955048,0 33.01054308769018,34.65708998401841,0 33.01035369641779,34.65703376147796,0 33.01025836595415,34.65723159818439,0 33.01011856793664,34.65759430817675,0 33.01010541657831,34.65765873165118,0 33.01053996612116,34.65794063688855,0 33.01060551130968,34.65798315576551,0 33.01085092736197,34.65818322190537,0 33.01139184838733,34.65853436166106,0 33.01146499357547,34.65857231066751,0 33.01098870410446,34.65937715860188,0 33.01053182317229,34.66014918907886,0 33.01040755783406,34.66035917571834,0 33.01053100771816,34.66038693967297,0 33.01058091793446,34.66039815966158,0 33.01101545020938,34.66056944806932,0 33.01169275521573,34.66081041059369,0 33.0110264242853,34.66081438507207,0 33.01084402690344,34.66125731937919,0 33.01081946658724,34.66134502368175,0 33.01080747414115,34.66150428170477,0 33.01081262068035,34.66165730989086,0 33.01073084287405,34.6618796072265,0 33.01052395487799,34.66232426495331,0 33.0103719102043,34.66265102504208,0 33.01018888303751,34.66300160276374,0 33.00994518801526,34.66346837665319,0 33.00979338586639,34.66383487759509,0 33.00952352778397,34.66426867661549,0 33.00986589997283,34.66438826109074,0 33.00910597743545,34.66536132393983,0 33.00906562498831,34.66534607935171,0 33.00898612014367,34.6653039663931,0 33.00864639375347,34.66513471236127,0 33.00855754730346,34.66528011256373,0</coordinates>
						</LinearRing>
					</outerBoundaryIs>
				</Polygon>
			</MultiGeometry>
		</Placemark>
	</Document>
</kml>