<?xml version='1.0' encoding='UTF-8'?>
<kml xmlns="http://www.opengis.net/kml/2.2">
	<Document>
		<name>PAFOS AGIOS PAVLOS</name>
		<Style id="PolyStyle60">
			<LabelStyle>
				<color>00000000</color>
				<scale>0.000000</scale>
			</LabelStyle>
			<LineStyle>
				<color>ffff7000</color>
				<width>2.000000</width>
			</LineStyle>
			<PolyStyle>
				<color>00828282</color>
				<outline>1</outline>
			</PolyStyle>
		</Style>
		<Placemark id="ID_60016">
			<name>PAFOS AGIOS PAVLOS</name>
			<snippet />
			<description>&lt;html xmlns:fo="http://www.w3.org/1999/XSL/Format" xmlns:msxsl="urn:schemas-microsoft-com:xslt"&gt;

&lt;head&gt;

&lt;META http-equiv="Content-Type" content="text/html"&gt;

&lt;meta http-equiv="content-type" content="text/html; charset=UTF-8"&gt;

&lt;/head&gt;

&lt;body style="margin:0px 0px 0px 0px;overflow:auto;background:#FFFFFF;"&gt;

&lt;table style="font-family:Arial,Verdana,Times;font-size:12px;text-align:left;width:100%;border-collapse:collapse;padding:3px 3px 3px 3px"&gt;

&lt;tr style="text-align:center;font-weight:bold;background:#9CBCE2"&gt;

&lt;td&gt;6&lt;/td&gt;

&lt;/tr&gt;

&lt;tr&gt;

&lt;td&gt;

&lt;table style="font-family:Arial,Verdana,Times;font-size:12px;text-align:left;width:100%;border-spacing:0px; padding:3px 3px 3px 3px"&gt;

&lt;tr&gt;

&lt;td&gt;DIST_CODE&lt;/td&gt;

&lt;td&gt;6&lt;/td&gt;

&lt;/tr&gt;

&lt;tr bgcolor="#D4E4F3"&gt;

&lt;td&gt;VIL_CODE&lt;/td&gt;

&lt;td&gt;0&lt;/td&gt;

&lt;/tr&gt;

&lt;tr&gt;

&lt;td&gt;QRTR_CODE&lt;/td&gt;

&lt;td&gt;2&lt;/td&gt;

&lt;/tr&gt;

&lt;tr bgcolor="#D4E4F3"&gt;

&lt;td&gt;QRTR_NM_E&lt;/td&gt;

&lt;td&gt;AGIOS PAVLOS&lt;/td&gt;

&lt;/tr&gt;

&lt;tr&gt;

&lt;td&gt;QRTR_NM_G&lt;/td&gt;

&lt;td&gt;ΑΓΙΟΣ ΠΑΥΛΟΣ&lt;/td&gt;

&lt;/tr&gt;

&lt;tr bgcolor="#D4E4F3"&gt;

&lt;td&gt;VIL_CCD&lt;/td&gt;

&lt;td&gt;6000&lt;/td&gt;

&lt;/tr&gt;

&lt;tr&gt;

&lt;td&gt;QRTR_CCD&lt;/td&gt;

&lt;td&gt;600002&lt;/td&gt;

&lt;/tr&gt;

&lt;/table&gt;

&lt;/td&gt;

&lt;/tr&gt;

&lt;/table&gt;

&lt;/body&gt;&lt;script type="text/javascript"&gt;

				function changeImage(attElement, nameElement) {

				document.getElementById('imageAttachment').src = attElement;

				document.getElementById('imageName').innerHTML = nameElement;}

			&lt;/script&gt;&lt;/html&gt;

</description>
			<styleUrl>#PolyStyle60</styleUrl>
			<MultiGeometry>
				<Polygon>
					<extrude>0</extrude>
					<altitudeMode>clampToGround</altitudeMode>
					<outerBoundaryIs>
						<LinearRing>
							<coordinates> 32.42169577414246,34.78333289644777,0 32.42178443349663,34.7829184910759,0 32.42180377675397,34.78270396713469,0 32.42180452366296,34.78268774288465,0 32.42181236560837,34.78251747118655,0 32.42180892091393,34.78238356061426,0 32.42160018100045,34.7816320580268,0 32.4215896190806,34.78157445963689,0 32.42153801491443,34.78129302419092,0 32.42151282443131,34.78115564515689,0 32.42149533568888,34.78087034413994,0 32.42149111409179,34.78080147355605,0 32.42149456709809,34.78077870685955,0 32.42149265495452,34.7805507026419,0 32.42210254960219,34.78066218662291,0 32.42239044959732,34.7807136454004,0 32.42277300842282,34.78075191443499,0 32.42360817033133,34.78080534211837,0 32.42413626637059,34.78074293025804,0 32.42462572011116,34.78070803665785,0 32.42469550927182,34.7807085521995,0 32.42508374167246,34.7807188031578,0 32.42530794793442,34.78073900040788,0 32.42548362851305,34.78073661962068,0 32.42551458322599,34.78074114853244,0 32.42557306221171,34.78074970606914,0 32.42564169595182,34.78075913991839,0 32.42590219454249,34.78077169899165,0 32.42622334704576,34.78081672138212,0 32.42647965655152,34.78087576230285,0 32.42667133867995,34.78092823508336,0 32.42686052093153,34.78097538538213,0 32.42697722428387,34.78099481104515,0 32.42702596593787,34.78100047258173,0 32.42707268513961,34.78099461583565,0 32.42718268018383,34.78097816828763,0 32.42727066144663,34.78095361133948,0 32.42743617926624,34.78089480086351,0 32.42750852678693,34.78086867741542,0 32.42755433308847,34.78085213857747,0 32.42764117443225,34.7808342448876,0 32.4276923073236,34.78082097083436,0 32.4277115319677,34.78081829197718,0 32.42808568116865,34.78076616109492,0 32.42875760411012,34.78068881070735,0 32.42916838457928,34.78064650465856,0 32.42919561515763,34.78064306983659,0 32.42940214409563,34.78061701546909,0 32.42991198608157,34.78055122071063,0 32.43029657461886,34.78050158834291,0 32.43047132428266,34.78049054482955,0 32.43071499285688,34.78047514488721,0 32.43114169461123,34.78048132864242,0 32.43152620388926,34.78062562078102,0 32.43184553512194,34.78075213120803,0 32.43230335744425,34.78096107754314,0 32.43245108598224,34.78098760450675,0 32.43276153781233,34.78102244736668,0 32.43311244973331,34.78107997702677,0 32.43353491920111,34.78113599342711,0 32.43395266185632,34.78117263506296,0 32.4343004217606,34.7812030086435,0 32.43492439117926,34.78125750452683,0 32.43497163658282,34.78126719441332,0 32.43571782405728,34.78132471530866,0 32.43608015832596,34.78139324824319,0 32.43625988987446,34.78143155559798,0 32.43639560998833,34.78146048221437,0 32.43665327629077,34.78153378782714,0 32.43666171330609,34.78155674431181,0 32.43684806317462,34.78160695165775,0 32.43732235913198,34.78173096803543,0 32.43757936305151,34.78179619078101,0 32.43792517125151,34.78187054003641,0 32.4386507047797,34.78208851303159,0 32.43885086964492,34.78216128109686,0 32.43907178263032,34.78224507626846,0 32.43927655326486,34.78233660590402,0 32.43950307227584,34.78243135974646,0 32.43968809489292,34.78250405581437,0 32.44021253930812,34.78277198033678,0 32.44066867123843,34.78306457859566,0 32.4410041422977,34.78328477593391,0 32.44127178456296,34.78345780662103,0 32.44146776930332,34.78358990055094,0 32.44155455095574,34.78363402961312,0 32.44165060595043,34.7836909160329,0 32.44178097094022,34.78374439721042,0 32.44188332113556,34.78378142914089,0 32.44203613038636,34.78383852047332,0 32.4421208821813,34.78385251984312,0 32.44235396584094,34.78388858916222,0 32.44260590310454,34.78392474346752,0 32.44264361206783,34.78392491613319,0 32.44285980453747,34.78391125734859,0 32.44277696890595,34.78397687929196,0 32.44273492406515,34.78401478098714,0 32.4426347224389,34.78408964877826,0 32.44244585905828,34.78423739248789,0 32.44229730394073,34.78435926972123,0 32.44209907194919,34.78450999881162,0 32.44190821954322,34.78465574306208,0 32.44177521539893,34.78475958361523,0 32.44165938109885,34.7848564940427,0 32.441565764644,34.78493139474475,0 32.44146844757497,34.78501241723274,0 32.44136895432864,34.78509417424728,0 32.44131249477169,34.7851423966332,0 32.4412412389153,34.78519984947682,0 32.44120495867331,34.7852446929756,0 32.44112267774071,34.785361970904,0 32.44105216080531,34.78546192654307,0 32.44099050772762,34.78555320226881,0 32.44093639660942,34.78562314835955,0 32.44089257818622,34.78573531849987,0 32.44082035245511,34.785899931285,0 32.4407997326316,34.78597290045704,0 32.44077229962619,34.78606133505927,0 32.4407461484915,34.7861586322374,0 32.44070171603641,34.78635731021859,0 32.44070144546355,34.78640775021255,0 32.44073074992755,34.78657382999996,0 32.44075204449488,34.7866743316422,0 32.44076046970075,34.7867293891216,0 32.44078491067459,34.78680778376128,0 32.44080419053399,34.78691087499994,0 32.44082352714555,34.78700572638995,0 32.44084241672127,34.78716649655939,0 32.44078959008274,34.78770448655933,0 32.44081721882387,34.78779110888728,0 32.44091096501051,34.78806510717401,0 32.44097156334623,34.78838822519259,0 32.44077099873091,34.7885359908206,0 32.44043115115065,34.78881593197605,0 32.4402070009704,34.78902020072553,0 32.43969610989951,34.78952437602105,0 32.43955355846392,34.78971377840629,0 32.43916320030568,34.79023016016992,0 32.43900434073858,34.79025990951377,0 32.4385497475385,34.79063255269579,0 32.43848487570614,34.79058384139351,0 32.43827943876683,34.79075143644094,0 32.43815713595148,34.79083872937487,0 32.43796725147274,34.79095619156013,0 32.43762871931865,34.79118565080694,0 32.43754669904274,34.79124327701701,0 32.43733652644158,34.79135821325332,0 32.43682078140318,34.79162771421446,0 32.43650431405235,34.79188348545113,0 32.43635487978779,34.79194159559744,0 32.43618229382813,34.79206909330487,0 32.43574820465209,34.79236938708964,0 32.43626822312724,34.79331026518808,0 32.43599192989023,34.79355538209458,0 32.43594425151328,34.79360646318698,0 32.43583299234814,34.79377371603794,0 32.43559839343975,34.79424229834473,0 32.43552682637931,34.79438199663797,0 32.43545578953547,34.7945206624873,0 32.43539803709699,34.79465529916785,0 32.43535621099961,34.79478532400327,0 32.43531905285085,34.7949059125372,0 32.43530569781669,34.79496401438831,0 32.4352174024722,34.79521803159335,0 32.43516707005026,34.79535250606191,0 32.43510151032644,34.79554956372579,0 32.43503610925575,34.79575231199094,0 32.43485445547519,34.79642203578347,0 32.43484448059981,34.79645007301575,0 32.43483119893953,34.79648740679608,0 32.43481454478361,34.79653421710664,0 32.43480549915501,34.79655210479814,0 32.43478347669689,34.79650356890352,0 32.43457910535107,34.79610093126593,0 32.43448732974718,34.7958397228413,0 32.43437758779795,34.79568361210984,0 32.43432020064402,34.79549335908269,0 32.43428470973874,34.79542270218296,0 32.4342127093635,34.79528047225702,0 32.43424549706867,34.79526868506007,0 32.43415264453663,34.7951009338659,0 32.43414048008457,34.795079814193,0 32.4341238454054,34.79491887614641,0 32.4341012702282,34.794847238973,0 32.43410567375705,34.79474555503549,0 32.43407647778157,34.79466974764536,0 32.43397589391798,34.79456868697656,0 32.4338028798205,34.79438326037947,0 32.43378977186325,34.79436943075844,0 32.43373860726159,34.79431544868604,0 32.43350849210325,34.7940669145873,0 32.43304067596772,34.7935936087404,0 32.43257354776659,34.79329549527363,0 32.43210659784778,34.79306064323133,0 32.43177324472676,34.792864290025,0 32.43163073174039,34.79279235740735,0 32.43157788393957,34.79276903546584,0 32.43142583755885,34.7927220605149,0 32.43120196554746,34.79261339210066,0 32.43100061774191,34.7925264361707,0 32.43058412149968,34.79230306416913,0 32.4304456699076,34.7922457570554,0 32.43041202038805,34.79223995385009,0 32.4303549229778,34.79222007754105,0 32.43010348650007,34.79208826786074,0 32.43000029691242,34.79204372751917,0 32.42991208740627,34.79193742275596,0 32.42987142121631,34.79187803900442,0 32.42979137172492,34.79183929317986,0 32.42968716984566,34.79178885599786,0 32.42961055790941,34.79178442607792,0 32.4295264088565,34.79178533789261,0 32.4294919379896,34.79177428238147,0 32.42947329959797,34.79176874398951,0 32.42929492747916,34.79166483673185,0 32.42926427836349,34.79164609894782,0 32.42922784575067,34.79164351133557,0 32.42918864267602,34.79163781876933,0 32.4291346004545,34.79162121854058,0 32.42908250074348,34.7915976916951,0 32.42903695461194,34.79157344286526,0 32.42896969910971,34.79156831093999,0 32.42893707572094,34.79156461160363,0 32.4289332837241,34.79156418185261,0 32.42880442319972,34.79155010421957,0 32.42876148975802,34.7915436124584,0 32.42873352856825,34.79153569095359,0 32.42850460998479,34.7914375732425,0 32.428447178139,34.79138855621905,0 32.42834644505734,34.79128060317115,0 32.42824455986795,34.79119269362705,0 32.42815453603504,34.79113186409332,0 32.42799023823562,34.79102343360653,0 32.42769400150402,34.79092635105638,0 32.42754576884602,34.79088821974251,0 32.42732202099843,34.79083101179583,0 32.42725861387226,34.79081588199996,0 32.42722719807067,34.79078171369783,0 32.42720493831845,34.790765351416,0 32.4271779311602,34.79075589347795,0 32.42704440653173,34.79074100778141,0 32.42699483731154,34.79074294871435,0 32.42686757993921,34.79075355990334,0 32.42675255988556,34.79075655100185,0 32.4266036208772,34.79069096987526,0 32.42648896348221,34.79064048521425,0 32.42641148513751,34.79058872162987,0 32.42627605001061,34.79048387737618,0 32.42622321053229,34.79044984671339,0 32.42617189820297,34.79043923010325,0 32.42600539849168,34.79042191256231,0 32.42593637057129,34.79040970239048,0 32.42574553907657,34.79034540099462,0 32.42558839695473,34.7902813484381,0 32.42551438924676,34.79023692398793,0 32.42541319737508,34.79018310793698,0 32.42521438703304,34.79007737557311,0 32.42509156243443,34.79000138525856,0 32.42499253218519,34.78994823712228,0 32.42475230986032,34.78985012838319,0 32.42468249623558,34.78979507089467,0 32.42464035181222,34.78972250922688,0 32.42459503239799,34.7896258414626,0 32.42453031213666,34.7894971546376,0 32.42440997519051,34.78935034809372,0 32.42427825828221,34.78930262473547,0 32.42408736820891,34.78924808851043,0 32.42390045569989,34.78922262252819,0 32.42371630350402,34.78918017712185,0 32.42363693113769,34.78913567294765,0 32.42351100293332,34.7891000347792,0 32.42351938359219,34.78889042850102,0 32.42338919057791,34.78830792290177,0 32.42307398620331,34.78792025634814,0 32.42291675878122,34.7876130923585,0 32.42266843121872,34.78703603118215,0 32.42236388943328,34.78632832781702,0 32.42221754110344,34.78584964722619,0 32.4219774478828,34.78495305546955,0 32.42176571697184,34.78416749620617,0 32.42171962541209,34.78396335079537,0 32.42167858629345,34.78375340784028,0 32.42167640811991,34.78369651547392,0 32.42168731986141,34.78340252889368,0 32.42168867224608,34.78336608903428,0 32.42169577414246,34.78333289644777,0</coordinates>
						</LinearRing>
					</outerBoundaryIs>
				</Polygon>
			</MultiGeometry>
		</Placemark>
	</Document>
</kml>