<?xml version='1.0' encoding='UTF-8'?>
<kml xmlns="http://www.opengis.net/kml/2.2">
	<Document>
		<name>RIZOKARPASO AFENTRIKA</name>
		<Style id="PolyStyle60">
			<LabelStyle>
				<color>00000000</color>
				<scale>0.000000</scale>
			</LabelStyle>
			<LineStyle>
				<color>ffff7000</color>
				<width>2.000000</width>
			</LineStyle>
			<PolyStyle>
				<color>00828282</color>
				<outline>1</outline>
			</PolyStyle>
		</Style>
		<Placemark id="ID_60025">
			<name>RIZOKARPASO AFENTRIKA</name>
			<snippet />
			<description>&lt;html xmlns:fo="http://www.w3.org/1999/XSL/Format" xmlns:msxsl="urn:schemas-microsoft-com:xslt"&gt;

&lt;head&gt;

&lt;META http-equiv="Content-Type" content="text/html"&gt;

&lt;meta http-equiv="content-type" content="text/html; charset=UTF-8"&gt;

&lt;/head&gt;

&lt;body style="margin:0px 0px 0px 0px;overflow:auto;background:#FFFFFF;"&gt;

&lt;table style="font-family:Arial,Verdana,Times;font-size:12px;text-align:left;width:100%;border-collapse:collapse;padding:3px 3px 3px 3px"&gt;

&lt;tr style="text-align:center;font-weight:bold;background:#9CBCE2"&gt;

&lt;td&gt;3&lt;/td&gt;

&lt;/tr&gt;

&lt;tr&gt;

&lt;td&gt;

&lt;table style="font-family:Arial,Verdana,Times;font-size:12px;text-align:left;width:100%;border-spacing:0px; padding:3px 3px 3px 3px"&gt;

&lt;tr&gt;

&lt;td&gt;DIST_CODE&lt;/td&gt;

&lt;td&gt;3&lt;/td&gt;

&lt;/tr&gt;

&lt;tr bgcolor="#D4E4F3"&gt;

&lt;td&gt;VIL_CODE&lt;/td&gt;

&lt;td&gt;356&lt;/td&gt;

&lt;/tr&gt;

&lt;tr&gt;

&lt;td&gt;QRTR_CODE&lt;/td&gt;

&lt;td&gt;4&lt;/td&gt;

&lt;/tr&gt;

&lt;tr bgcolor="#D4E4F3"&gt;

&lt;td&gt;QRTR_NM_E&lt;/td&gt;

&lt;td&gt;AFENTRIKA&lt;/td&gt;

&lt;/tr&gt;

&lt;tr&gt;

&lt;td&gt;QRTR_NM_G&lt;/td&gt;

&lt;td&gt;ΑΦΕΝΤΡΙΚΑ&lt;/td&gt;

&lt;/tr&gt;

&lt;tr bgcolor="#D4E4F3"&gt;

&lt;td&gt;VIL_CCD&lt;/td&gt;

&lt;td&gt;3356&lt;/td&gt;

&lt;/tr&gt;

&lt;tr&gt;

&lt;td&gt;QRTR_CCD&lt;/td&gt;

&lt;td&gt;335604&lt;/td&gt;

&lt;/tr&gt;

&lt;/table&gt;

&lt;/td&gt;

&lt;/tr&gt;

&lt;/table&gt;

&lt;/body&gt;&lt;script type="text/javascript"&gt;

				function changeImage(attElement, nameElement) {

				document.getElementById('imageAttachment').src = attElement;

				document.getElementById('imageName').innerHTML = nameElement;}

			&lt;/script&gt;&lt;/html&gt;

</description>
			<styleUrl>#PolyStyle60</styleUrl>
			<MultiGeometry>
				<Polygon>
					<extrude>0</extrude>
					<altitudeMode>clampToGround</altitudeMode>
					<outerBoundaryIs>
						<LinearRing>
							<coordinates> 34.48649236327197,35.6448915184352,0 34.48653684997211,35.64500738522685,0 34.48661270164934,35.6450527299059,0 34.48667463438111,35.64508975314896,0 34.48675138066501,35.64506157758235,0 34.48675838190259,35.64505133604428,0 34.48682831889941,35.64494902881913,0 34.48695688848144,35.64488274357527,0 34.48707142693269,35.64471828165325,0 34.48712628475765,35.64471123429428,0 34.48732402678019,35.64490340722726,0 34.4873913742118,35.64499653440013,0 34.48744631159516,35.64504475044627,0 34.48759591713641,35.64517604885218,0 34.48797154403547,35.64520319546634,0 34.48805272989202,35.64517295446709,0 34.48808197950088,35.64513424374516,0 34.48811878966742,35.64503830860282,0 34.48818416016957,35.64486794092265,0 34.48840690793595,35.64482379163573,0 34.4884636789508,35.64484357767513,0 34.48862753084334,35.64503343297003,0 34.48874662697523,35.6451714274188,0 34.48914503186505,35.64509459016988,0 34.48930980785906,35.64502689127884,0 34.48947612856801,35.64495855751625,0 34.48984226424508,35.6449279141669,0 34.49058528507098,35.64486572322861,0 34.49099013845167,35.64489646137928,0 34.49124297179101,35.64500833432071,0 34.49197743724541,35.64533331392218,0 34.49230367462844,35.6455971710549,0 34.49243885200075,35.64574902079517,0 34.49257906060301,35.64601466523661,0 34.49267138153169,35.64613338213852,0 34.49282153613051,35.64623155310777,0 34.49302337902101,35.64628687201163,0 34.493102660822,35.64625629253688,0 34.49335268691463,35.64631216431952,0 34.494220228789,35.64688929989569,0 34.4944324824124,35.64697399446197,0 34.49470902840057,35.64702554180199,0 34.49512161529844,35.64706493438492,0 34.49544378460034,35.64716754153864,0 34.49594669113683,35.64735785463796,0 34.49649014751184,35.64748271890761,0 34.49682716641057,35.64757840286137,0 34.49717843529379,35.64773764740378,0 34.49771222104498,35.64810248643232,0 34.49792237153319,35.64815737914996,0 34.49832666047491,35.6481968404393,0 34.49873828842985,35.64828231061774,0 34.49926355528116,35.64863231793559,0 34.49978477998327,35.64893424838528,0 34.50003059403596,35.64904029316771,0 34.50020029519762,35.64916672617355,0 34.50214783055324,35.64930811668835,0 34.50323977962171,35.64959802989141,0 34.50412560370246,35.64983320687225,0 34.50540516693696,35.65003666995405,0 34.50642644445026,35.65021819213992,0 34.50692846303899,35.65210607075941,0 34.50702455499869,35.65246742478797,0 34.50717972973282,35.65277913485268,0 34.50734060301779,35.65300456532623,0 34.50753411002708,35.65321296111086,0 34.5077649039176,35.65349753833752,0 34.507844811692,35.65364633196632,0 34.50797474211407,35.65399963962631,0 34.50797085400797,35.65416948625464,0 34.50792625304439,35.65428605918279,0 34.50769602644107,35.65453553749305,0 34.50755224238633,35.65472522341597,0 34.50708958972568,35.65539928665676,0 34.50699544476292,35.65559112818558,0 34.50697359351346,35.65571451771242,0 34.50711625335971,35.65740241432633,0 34.50715475129131,35.65759384285622,0 34.50730535804909,35.65810092120781,0 34.50731699221565,35.65829877105487,0 34.50732260394613,35.6585969814366,0 34.50726979668054,35.65888344202809,0 34.50716333296769,35.6592584098267,0 34.50716027657105,35.65935325825887,0 34.50710018190929,35.661218395803,0 34.50759991387497,35.66196165496005,0 34.50786247289629,35.66229385639889,0 34.50852457802015,35.6625706586374,0 34.50861558920784,35.66254673071106,0 34.50871838177861,35.66242375069778,0 34.50891680670653,35.66236218131035,0 34.50896555716008,35.66239965351505,0 34.5092228937142,35.66249743491025,0 34.50924154799321,35.66263142817753,0 34.50982828125754,35.66297672399605,0 34.50990759136064,35.66305726797576,0 34.51022255541983,35.66312060140524,0 34.5101583610496,35.6632689565601,0 34.51010266720539,35.66332100259068,0 34.51000461985637,35.66331924928132,0 34.50982337383939,35.66352702573148,0 34.50982577935251,35.66379399693326,0 34.50978755236016,35.66379301542763,0 34.50961020192022,35.66338408925051,0 34.50960257714421,35.66321068496026,0 34.50932103205076,35.6630507969694,0 34.50913606183588,35.66290487357629,0 34.50848230244704,35.66317689204568,0 34.50852066141238,35.66329578449283,0 34.50887398284415,35.66347801479773,0 34.50911603287594,35.66366268427222,0 34.50931559561064,35.66389384941025,0 34.50961668549502,35.66446420342485,0 34.5095280266178,35.66464261452532,0 34.50952074325417,35.66481887514159,0 34.50961660527048,35.66511339570961,0 34.50945218157733,35.66522613619232,0 34.50933642662678,35.66537092770603,0 34.50919867439097,35.66581681203731,0 34.5092104570483,35.66593596433948,0 34.5091839095068,35.66604735811453,0 34.50904208916042,35.66622628744632,0 34.50904410172696,35.66646751183112,0 34.50898919755247,35.66656254502436,0 34.508968272628,35.66658513701264,0 34.50884683489877,35.66671625015844,0 34.50882283898363,35.66694078532031,0 34.5087280443741,35.66704403373448,0 34.50855865588783,35.66710396382828,0 34.50850517260196,35.66713769011866,0 34.50837818620577,35.66752755887073,0 34.50802979898656,35.66778033051068,0 34.50524839633197,35.66935125474725,0 34.50525276454397,35.66932191473648,0 34.50523886695844,35.66928206858709,0 34.50520300386866,35.66924548554374,0 34.50519119182624,35.66920612791336,0 34.50518425849725,35.66913250138369,0 34.50520836775527,35.66877785793198,0 34.50514883609836,35.66871439967625,0 34.50506311016471,35.66867660778745,0 34.50496741011242,35.66858368534471,0 34.50484083010203,35.66856356968876,0 34.50465637566816,35.66847964122255,0 34.50439086014475,35.66844630740102,0 34.50408113208756,35.66831870177003,0 34.50394589720045,35.66824818487223,0 34.50386632068253,35.66823235572632,0 34.50378547255034,35.66824228959449,0 34.50366554903738,35.6682227870944,0 34.5035219723326,35.66822401612598,0 34.50337138921758,35.66822530544322,0 34.50317097311608,35.66821166520391,0 34.50304993630826,35.66817353678825,0 34.50291991549906,35.66809077172335,0 34.50281792260408,35.66799350285547,0 34.50273767843517,35.66785129935626,0 34.50266410019754,35.66776527447161,0 34.50254839818354,35.66769524486475,0 34.50213925913616,35.66755826376689,0 34.50190731117416,35.6674371828525,0 34.5018180555297,35.66735808608739,0 34.50162853099602,35.66724065889913,0 34.50155630728654,35.66718918032711,0 34.50146144292421,35.66706880127307,0 34.50112909688576,35.6667907998815,0 34.50100019272227,35.66666262927334,0 34.50095286857743,35.66661557583694,0 34.50090732658516,35.66652207517208,0 34.50090642384515,35.66639126768035,0 34.50089309231075,35.66632818385216,0 34.50079150529624,35.66615818527637,0 34.50051029275664,35.66567517748123,0 34.50045553163618,35.66561249458524,0 34.50035335962676,35.66554610094956,0 34.5002969926168,35.66548387238283,0 34.50025500941597,35.66537650944808,0 34.50023269647539,35.66518203733592,0 34.50021430418128,35.66514007368854,0 34.50007561410143,35.66500730781842,0 34.49994215942758,35.66482927631478,0 34.49986883695565,35.66474899446423,0 34.49976411795454,35.66469206249175,0 34.49965802899985,35.66461560974528,0 34.49957952328859,35.66454832761491,0 34.49948080167842,35.66442527050633,0 34.49945526572754,35.66437349930646,0 34.49945553709372,35.66424882529431,0 34.49943385718302,35.66416738446222,0 34.49939047155843,35.66407386260281,0 34.49919319010012,35.66373139191103,0 34.49912527220051,35.6636524833393,0 34.49901564085081,35.66359076954436,0 34.49891749706296,35.66354145593765,0 34.49885551888821,35.66349947412859,0 34.49881898936079,35.66346800104291,0 34.49864542403748,35.66327038253149,0 34.49854581419842,35.6631951828235,0 34.49837557463779,35.66314656603011,0 34.4983577653339,35.66314322601376,0 34.49823780312308,35.66314570305536,0 34.49816232697387,35.66313633671638,0 34.49801937888338,35.6630775780347,0 34.49792740650022,35.66304488479506,0 34.49786652206375,35.66303976626608,0 34.49777679576381,35.66304897467065,0 34.49758324584712,35.66306028289685,0 34.49741885397214,35.66304255644659,0 34.4973315867492,35.66303637608148,0 34.49671975348404,35.6630008012926,0 34.49670119423142,35.66298331113311,0 34.4967072203462,35.66295471950953,0 34.49683142352273,35.66280514483181,0 34.49686445877098,35.66274775747321,0 34.49686831588341,35.6626823117846,0 34.49685136803243,35.66262892005251,0 34.49682670035881,35.66259886881105,0 34.49676405522001,35.66254833250635,0 34.4965846101096,35.66246007434153,0 34.49656276629031,35.66243877493216,0 34.49652979827919,35.66235788118227,0 34.49649445945828,35.66208385900305,0 34.49647893096972,35.6620175034001,0 34.4964379025294,35.66190156904772,0 34.49643949296993,35.66186424106645,0 34.49647918798238,35.66174884448004,0 34.49649751127302,35.66164353152156,0 34.49648411875179,35.66157605707392,0 34.49639206615456,35.66143076485417,0 34.49633633546583,35.66137467460388,0 34.49622987435714,35.66130875690615,0 34.49598963027375,35.66122064591884,0 34.49590333080759,35.66120721108325,0 34.49581233868386,35.66120369935042,0 34.49567384546572,35.66115455265568,0 34.49563820106156,35.66114589753062,0 34.49557488595495,35.66115792147472,0 34.49552949822436,35.66118118634991,0 34.49548048794797,35.66121414387234,0 34.49544838294432,35.66126186353516,0 34.49537287918507,35.66135785136353,0 34.49521012013558,35.66151986813133,0 34.49514231887583,35.66155564090356,0 34.49512512941504,35.66155756309837,0 34.49480615159352,35.66149391260308,0 34.49478246603206,35.66149326308064,0 34.49453814653474,35.66152766344759,0 34.49446060456084,35.6615240206856,0 34.4943087997037,35.66148421938382,0 34.49428505378356,35.66147961951919,0 34.49406452291644,35.66144991838,0 34.4938985808903,35.66136459780983,0 34.4938273895046,35.66135387057649,0 34.49375538084175,35.6613602705079,0 34.49366330252662,35.66139188616523,0 34.49361134168549,35.66140753175788,0 34.49346933541355,35.66141109399814,0 34.49342670540639,35.66140316384091,0 34.49341255260127,35.66139232545554,0 34.49341765594427,35.66137383920321,0 34.49346003746808,35.66132953262878,0 34.49349633733171,35.66127431097601,0 34.49355885470815,35.66120917859867,0 34.49361352230794,35.66112305027363,0 34.4936165743007,35.66103961435604,0 34.49359152828784,35.66094854661028,0 34.49351477713912,35.66081846972001,0 34.4934220608945,35.66070017882642,0 34.49335592802153,35.66063211536412,0 34.49332996530067,35.66062314660021,0 34.49315902995269,35.66059933099542,0 34.49304052470179,35.66055525601515,0 34.49299985055253,35.6605341380727,0 34.49293280411668,35.66044106032885,0 34.49288325845112,35.66040246753933,0 34.49267749956182,35.6603170900777,0 34.49256279722913,35.66027539358259,0 34.49242788383338,35.66024947480805,0 34.49226784560304,35.66023455227709,0 34.49219817844223,35.66021766238362,0 34.49202978788829,35.66014816718552,0 34.49196714331291,35.66013318545577,0 34.49193641749944,35.66012953048578,0 34.49182460366974,35.66013675143795,0 34.4915483296074,35.66004963575418,0 34.49146854361496,35.66000387008184,0 34.49142384638213,35.6599656690349,0 34.49135543154921,35.65988884660575,0 34.4912819383376,35.65983204569446,0 34.49119313686289,35.65972337383091,0 34.49114934854194,35.65960219680718,0 34.49110129776126,35.65950863579837,0 34.49105548600403,35.65941943693553,0 34.49101063559961,35.6593068644388,0 34.49099746139779,35.65919449447598,0 34.4909727155076,35.65913873713714,0 34.4908971914212,35.65905128952684,0 34.49085714962899,35.65892802920045,0 34.49082048912464,35.65888530786077,0 34.49079360693626,35.65887340469887,0 34.49072123674144,35.65887207290493,0 34.49069913608739,35.65886289892952,0 34.49067948343754,35.65882103943504,0 34.49067858542869,35.65880255188406,0 34.49070068692576,35.65876484110883,0 34.49069565103394,35.65871890191983,0 34.49066714477399,35.65870220085457,0 34.49055044910828,35.65868533165384,0 34.4903619590628,35.65864343523981,0 34.490046242616,35.65854617960979,0 34.4898015034482,35.6584510460271,0 34.48969665435806,35.65842432855418,0 34.48955272193398,35.65845750998493,0 34.48943432322822,35.65846027786458,0 34.48927967755415,35.6585420200627,0 34.48901987511059,35.65878389198493,0 34.48886905711538,35.65885790963812,0 34.48867512222363,35.65905628128879,0 34.48860984958423,35.6592362954553,0 34.48847080953121,35.65939971334029,0 34.48836652264004,35.65953488315809,0 34.48835609162506,35.65954840079461,0 34.48817739051827,35.65979339779916,0 34.48809916958866,35.6598629185565,0 34.48802762892453,35.65988902009603,0 34.48795725820014,35.65987063317358,0 34.48786412562615,35.65980088513651,0 34.487629643075,35.65963849130323,0 34.48755855210772,35.65954262516816,0 34.48749111291651,35.65945168326216,0 34.48737420972606,35.65938757100018,0 34.48706474123397,35.6592708052227,0 34.48662739240145,35.65919559359577,0 34.48630129528488,35.65891147506223,0 34.48621153111691,35.65886722773343,0 34.48618279443611,35.65885306270346,0 34.48536849510196,35.65865005461352,0 34.48468138330473,35.65864236662264,0 34.48381777477211,35.65870728662913,0 34.48345467562165,35.65868873706067,0 34.48304798991654,35.65876355829133,0 34.48284199963305,35.65882464031736,0 34.48237273069153,35.65919401006633,0 34.48180635131308,35.65948602452019,0 34.48165470293955,35.65959903524482,0 34.48163868146386,35.65961097545798,0 34.48157488435682,35.6596511191267,0 34.48146911869289,35.65968651236678,0 34.48119242270574,35.65968840075589,0 34.48102244049265,35.65965712905939,0 34.48092555735972,35.65960598258834,0 34.48089008474672,35.65958725508921,0 34.4806360385703,35.65942725283099,0 34.48028649040961,35.65917739703455,0 34.48025893179526,35.65902700833571,0 34.47995019732858,35.65874313379793,0 34.47985859410345,35.65869956579495,0 34.47969424342244,35.65867052832297,0 34.4795778130264,35.65868000984982,0 34.47912705334966,35.65890833649014,0 34.47903828479816,35.65898827490226,0 34.47898183124818,35.6592252796626,0 34.4789396148246,35.65927664396646,0 34.4787834380046,35.65932705305493,0 34.47872425673945,35.65931060331521,0 34.47867942150987,35.65925361205432,0 34.4784896908162,35.65862187256877,0 34.47845260163729,35.65856997268733,0 34.47838290289091,35.65853706292513,0 34.47779610117095,35.65852080390143,0 34.47750484229226,35.658457779073,0 34.47709901537325,35.65828264881096,0 34.47673039272016,35.6580938623,0 34.47671016984012,35.65809055586492,0 34.47659445820972,35.65807163864669,0 34.47641957597638,35.65799100496088,0 34.47612787932996,35.65778122622646,0 34.47594007221462,35.65768490930684,0 34.47574905910962,35.65750741855302,0 34.47562609000612,35.65736852254123,0 34.47513289869038,35.6571301315395,0 34.47497867819592,35.65709126347789,0 34.47473309370491,35.65706307096189,0 34.47463228517314,35.65702206211374,0 34.47436261275508,35.65681043568237,0 34.47415074088071,35.6567579419555,0 34.47381535948942,35.65671043307319,0 34.47309328738518,35.65653360348968,0 34.47300833137896,35.65652568818364,0 34.47286850136472,35.65655643918856,0 34.47272965280526,35.65651796778173,0 34.47261457615199,35.65650597662523,0 34.47255209707514,35.65648204243984,0 34.47251097603407,35.65641158308942,0 34.47250544342248,35.65630836034379,0 34.47246479666327,35.65617958174003,0 34.47239579968859,35.65612137484577,0 34.47224697778705,35.65608599439218,0 34.47205693110871,35.65601844082155,0 34.47185341623325,35.65603398853685,0 34.47139855489159,35.65612861775179,0 34.47107494315065,35.65610878385084,0 34.47075871042188,35.65595522125056,0 34.47037030364314,35.65598095921434,0 34.47002290411636,35.65593355220576,0 34.46980263206911,35.65580919246132,0 34.46938649483655,35.65549416117605,0 34.469351839952,35.65559040601679,0 34.46931764589474,35.65562724216587,0 34.46920194649625,35.65552751024511,0 34.4691297628414,35.65548307963959,0 34.46878352668446,35.65537476922566,0 34.46866598395619,35.65537669417225,0 34.46844570442273,35.65543326832239,0 34.46831305484637,35.65549800935253,0 34.46813702596052,35.65547486987023,0 34.46794381637977,35.65541892015666,0 34.46779228063711,35.65533505558322,0 34.46771734585214,35.65523630059188,0 34.46766621169549,35.6550296858838,0 34.46770066761091,35.65469255832258,0 34.46777515660536,35.65453394598077,0 34.46795373038351,35.65445787412092,0 34.46806172435955,35.65430643972263,0 34.46808573778121,35.65416778669112,0 34.46807093550123,35.6539789503097,0 34.46801946698528,35.65384046232143,0 34.46782394235787,35.65367226655197,0 34.46773087020308,35.6534300775925,0 34.4676913278785,35.65337581497194,0 34.46754113607232,35.65329220940445,0 34.4669854608373,35.65325329425639,0 34.46668503459608,35.65326497590948,0 34.46618760883693,35.6534625796428,0 34.46612661379899,35.65344843843919,0 34.46601862753673,35.65337315456312,0 34.4656751294743,35.65322651090167,0 34.46530976376304,35.65313729500048,0 34.46506740162393,35.65300877371644,0 34.46478370222219,35.65279453091365,0 34.46473548493582,35.65278626462223,0 34.46444088187366,35.65283044947938,0 34.46429514142796,35.65291356557915,0 34.46424617344886,35.65285407569393,0 34.46395544519127,35.65284372445758,0 34.46376024655267,35.6528793449828,0 34.46362679717488,35.65293509535919,0 34.46355269947731,35.65293851586232,0 34.46338952183112,35.65288009740368,0 34.46330365303397,35.65279513424854,0 34.46329086287,35.65278247951863,0 34.46320974242653,35.6527254843102,0 34.46307463544095,35.65266851055443,0 34.46275123621096,35.65257863449578,0 34.46262990240809,35.65252934177845,0 34.46257752496561,35.65250806264093,0 34.46246795031258,35.65248512775987,0 34.46216302364456,35.65246121880055,0 34.46201619591687,35.65249071463263,0 34.46193221511481,35.65252093251178,0 34.46189477852759,35.65253622767418,0 34.46184869191897,35.6525550570417,0 34.46179784489799,35.65258617845804,0 34.46167070924831,35.65278358466853,0 34.46151241437889,35.65288421573857,0 34.46108595140586,35.65289444715944,0 34.46070802023709,35.65276385604768,0 34.46064974808552,35.65275047841417,0 34.46030962544307,35.65264081822785,0 34.46014343107546,35.65258120803748,0 34.4600876586749,35.65256283400619,0 34.45997139811371,35.65257414737653,0 34.45983778129044,35.65255547424463,0 34.45970665200502,35.65253714842617,0 34.4596535497016,35.65254365288826,0 34.45937166448927,35.65246496880322,0 34.45912831733359,35.65240896441072,0 34.45892730441967,35.65240813128162,0 34.45886701601034,35.65237481122139,0 34.45879399394483,35.65237956040336,0 34.45847940600273,35.65233641680641,0 34.45807566049268,35.65233069888082,0 34.45776047749521,35.65236074639703,0 34.45762969828228,35.65239178289078,0 34.45708985139714,35.65250795298549,0 34.45697522818891,35.65250766636949,0 34.45679230612449,35.65255138690576,0 34.45668257374199,35.65258492642788,0 34.45656442310871,35.65262103887239,0 34.45653382970168,35.65263969953349,0 34.45641898494442,35.6527097475594,0 34.45630561591029,35.65283213856352,0 34.4563405716885,35.65295661543908,0 34.45630567493219,35.65318643730324,0 34.45642899134521,35.65351358613163,0 34.45640538330258,35.65358487377848,0 34.45639410246901,35.65380234154774,0 34.45651185918282,35.65398116714665,0 34.45650011834572,35.65402114290543,0 34.45655100940121,35.65407266923155,0 34.45656099256546,35.65411625752343,0 34.45640965494467,35.65422842915888,0 34.45642292401517,35.6543226001539,0 34.4563827826946,35.65436734809059,0 34.45628372257696,35.65442200573061,0 34.45616641869512,35.65444944578516,0 34.45608407013937,35.65448453359582,0 34.45600971133803,35.65460153452853,0 34.45592784533896,35.65458218984319,0 34.45571420247185,35.65447185882039,0 34.45544811387099,35.65434901502177,0 34.45540601257051,35.6543466336464,0 34.45510981735434,35.6544325927297,0 34.45515485547104,35.65449076039361,0 34.4551503884777,35.65462184422359,0 34.45515460799433,35.65470743230858,0 34.45529035104095,35.65474984960696,0 34.45534732769222,35.65478155950549,0 34.45545338579969,35.65488648014955,0 34.45552821875663,35.65509413335225,0 34.45551138187837,35.65519274466018,0 34.45538737978097,35.65519337204848,0 34.45538224554001,35.65522480073064,0 34.45549407374424,35.65555101680773,0 34.4554751529105,35.65565242099213,0 34.45536753072298,35.65584894582978,0 34.45518965446724,35.65600660487809,0 34.45520603593377,35.65613957444476,0 34.45519553308731,35.65617711258934,0 34.45512674551724,35.65618052594997,0 34.45506771579912,35.65621227607975,0 34.45504556906093,35.65626725595147,0 34.4551164583979,35.65634979786165,0 34.45514927414464,35.65638554535219,0 34.45499177489231,35.65642514556832,0 34.45482507270449,35.65641629727335,0 34.45461237598106,35.65634200868677,0 34.45455631679636,35.6562856764174,0 34.45446627690436,35.65623035301762,0 34.45380421994333,35.65593698685093,0 34.45306658572482,35.65564743914253,0 34.45253782698803,35.65540309405431,0 34.45216592172385,35.65519161119152,0 34.45207795656308,35.65516192094958,0 34.45192158430711,35.65516198612916,0 34.45168209374325,35.65511498126588,0 34.45158872406662,35.65512278147725,0 34.4513463462319,35.65522833785425,0 34.45115579843284,35.65527447963478,0 34.45080284975638,35.65531519415723,0 34.4507126610786,35.65536664461953,0 34.4505538359989,35.65560801398416,0 34.45043780166569,35.65567911974836,0 34.4504157168851,35.6557535097994,0 34.45031529568456,35.65586121585784,0 34.45005292934561,35.65598046859116,0 34.45002170645985,35.65599714346639,0 34.44983317572059,35.65609783418077,0 34.44969663919913,35.6561562803954,0 34.44961512377817,35.65620320054908,0 34.44928062218791,35.65629725267582,0 34.44909550102092,35.65632241090767,0 34.4490495243352,35.65634101329567,0 34.44884106447543,35.65636287589862,0 34.4487013804566,35.65635552801987,0 34.44858954882411,35.65632516617167,0 34.44848775546171,35.65628865328337,0 34.44840514434476,35.6562598458549,0 34.44821334392118,35.65624327108996,0 34.44814219005247,35.65624806077814,0 34.44802061172387,35.65624395239378,0 34.44792978838776,35.65621917999935,0 34.4478629730568,35.65617380496705,0 34.4478390758255,35.65610847956142,0 34.4478551971533,35.65600945875971,0 34.44788250075463,35.65593677372433,0 34.44791276175693,35.65588196340376,0 34.44796034125538,35.65583415290843,0 34.44812491291179,35.65573017895144,0 34.44822131934365,35.65569761494727,0 34.44853143083589,35.65558599396833,0 34.44865788103035,35.65555353051771,0 34.44871759347543,35.65552791541891,0 34.44872703107124,35.65551529720496,0 34.44872043587844,35.65550279258421,0 34.4487092695846,35.65550083065592,0 34.44858387330944,35.65553600411739,0 34.44854527190658,35.65553942456563,0 34.44818136202924,35.65564221432697,0 34.44810776298016,35.65565294821682,0 34.44804921003685,35.6556771746849,0 34.44791774272985,35.65571281701303,0 34.44774862426367,35.65581738339763,0 34.44767387747906,35.65586554748472,0 34.44762605913898,35.65592014164811,0 34.44761478320402,35.65594575608817,0 34.44725561702978,35.65615518440935,0 34.44716037555191,35.6561866359401,0 34.44709009130317,35.65619317196691,0 34.44697581988499,35.65616916551652,0 34.44687850773281,35.6560923319294,0 34.44683831889671,35.65604419671066,0 34.44680825239766,35.65596071589496,0 34.44680613165907,35.65593075090743,0 34.44682866901925,35.65585518353431,0 34.44686871055989,35.65583474358814,0 34.44684260894427,35.65582713625803,0 34.4468064549506,35.65583628294435,0 34.44674181140102,35.65585946352989,0 34.44664279068126,35.65590967605276,0 34.44662998093639,35.65591075822906,0 34.44657858366638,35.65590465790269,0 34.44654721485161,35.655917995455,0 34.44642909328754,35.65603634099359,0 34.44634010072066,35.6560680430589,0 34.44629287276911,35.65607013254169,0 34.44625297825049,35.65605397579422,0 34.44621679484051,35.6560495590377,0 34.44598852134161,35.65612527018647,0 34.44586787069335,35.65615030981783,0 34.44583212350174,35.65616427294845,0 34.44569994897994,35.65617444338483,0 34.44554871462177,35.65616193124453,0 34.44547777948652,35.65611177279808,0 34.44541837649356,35.65607706998309,0 34.44539884405231,35.65604513028207,0 34.4453881304326,35.65598109349319,0 34.44542034768563,35.6558626807039,0 34.44542075271538,35.65576211847766,0 34.44545443895587,35.65568717274736,0 34.44555407815511,35.65560955164709,0 34.4456507569743,35.65557244328367,0 34.4457205150184,35.65552938636729,0 34.44577607215511,35.65544380740903,0 34.4457183024487,35.65536436842647,0 34.44565519066466,35.65530656466998,0 34.44562328988935,35.65529467281921,0 34.44550229423259,35.65529578926343,0 34.44543307874725,35.65529450046044,0 34.44533183588615,35.65528427997128,0 34.44527015932584,35.65525579406074,0 34.44520300332113,35.65524519135011,0 34.44516763790464,35.65526224815429,0 34.44512145713926,35.65533689675365,0 34.44508644711411,35.65544875945297,0 34.44505655197558,35.6554823603804,0 34.4449967346894,35.65551251807195,0 34.44482656015693,35.65553253986446,0 34.44468847192932,35.65551866662977,0 34.44450382343579,35.65544779968418,0 34.44422086246971,35.65534754350303,0 34.44407190811275,35.65524715309795,0 34.44404454227149,35.65524547784327,0 34.44402071222188,35.65527833255634,0 34.44402120194324,35.65531234119432,0 34.44404138217777,35.65533074488393,0 34.44405436883017,35.65536518945195,0 34.44405724283892,35.65541239515663,0 34.44406826122859,35.65543914512884,0 34.4440600052087,35.65555723417086,0 34.4440404165127,35.655615112253,0 34.44400567093879,35.65566349190937,0 34.4439531652258,35.6556974376256,0 34.44383944865917,35.65572354745682,0 34.44373410703592,35.65572176439786,0 34.44362184741264,35.65568649308737,0 34.44355601536449,35.65561393062151,0 34.44347020702866,35.65548004675428,0 34.44344322144229,35.6554696229971,0 34.44342679860934,35.655477761577,0 34.44341766047488,35.65551123854625,0 34.4434792404624,35.65561518900076,0 34.44349073613113,35.65569853102995,0 34.44349053949088,35.6557317196613,0 34.44345624980959,35.65587042835062,0 34.44342724247466,35.65593045874721,0 34.44339569434374,35.65595484770817,0 34.44330607463163,35.65596655209124,0 34.44312144011649,35.6559553087437,0 34.4429038187501,35.65591531258308,0 34.44265863246698,35.65581284624727,0 34.44252040768037,35.65570739829415,0 34.44229666722407,35.6557230212216,0 34.44219294290291,35.65572796861286,0 34.44203188796062,35.65571327060381,0 34.44186617345306,35.6556796111557,0 34.44173254916176,35.65562410696794,0 34.44163506363454,35.65557005894558,0 34.44149829359271,35.65546005284141,0 34.44147296418232,35.65545163119005,0 34.44145275445247,35.65545041853066,0 34.44144837896964,35.65546299000718,0 34.44149423457027,35.65557686311755,0 34.44149138473497,35.65558990209806,0 34.44142059741499,35.65564377565432,0 34.44141767299832,35.65566335671079,0 34.44136275756099,35.65569415599609,0 34.44134103578902,35.65569766047325,0 34.44124805876758,35.6556872240469,0 34.44114287836143,35.65566140798219,0 34.44113436382814,35.65566782035852,0 34.44113764994644,35.65570861882335,0 34.44113101492731,35.65572837135915,0 34.44106057573441,35.65577115711565,0 34.44092666631549,35.65581328564975,0 34.44073417959155,35.65585457563662,0 34.44061968810932,35.65586196218309,0 34.44057589433671,35.65585630545315,0 34.4404851252765,35.65582340209685,0 34.44039133448295,35.65580319541062,0 34.44010371526517,35.65570737876936,0 34.44001247444147,35.65566490864411,0 34.43973757328603,35.65557324332771,0 34.43961540351453,35.65555136829922,0 34.43936968744573,35.65555279807275,0 34.43934023084422,35.65555830077022,0 34.43866487655022,35.65541102636389,0 34.43849080640108,35.6553595382487,0 34.43820130181773,35.65526139270888,0 34.43786519861578,35.65506783274858,0 34.43781141200132,35.65504794571564,0 34.43769885227996,35.65496635416793,0 34.43721783522678,35.65474162193503,0 34.43716856339433,35.65470695898833,0 34.43705504329392,35.65459370425236,0 34.43701265990389,35.65452138458637,0 34.43697880192842,35.65447886896417,0 34.43697190148922,35.65444478175134,0 34.4369953596062,35.65442115701627,0 34.43702514086183,35.6543793662505,0 34.43700640552282,35.65434394134803,0 34.43693012803993,35.6543091121144,0 34.43691949705016,35.65428566167434,0 34.43694203794105,35.6542686557772,0 34.43694193370058,35.65426135788903,0 34.43691072568661,35.65425062795151,0 34.4367639902821,35.65423379447159,0 34.43666729946902,35.65421397183385,0 34.43665455950893,35.65421136064048,0 34.43653923775471,35.65415705438532,0 34.43650375565873,35.65415004157134,0 34.43626884678446,35.6539760486924,0 34.43606772017649,35.65378778237844,0 34.43599265808455,35.65368891943863,0 34.43597743183613,35.65362803938227,0 34.43598236852924,35.65358046719422,0 34.43601249965612,35.65354044253192,0 34.43610591745856,35.65353478165934,0 34.43616964201569,35.65355363348346,0 34.43620951499742,35.65357771035665,0 34.4363905110831,35.65366465507514,0 34.43642653620388,35.6536670416974,0 34.43646637202259,35.65365937819638,0 34.43646892300745,35.65364866177516,0 34.43645210967173,35.65362225147194,0 34.43638014719174,35.65358013795753,0 34.43628484891658,35.65353560534507,0 34.43625464614917,35.65350397162276,0 34.43617506456918,35.6534528454476,0 34.43610337101159,35.6534233918637,0 34.43608109951136,35.65341424224152,0 34.43602629587451,35.6533935265627,0 34.43596312472457,35.65338417523033,0 34.43571622680923,35.65330046250514,0 34.43558396707519,35.6532463383348,0 34.43556692341134,35.65323770127885,0 34.43543706410374,35.6531718953054,0 34.4354051548083,35.65313730671617,0 34.43539682371596,35.65313670396345,0 34.43539051257926,35.65316086390851,0 34.43538064360106,35.65316910171628,0 34.43534990601243,35.65317277747084,0 34.43530084861372,35.65320479655595,0 34.43521449328755,35.65321814670962,0 34.43509077548028,35.65320841525277,0 34.43496214140216,35.65317496486499,0 34.43485125270197,35.6531311684494,0 34.43475486568936,35.65308316519204,0 34.43462246043144,35.65296046820016,0 34.43462133773708,35.65294011086721,0 34.43463563731287,35.65292164804686,0 34.43467203917029,35.65290671880726,0 34.43467416075789,35.65289507205022,0 34.43465343830243,35.65288626600142,0 34.43462992727877,35.6528861414639,0 34.43459461013289,35.65290411657333,0 34.43459201251324,35.65289692679297,0 34.43458281312746,35.65289395505689,0 34.43453158453404,35.65291954412236,0 34.43449374473019,35.65292124764162,0 34.43445437191281,35.65293213140916,0 34.43440067979126,35.65293092438227,0 34.43431620349198,35.65291565608759,0 34.43422122778061,35.65286441545591,0 34.43421973709444,35.65283285829462,0 34.43416712175839,35.65280516263192,0 34.43414736321631,35.65280351257012,0 34.43407713636097,35.65281192478587,0 34.43405804211794,35.65279369751396,0 34.4340395601208,35.65277605416037,0 34.43391127192244,35.65273940542419,0 34.43379957706942,35.6526917711337,0 34.43358656781247,35.65254920057377,0 34.43345104553654,35.65242111119742,0 34.43340455438701,35.65233778538523,0 34.43341788037384,35.65229838318287,0 34.43350265980838,35.65227041605591,0 34.43378030508219,35.65229015871611,0 34.43392890622753,35.65232771028501,0 34.43407889127612,35.65232747334556,0 34.43423985733961,35.6522857781956,0 34.43448314616391,35.65224876103416,0 34.43462925229355,35.65219384096373,0 34.43465101035599,35.65212905660535,0 34.4346096254633,35.65205982799755,0 34.43461165256745,35.65204370140414,0 34.43471783455738,35.65193457508562,0 34.43473943686526,35.65187047390293,0 34.4347518309488,35.65144205819524,0 34.4347693440758,35.65139424425789,0 34.43475961582686,35.65134508761253,0 34.4346937534239,35.65127573339783,0 34.43461462481756,35.65118578976539,0 34.43450308353154,35.65111731310487,0 34.43437165313992,35.65107801295657,0 34.43420568698589,35.65106940385,0 34.43395146278349,35.65096356989198,0 34.43359252280243,35.65087203746931,0 34.43341476474571,35.65086721767265,0 34.43337774984859,35.65088228270347,0 34.43308447177934,35.65116248281421,0 34.4330242626132,35.65129143854701,0 34.43294500485093,35.65135061263785,0 34.4326394971066,35.65144590748486,0 34.43252124933909,35.65146079322305,0 34.43247214076265,35.65145847995008,0 34.43236862087797,35.65139867223208,0 34.43225885940694,35.65129657949534,0 34.43202605623993,35.65111046468289,0 34.43189071162228,35.65093600436698,0 34.43127907424617,35.65078498036097,0 34.43096685528723,35.65068634081653,0 34.43063464603502,35.65049100418202,0 34.43043922910756,35.65039475258983,0 34.43037775858535,35.65039577208679,0 34.43022381419095,35.65043905497105,0 34.43020800128226,35.65047739858633,0 34.43025961859208,35.65052935664227,0 34.43031643538543,35.65056569751165,0 34.43036285380787,35.65061682234269,0 34.43036775882213,35.65064439159173,0 34.43035214335459,35.65065696011779,0 34.43017024851972,35.65063882557772,0 34.42996531597728,35.65058730212253,0 34.42990451309772,35.65059568018765,0 34.42986055639213,35.65067800230826,0 34.42978530531398,35.65074127968084,0 34.42974935150021,35.65075173197574,0 34.42967417425438,35.65074091024432,0 34.4294970168398,35.65064696019463,0 34.4293113268581,35.65057254099489,0 34.4292321821114,35.65052079389598,0 34.42922494837951,35.65048818275912,0 34.42926301051138,35.6504026440038,0 34.42925231263809,35.65036648254272,0 34.4292096128613,35.65032608025265,0 34.42895044701012,35.65022512040967,0 34.42861908195578,35.65020788203128,0 34.42840568436392,35.65015597235552,0 34.42829523273059,35.65008425859894,0 34.42831723680361,35.65004493874449,0 34.42833469177528,35.65000289792644,0 34.42842614441734,35.64992842872149,0 34.42858982153557,35.64985571982511,0 34.42870585216738,35.64978413299185,0 34.42869318345762,35.64972625874159,0 34.4286230012885,35.64966780690356,0 34.42847200461397,35.64960308397349,0 34.42836581361803,35.6495834636946,0 34.42834103899298,35.64955640852028,0 34.42835004593194,35.64951536554006,0 34.42838661556431,35.64946900995349,0 34.42876475144476,35.64928469944167,0 34.42880753223348,35.64923874678991,0 34.42887254996852,35.6490508381428,0 34.42896509992821,35.64885531621741,0 34.42907117067929,35.64869833122643,0 34.42903010718509,35.64858732607986,0 34.42902545184605,35.64853766259076,0 34.4289974583824,35.64847302345906,0 34.42896839334061,35.64845211621352,0 34.4288877279953,35.6484519297366,0 34.42857130229255,35.64849300528293,0 34.42853111490538,35.64848324484034,0 34.42851105374245,35.64846087520406,0 34.42853367601654,35.64822686828819,0 34.42856155676616,35.64817799130989,0 34.42849313676447,35.64795431564396,0 34.42840906900841,35.64783357599023,0 34.42837782628928,35.64781821182243,0 34.4281916545244,35.64781622109631,0 34.42798702392723,35.64778540288744,0 34.42793938080589,35.64776696608771,0 34.42794959932162,35.64773189480015,0 34.42805349543054,35.64766007487151,0 34.4280566318686,35.64764255721119,0 34.42789104116785,35.64742153492818,0 34.42786623556977,35.6473430597103,0 34.42782759861753,35.64728357901047,0 34.42776092476036,35.64714812085189,0 34.4274990852381,35.64698947753397,0 34.42733012210939,35.64692795817344,0 34.42718558709513,35.64683906316668,0 34.42701405764959,35.64675570605771,0 34.42683897111752,35.64666018443732,0 34.42641627739395,35.64648613527381,0 34.42637350444799,35.64641334577883,0 34.42636126755263,35.6463062213953,0 34.42618945292244,35.64624242429446,0 34.42593884469147,35.64619284967866,0 34.42564786863078,35.64611685670353,0 34.42528050858913,35.64610568763613,0 34.42498826667647,35.6461810525964,0 34.42471336628229,35.64628617525849,0 34.42460982039285,35.64634303208896,0 34.42428434261745,35.64646149836345,0 34.42422298317073,35.64643029759512,0 34.42416009662559,35.64637103577721,0 34.4240559634595,35.64630662352747,0 34.42398754523756,35.64629481610881,0 34.42374818831919,35.64632091540439,0 34.42359826441785,35.64652845840853,0 34.42359565429237,35.64666287157674,0 34.42362376233787,35.64679747225497,0 34.42361621434185,35.64684033891141,0 34.42359726967285,35.64689665974357,0 34.42339468642675,35.64701032984564,0 34.42328228444257,35.64703942023805,0 34.42323693402916,35.6470213014374,0 34.42318983219525,35.64700248232518,0 34.42315659750639,35.64697664356758,0 34.42308832475303,35.64688560308244,0 34.42305263517015,35.64680377393648,0 34.42295547370228,35.64670001035432,0 34.4228873421777,35.64661889885784,0 34.42272527216976,35.64647065607966,0 34.42267557330964,35.64644259006102,0 34.42260919234303,35.6463823394853,0 34.42234218304724,35.64625685567507,0 34.42226437034483,35.64622675127359,0 34.42213360821398,35.64615927488823,0 34.42209875182536,35.64615110309408,0 34.42207663723436,35.64616131756168,0 34.42185522146729,35.64633279863019,0 34.42177400360076,35.64640032237293,0 34.42172824963093,35.64643060984676,0 34.42165476096615,35.64645622464161,0 34.4216156566932,35.64645657813471,0 34.42155867761092,35.64642857596509,0 34.42148661170048,35.64637813699698,0 34.42142405220283,35.64632319762815,0 34.42133874691048,35.64620438892062,0 34.42124301588518,35.64598069229699,0 34.42114438800817,35.64587592159894,0 34.42103517140897,35.64581682092704,0 34.4209732646061,35.64580804423159,0 34.42083110219682,35.64571401965996,0 34.42079225576569,35.64566456720952,0 34.42076926194369,35.64563529488291,0 34.42077152587106,35.64560776226832,0 34.42080481539671,35.64557186598422,0 34.42099947321589,35.6454204019193,0 34.42103390523184,35.64541330209302,0 34.42106359404524,35.64539436273675,0 34.42110754937337,35.64529551943723,0 34.42110615053326,35.64519640563706,0 34.42105285248763,35.64513442440525,0 34.42078274788911,35.64498104317028,0 34.4207209496722,35.64493577196189,0 34.42068201303249,35.64485931120539,0 34.42069397850885,35.64482297075557,0 34.4207018654451,35.6447628126292,0 34.42072499875977,35.64472664864857,0 34.42077715728883,35.64469475117841,0 34.42092123654778,35.64465253680302,0 34.42097473501432,35.64464898822969,0 34.42098421780619,35.64463855531126,0 34.42097973252911,35.64462039052916,0 34.42092749279261,35.64456327696902,0 34.42089346010631,35.64451490871049,0 34.42084830101911,35.64446683033662,0 34.42082035018246,35.6444025825115,0 34.42081942226831,35.64436626709303,0 34.42086545756732,35.64432647304677,0 34.42091865779517,35.64429306446048,0 34.42100554816233,35.64425901227703,0 34.42107253560582,35.6442232581269,0 34.42112021746867,35.64417377062161,0 34.42125036511756,35.64394754242544,0 34.42127304747237,35.64387435162309,0 34.42131140246266,35.64382104740685,0 34.42134139960715,35.64377049688248,0 34.42136188788446,35.64371331819191,0 34.42134405107139,35.64365814558126,0 34.42120881781791,35.64345059033487,0 34.4211071924927,35.64332488389811,0 34.42048576412893,35.64259790847301,0 34.42036649116925,35.64245454329696,0 34.42031420091135,35.64238049568042,0 34.4202867294612,35.64236097972031,0 34.42009142893331,35.64216048978253,0 34.41999618931096,35.64207444372959,0 34.41987886545355,35.64200831768319,0 34.41980696600646,35.6419643150337,0 34.41959329995596,35.64185622888104,0 34.41946791645471,35.64180323841099,0 34.41937802862943,35.64178450297021,0 34.41929273721606,35.64178425275499,0 34.4191379642734,35.64183773413136,0 34.41905430609723,35.6418403773181,0 34.4189360511078,35.64183329541171,0 34.41880166417509,35.6418328085763,0 34.41863103704301,35.64185878630376,0 34.41850710259006,35.64186193960095,0 34.41836163591098,35.64184288018986,0 34.41834930505033,35.64182398035419,0 34.41834533139946,35.64177818724119,0 34.41831841818792,35.64172818782072,0 34.41829663300136,35.64171752042324,0 34.41821867533587,35.64171579786584,0 34.41809923609147,35.64173321584845,0 34.41799113776179,35.64173826220341,0 34.41780456422132,35.64175453808327,0 34.4176276281019,35.64174594578978,0 34.4175638239991,35.64173531684685,0 34.41738696776478,35.64173249391694,0 34.4171986600147,35.64171415900896,0 34.41702966658287,35.64167867570806,0 34.41694637477212,35.64164310041471,0 34.41687999968438,35.641597529523,0 34.4168563084418,35.64156956600136,0 34.41682136979156,35.64142220924288,0 34.41678326927825,35.64134583101479,0 34.41677021126321,35.64127533799224,0 34.41673104562415,35.64118233442629,0 34.41671543482388,35.64116685897112,0 34.4166080299365,35.64116205434443,0 34.41652861009943,35.64119467803793,0 34.41647177852951,35.64114732285138,0 34.41643296427485,35.64113850557827,0 34.41638687569164,35.64114503099182,0 34.41628908818524,35.64121190960282,0 34.41611008146121,35.64124187927467,0 34.41602363808089,35.64123112457657,0 34.41588294600872,35.64125618404799,0 34.41581811051727,35.64129000209341,0 34.41579331548505,35.64129550728246,0 34.41568626562091,35.64135195155639,0 34.41561973078586,35.64140592054185,0 34.41559163591631,35.64147915955874,0 34.41553921356396,35.64156789389887,0 34.41549604519034,35.64160460423529,0 34.41544445620898,35.64175273868945,0 34.41543412363774,35.64184652633351,0 34.41534349641279,35.6418810320928,0 34.41529506525472,35.64192822888886,0 34.41528383156874,35.64198739864383,0 34.41529631442462,35.64204669343643,0 34.41533630276359,35.6421094772308,0 34.41532929843543,35.64211429197654,0 34.41528822564905,35.64209293484949,0 34.41526386845289,35.64219533464633,0 34.41525045012168,35.64245447265695,0 34.41518954180142,35.64270928490124,0 34.41516953393707,35.6427362833332,0 34.41489569623061,35.64276012769096,0 34.41479041030301,35.64278789002768,0 34.41476899822206,35.64280369793319,0 34.41460825700816,35.6428227927265,0 34.41432644465841,35.64290110777629,0 34.41430147192772,35.6428706939018,0 34.41429773027529,35.64284119419164,0 34.41436193541368,35.64276185985955,0 34.41436586251587,35.64274519120872,0 34.41432628645673,35.6426525296448,0 34.41430396443639,35.6426331257687,0 34.41411975406064,35.64258080162884,0 34.4140268489137,35.6425717048731,0 34.41381914158496,35.64250507764898,0 34.41379833356314,35.64247496625607,0 34.41390752967997,35.64237010888733,0 34.41398088550309,35.64232022809682,0 34.41398588740798,35.64229124306384,0 34.41397518504343,35.64226978214389,0 34.41394411640767,35.64224960758843,0 34.41388912927206,35.64224466817187,0 34.41383650184822,35.64220033021311,0 34.41377395796489,35.64210142480492,0 34.41376301066242,35.64206248442172,0 34.41368172169785,35.64190264154205,0 34.41369154923385,35.6418914354781,0 34.41384046076998,35.64185954796387,0 34.41392496805091,35.64183358506704,0 34.41418240095531,35.64176745638417,0 34.41435918968876,35.64170612350237,0 34.4144461723814,35.64164899141176,0 34.41446814996533,35.64161416789765,0 34.41448460306702,35.64151183854852,0 34.41442921332719,35.64144851434818,0 34.41433191481534,35.64139303464985,0 34.41427007247001,35.64137390021303,0 34.41422388926728,35.64137363414264,0 34.41417493283226,35.64135370574812,0 34.41410160239235,35.6414052842977,0 34.41401594167217,35.64140842875739,0 34.41402261343477,35.64137985220363,0 34.41414053843718,35.64130411134763,0 34.41419348724896,35.64122318159087,0 34.41421848371235,35.64116626473738,0 34.41421749658087,35.6411255374234,0 34.41418802132828,35.6411003414096,0 34.4141210444555,35.64107106781417,0 34.41410086900622,35.64102677788421,0 34.41412308493737,35.64100892655154,0 34.41412494580294,35.64099329336182,0 34.41396965142035,35.64089623864539,0 34.41404629129826,35.64084327305808,0 34.41405710780399,35.64081364114561,0 34.41403782331037,35.64077341706518,0 34.413943003146,35.64083528769051,0 34.41387015709807,35.6408620798214,0 34.41381770848886,35.64086017388443,0 34.41379888085726,35.6407635932494,0 34.41374682826724,35.64067104366855,0 34.41366930639374,35.64060180628879,0 34.41351235386412,35.64050493535329,0 34.41342863888224,35.64046868391828,0 34.41335109045977,35.64039741072838,0 34.41333147290797,35.64037674021264,0 34.41713107921131,35.63834464807108,0 34.41767619242128,35.63805776831729,0 34.42123666864104,35.63612871631387,0 34.42296476016714,35.63520858768177,0 34.42306926920225,35.63516282244913,0 34.42319339359821,35.63510846811027,0 34.43050224490541,35.63116591407557,0 34.43066922377673,35.63107591269031,0 34.43512754491916,35.62867271480962,0 34.43629294478022,35.62804447168976,0 34.43834663626349,35.62693731768267,0 34.43846816382077,35.62700104244125,0 34.43908662119374,35.62731990819655,0 34.43959566495775,35.62766557279839,0 34.43971884901035,35.62778665313918,0 34.43989636453585,35.62810005418542,0 34.44007325892795,35.6283700080844,0 34.44011561565623,35.62853935421425,0 34.44023242019053,35.62867950303603,0 34.44034672528333,35.62876128476017,0 34.44054962224224,35.62887212543868,0 34.44076077016433,35.62909423801913,0 34.44094043905259,35.62920936639176,0 34.44132232475354,35.62938781408582,0 34.44193951896251,35.62973247517536,0 34.44218992042854,35.62979127710126,0 34.44282446701918,35.62995381742235,0 34.44331787754618,35.63001988612179,0 34.44354890777329,35.630004180092,0 34.44410629281766,35.63012261326234,0 34.44440900780172,35.63023252895567,0 34.44443470356103,35.63028389165706,0 34.44453827125182,35.63031281050588,0 34.44468925699773,35.6303996816965,0 34.44511086545388,35.63044739426319,0 34.44557686168854,35.63045803269801,0 34.44575297770184,35.63055689114048,0 34.44589509968696,35.63060582220936,0 34.44603019551809,35.63062901691305,0 34.44643602131941,35.63065352169088,0 34.446576374981,35.63066199575744,0 34.44685398452491,35.63064585280432,0 34.44710362750453,35.63065169483144,0 34.44792475797272,35.63083013605161,0 34.44816086813094,35.63091543781764,0 34.44844551301657,35.63101827308384,0 34.44863353168039,35.63103356348831,0 34.44904164123324,35.63111777790849,0 34.44940409167084,35.63105055883617,0 34.4496613282809,35.63109715017372,0 34.4496937547811,35.63110302350158,0 34.45068494152566,35.63139269187596,0 34.45115376486877,35.63148068210519,0 34.45150025892319,35.63150870095875,0 34.45168558864314,35.6312082470103,0 34.45199607858284,35.63139275531084,0 34.45218482914539,35.63155802288542,0 34.45247253363463,35.63166262493726,0 34.45249983145912,35.63159447743539,0 34.45267489967117,35.63150458977709,0 34.45290221963882,35.63157580536132,0 34.45354224216612,35.63199487680976,0 34.45381592165841,35.63216478466236,0 34.45375720445291,35.63236086593555,0 34.45446041083162,35.6325471482613,0 34.45466980981197,35.63264432617112,0 34.45495249082715,35.63274625301421,0 34.45506341991589,35.63282262047352,0 34.45525641920536,35.6329362448141,0 34.45532044940575,35.63299132183398,0 34.45563398687757,35.63315542290172,0 34.45596042024543,35.63329088717995,0 34.45653680486664,35.63345118082082,0 34.45703250255718,35.63355519210694,0 34.45704872468306,35.63352652571567,0 34.45819449327206,35.63370865862584,0 34.46036968353341,35.63408077053295,0 34.46098319847653,35.63427600032008,0 34.46158627887105,35.63444009231667,0 34.46193597619072,35.63445854480374,0 34.46196142704951,35.63449225400431,0 34.46286574653511,35.63454692490993,0 34.4630374010418,35.6346076534203,0 34.46323712512928,35.63467831206837,0 34.46346654425521,35.63471937789642,0 34.46368065462803,35.6347385715335,0 34.46388537146058,35.63479862303164,0 34.46408878328397,35.63490597979752,0 34.46421319310494,35.63494069080468,0 34.46444172961915,35.63512609151876,0 34.46451741810723,35.63524524668558,0 34.46464138984758,35.63531828590136,0 34.46474316377643,35.63530836114353,0 34.46501377540409,35.63536453063486,0 34.46540838317049,35.63535919365997,0 34.46556343662281,35.63543927901956,0 34.46581999826131,35.63562767419783,0 34.46613607991134,35.63578615587227,0 34.46638283336324,35.63585070039392,0 34.46679143914962,35.63591372302212,0 34.46698814322379,35.63597221388826,0 34.46710918276246,35.63604935621892,0 34.46734944298256,35.63635205859485,0 34.46784896610514,35.63661807392861,0 34.46818513156694,35.63678288435405,0 34.46847344502308,35.63681931027425,0 34.4686920849139,35.63687432874305,0 34.46890711522889,35.6369554762396,0 34.46923132397413,35.63698666793928,0 34.46936382684977,35.63702782050028,0 34.46934540058106,35.63767706023578,0 34.46995176075085,35.63786867279686,0 34.47008410804518,35.63796023711195,0 34.47010400379533,35.63797400307207,0 34.4701858912939,35.63800449807153,0 34.47080005229618,35.63812634457857,0 34.47094341468375,35.63825670592223,0 34.47106278481548,35.63833976855554,0 34.47129774008601,35.63847469563001,0 34.47165884526635,35.63858806430328,0 34.47206292792472,35.6386820148465,0 34.47242888753163,35.63867312592099,0 34.47265272113741,35.63873075656892,0 34.47286578856935,35.63884823618046,0 34.47322022199465,35.63907300870896,0 34.47359067278082,35.639255534303,0 34.47390217030974,35.63938973318797,0 34.47398770536277,35.63932238690048,0 34.4742081547167,35.63948867840114,0 34.47433328698523,35.63962345129287,0 34.47497565559237,35.64007633153645,0 34.47531035434193,35.64031622064027,0 34.47585407753125,35.6405120346535,0 34.47645308922315,35.64073220016428,0 34.47723416885685,35.64101927852808,0 34.47792249195602,35.64151420733274,0 34.47859422290656,35.64212178017098,0 34.479905114106,35.64203613052972,0 34.48015913557583,35.64169353238871,0 34.4802639921622,35.64181993321293,0 34.48030047777271,35.64192800962653,0 34.48045649434806,35.64203223917999,0 34.48033014912195,35.6421364447765,0 34.48028744199357,35.64228051300921,0 34.48051477131693,35.64237728685578,0 34.48080845101732,35.64246800823656,0 34.48127519788626,35.6424689849093,0 34.48162593220649,35.64226370305739,0 34.48183946100605,35.64221423321302,0 34.48176179988897,35.64291159975966,0 34.48214029050445,35.64345553514462,0 34.48280181557944,35.64348582104157,0 34.48327847321723,35.64348263031261,0 34.48374613467482,35.64354457708698,0 34.48442714480696,35.64354485160364,0 34.48498320031996,35.64396510429409,0 34.48523812293823,35.64412937098555,0 34.48548163951155,35.6444197892295,0 34.48602938539436,35.64472762578279,0 34.48649018815909,35.64488585489604,0 34.48649236327197,35.6448915184352,0</coordinates>
						</LinearRing>
					</outerBoundaryIs>
				</Polygon>
				<Polygon>
					<extrude>0</extrude>
					<altitudeMode>clampToGround</altitudeMode>
					<outerBoundaryIs>
						<LinearRing>
							<coordinates> 34.44397167054804,35.65577534489363,0 34.44408499709359,35.65581588703406,0 34.44428202085338,35.65594902047683,0 34.44433141665322,35.65600378468091,0 34.44445482115372,35.65611115760802,0 34.44447495417648,35.65617321412329,0 34.44443026437673,35.65625762570377,0 34.44436675763277,35.65627776593212,0 34.44427524672522,35.6562793863468,0 34.4440343532462,35.65621335435664,0 34.44388626352942,35.65614972297188,0 34.44376072570083,35.65605820527205,0 34.44364180601392,35.65593399049708,0 34.44363934954313,35.65588058376906,0 34.44362070025203,35.65585128732606,0 34.44363088304651,35.65580836726834,0 34.4436827539971,35.65577718078013,0 34.44397167054804,35.65577534489363,0</coordinates>
						</LinearRing>
					</outerBoundaryIs>
				</Polygon>
				<Polygon>
					<extrude>0</extrude>
					<altitudeMode>clampToGround</altitudeMode>
					<outerBoundaryIs>
						<LinearRing>
							<coordinates> 34.43405383598098,35.65209655428119,0 34.43396604989196,35.6520640961523,0 34.43396797802924,35.65204106725314,0 34.43402856213754,35.65197792141755,0 34.43418844899278,35.65191616949465,0 34.43428962898147,35.65185173249679,0 34.43426962156465,35.65193897375378,0 34.43419452848251,35.65202917378527,0 34.4341060374783,35.65208890201475,0 34.43405383598098,35.65209655428119,0</coordinates>
						</LinearRing>
					</outerBoundaryIs>
				</Polygon>
				<Polygon>
					<extrude>0</extrude>
					<altitudeMode>clampToGround</altitudeMode>
					<outerBoundaryIs>
						<LinearRing>
							<coordinates> 34.43306064015789,35.65152945288899,0 34.4330481268005,35.65146347065274,0 34.43308791468559,35.65142949355226,0 34.43317399507477,35.65133050792027,0 34.43320895282531,35.65130770235485,0 34.43323799423001,35.65136634823109,0 34.4332483896578,35.65142286289957,0 34.4332195396828,35.65141714364682,0 34.43319760176286,35.65142148557019,0 34.43314301399244,35.65152756858338,0 34.4330974277774,35.65154460201073,0 34.43306064015789,35.65152945288899,0</coordinates>
						</LinearRing>
					</outerBoundaryIs>
				</Polygon>
				<Polygon>
					<extrude>0</extrude>
					<altitudeMode>clampToGround</altitudeMode>
					<outerBoundaryIs>
						<LinearRing>
							<coordinates> 34.42147278752117,35.6487578753972,0 34.42135952925116,35.64872223525266,0 34.42121160663945,35.64864786770986,0 34.42114757744381,35.64862162759056,0 34.42109074001716,35.64857427479879,0 34.42106681171794,35.64852976547578,0 34.42107759833387,35.64848333059132,0 34.42128162127975,35.64846443001191,0 34.42141349253722,35.64847766737453,0 34.42147180334764,35.64849674599735,0 34.42155272374541,35.64857001970781,0 34.42157260813488,35.64863747991853,0 34.42156869425497,35.64871389641977,0 34.42155170676445,35.64874842073831,0 34.42147278752117,35.6487578753972,0</coordinates>
						</LinearRing>
					</outerBoundaryIs>
				</Polygon>
				<Polygon>
					<extrude>0</extrude>
					<altitudeMode>clampToGround</altitudeMode>
					<outerBoundaryIs>
						<LinearRing>
							<coordinates> 34.42066513322345,35.64847330349262,0 34.42062251341842,35.64847521583972,0 34.42052847440387,35.64845993883298,0 34.42045082325325,35.64844128886431,0 34.42036080658244,35.64840149196383,0 34.42029799346381,35.6483580963279,0 34.42026561649659,35.64834145734632,0 34.42026616549342,35.64833610650839,0 34.4202995969128,35.64832430428692,0 34.4204204183839,35.64832100911195,0 34.42051752418979,35.64833252339445,0 34.42065282202995,35.64836905882426,0 34.42067784343704,35.64840105061077,0 34.42068714997604,35.6484520312979,0 34.42066513322345,35.64847330349262,0</coordinates>
						</LinearRing>
					</outerBoundaryIs>
				</Polygon>
				<Polygon>
					<extrude>0</extrude>
					<altitudeMode>clampToGround</altitudeMode>
					<outerBoundaryIs>
						<LinearRing>
							<coordinates> 34.42115815350032,35.64777930156387,0 34.42139330815725,35.64816791189691,0 34.42143513272629,35.64827175223302,0 34.42142704919174,35.64831799301796,0 34.4213936857336,35.64834197232364,0 34.42116328358583,35.64823109290217,0 34.42086673462532,35.64812072496211,0 34.42079821719398,35.64810063540728,0 34.42067471216347,35.64807595022542,0 34.42054825362875,35.64807776922427,0 34.42035558014356,35.64813416242646,0 34.4201961029969,35.64815495050517,0 34.42014066811922,35.64814798247343,0 34.42010223340982,35.64812944567312,0 34.42006880711615,35.64809736992598,0 34.42003234026955,35.64807092313032,0 34.420012338951,35.64804661817885,0 34.42000096517884,35.64791873992544,0 34.42000894110217,35.64762875876024,0 34.42002892300832,35.64754099543084,0 34.42005326554008,35.64749698372967,0 34.42015586561016,35.647396593027,0 34.42019798288777,35.64737380861065,0 34.42028504790792,35.64735197570156,0 34.42035116380138,35.64734934293828,0 34.42037625302173,35.64732874834333,0 34.42038483556309,35.64728827418382,0 34.4203674043107,35.64720288434869,0 34.42034500556753,35.64717830400701,0 34.42028152367907,35.64713169068694,0 34.42019712212824,35.64708428942553,0 34.42015047440364,35.6470439303897,0 34.42012790097169,35.64700679235958,0 34.42012628852281,35.64698100701865,0 34.4201732332077,35.6468875678034,0 34.42023776187867,35.64686084740816,0 34.420384314235,35.646779409468,0 34.42045005174987,35.64675730257868,0 34.42057183177714,35.64674105503936,0 34.4206702610425,35.64669909104467,0 34.42068765639408,35.64666396901121,0 34.42071375298376,35.64662639117783,0 34.42079968742926,35.64655398724327,0 34.42092659325228,35.64654719868918,0 34.42096465422897,35.64656879305439,0 34.42098757002736,35.64660049780662,0 34.42103830275517,35.64677554666235,0 34.42108713692068,35.6469043598598,0 34.42127007062629,35.64713074861888,0 34.42134741758895,35.64726049231734,0 34.42138688701053,35.64734491980575,0 34.42140725712624,35.64747628137165,0 34.42139672152675,35.64758466827936,0 34.42135056021394,35.64764517094098,0 34.42124331211533,35.64768144459445,0 34.42119055317843,35.6477166316794,0 34.42116565107375,35.64775046437406,0 34.42115815350032,35.64777930156387,0</coordinates>
						</LinearRing>
					</outerBoundaryIs>
				</Polygon>
			</MultiGeometry>
		</Placemark>
	</Document>
</kml>