<?xml version='1.0' encoding='UTF-8'?>
<kml xmlns="http://www.opengis.net/kml/2.2">
	<Document>
		<name>RIZOKARPASO AGIA TRIADA</name>
		<Style id="PolyStyle60">
			<LabelStyle>
				<color>00000000</color>
				<scale>0.000000</scale>
			</LabelStyle>
			<LineStyle>
				<color>ffff7000</color>
				<width>2.000000</width>
			</LineStyle>
			<PolyStyle>
				<color>00828282</color>
				<outline>1</outline>
			</PolyStyle>
		</Style>
		<Placemark id="ID_60028">
			<name>RIZOKARPASO AGIA TRIADA</name>
			<snippet />
			<description>&lt;html xmlns:fo="http://www.w3.org/1999/XSL/Format" xmlns:msxsl="urn:schemas-microsoft-com:xslt"&gt;

&lt;head&gt;

&lt;META http-equiv="Content-Type" content="text/html"&gt;

&lt;meta http-equiv="content-type" content="text/html; charset=UTF-8"&gt;

&lt;/head&gt;

&lt;body style="margin:0px 0px 0px 0px;overflow:auto;background:#FFFFFF;"&gt;

&lt;table style="font-family:Arial,Verdana,Times;font-size:12px;text-align:left;width:100%;border-collapse:collapse;padding:3px 3px 3px 3px"&gt;

&lt;tr style="text-align:center;font-weight:bold;background:#9CBCE2"&gt;

&lt;td&gt;3&lt;/td&gt;

&lt;/tr&gt;

&lt;tr&gt;

&lt;td&gt;

&lt;table style="font-family:Arial,Verdana,Times;font-size:12px;text-align:left;width:100%;border-spacing:0px; padding:3px 3px 3px 3px"&gt;

&lt;tr&gt;

&lt;td&gt;DIST_CODE&lt;/td&gt;

&lt;td&gt;3&lt;/td&gt;

&lt;/tr&gt;

&lt;tr bgcolor="#D4E4F3"&gt;

&lt;td&gt;VIL_CODE&lt;/td&gt;

&lt;td&gt;356&lt;/td&gt;

&lt;/tr&gt;

&lt;tr&gt;

&lt;td&gt;QRTR_CODE&lt;/td&gt;

&lt;td&gt;3&lt;/td&gt;

&lt;/tr&gt;

&lt;tr bgcolor="#D4E4F3"&gt;

&lt;td&gt;QRTR_NM_E&lt;/td&gt;

&lt;td&gt;AGIA TRIADA&lt;/td&gt;

&lt;/tr&gt;

&lt;tr&gt;

&lt;td&gt;QRTR_NM_G&lt;/td&gt;

&lt;td&gt;ΑΓΙΑ ΤΡΙΑΔΑ&lt;/td&gt;

&lt;/tr&gt;

&lt;tr bgcolor="#D4E4F3"&gt;

&lt;td&gt;VIL_CCD&lt;/td&gt;

&lt;td&gt;3356&lt;/td&gt;

&lt;/tr&gt;

&lt;tr&gt;

&lt;td&gt;QRTR_CCD&lt;/td&gt;

&lt;td&gt;335603&lt;/td&gt;

&lt;/tr&gt;

&lt;/table&gt;

&lt;/td&gt;

&lt;/tr&gt;

&lt;/table&gt;

&lt;/body&gt;&lt;script type="text/javascript"&gt;

				function changeImage(attElement, nameElement) {

				document.getElementById('imageAttachment').src = attElement;

				document.getElementById('imageName').innerHTML = nameElement;}

			&lt;/script&gt;&lt;/html&gt;

</description>
			<styleUrl>#PolyStyle60</styleUrl>
			<MultiGeometry>
				<Polygon>
					<extrude>0</extrude>
					<altitudeMode>clampToGround</altitudeMode>
					<outerBoundaryIs>
						<LinearRing>
							<coordinates> 34.42319339359821,35.63510846811027,0 34.42306926920225,35.63516282244913,0 34.42296476016714,35.63520858768177,0 34.42123666864104,35.63612871631387,0 34.41767619242128,35.63805776831729,0 34.41713107921131,35.63834464807108,0 34.41333147290797,35.64037674021264,0 34.41327761492887,35.64031998917204,0 34.41322472183872,35.6402861769531,0 34.41314686578107,35.64016330562738,0 34.41311363714046,35.64013746392987,0 34.41315279862616,35.6400820330534,0 34.41314540023944,35.63985091840933,0 34.41315921571905,35.63964931750693,0 34.41312137157144,35.63947219671606,0 34.41312131637504,35.63943858998287,0 34.41312807532199,35.63941620849626,0 34.41318782866153,35.63931612269023,0 34.41318979345374,35.63927816898696,0 34.41317667705963,35.63924773378143,0 34.41308575735668,35.63918701854612,0 34.4130179632394,35.6391288969681,0 34.41296409136299,35.63905486547756,0 34.41293561228554,35.63898196362267,0 34.41290922831018,35.63873200854395,0 34.41291530829979,35.63869087744255,0 34.41290845859108,35.63861761276924,0 34.41288455144516,35.63857411982357,0 34.41280215445695,35.63848679968732,0 34.4127599204545,35.63844204186201,0 34.41249981619882,35.63828685503385,0 34.41214973515583,35.63800415209952,0 34.41178502613585,35.63774636053825,0 34.4116595119327,35.63763613609656,0 34.41158859345791,35.63710176071883,0 34.41139316423173,35.63687062973512,0 34.41118903723926,35.63679098145094,0 34.4111069318337,35.63675030057741,0 34.41101844476739,35.63672936497472,0 34.41078536968924,35.63663968001811,0 34.41072795573156,35.63636397240183,0 34.41071894808846,35.63623545139071,0 34.41064498253859,35.63620176673794,0 34.41051999381158,35.63612887795152,0 34.4101928697553,35.63599940647941,0 34.40982563338854,35.63588709471131,0 34.40975357368919,35.63585288880321,0 34.40970945262404,35.63583194480396,0 34.40940564459165,35.63561122299114,0 34.40934879712343,35.63557620073375,0 34.40916684510875,35.63550947737022,0 34.40905556723218,35.63542000322089,0 34.40895870367414,35.63538156276426,0 34.40889268397376,35.63535165670706,0 34.40861131082593,35.63525436985679,0 34.40853283453993,35.63523210313843,0 34.40840079783396,35.63518222490423,0 34.40824840549951,35.63515156385453,0 34.40820867776774,35.6351610660555,0 34.40809558060177,35.63523864992203,0 34.4080564666827,35.63526237825952,0 34.40799762788697,35.63521140046041,0 34.40795164520167,35.63509982673769,0 34.40792809492678,35.63507835139426,0 34.40768445542666,35.6349949690603,0 34.407637075546,35.634991663693,0 34.40741040597883,35.63508313490575,0 34.40723074514155,35.63524076660975,0 34.40720513755964,35.6352504820205,0 34.4071402890738,35.635244960718,0 34.40703965263971,35.63520384192447,0 34.40698200284641,35.63508915332662,0 34.40692764714586,35.63488312016427,0 34.40690762900001,35.63484704283788,0 34.40684183283715,35.63480324213594,0 34.40676533270247,35.6347957910741,0 34.40664852058644,35.63481546691743,0 34.40653803937931,35.63487235773584,0 34.40638769894886,35.63501871547818,0 34.40623519619277,35.63515882381321,0 34.40606948413341,35.63524500604854,0 34.40570293617832,35.63536973801637,0 34.40546866785017,35.63535925890294,0 34.40516698888519,35.63522609612284,0 34.40502938095955,35.63512397629052,0 34.40491542633919,35.63502079900324,0 34.40452011758509,35.63492842297879,0 34.40444698152276,35.63490356871706,0 34.40419795960286,35.63487148145665,0 34.40409407977469,35.6348358099702,0 34.40397984708478,35.63483208115853,0 34.40380324800804,35.63479214252752,0 34.40374072256507,35.63471003239514,0 34.40362736940993,35.63471441772509,0 34.40292764487081,35.6345866202126,0 34.40268787737139,35.63457231354071,0 34.40252664793898,35.63459271808299,0 34.40230753310471,35.63454078647278,0 34.40203943471149,35.63442965586309,0 34.40178404580281,35.63431409310111,0 34.4017382211705,35.63429594631362,0 34.40164404312831,35.63424121197991,0 34.40161207722204,35.63424149566227,0 34.40120214078448,35.63441132335862,0 34.40110175486189,35.63441797258719,0 34.40092574469289,35.63439039245664,0 34.40090039981906,35.63437072195524,0 34.40084977721388,35.63433143062473,0 34.40078070926611,35.63435101680913,0 34.40069815028095,35.63438563041338,0 34.40065069082025,35.63442859589043,0 34.4005870248852,35.63448623103559,0 34.40055136308558,35.6345344910893,0 34.40047881105492,35.63470708971439,0 34.40044808623194,35.63473700965303,0 34.40040023904984,35.63475979613605,0 34.40037286598849,35.63476207191717,0 34.40034204730094,35.63475522839062,0 34.40031458341939,35.63472091101968,0 34.40031432319298,35.63461214896659,0 34.40029578424235,35.63459266056861,0 34.40021813841184,35.634592331291,0 34.40017150845611,35.63458325710021,0 34.40011251289238,35.63455057339971,0 34.39990121588247,35.63425342377585,0 34.39983356643768,35.63419540464726,0 34.39974774795947,35.63414466150825,0 34.39950406272656,35.63405719658637,0 34.39934424615356,35.63408961208546,0 34.39905859076051,35.63418581309055,0 34.39895679518647,35.63426448558176,0 34.39893150918276,35.6342674199366,0 34.39874744594672,35.63420236079133,0 34.39854909558908,35.63422480975049,0 34.39834494552762,35.63430547053055,0 34.39826272577648,35.63436481414485,0 34.39820913563471,35.63445270578082,0 34.39797295551262,35.63466783151858,0 34.39784482404642,35.63480000573367,0 34.39775255858184,35.63491356651388,0 34.39750281054492,35.63534905212229,0 34.39746196096009,35.63545766935942,0 34.39749405947595,35.63558715839256,0 34.39747008225398,35.63571493952303,0 34.39744872320188,35.63573173063109,0 34.3973684678582,35.63575310748228,0 34.397336913244,35.63578320389849,0 34.39715579367906,35.63625764108804,0 34.39714080995671,35.63640533359382,0 34.39714974777934,35.63669173697528,0 34.3971764963513,35.63685464775729,0 34.39716357253133,35.63691100750543,0 34.39679656571624,35.63745518937522,0 34.39662154798211,35.63792093182284,0 34.39651940414252,35.63804394943293,0 34.39645839466642,35.63805998705586,0 34.39643797318474,35.63806535553869,0 34.39630050696302,35.63806152928,0 34.3962286137459,35.63803319304345,0 34.39613355320646,35.6379579189603,0 34.39548765028473,35.63757444959094,0 34.39511034207389,35.63734893726389,0 34.3949035376814,35.63712945843226,0 34.39476348359887,35.63693342090548,0 34.39467678458481,35.63670194209246,0 34.39462055326838,35.63652848053371,0 34.39453086792412,35.6363992501476,0 34.39425737235282,35.63632723281768,0 34.39415340500837,35.63627793320545,0 34.39356568062633,35.63620778126023,0 34.39260510814275,35.6360724998334,0 34.39221312836301,35.63600086632023,0 34.39192806672443,35.63592339683246,0 34.39174982587775,35.63584174884783,0 34.39139230882896,35.63565209895216,0 34.3911721287077,35.63563452929717,0 34.39093320116194,35.63574579632809,0 34.3908217256342,35.63582408084046,0 34.3906183741526,35.63586422997739,0 34.39035826317119,35.63589030494479,0 34.3900198110254,35.63588472147963,0 34.38976833618662,35.63597569795566,0 34.38947582183604,35.63604893407992,0 34.38894244505099,35.63595341397347,0 34.38843900530315,35.63591112011979,0 34.38779992556052,35.63594181916755,0 34.38746133983418,35.63593043322435,0 34.3871596483272,35.63596535108446,0 34.38718068852504,35.6358970195006,0 34.38715352294899,35.63583897210066,0 34.38716260880744,35.63578160939553,0 34.3870869403598,35.63579113376785,0 34.3869278425747,35.6358077671753,0 34.38689043273681,35.63580405943916,0 34.38697196916153,35.6356197499581,0 34.38700178873017,35.63559079554692,0 34.38699558694942,35.6355791922067,0 34.38695208784461,35.63557217493491,0 34.38683954195459,35.63545748577986,0 34.3867976693419,35.63544888515653,0 34.38662700231405,35.63550328116703,0 34.38640559963768,35.63554377252292,0 34.38630966526028,35.63559930856587,0 34.38626128801688,35.63559704089147,0 34.38618367001666,35.63554571055759,0 34.38576029349949,35.63552071348315,0 34.38557428817944,35.63549812596499,0 34.38554379566968,35.63551811945324,0 34.38546562791185,35.63566765246095,0 34.38541969161516,35.63568329660711,0 34.38505235777768,35.6356587041271,0 34.38493107698486,35.63562837848242,0 34.38479424211699,35.63558563391205,0 34.38473973916766,35.63559477285494,0 34.38476406763599,35.63562893792908,0 34.38518659838608,35.63583328392321,0 34.38554326945815,35.63596198461185,0 34.38566628746551,35.63603892290213,0 34.38576117000498,35.63614748963052,0 34.38572396247794,35.63615857588948,0 34.38552148452322,35.63605632638916,0 34.38507841891671,35.63587726794055,0 34.3848656413764,35.63582532355046,0 34.38446234645232,35.6357463739365,0 34.38439255800032,35.63586172925665,0 34.38433449915083,35.63587478966516,0 34.38414303825209,35.63585493755179,0 34.38399292102418,35.63580513473526,0 34.38384617140618,35.63567998024992,0 34.38369333367726,35.63559164391001,0 34.38342861409986,35.63551773095238,0 34.38333580051667,35.63547998207288,0 34.38331443835705,35.63544430007934,0 34.38333761761518,35.63537146625727,0 34.3834080148549,35.63529642817632,0 34.38364370319128,35.63533652011686,0 34.38381420341124,35.63535027810172,0 34.38391239006021,35.63532591214593,0 34.38394242568906,35.63524514505248,0 34.38366404727794,35.6351363814688,0 34.3833604991547,35.63511571132866,0 34.38327549995947,35.6350868616879,0 34.38309022628263,35.63496523907033,0 34.38297671857048,35.63489072589934,0 34.38269933848346,35.63476709511524,0 34.38237912860814,35.63466924880871,0 34.38223549352691,35.63460769188021,0 34.38215537308903,35.63458072853604,0 34.38183299063038,35.63444528848456,0 34.38159886365649,35.63432670064006,0 34.38143743384884,35.63430235212925,0 34.38081424318368,35.63427388467702,0 34.38066827498894,35.63428735090145,0 34.38064903496183,35.63427701513275,0 34.38056323177992,35.63425709152465,0 34.38050240698352,35.63430302328472,0 34.38040872076562,35.6343140009072,0 34.38032783989763,35.6342896298319,0 34.38027787117995,35.63424855759897,0 34.38033074001726,35.63407546353187,0 34.38038072565668,35.63402623765004,0 34.38051754893415,35.63401217362532,0 34.38061877275687,35.63406686281278,0 34.38072297884938,35.63406470662015,0 34.3807260431454,35.63404729541897,0 34.38091119772896,35.63404867854046,0 34.38093669116625,35.63399667350385,0 34.38094432521529,35.63391698139294,0 34.38092088856673,35.63387279782484,0 34.38088625232711,35.63382938975412,0 34.38080386770502,35.63378605683964,0 34.38057238955441,35.63373995375058,0 34.38050234465738,35.63371853814254,0 34.38046885577195,35.6336984987916,0 34.38052349273557,35.63368230437685,0 34.38064093032104,35.63362025823346,0 34.38068660574579,35.63355955015832,0 34.38070423688014,35.63345164792734,0 34.38066890345656,35.63341807229194,0 34.38053863977726,35.63336499036371,0 34.3805409182099,35.63334938436158,0 34.38062065556099,35.63328973418501,0 34.38083174615264,35.63324114151366,0 34.38083737198092,35.63322754026019,0 34.38071745925912,35.63320283102562,0 34.38065373921776,35.63315797992252,0 34.38065271607535,35.63308276802595,0 34.3805627922512,35.63293877977007,0 34.38055084983631,35.6329196587748,0 34.38049384716685,35.63288017142376,0 34.38027573145749,35.63277838322248,0 34.38008282520536,35.63239311173829,0 34.3800207296004,35.63234553612097,0 34.3796051060259,35.63237489532708,0 34.37949356074013,35.63241584593451,0 34.37933143297369,35.63240098818261,0 34.37929180702937,35.63238743927062,0 34.37918061836312,35.63236299178017,0 34.37903020576671,35.63241579953381,0 34.37891077302545,35.63242632181833,0 34.37877587793858,35.63246001996477,0 34.37865711565037,35.63245867749114,0 34.37864476911572,35.6325279058633,0 34.3785954999623,35.63262998289493,0 34.37856939748968,35.63275625554667,0 34.37852739814346,35.63287385536806,0 34.3785470377861,35.63291366766706,0 34.37820094827681,35.63304948923226,0 34.37817206237568,35.63306261479649,0 34.3781513000885,35.63318477423675,0 34.37788133143022,35.63305564708246,0 34.37777865705977,35.63301621496898,0 34.37766043993136,35.63298062412776,0 34.37762774493126,35.63300176738375,0 34.37759227736993,35.63298454101979,0 34.37753214899612,35.63301217428253,0 34.37754243963363,35.63301826168582,0 34.37735243931795,35.63321371921896,0 34.37735022978752,35.63329572120337,0 34.37786375563076,35.63356574150426,0 34.3778835614314,35.63361775041305,0 34.37781158925477,35.63369901564911,0 34.37775658945314,35.63380724132512,0 34.37770752657347,35.63386323477453,0 34.37752625650077,35.63378416239431,0 34.37711736252743,35.63357559379491,0 34.37692420965587,35.63323233530659,0 34.37682777558643,35.63304071369677,0 34.37669022888664,35.63294025374086,0 34.37649857723002,35.6328300971819,0 34.37637837591753,35.6327227107971,0 34.37631227809766,35.63268601109908,0 34.37614600189707,35.63251803274111,0 34.37608405207846,35.63248095836645,0 34.37599389441088,35.63244582215959,0 34.37589173047754,35.63244399442379,0 34.37578662425046,35.63246997671666,0 34.37561784495167,35.63245449507153,0 34.37542022765454,35.6324555253463,0 34.37529904774657,35.63241500642038,0 34.3752700787817,35.63240532071532,0 34.3750317085697,35.63246294909927,0 34.37486139753759,35.63245696592477,0 34.37466911518099,35.63242271053251,0 34.3744790125429,35.63236539491877,0 34.37411606240861,35.63229872870219,0 34.37406417277192,35.63226868180475,0 34.37381007268555,35.63202284989917,0 34.3739598790924,35.63198631770015,0 34.37403063336045,35.63193759291229,0 34.37402436242994,35.63190376394368,0 34.37382253655405,35.63183909432605,0 34.37309553105478,35.63193075195568,0 34.37282344526152,35.63195139541695,0 34.37259128739067,35.63179279059681,0 34.37256554884311,35.6317920006089,0 34.37236364857186,35.63167297949919,0 34.37237328295375,35.63163677286119,0 34.37291125818001,35.63181307195914,0 34.37346295941796,35.63183745425861,0 34.3734692165941,35.63180893856202,0 34.37271576864048,35.63158944419999,0 34.37233446853543,35.63147836169886,0 34.37232247243129,35.63144053863277,0 34.37277926235395,35.63144676647354,0 34.37289002991951,35.6314594904417,0 34.37309403171668,35.63138950092333,0 34.37313027435816,35.63139850580759,0 34.37311422926632,35.63124854590375,0 34.3730737532743,35.63120992463311,0 34.37276838407344,35.63119459996031,0 34.37263246565585,35.63121406765451,0 34.37247892512298,35.63121325870073,0 34.37244390771629,35.6311757610588,0 34.37252237866617,35.63097885041194,0 34.37260698348898,35.63089510736914,0 34.37304062394358,35.63093965244027,0 34.37304407050867,35.63088744249444,0 34.3726148620727,35.63086352790881,0 34.37264404281462,35.63081075702772,0 34.37269440008764,35.63078897671601,0 34.37325583797536,35.63084023610764,0 34.37350048139258,35.63076201015633,0 34.37360286271171,35.63066898812328,0 34.37367949759589,35.63047180477546,0 34.37362579522202,35.630341669297,0 34.37357569801292,35.63008517888444,0 34.37359414228764,35.62999395310875,0 34.37356723847205,35.62995767007025,0 34.37292535807535,35.62962929424929,0 34.37280516889764,35.6295836405384,0 34.3722515816657,35.62955327330404,0 34.37164111039837,35.62931413318489,0 34.3714521639684,35.62958818204053,0 34.37139818428417,35.62983396107835,0 34.37128987058843,35.63005310217804,0 34.37128367721381,35.63008636123128,0 34.37125744651564,35.63011166054633,0 34.37120357112475,35.63011890078416,0 34.37112362793979,35.6301019697021,0 34.37109653081519,35.63012456608226,0 34.37108315172007,35.63011773459233,0 34.37104891040346,35.63004145319893,0 34.37097059571766,35.62999130231547,0 34.37083899120026,35.62986876112156,0 34.3708231614304,35.62983399710168,0 34.37075485809981,35.6297873173062,0 34.37074456441397,35.62970134250855,0 34.3707858136612,35.62968133576183,0 34.37086186069547,35.62971727552912,0 34.37105275713041,35.6297780865934,0 34.37114562851796,35.62981037476596,0 34.37129142808865,35.62986063145579,0 34.37130540565196,35.62985034677349,0 34.37127944568415,35.62977263821017,0 34.37138675549843,35.62954063057771,0 34.37153021884951,35.62928052656836,0 34.37154864249206,35.62919972606942,0 34.3714943997332,35.62908862291921,0 34.37135799465164,35.62892702085808,0 34.37131063981217,35.62879324754822,0 34.37129023929726,35.62857961306617,0 34.37110474759651,35.6285477358468,0 34.37107947869459,35.62852118604798,0 34.37116324787397,35.62832936292895,0 34.3709426132244,35.62763851792608,0 34.37087548744604,35.62754361235494,0 34.37045457582994,35.62712955391527,0 34.37002389570944,35.62659417409272,0 34.3699821271822,35.62653152193997,0 34.36983182200359,35.62641799020574,0 34.36970360191434,35.62635161384721,0 34.3696483769243,35.62632955552486,0 34.36958116068079,35.62630270638206,0 34.36942518838895,35.62621035126915,0 34.36936176828912,35.62614187151346,0 34.3692124652338,35.6259806559111,0 34.36918062891339,35.6259639562113,0 34.36903717419153,35.62593633215234,0 34.36883648892651,35.62585929740796,0 34.36864552806145,35.62576316787559,0 34.36837922650464,35.6256755320493,0 34.36829542585363,35.62564803601806,0 34.3680196445895,35.6254922066402,0 34.36771020893883,35.62536993381659,0 34.36744469721771,35.6253145409104,0 34.36722957541124,35.62525999133372,0 34.36711097984225,35.62522502418445,0 34.36700437691085,35.62521575338799,0 34.3668789154538,35.62522701341215,0 34.36666835368452,35.62528177615057,0 34.36654204896293,35.6253541484446,0 34.36643829586711,35.62537133169867,0 34.36637390911475,35.62540854745559,0 34.36637624341265,35.62552055465387,0 34.36633487005675,35.62559898853451,0 34.36622481157571,35.62558024173725,0 34.36593377886614,35.62557149173761,0 34.36585145528004,35.62552980145836,0 34.36578568166278,35.6255256120078,0 34.36567308615169,35.62556595519197,0 34.36566220678787,35.6256230809005,0 34.36559983128672,35.62581032642812,0 34.36562269398204,35.62590246804555,0 34.36561596282598,35.62595887889051,0 34.3655844605133,35.62602908123144,0 34.36546581996432,35.62599071706424,0 34.36541668092046,35.62598638570947,0 34.36537117723064,35.6260071967999,0 34.36528871727108,35.62636973073214,0 34.36526616434494,35.62642491854233,0 34.36517389678431,35.62649224595473,0 34.36502642065115,35.62666120943131,0 34.3649210291155,35.62668044228587,0 34.36481378666047,35.62662364841441,0 34.3648103194583,35.6266752789447,0 34.36483231421573,35.62676471236658,0 34.36479264868174,35.62684652589475,0 34.36464515653652,35.6269523465083,0 34.36455479123163,35.62697552392209,0 34.36445948469252,35.62694035523993,0 34.36417250789909,35.62681788202801,0 34.36409980023573,35.62685516648809,0 34.36405152654105,35.62679107900863,0 34.36370923694481,35.62670030801037,0 34.36364433569366,35.62663704128932,0 34.3635889882874,35.62654178189357,0 34.36343300780071,35.62651052481369,0 34.36331657138251,35.62645041341109,0 34.36306583584729,35.62636293299768,0 34.36284842784918,35.62627924146662,0 34.36268137620099,35.62616660305047,0 34.36254866381636,35.62619557360549,0 34.36248045727315,35.62619615586706,0 34.36239945669963,35.6261733015428,0 34.36229624907464,35.62610674787007,0 34.36222882823105,35.62610392788858,0 34.36202940622327,35.62605878167999,0 34.3618451758831,35.62609226435123,0 34.3617700890647,35.62609473461304,0 34.36154169032777,35.62604121539714,0 34.3611509057983,35.62605608922002,0 34.36107554469282,35.62609375784483,0 34.36103560563906,35.62614329853361,0 34.36075527046435,35.62626895767738,0 34.36064437088217,35.62624915360306,0 34.36056633707641,35.62626136108825,0 34.36045836880965,35.62633696543182,0 34.3603364124933,35.62636176815536,0 34.36010942477895,35.62637049058957,0 34.36000167126618,35.62633745967199,0 34.35980300059749,35.62628619259895,0 34.35978517883408,35.62625986542977,0 34.35962109988181,35.62618250292858,0 34.35945256284072,35.62620770165229,0 34.35930028284827,35.62620424432065,0 34.35916749491452,35.62616531527056,0 34.35878962775019,35.62608841346535,0 34.35871898140289,35.62609308756834,0 34.35845823311881,35.6260654310213,0 34.35828364856225,35.62607370409997,0 34.35814948710944,35.62605651229484,0 34.35808541260136,35.62605502036104,0 34.35788753656954,35.62612595548746,0 34.35783173534104,35.62612099766619,0 34.35774690204853,35.62605993334387,0 34.35769844939711,35.62604473370866,0 34.35762222458865,35.62606778169486,0 34.35747601056208,35.62608260318408,0 34.35715177549664,35.62616004053381,0 34.35689572065303,35.62617239921065,0 34.35670013322481,35.62616523290672,0 34.35657343053399,35.62614593923084,0 34.35653891331289,35.62611500042555,0 34.35646170878429,35.62600193080995,0 34.35637663086428,35.62573295737715,0 34.3563375208214,35.62551296937826,0 34.35632487705008,35.62546211346069,0 34.35631250748116,35.62543605062098,0 34.35625730919531,35.62534931731355,0 34.35618074364482,35.62524290145687,0 34.3561738123821,35.6252128911698,0 34.35618183584163,35.62519103738215,0 34.35623964562439,35.62513412218424,0 34.35630744943077,35.62505524175072,0 34.35632323970313,35.62503810507875,0 34.35636074584414,35.62497757189401,0 34.35637325095747,35.62491703903131,0 34.35635669297153,35.62473522017221,0 34.35646116397098,35.62464674840579,0 34.35659688036972,35.62459331776193,0 34.35666369362119,35.62455065521749,0 34.35668516892405,35.62447689995172,0 34.35669954353052,35.62442753324958,0 34.35679324025214,35.62419108867839,0 34.35680862964455,35.62409726164073,0 34.35679074950109,35.62403511887078,0 34.35669982428245,35.62392233367931,0 34.35656549631253,35.62379854534178,0 34.35646615933036,35.62373953422428,0 34.35628980259684,35.62372755874373,0 34.35627714262022,35.6237266990956,0 34.3562206021077,35.62367668798213,0 34.35616948202442,35.62365318114934,0 34.35602380068809,35.62361197565281,0 34.35587481907336,35.62361450618428,0 34.35569471226153,35.62366924313778,0 34.35556456402823,35.62374572814364,0 34.35547349617069,35.62384278416653,0 34.35516062464252,35.62395248918266,0 34.35498073137992,35.6240819708072,0 34.3546290658092,35.62419263626408,0 34.35445508296801,35.62418270789538,0 34.35423673588215,35.62422193040204,0 34.35411162017645,35.62415140974482,0 34.35407764596631,35.62410608821038,0 34.35406259124007,35.62390731119913,0 34.35403689254957,35.62384228355047,0 34.35393081808242,35.62374436234606,0 34.35377352888556,35.62370578556594,0 34.35373029423423,35.62366434425228,0 34.35378621311417,35.6236087600823,0 34.35376150863995,35.62356019340183,0 34.35366620291529,35.62351349082444,0 34.35359886321636,35.6234101744183,0 34.35359411816243,35.62334496888319,0 34.353605317214,35.62321941560277,0 34.35353602203221,35.62311931697199,0 34.35336629729807,35.62302066753149,0 34.35297541561508,35.62292452189676,0 34.35288713346157,35.6229392034849,0 34.35279857983684,35.62299189482015,0 34.35275031498569,35.6230980898977,0 34.35273719090225,35.62345483445079,0 34.35263758411598,35.62355196172693,0 34.35259707128899,35.62365745773904,0 34.35255455713641,35.62367048597399,0 34.35236361911109,35.62366956551565,0 34.3521593476891,35.62354080020335,0 34.35205898102653,35.62340482270339,0 34.35191413676829,35.62325084967578,0 34.3518365601032,35.62315223091964,0 34.35169612515541,35.62302211388402,0 34.35160844693301,35.6229652101943,0 34.35144776540812,35.62290448855269,0 34.3510334095881,35.62273513243582,0 34.35088828320056,35.62285291184011,0 34.35061657232301,35.62281814745769,0 34.35052923907699,35.62278721143466,0 34.35029798795424,35.62267197307604,0 34.35008343732294,35.62264591001875,0 34.35002901954953,35.62266838163053,0 34.34996927467105,35.622706148616,0 34.3509368569322,35.6206526919483,0 34.35058166112159,35.62050130673869,0 34.3510217115094,35.61990054768608,0 34.35183330027932,35.61886081443816,0 34.35624167497937,35.62010728588421,0 34.35979472896455,35.62111176768459,0 34.36010259026962,35.62118909568397,0 34.36057765190395,35.62132664524236,0 34.36111816212323,35.62106293035583,0 34.36122428318764,35.62105624618962,0 34.36134625434071,35.62099933894305,0 34.36154499893475,35.62085893969053,0 34.36182457054073,35.62049726917591,0 34.36202291663309,35.620415629925,0 34.36214180727536,35.62030480682123,0 34.36230208290468,35.62020037411845,0 34.36245194310312,35.6200228232059,0 34.36255374935555,35.61995838123241,0 34.36263052332227,35.61996350614185,0 34.3628771122666,35.61978320219543,0 34.36321205415027,35.61959154885125,0 34.36354944450504,35.61958288786805,0 34.36378154401736,35.61942245379549,0 34.36397870551709,35.61925268495943,0 34.36408141575865,35.61921183348026,0 34.36434314019088,35.61897264036932,0 34.36438216774052,35.6188027781558,0 34.3645139374639,35.61864079146147,0 34.36485900587974,35.61841292552076,0 34.36498650771912,35.61837282432301,0 34.36525349468712,35.6181745225533,0 34.36536580739826,35.61796983779603,0 34.36539357371464,35.61788435470214,0 34.36560300748699,35.61770629051033,0 34.36579983358139,35.61746813187327,0 34.36584343394008,35.61733146185251,0 34.36585326626496,35.61722879321616,0 34.36587075223953,35.61714886292666,0 34.36589094898591,35.61705653761122,0 34.36576059767874,35.61699395266589,0 34.36542149862519,35.61374539870491,0 34.36416230996741,35.61307714277579,0 34.36677806779418,35.61152322659429,0 34.36656276864845,35.61143968489068,0 34.36584681683192,35.61091723326869,0 34.36504684328145,35.61044293335523,0 34.36500769152738,35.61049477095816,0 34.36377422858272,35.61000790507028,0 34.36373631363585,35.60991743197156,0 34.36369620640712,35.60982172485615,0 34.36186001874192,35.60640991395993,0 34.35797620222936,35.60680382493228,0 34.35630459131206,35.60680295767508,0 34.35606491825671,35.60680493904602,0 34.35506020782741,35.60681324125203,0 34.35525575047762,35.60649438386282,0 34.35541447055719,35.60624246299189,0 34.35553259852464,35.60605496793865,0 34.35573440126782,35.60575644106586,0 34.35588718981314,35.60560306832404,0 34.35604825482139,35.60555041579028,0 34.35633667273629,35.60545613072657,0 34.35678213954658,35.60537137105199,0 34.35945718940379,35.6040363390054,0 34.36041007844123,35.60353488696662,0 34.36056529938909,35.6033478839154,0 34.36087221578187,35.60269217558692,0 34.36100358511055,35.60241150892485,0 34.36118379869546,35.60221916401906,0 34.36150299225304,35.60196325289673,0 34.3617060219002,35.60183431588496,0 34.36207966571255,35.60154246856616,0 34.36279381365343,35.60102061726075,0 34.36316919810609,35.60085962813315,0 34.36358980419869,35.60079406381011,0 34.36411882696745,35.60076956744432,0 34.36512756394195,35.60069326411768,0 34.36593910566292,35.6006590036985,0 34.36661517306847,35.60057697222067,0 34.36726099671139,35.60054860831563,0 34.36812406028965,35.60048372052767,0 34.36843211894768,35.60044193690104,0 34.3692992014644,35.60037529980795,0 34.36979376267102,35.60033728816595,0 34.37024154162618,35.6003611657457,0 34.37062808445943,35.6004361238034,0 34.37111901627112,35.60040091576053,0 34.37214325718914,35.60006592913378,0 34.37320817353194,35.59948921803277,0 34.37360953988284,35.59925662210834,0 34.37403412614391,35.5990425791661,0 34.37426894082687,35.59897613565408,0 34.37454222014019,35.59894768328039,0 34.37476208861002,35.59895801682997,0 34.3752004264034,35.59902272856451,0 34.37556528304157,35.59911905993861,0 34.37565676804926,35.59916311784085,0 34.37582805083652,35.59912575910084,0 34.37592884363868,35.59911958726669,0 34.37603543029734,35.59909868848105,0 34.37666185313125,35.5988176580731,0 34.37687493659637,35.5987693359702,0 34.37702653271799,35.59875334752397,0 34.3772640580972,35.59873987628175,0 34.37756593226829,35.59868426078273,0 34.37792618495288,35.59858818387114,0 34.37818830452986,35.59847338457156,0 34.37836656832712,35.59836175838592,0 34.37857351420599,35.59830288583721,0 34.37879017621719,35.59829774626506,0 34.37903120576597,35.5983955480194,0 34.37942962122137,35.59853601724052,0 34.37962265714387,35.5986297483047,0 34.37997116791825,35.59884607512777,0 34.38019287834774,35.59891835506922,0 34.38054247701499,35.59899400999901,0 34.38127276601035,35.59922821996103,0 34.38146375293426,35.59931788883323,0 34.38168757331467,35.59939830174477,0 34.38169691497425,35.59949770290391,0 34.3816524964891,35.5996098018382,0 34.38163775904007,35.59970125787804,0 34.38193345740309,35.60029313463456,0 34.38200667088287,35.60038871907516,0 34.3821731048622,35.60043538209979,0 34.38226401684184,35.60043703753097,0 34.38247069781936,35.60050536778351,0 34.38262235030346,35.60061999293751,0 34.38310477420409,35.6009846232171,0 34.38360867086541,35.60131537737018,0 34.38414357362409,35.60164912131448,0 34.38433190418134,35.60183665961755,0 34.38507245257733,35.60216208361413,0 34.38584219139978,35.60247691097297,0 34.38590659534319,35.6025032528078,0 34.3862578363348,35.60257490106256,0 34.3865371854363,35.602679263741,0 34.38681748314264,35.6028393852323,0 34.38753535333904,35.60312295916646,0 34.38781897154264,35.6032518810496,0 34.38848591995451,35.60339716004713,0 34.38882677375257,35.60348233827181,0 34.38951628013529,35.60368914220973,0 34.39007082265045,35.60389391508724,0 34.39048590411126,35.60401449761042,0 34.39072812245994,35.6040991594037,0 34.39112746268352,35.6042044459983,0 34.39150454318284,35.60435148556459,0 34.3924646766606,35.60462511158011,0 34.39288984541876,35.60473016495194,0 34.39313597367662,35.60471761365025,0 34.39330893786979,35.60471976019919,0 34.39369122671368,35.6045917230374,0 34.39384693985995,35.60448278999164,0 34.39428865360978,35.60408974633644,0 34.39454477893108,35.60393348014836,0 34.39459987588702,35.60391160533039,0 34.39515292178695,35.60377549087785,0 34.39552064317615,35.60366392479313,0 34.39567937831783,35.60366588849324,0 34.39588095503512,35.60357152202154,0 34.39598249498221,35.6035519870921,0 34.39627731251677,35.60349526905335,0 34.39638014540176,35.60349191608884,0 34.39651087534438,35.60351971227307,0 34.39701197507169,35.60327963731168,0 34.39765229062544,35.60342932802075,0 34.39808973365337,35.60349844821635,0 34.39842333779216,35.60357052231789,0 34.39867300707424,35.60364007485163,0 34.3989162009271,35.60367462086778,0 34.39949229517727,35.6038746098255,0 34.4000742569919,35.6039208366701,0 34.40043278707145,35.60398942237573,0 34.40085652369839,35.60400605965162,0 34.40101529705117,35.60400302293751,0 34.40147810315486,35.60410003864094,0 34.40164950867112,35.60407161193284,0 34.40217255500179,35.60419092312901,0 34.40282348232193,35.60431235985166,0 34.40297847496264,35.60432484803849,0 34.40328720274496,35.60433107984154,0 34.40459154746617,35.60453681315388,0 34.40622881973684,35.6051236363413,0 34.40639953386819,35.60511722485958,0 34.40713277855198,35.60526726159038,0 34.40771635978874,35.60542881935748,0 34.40827128046659,35.60561223741506,0 34.40837912019919,35.60560964660728,0 34.40847466837272,35.60558514763386,0 34.40867549553456,35.60563150230268,0 34.40901378735484,35.60570958536946,0 34.40921049176847,35.60570456929391,0 34.40933326420449,35.60573810527807,0 34.40961919723964,35.60581620697236,0 34.41019306299501,35.60613128137907,0 34.41043791667207,35.60624768643009,0 34.41059743148801,35.60631640020375,0 34.41077157400862,35.6064219162072,0 34.41156342580162,35.60671199552216,0 34.41166787365069,35.60682016528886,0 34.41174156415443,35.60692522286121,0 34.41184794583958,35.60717161861857,0 34.41188178188549,35.60739494531654,0 34.41186355322718,35.60745677549144,0 34.41152439947961,35.60778068190501,0 34.41090396530858,35.60823382133896,0 34.41087383024033,35.60827542799443,0 34.41090667074596,35.60860583492357,0 34.41059970412321,35.60867905449134,0 34.41058058740071,35.60873682663647,0 34.41063594596055,35.60895589471503,0 34.41073011264201,35.60921934273382,0 34.41086725864633,35.60935026167729,0 34.41100423924728,35.60941002794115,0 34.41085658917618,35.60950570144878,0 34.41082509471943,35.6095261086242,0 34.41071739462601,35.61042956885861,0 34.41098852349937,35.61075560701937,0 34.41141985248196,35.61120748994186,0 34.41169696402869,35.61160121753873,0 34.41172043542846,35.61184119445031,0 34.41174112766244,35.61188206689775,0 34.41188658016613,35.61203267861819,0 34.4115262822289,35.61306438981766,0 34.41135336505702,35.61346829920873,0 34.41117311248052,35.6140672963192,0 34.41108591078368,35.61430620838557,0 34.41104384827666,35.61489575917264,0 34.41132282567897,35.61524225448198,0 34.41097194328903,35.61586946465378,0 34.41073949514603,35.61633343730283,0 34.41047054222344,35.61652470400738,0 34.41029954602578,35.61676030481178,0 34.41011113922199,35.61701989129369,0 34.4097564860583,35.61738952324458,0 34.40996526510021,35.61762512351558,0 34.41007981096686,35.61751699577391,0 34.41056607280418,35.61736769634923,0 34.4108423897645,35.61731634292224,0 34.41118301290767,35.61716358968683,0 34.41146324844844,35.61697590054428,0 34.41182422485313,35.61691054791441,0 34.41201742377554,35.61683498416934,0 34.41242014150222,35.61683952878521,0 34.41279085594451,35.61687559087954,0 34.41282370677648,35.61690449162611,0 34.41284030962816,35.61696137467892,0 34.41272030661866,35.61706565038178,0 34.41270940121799,35.61711870670538,0 34.41282758726867,35.61712240098201,0 34.4128987738943,35.61709664298593,0 34.41303233938512,35.61683201227394,0 34.41307850293556,35.61680172511612,0 34.41313584128166,35.6167971374926,0 34.41362201353402,35.61687969066648,0 34.41397043029263,35.6169274899577,0 34.41405603348201,35.61704010893841,0 34.41406023509759,35.61710253494898,0 34.41402343127987,35.61714767511375,0 34.41387297492758,35.61715649245317,0 34.41401207799373,35.61734671084524,0 34.41427905450829,35.61754919349886,0 34.4144134953881,35.6175848212125,0 34.41469405789592,35.61771758698415,0 34.4147765386189,35.61778542309268,0 34.41480104078574,35.61784189493591,0 34.41478833551651,35.61788512194062,0 34.41474066433748,35.61792662724628,0 34.4145827920299,35.61800001137031,0 34.41436627477144,35.6180739225381,0 34.4143242916364,35.6181354046225,0 34.41427093248831,35.61830528160121,0 34.4143963015324,35.61846523914589,0 34.41456364189551,35.61862210540178,0 34.41467558539083,35.61874399211612,0 34.41470324240155,35.61893656831158,0 34.41469521201458,35.61913523425395,0 34.41465976643816,35.61945533975467,0 34.4146202852586,35.61963595625218,0 34.41487343729738,35.6195637538703,0 34.41518305132453,35.61951344945351,0 34.41579333306538,35.6196052332927,0 34.41660205777335,35.6198760031212,0 34.41741563465616,35.62010700505767,0 34.41759878548342,35.62017461167682,0 34.41790876101851,35.620327304334,0 34.41847249581231,35.62048076828574,0 34.41867572909373,35.62043820280162,0 34.41882974984814,35.62032750475898,0 34.41908951107322,35.62034078176315,0 34.41922624212503,35.6203612775599,0 34.41946753818,35.62042224711725,0 34.420290364774,35.62060018759986,0 34.42056131458656,35.62063983962998,0 34.42076124012176,35.62065772733614,0 34.42100291176866,35.62068610032519,0 34.42125755869996,35.62074966207433,0 34.42135825315771,35.62081053822956,0 34.42144497943335,35.62088376126115,0 34.42145366253443,35.62096855250421,0 34.42140813068817,35.62104364801306,0 34.42145961588172,35.62121360115228,0 34.42157437132809,35.62150451536364,0 34.42166939122428,35.62169376488288,0 34.4217559481667,35.62181383729088,0 34.42177499756104,35.62192569220007,0 34.42204084189378,35.62210440373315,0 34.42217938271624,35.62222332677496,0 34.4224011214982,35.62237171310075,0 34.42260860359212,35.62248254487061,0 34.42289212271714,35.62262520411305,0 34.42304164260531,35.62270043837016,0 34.42342225874438,35.6227698207891,0 34.42356943878525,35.62278562420628,0 34.42404794693526,35.62272560957197,0 34.42431608707774,35.62275888110623,0 34.42535617214858,35.62294580195304,0 34.42568623453178,35.62290425897884,0 34.42592258627399,35.62291639675902,0 34.4262114256912,35.62280525865829,0 34.42630039493814,35.62278731859882,0 34.42670195251986,35.62272941765038,0 34.42718621049791,35.62270503517854,0 34.42734069249746,35.62274218716427,0 34.42774122923227,35.62273569642348,0 34.4281711515189,35.62282746288108,0 34.42845134928606,35.62297056375035,0 34.42863489917638,35.62296032890998,0 34.42912762668781,35.62279307299222,0 34.42933859705553,35.62274260737012,0 34.42957631097732,35.62272759526738,0 34.42978646474593,35.62274281941936,0 34.43023921401007,35.62271728278235,0 34.43051330130056,35.62255343811454,0 34.43056983260403,35.62234587898041,0 34.43062883972986,35.62231249997516,0 34.43077445341036,35.62234116131518,0 34.43116509583683,35.62262318379015,0 34.4313871665546,35.62273824845104,0 34.43156674773135,35.62281800314594,0 34.43184076867399,35.62289546879821,0 34.43214403890359,35.6230611972468,0 34.43246866761089,35.62312963311317,0 34.43287105714577,35.62319164823526,0 34.4332053384127,35.62338493370379,0 34.43359792756422,35.62355698313657,0 34.43374236453573,35.62368703121216,0 34.43387481336446,35.62377838002673,0 34.4338761754357,35.62379710787221,0 34.43387932043601,35.62384032921425,0 34.43413656137577,35.62394388203131,0 34.43420608740385,35.6240073993918,0 34.43437828859395,35.62435917070759,0 34.43445157251286,35.62442367148466,0 34.4346222763939,35.62449542866964,0 34.43488699231467,35.62468546602469,0 34.43499351085778,35.62480566752382,0 34.43505938383059,35.62485925743493,0 34.43512100266855,35.62490938585013,0 34.43525395199142,35.62504563876909,0 34.43555872339647,35.6252444728941,0 34.43563553149922,35.62529366656832,0 34.43573171202951,35.62547607812121,0 34.43577687272736,35.62558054812953,0 34.43590532676065,35.62575146340053,0 34.43601493585658,35.62582581332301,0 34.43614575650064,35.62598754167688,0 34.43626489933784,35.6260823990257,0 34.43633045897805,35.626134595019,0 34.43681460988788,35.62666042137769,0 34.43694403467364,35.62675293020475,0 34.43713342048417,35.62685032290226,0 34.43778894909939,35.62685382474017,0 34.43815865494016,35.62687997217143,0 34.43834663626349,35.62693731768267,0 34.43629294478022,35.62804447168976,0 34.43512754491916,35.62867271480962,0 34.43066922377673,35.63107591269031,0 34.43050224490541,35.63116591407557,0 34.42319339359821,35.63510846811027,0</coordinates>
						</LinearRing>
					</outerBoundaryIs>
				</Polygon>
				<Polygon>
					<extrude>0</extrude>
					<altitudeMode>clampToGround</altitudeMode>
					<outerBoundaryIs>
						<LinearRing>
							<coordinates> 34.50974910452529,35.64983411477101,0 34.50962193827297,35.65000780524633,0 34.5094384835251,35.6502010549294,0 34.50931224555935,35.65021722281265,0 34.50923349905341,35.65040130367039,0 34.50915332656445,35.65049170509302,0 34.50910168892937,35.6505981223908,0 34.50910983262118,35.65069580916497,0 34.50921959361615,35.6509092812658,0 34.5091022221284,35.65107065389245,0 34.50878503153982,35.65133445868577,0 34.50872679814526,35.65144501400058,0 34.50874434785736,35.65150458889474,0 34.5088644564112,35.65163241485651,0 34.50894828735152,35.65178232031749,0 34.50893330031136,35.65189109548256,0 34.5087663786225,35.65207255887366,0 34.5087562657377,35.65208825613282,0 34.50866997770349,35.65222218935338,0 34.50863624913948,35.65234437527379,0 34.50865434100853,35.65243482220754,0 34.50878037905282,35.65263859534268,0 34.50899606507575,35.65292243844969,0 34.50954381285881,35.653377247313,0 34.50969415573273,35.65372507451465,0 34.50978103327807,35.6540480068529,0 34.50992020364125,35.65412231286354,0 34.5098614419571,35.65437100039371,0 34.50989798391039,35.65478768687669,0 34.50999243942706,35.65511230298404,0 34.50977668226862,35.65532029139786,0 34.50968634666588,35.65533701083684,0 34.50965240516427,35.65537429576491,0 34.50964813098415,35.65551862981216,0 34.50968900568269,35.65558245966385,0 34.50964654245417,35.65622867305381,0 34.50944947307215,35.65688519530423,0 34.50953860993901,35.65728553017989,0 34.50984404269146,35.65786675923749,0 34.50962735370583,35.65815570112173,0 34.50974719210393,35.65848270985516,0 34.5095629117401,35.65870446780329,0 34.50942500610364,35.65899703942825,0 34.50938002461054,35.65933161214993,0 34.50935525836474,35.65951582641165,0 34.50941600448328,35.65979578222323,0 34.50943219215436,35.66009514580846,0 34.50932309787243,35.66056785770179,0 34.50923708416018,35.66070151744315,0 34.50910010173892,35.66076113209295,0 34.50894000883155,35.66104866398161,0 34.50889821133657,35.66124965614473,0 34.50889310325655,35.66145977935497,0 34.50900991482763,35.66171208140068,0 34.50899388088455,35.66196839069297,0 34.50904092569324,35.66222137331295,0 34.50890158927524,35.6623447106593,0 34.50891680670653,35.66236218131035,0 34.50871838177861,35.66242375069778,0 34.50861558920784,35.66254673071106,0 34.50852457802015,35.6625706586374,0 34.50786247289629,35.66229385639889,0 34.50759991387497,35.66196165496005,0 34.50710018190929,35.661218395803,0 34.50716027657105,35.65935325825887,0 34.50716333296769,35.6592584098267,0 34.50726979668054,35.65888344202809,0 34.50732260394613,35.6585969814366,0 34.50731699221565,35.65829877105487,0 34.50730535804909,35.65810092120781,0 34.50715475129131,35.65759384285622,0 34.50711625335971,35.65740241432633,0 34.50697359351346,35.65571451771242,0 34.50699544476292,35.65559112818558,0 34.50708958972568,35.65539928665676,0 34.50755224238633,35.65472522341597,0 34.50769602644107,35.65453553749305,0 34.50792625304439,35.65428605918279,0 34.50797085400797,35.65416948625464,0 34.50797474211407,35.65399963962631,0 34.507844811692,35.65364633196632,0 34.5077649039176,35.65349753833752,0 34.50753411002708,35.65321296111086,0 34.50734060301779,35.65300456532623,0 34.50717972973282,35.65277913485268,0 34.50702455499869,35.65246742478797,0 34.50692846303899,35.65210607075941,0 34.50642644445026,35.65021819213992,0 34.50540516693696,35.65003666995405,0 34.50412560370246,35.64983320687225,0 34.50323977962171,35.64959802989141,0 34.50214783055324,35.64930811668835,0 34.50020029519762,35.64916672617355,0 34.50003059403596,35.64904029316771,0 34.49978477998327,35.64893424838528,0 34.49926355528116,35.64863231793559,0 34.49873828842985,35.64828231061774,0 34.49832666047491,35.6481968404393,0 34.49792237153319,35.64815737914996,0 34.49771222104498,35.64810248643232,0 34.49717843529379,35.64773764740378,0 34.49682716641057,35.64757840286137,0 34.49649014751184,35.64748271890761,0 34.49594669113683,35.64735785463796,0 34.49544378460034,35.64716754153864,0 34.49512161529844,35.64706493438492,0 34.49470902840057,35.64702554180199,0 34.4944324824124,35.64697399446197,0 34.494220228789,35.64688929989569,0 34.49335268691463,35.64631216431952,0 34.493102660822,35.64625629253688,0 34.49302337902101,35.64628687201163,0 34.49282153613051,35.64623155310777,0 34.49267138153169,35.64613338213852,0 34.49257906060301,35.64601466523661,0 34.49243885200075,35.64574902079517,0 34.49230367462844,35.6455971710549,0 34.49197743724541,35.64533331392218,0 34.49124297179101,35.64500833432071,0 34.49099013845167,35.64489646137928,0 34.49058528507098,35.64486572322861,0 34.48984226424508,35.6449279141669,0 34.48947612856801,35.64495855751625,0 34.48930980785906,35.64502689127884,0 34.48914503186505,35.64509459016988,0 34.48874662697523,35.6451714274188,0 34.48862753084334,35.64503343297003,0 34.4884636789508,35.64484357767513,0 34.48840690793595,35.64482379163573,0 34.48818416016957,35.64486794092265,0 34.48811878966742,35.64503830860282,0 34.48808197950088,35.64513424374516,0 34.48805272989202,35.64517295446709,0 34.48797154403547,35.64520319546634,0 34.48759591713641,35.64517604885218,0 34.48744631159516,35.64504475044627,0 34.4873913742118,35.64499653440013,0 34.48732402678019,35.64490340722726,0 34.48712628475765,35.64471123429428,0 34.48707142693269,35.64471828165325,0 34.48695688848144,35.64488274357527,0 34.48682831889941,35.64494902881913,0 34.48675838190259,35.64505133604428,0 34.48675138066501,35.64506157758235,0 34.48667463438111,35.64508975314896,0 34.48661270164934,35.6450527299059,0 34.48653684997211,35.64500738522685,0 34.48649236327197,35.6448915184352,0 34.48649018815909,35.64488585489604,0 34.48602938539436,35.64472762578279,0 34.48548163951155,35.6444197892295,0 34.48523812293823,35.64412937098555,0 34.48498320031996,35.64396510429409,0 34.48442714480696,35.64354485160364,0 34.48374613467482,35.64354457708698,0 34.48327847321723,35.64348263031261,0 34.48280181557944,35.64348582104157,0 34.48214029050445,35.64345553514462,0 34.48176179988897,35.64291159975966,0 34.48183946100605,35.64221423321302,0 34.48162593220649,35.64226370305739,0 34.48127519788626,35.6424689849093,0 34.48080845101732,35.64246800823656,0 34.48051477131693,35.64237728685578,0 34.48028744199357,35.64228051300921,0 34.48033014912195,35.6421364447765,0 34.48045649434806,35.64203223917999,0 34.48030047777271,35.64192800962653,0 34.4802639921622,35.64181993321293,0 34.48015913557583,35.64169353238871,0 34.479905114106,35.64203613052972,0 34.47859422290656,35.64212178017098,0 34.47792249195602,35.64151420733274,0 34.47723416885685,35.64101927852808,0 34.47645308922315,35.64073220016428,0 34.47585407753125,35.6405120346535,0 34.47531035434193,35.64031622064027,0 34.47497565559237,35.64007633153645,0 34.47433328698523,35.63962345129287,0 34.4742081547167,35.63948867840114,0 34.47398770536277,35.63932238690048,0 34.47390217030974,35.63938973318797,0 34.47359067278082,35.639255534303,0 34.47322022199465,35.63907300870896,0 34.47286578856935,35.63884823618046,0 34.47265272113741,35.63873075656892,0 34.47242888753163,35.63867312592099,0 34.47206292792472,35.6386820148465,0 34.47165884526635,35.63858806430328,0 34.47129774008601,35.63847469563001,0 34.47106278481548,35.63833976855554,0 34.47094341468375,35.63825670592223,0 34.47080005229618,35.63812634457857,0 34.4701858912939,35.63800449807153,0 34.47010400379533,35.63797400307207,0 34.47008410804518,35.63796023711195,0 34.46995176075085,35.63786867279686,0 34.46934540058106,35.63767706023578,0 34.46936382684977,35.63702782050028,0 34.46923132397413,35.63698666793928,0 34.46890711522889,35.6369554762396,0 34.4686920849139,35.63687432874305,0 34.46847344502308,35.63681931027425,0 34.46818513156694,35.63678288435405,0 34.46784896610514,35.63661807392861,0 34.46734944298256,35.63635205859485,0 34.46710918276246,35.63604935621892,0 34.46698814322379,35.63597221388826,0 34.46679143914962,35.63591372302212,0 34.46638283336324,35.63585070039392,0 34.46613607991134,35.63578615587227,0 34.46581999826131,35.63562767419783,0 34.46556343662281,35.63543927901956,0 34.46540838317049,35.63535919365997,0 34.46501377540409,35.63536453063486,0 34.46474316377643,35.63530836114353,0 34.46464138984758,35.63531828590136,0 34.46451741810723,35.63524524668558,0 34.46444172961915,35.63512609151876,0 34.46770565897761,35.63570534853029,0 34.46925620413097,35.63596105589755,0 34.47640044119576,35.63717523017423,0 34.48044322447417,35.63786210197826,0 34.48387114151624,35.63844439114027,0 34.48403322443972,35.63850993159315,0 34.48456430585951,35.63859431075704,0 34.48461554762961,35.63846642294078,0 34.48474550719664,35.63838250832576,0 34.48482702169967,35.63839121594852,0 34.48500061590615,35.63844919059645,0 34.48496975026041,35.63849556659987,0 34.48498858470804,35.63853333492114,0 34.48518678700032,35.63857074520347,0 34.485119565268,35.63874080080853,0 34.48539791897717,35.63902953012791,0 34.48600606998975,35.63882448693228,0 34.4862651303248,35.63893314409405,0 34.48628453020794,35.63900885620518,0 34.48618847190704,35.63913852795262,0 34.48638118799403,35.6392532415327,0 34.48652393731021,35.63969234901163,0 34.48693296962894,35.63972231777633,0 34.48720769006246,35.63965598962282,0 34.4874759085632,35.63971034431286,0 34.48758168554969,35.63978658356063,0 34.48771006361002,35.6399303712948,0 34.48783208330991,35.63998205921604,0 34.48776642588653,35.64003419023206,0 34.48769165473747,35.64003219482621,0 34.48750442061273,35.64017358427971,0 34.48735777414176,35.64036337583998,0 34.4872091188547,35.64064128135451,0 34.48714532261427,35.64081808109493,0 34.48714829770556,35.64101728196868,0 34.4870607246845,35.64115907213529,0 34.4870636817982,35.64124578299922,0 34.4870012430743,35.64129110559292,0 34.48689961081931,35.64160379810822,0 34.48686584747945,35.64190093274113,0 34.48727456514703,35.64202035335058,0 34.48730239349484,35.64199298075967,0 34.48862267141731,35.64248043926205,0 34.48949603596333,35.64279293240427,0 34.48981214888455,35.6429164420825,0 34.49100279979864,35.64338163190956,0 34.49342455935461,35.64429731553737,0 34.49515090522142,35.64496533939796,0 34.49514854057661,35.64497074911479,0 34.49513381891294,35.64500442439746,0 34.49557209127421,35.64509540854425,0 34.49689621929067,35.64532455286848,0 34.49999995423547,35.64591120821029,0 34.50319277611605,35.64649373916628,0 34.50584303784508,35.64697720866689,0 34.50571527251284,35.64722151044941,0 34.50568688737957,35.64732498419117,0 34.50537449699777,35.64790511693685,0 34.50589729589726,35.64803038599618,0 34.50590019782369,35.64723464778885,0 34.50605483654899,35.64711636676539,0 34.50620579137885,35.64686504959553,0 34.50634955986582,35.64668848549145,0 34.50646800860778,35.64670770049117,0 34.50656042856913,35.64709515130247,0 34.5065206806789,35.64754634948828,0 34.50673376967922,35.6475510644654,0 34.50681128175752,35.64761412969634,0 34.50693812383391,35.64818591514543,0 34.50684340758611,35.64830497144396,0 34.50691209637306,35.64855415013585,0 34.50727412094619,35.64850309853939,0 34.50719069659369,35.64816037113813,0 34.50717963309698,35.64797988231648,0 34.507076667828,35.64755587316629,0 34.5068761775338,35.64728489390541,0 34.5067569618544,35.64677685513905,0 34.50697423242877,35.6462899799017,0 34.50753040220916,35.64576449996753,0 34.50806417645001,35.64584620109137,0 34.508215207856,35.64592891709876,0 34.50828955560696,35.6460028754506,0 34.50828345786226,35.64603959676047,0 34.50821349266921,35.64603484758842,0 34.50813884221748,35.64605051134559,0 34.50803747363247,35.64616963476265,0 34.50805732386412,35.64627128109809,0 34.50798821891004,35.6465421704858,0 34.50793487735204,35.64664588785923,0 34.50796286123143,35.64673523419535,0 34.50786463548174,35.64684210553685,0 34.50778044136006,35.64699636534765,0 34.50777371146486,35.64710098603668,0 34.50779423457922,35.64713744879495,0 34.50812358037076,35.64723607828426,0 34.5081588540084,35.64725746070433,0 34.50814585898704,35.64738794226882,0 34.50818456324431,35.64741607969437,0 34.50822764065798,35.6474034393397,0 34.50839919694186,35.64719401381653,0 34.50848871976379,35.64717141426799,0 34.50863918827181,35.64710748584295,0 34.50888551383179,35.64710915623672,0 34.50899971552672,35.64717729386044,0 34.50919414648724,35.64737771873983,0 34.50932192910584,35.64746337608413,0 34.50952403096897,35.64751164420118,0 34.50974836528101,35.64759907376894,0 34.5098281311739,35.64759150640462,0 34.51027300539204,35.64762654065609,0 34.51046315006143,35.64765455600582,0 34.51065447491362,35.64775995838335,0 34.51081817556275,35.64790908233525,0 34.51103365548184,35.64817990818671,0 34.51103391620504,35.64830618704291,0 34.51118307699402,35.64848396727071,0 34.51123996565987,35.64872239554253,0 34.51117501604362,35.64915619025347,0 34.51092392282203,35.64938812280453,0 34.51059130137214,35.64951222260181,0 34.51036839079214,35.64973708990506,0 34.51029089680392,35.64989400257353,0 34.51022824393625,35.64993263371787,0 34.51014968428505,35.64991031768862,0 34.50981213024874,35.64981992055052,0 34.50974910452529,35.64983411477101,0</coordinates>
						</LinearRing>
					</outerBoundaryIs>
				</Polygon>
			</MultiGeometry>
		</Placemark>
	</Document>
</kml>