<?xml version='1.0' encoding='UTF-8'?>
<kml xmlns="http://www.opengis.net/kml/2.2">
	<Document>
		<name>STROVOLOS CHRYSELEOUSA</name>
		<Style id="PolyStyle60">
			<LabelStyle>
				<color>00000000</color>
				<scale>0.000000</scale>
			</LabelStyle>
			<LineStyle>
				<color>ffff7000</color>
				<width>2.000000</width>
			</LineStyle>
			<PolyStyle>
				<color>00828282</color>
				<outline>1</outline>
			</PolyStyle>
		</Style>
		<Placemark id="ID_60110">
			<name>STROVOLOS CHRYSELEOUSA</name>
			<snippet />
			<description>&lt;html xmlns:fo="http://www.w3.org/1999/XSL/Format" xmlns:msxsl="urn:schemas-microsoft-com:xslt"&gt;

&lt;head&gt;

&lt;META http-equiv="Content-Type" content="text/html"&gt;

&lt;meta http-equiv="content-type" content="text/html; charset=UTF-8"&gt;

&lt;/head&gt;

&lt;body style="margin:0px 0px 0px 0px;overflow:auto;background:#FFFFFF;"&gt;

&lt;table style="font-family:Arial,Verdana,Times;font-size:12px;text-align:left;width:100%;border-collapse:collapse;padding:3px 3px 3px 3px"&gt;

&lt;tr style="text-align:center;font-weight:bold;background:#9CBCE2"&gt;

&lt;td&gt;1&lt;/td&gt;

&lt;/tr&gt;

&lt;tr&gt;

&lt;td&gt;

&lt;table style="font-family:Arial,Verdana,Times;font-size:12px;text-align:left;width:100%;border-spacing:0px; padding:3px 3px 3px 3px"&gt;

&lt;tr&gt;

&lt;td&gt;DIST_CODE&lt;/td&gt;

&lt;td&gt;1&lt;/td&gt;

&lt;/tr&gt;

&lt;tr bgcolor="#D4E4F3"&gt;

&lt;td&gt;VIL_CODE&lt;/td&gt;

&lt;td&gt;12&lt;/td&gt;

&lt;/tr&gt;

&lt;tr&gt;

&lt;td&gt;QRTR_CODE&lt;/td&gt;

&lt;td&gt;1&lt;/td&gt;

&lt;/tr&gt;

&lt;tr bgcolor="#D4E4F3"&gt;

&lt;td&gt;QRTR_NM_E&lt;/td&gt;

&lt;td&gt;CHRYSELEOUSA&lt;/td&gt;

&lt;/tr&gt;

&lt;tr&gt;

&lt;td&gt;QRTR_NM_G&lt;/td&gt;

&lt;td&gt;ΧΡΥΣΕΛΕΟΥΣΑ&lt;/td&gt;

&lt;/tr&gt;

&lt;tr bgcolor="#D4E4F3"&gt;

&lt;td&gt;VIL_CCD&lt;/td&gt;

&lt;td&gt;1012&lt;/td&gt;

&lt;/tr&gt;

&lt;tr&gt;

&lt;td&gt;QRTR_CCD&lt;/td&gt;

&lt;td&gt;101201&lt;/td&gt;

&lt;/tr&gt;

&lt;/table&gt;

&lt;/td&gt;

&lt;/tr&gt;

&lt;/table&gt;

&lt;/body&gt;&lt;script type="text/javascript"&gt;

				function changeImage(attElement, nameElement) {

				document.getElementById('imageAttachment').src = attElement;

				document.getElementById('imageName').innerHTML = nameElement;}

			&lt;/script&gt;&lt;/html&gt;

</description>
			<styleUrl>#PolyStyle60</styleUrl>
			<MultiGeometry>
				<Polygon>
					<extrude>0</extrude>
					<altitudeMode>clampToGround</altitudeMode>
					<outerBoundaryIs>
						<LinearRing>
							<coordinates> 33.3197342717551,35.14782111145573,0 33.31970676019687,35.14773315680394,0 33.31959358364431,35.14762979601441,0 33.31952296719133,35.14746087485166,0 33.31939015794771,35.14735051937944,0 33.3193817548015,35.14712805764488,0 33.31903820406328,35.14685896049297,0 33.31895899301641,35.14683429484816,0 33.31889714119354,35.146706611874,0 33.31870682109411,35.14661050669363,0 33.31850045053287,35.1464882703065,0 33.31846458185003,35.14641588198341,0 33.31834432890785,35.14637192833361,0 33.31809444635288,35.14611690921599,0 33.31798173414569,35.14611320552247,0 33.31788830708005,35.14604400126646,0 33.31778186564238,35.14607048600158,0 33.31778338290857,35.14617877190038,0 33.31776717108288,35.14616509057608,0 33.31758435523422,35.14605532302777,0 33.3175696020711,35.14598686418576,0 33.31743822898771,35.14572503754978,0 33.31744973418146,35.14568257753294,0 33.31739899992025,35.14550842802701,0 33.31737524399117,35.14532130697688,0 33.31724846574027,35.1452272901408,0 33.31713352815074,35.14511241168928,0 33.31713014738881,35.14497219036791,0 33.31692372479422,35.14483881726618,0 33.31666339323542,35.1447343006534,0 33.31650606671174,35.14456994263656,0 33.31639201124493,35.14439863971297,0 33.31628661806953,35.14425881265468,0 33.31621460342865,35.14408052662581,0 33.31610066268577,35.14390620251341,0 33.31606851434094,35.14377935184674,0 33.31595900686198,35.14341962828069,0 33.31589229064975,35.14333019924758,0 33.31584938590213,35.14322827327354,0 33.31587113840202,35.14310582420199,0 33.31582959475037,35.14306644476266,0 33.31619425606996,35.14224792296956,0 33.31619288633382,35.14221864269037,0 33.31614952700164,35.14212879407497,0 33.31609838995212,35.14204984024711,0 33.3157159971859,35.14165890108706,0 33.31545192271925,35.14142427050497,0 33.31522632296494,35.14117953098764,0 33.31510519791625,35.1410332536352,0 33.31497062708001,35.14078578992071,0 33.31480935095352,35.14052958060697,0 33.31467240826954,35.14024675797204,0 33.31466481976603,35.14023755903267,0 33.31464998122379,35.14021956951039,0 33.31455601203636,35.14010564812322,0 33.31448281161713,35.14012497488211,0 33.31422880576223,35.13971918413684,0 33.31395961779611,35.13942496181221,0 33.31378064700123,35.13924900010525,0 33.3136941563413,35.13916311301849,0 33.31349920568228,35.13892119965079,0 33.31330399593788,35.13871962440219,0 33.31298311827318,35.13843029467407,0 33.31264877496785,35.13815119097958,0 33.31232566853681,35.13792844735063,0 33.31202798917957,35.1377500846619,0 33.31182816615215,35.13758822205523,0 33.31169532009272,35.13748601569132,0 33.31149570651843,35.13728891704275,0 33.31125834711683,35.13705541809701,0 33.31100363661601,35.136827509536,0 33.31083941002903,35.13671382044289,0 33.31070830075928,35.13666052496743,0 33.3106351745408,35.13662804106882,0 33.31058664552356,35.13655334627941,0 33.3105647445332,35.13650397756608,0 33.31055040508802,35.13647165393639,0 33.31049898823736,35.13626808567702,0 33.31035583967623,35.13584364622055,0 33.30965845036799,35.13550784106444,0 33.31066082561927,35.13408233194376,0 33.3114325052583,35.13443645627832,0 33.31178478686379,35.13391929957663,0 33.31193303545093,35.13371547852499,0 33.31260785741471,35.13294479290136,0 33.31268101005517,35.13299948705575,0 33.31272900674618,35.13296342695566,0 33.31309954100191,35.13325604662325,0 33.31326916738988,35.13335646002538,0 33.31381016765876,35.13361149440934,0 33.31407256640127,35.13375961838748,0 33.3143578763749,35.13396321783398,0 33.31466532507381,35.13415078985617,0 33.31514023466875,35.13438838811901,0 33.31567519726191,35.13461615153188,0 33.31608602076487,35.13490984504018,0 33.3167993804059,35.13537994902288,0 33.31739993956905,35.13586363992152,0 33.31739681033633,35.13591318562595,0 33.3175095363415,35.13598172959878,0 33.31759622715806,35.13562282873885,0 33.31758991939387,35.13546474095931,0 33.31761388715511,35.13535812057516,0 33.31764346284186,35.13514379304332,0 33.31773466516812,35.13486929933285,0 33.31778037461888,35.13479810474126,0 33.31777885871794,35.13473668078819,0 33.31771705254745,35.13456816864719,0 33.3173890456291,35.13416404290771,0 33.3172990103556,35.13409714033853,0 33.31662263556198,35.13384774583838,0 33.31646694475258,35.13377538038239,0 33.31625366358351,35.13368018463935,0 33.31625626288698,35.13355954933927,0 33.31646151718069,35.13334959138312,0 33.31666573397844,35.13342061047204,0 33.31685959904451,35.13356146366885,0 33.31695602905945,35.13363763791027,0 33.31702055372256,35.13362315936377,0 33.31705165747578,35.13358255630758,0 33.31712066970521,35.1334924670624,0 33.31763408331449,35.13377634734184,0 33.31767561080071,35.13379363828649,0 33.31776678272521,35.13381871879122,0 33.31796896578391,35.13387434233073,0 33.31824195926166,35.13393868818136,0 33.31876710219944,35.134067559055,0 33.31928798649179,35.13415212948473,0 33.31983104617805,35.13424358266182,0 33.32010393181829,35.13429987596174,0 33.32060977097939,35.13445304837724,0 33.32087457492006,35.13454868232652,0 33.32094997493605,35.13459744779417,0 33.32120644997183,35.13480895140452,0 33.32141005274136,35.1350087863128,0 33.32160051467368,35.13523690391118,0 33.32173603727004,35.13538689913793,0 33.3219617852757,35.13559459132269,0 33.32231532315331,35.13582644791823,0 33.32268132815356,35.13607632807847,0 33.32312238499988,35.13634775337783,0 33.32357070634764,35.13661408365974,0 33.32408791469374,35.13690100179131,0 33.32456937943386,35.13717409486704,0 33.32507200343797,35.13747417764272,0 33.32563595486447,35.13777780460985,0 33.32587526832563,35.13790074722709,0 33.32626422057735,35.13803058976159,0 33.32754754223191,35.13842968619761,0 33.33047151172245,35.13911835612391,0 33.33101011166035,35.13924520077914,0 33.33235780644942,35.13981091524536,0 33.33260988058362,35.13990067664412,0 33.33341842706859,35.14008249581803,0 33.33372720697648,35.14016853470967,0 33.33379127318165,35.14018638630131,0 33.33459519016747,35.14041038514361,0 33.335655102903,35.14082127409868,0 33.33700546404169,35.14122615246747,0 33.33868221995418,35.14172783751322,0 33.33899375909469,35.14188473692779,0 33.34097342985998,35.14354086846449,0 33.34097693841568,35.14354380346993,0 33.34192291732455,35.14303463248255,0 33.3425612974284,35.14262141556349,0 33.34269127999534,35.1425104848669,0 33.34291684732704,35.14232935016095,0 33.34331151346306,35.14202851583803,0 33.34348690466898,35.14193247658304,0 33.34377450599265,35.14181279954776,0 33.34425421153995,35.14158620096837,0 33.34461660339107,35.141352841033,0 33.34469759230514,35.14128743485878,0 33.34473198986991,35.14123003762505,0 33.34488424193228,35.14103774381331,0 33.34499723434477,35.14087361770325,0 33.34521691216394,35.14051932000027,0 33.34529943663504,35.14038622280066,0 33.34541490477325,35.14020797959516,0 33.34545634308587,35.14015369445031,0 33.34547013401451,35.14013562710404,0 33.34552174219007,35.14006801907293,0 33.34563594190632,35.13992403162736,0 33.34598091960508,35.13955554305396,0 33.34634180224772,35.13922433687858,0 33.34646085599306,35.13912770252991,0 33.34664738518448,35.13900190221693,0 33.3470400717662,35.13875333182035,0 33.34714205949719,35.13869007409882,0 33.3474278631112,35.13851280386937,0 33.34756026472225,35.13842599420838,0 33.34776156072681,35.13829401398179,0 33.34819546155352,35.13806786291134,0 33.34888778346367,35.1377521045949,0 33.34965033578383,35.13741268163289,0 33.35164000341981,35.13666684045989,0 33.35175157888079,35.13687939624315,0 33.35188958876796,35.13713852180498,0 33.35204655016063,35.13745524580273,0 33.35213328657271,35.13769480002775,0 33.35216027208501,35.13779982956329,0 33.35240143342315,35.13842460484476,0 33.35249787502974,35.13867445249159,0 33.35262257001774,35.1389850363059,0 33.35280974293445,35.13936322529017,0 33.35295292266304,35.1396234404808,0 33.35323827463615,35.1401132328148,0 33.35324875968368,35.14013123027862,0 33.35339600739714,35.14038397034496,0 33.35431410749881,35.14196569133635,0 33.35372356595627,35.14215449151397,0 33.35291827486893,35.14239441271606,0 33.35239293692913,35.1425389001334,0 33.35173752344269,35.14273662646613,0 33.35195141396564,35.14329025345598,0 33.35212117163602,35.14382569269501,0 33.35265386539956,35.14567681047427,0 33.35277237806174,35.14608862999558,0 33.35291462022911,35.14650541097649,0 33.35299005732627,35.14670625130916,0 33.35319842904668,35.14715849143341,0 33.35333018927489,35.14739274720815,0 33.35357177603775,35.14781584034704,0 33.35204071846179,35.14838301979194,0 33.35128813307188,35.1486635833588,0 33.35050612371951,35.14895413916648,0 33.35023238607165,35.14905028259605,0 33.34987266585196,35.14919764067302,0 33.34960255892239,35.1493129440758,0 33.34949785584497,35.14936236611754,0 33.3494920454534,35.14936510871053,0 33.34796730325199,35.15000467032577,0 33.34699643760228,35.15037027705282,0 33.34740080596469,35.15121619906608,0 33.34749448246014,35.15144833747738,0 33.3475526189104,35.15167635559664,0 33.34760302120106,35.15202636066487,0 33.34760291796177,35.15205963342923,0 33.34757975875989,35.15240945378178,0 33.34750972870656,35.15277376604188,0 33.34745664257944,35.15267281819917,0 33.34736187308171,35.15255826152045,0 33.34714931378223,35.15233751578046,0 33.3470701097229,35.15226552072983,0 33.34702613745364,35.1522334045091,0 33.34693960382995,35.15219333630952,0 33.346892496351,35.15217939222213,0 33.34678625375732,35.15216857216826,0 33.34659642962175,35.15215716184772,0 33.34652901403758,35.1521531090787,0 33.34637870890989,35.15247438849164,0 33.34636383974421,35.15249873904433,0 33.34632901986978,35.15253863447236,0 33.34623834414155,35.15262834402027,0 33.34616161559689,35.15269733824893,0 33.34607515954478,35.15277410143358,0 33.34602475200763,35.15282505639839,0 33.34595751226951,35.15290078479705,0 33.34588988422659,35.15298255905258,0 33.34573727422477,35.15319788108331,0 33.34556019158247,35.1534811724444,0 33.3454797976068,35.15362352718086,0 33.34535443838961,35.1538175727949,0 33.34527341373877,35.15395187337832,0 33.34522270590531,35.15404271308472,0 33.34519473886936,35.1541083109919,0 33.34516246575254,35.1541816155054,0 33.34515061004992,35.15420915097823,0 33.34513637306269,35.15427056512263,0 33.34513324769385,35.15428886071722,0 33.34512920014334,35.15431255651878,0 33.34511862552875,35.15438642207599,0 33.34511447065364,35.15443200776772,0 33.34511496483241,35.15449003395215,0 33.34511956608255,35.15455768800346,0 33.34514753836395,35.15469520965604,0 33.34516543649839,35.15479093506454,0 33.34517606936551,35.15483636234671,0 33.34519702086573,35.15490868052336,0 33.34524113613357,35.15503838608944,0 33.3453087435194,35.15524443540961,0 33.34537839986702,35.15545451530961,0 33.34544688796507,35.15571140094626,0 33.34551147379007,35.15594134401972,0 33.34556990698314,35.15615726440326,0 33.345638780321,35.1563775321618,0 33.34567886873427,35.15647188532814,0 33.34568553565872,35.15648673759014,0 33.34573506620345,35.15655738584275,0 33.34579430268656,35.15662855171968,0 33.34588012201131,35.15674989378189,0 33.34607233581137,35.1569387279559,0 33.3461944914425,35.15704093295088,0 33.34639214017295,35.15715634384092,0 33.34680713267102,35.15735547006454,0 33.34719405322144,35.15752155970615,0 33.34757796856865,35.15773192081989,0 33.34795617607815,35.15808324523211,0 33.34816333342042,35.1582977211695,0 33.34819117475868,35.15848800126352,0 33.34820415076307,35.15871213193064,0 33.34823085042603,35.15887012177213,0 33.34840018419042,35.15923068839523,0 33.34854857468827,35.15950297614125,0 33.34873171971179,35.15976515723223,0 33.3490098213827,35.16004513937003,0 33.34913666245705,35.16018256799896,0 33.3495839065305,35.1607146700423,0 33.34966133029775,35.16082347796177,0 33.34970806509251,35.16092525336966,0 33.34973267858306,35.16099478740124,0 33.3499912710849,35.16189672793632,0 33.34829202345377,35.16212363842212,0 33.34810923801908,35.16213484443381,0 33.3479424178002,35.16215712396816,0 33.34746406015595,35.16221084195161,0 33.3473144242226,35.16222403842372,0 33.34702986300748,35.16222926080275,0 33.3469697653809,35.16223232191542,0 33.34694033962905,35.1622424171148,0 33.34692321217091,35.16227970743108,0 33.34770894276347,35.16291498950062,0 33.34794342482176,35.16308613449502,0 33.34836335099104,35.16344659478234,0 33.34863967137736,35.16372653671758,0 33.34917032742276,35.16437307659887,0 33.34932635762949,35.1645885990142,0 33.34942954249918,35.16471448181166,0 33.34961378814819,35.1649259617125,0 33.34979192026172,35.16515658393095,0 33.34983367848923,35.16519988548546,0 33.34992210190291,35.16528447237229,0 33.3497161034467,35.16541852725317,0 33.34962937405535,35.16546556553585,0 33.34953081709923,35.16535153377245,0 33.34931691415438,35.1650545064923,0 33.34928000005901,35.16497595875755,0 33.34852991811034,35.16414710407813,0 33.34830308416458,35.16411124982545,0 33.34792102861215,35.16400358586151,0 33.34815571980158,35.163791266992,0 33.34757057543582,35.16332118426218,0 33.34739962419577,35.16346527451739,0 33.34674008872777,35.16289057562982,0 33.34649326825498,35.16269937592128,0 33.34619381823988,35.16256766695324,0 33.34600724672934,35.16246507547909,0 33.34583540026362,35.1623654947175,0 33.34567088951995,35.16225079616014,0 33.34546330664264,35.1620424441287,0 33.34530240125895,35.16188140110133,0 33.34509235606251,35.16166499422805,0 33.34488605435556,35.16148485490661,0 33.34480256306161,35.16141844225058,0 33.34465401665728,35.16130978128849,0 33.3445658369218,35.16136628929065,0 33.34449478140033,35.1613986009734,0 33.34437817005062,35.16132013314568,0 33.34426117998843,35.16119028566361,0 33.34414861855296,35.16103655735282,0 33.34394894165595,35.16067420870758,0 33.34351235375254,35.1601841030813,0 33.34340484787128,35.16010202812021,0 33.34333943807115,35.15993738824017,0 33.34306189132169,35.1596588652386,0 33.34293727471989,35.15958227013073,0 33.34250100680823,35.15958305803797,0 33.34208225329382,35.15942963048333,0 33.3419333960893,35.15932260665084,0 33.34184954083978,35.15922817566972,0 33.34165323853576,35.15894934260272,0 33.34150042699012,35.15874750671294,0 33.34134564466023,35.15849726473766,0 33.34114475719562,35.15831527651407,0 33.3411570965626,35.15793621878398,0 33.34111037114682,35.1578168969352,0 33.34083313514805,35.15753458464041,0 33.33896764557623,35.1581672108958,0 33.33786106233294,35.15856938273405,0 33.33748322400635,35.15818855894866,0 33.33734561279044,35.15784583900077,0 33.33558097660284,35.15679803486035,0 33.33328127815587,35.15543881448914,0 33.33233594735405,35.15511590937729,0 33.33150220073364,35.1548099741461,0 33.33101306343848,35.15451180239978,0 33.33053256106578,35.15421885395047,0 33.33038112084922,35.1541265237412,0 33.33019528561233,35.15401964113105,0 33.33008404142213,35.15395450710778,0 33.33000589271057,35.15389864208235,0 33.3298362055024,35.15377273415094,0 33.32965798978712,35.15363973172698,0 33.32948833729387,35.15351182299871,0 33.32934326662367,35.15338306299598,0 33.32917993471876,35.15323607473777,0 33.3290300523651,35.15309722813589,0 33.32886573656472,35.15293428282486,0 33.32849520057557,35.15247876298093,0 33.32829878765536,35.15237366111886,0 33.32820568723791,35.15237090266118,0 33.32814693935967,35.15238213548198,0 33.32811029398477,35.15240638774282,0 33.32834274690212,35.1529343409785,0 33.32848546520919,35.15333967888553,0 33.3286052735961,35.15369581631118,0 33.32861956915074,35.15374825975876,0 33.32865349728029,35.15380283674959,0 33.32866324607235,35.1538119577141,0 33.32869255884766,35.15383126641285,0 33.32871893381253,35.15390794997929,0 33.32831060669336,35.15397796732306,0 33.32806598950778,35.15400567911635,0 33.32778945817471,35.15403319642373,0 33.32730155055991,35.15408358491864,0 33.32683461392225,35.15412704891854,0 33.32653477408127,35.15415944692356,0 33.32621892991977,35.15419879290424,0 33.32577268741679,35.1542725688714,0 33.32531792076912,35.15434226020602,0 33.32448826576459,35.15448110476567,0 33.32435680112044,35.15449841391114,0 33.32421436603914,35.1545076009085,0 33.32412972340207,35.15450406041929,0 33.32339519700786,35.15444820105012,0 33.32320372162008,35.15445607820664,0 33.32248033606278,35.15440431558741,0 33.32249757011973,35.1542595048431,0 33.32206854147721,35.15422365435664,0 33.32192642958046,35.15420366038046,0 33.32189136401717,35.15442181397771,0 33.32052502972117,35.15429061465,0 33.32038139070428,35.15417301386894,0 33.32030852448032,35.15382343975745,0 33.32029793734477,35.15363825520895,0 33.32029947489485,35.1534682398191,0 33.32032069369555,35.15329130552666,0 33.32038847595148,35.15311767523445,0 33.32043723949746,35.15301334529055,0 33.32043786499343,35.15293493982303,0 33.32038741541097,35.15262007071392,0 33.32042498112724,35.15253545606244,0 33.3204309296585,35.15249821519309,0 33.32042217356755,35.15245900398851,0 33.32035046966205,35.15231433310834,0 33.32027559859151,35.1520167407285,0 33.32028152304466,35.15197446740716,0 33.32030213294247,35.15193013883221,0 33.32034845046226,35.1518837258556,0 33.32032053760432,35.15167653789312,0 33.32024985752998,35.15148959033586,0 33.32020394193749,35.15136092946537,0 33.32010672657616,35.1512615914673,0 33.32009519941791,35.15115395861444,0 33.32002622155617,35.15106963179114,0 33.32001727637433,35.15099016358633,0 33.31992229955291,35.15084654000856,0 33.31990948585612,35.15046619891281,0 33.31988438611319,35.15033746130333,0 33.31974388833206,35.14989104014751,0 33.31973370537594,35.1498095506249,0 33.31984369863734,35.14975992305298,0 33.31987278749092,35.14969543034933,0 33.31989762092843,35.1495071576711,0 33.31990055065531,35.14934913704216,0 33.31982419543203,35.14900010698756,0 33.31957807720891,35.14901389607586,0 33.31955716777514,35.14873615832801,0 33.31968825878263,35.14874383501017,0 33.31976635011829,35.14868120602625,0 33.31980637457606,35.14859754772269,0 33.3198061471471,35.14854923412283,0 33.31961343719068,35.14851973043303,0 33.319537284958,35.14852672964233,0 33.31951390725762,35.14836907492762,0 33.31961291264318,35.14835048653499,0 33.31955518510748,35.14805773116875,0 33.31976698135744,35.14803598409942,0 33.3197863510636,35.1479876097638,0 33.3197342717551,35.14782111145573,0</coordinates>
						</LinearRing>
					</outerBoundaryIs>
				</Polygon>
			</MultiGeometry>
		</Placemark>
	</Document>
</kml>